{"type":"FeatureCollection","features":[{"type":"Feature","properties":{"kecamatan":"Saronggi","kab_kota":"Sumenep"},"geometry":{"type":"Polygon","coordinates":[[[113.83576,-7.11887,0.0],[113.81898,-7.11127,0.0],[113.81917,-7.10868,0.0],[113.82297,-7.10589,0.0],[113.82269,-7.10431,0.0],[113.81253,-7.10064,0.0],[113.81633,-7.08957,0.0],[113.8055,-7.08635,0.0],[113.80189,-7.08367,0.0],[113.79781,-7.08337,0.0],[113.79221,-7.08617,0.0],[113.79123,-7.08867,0.0],[113.78483,-7.08797,0.0],[113.78657,-7.08149,0.0],[113.78122,-7.07892,0.0],[113.78826,-7.06438,0.0],[113.78878,-7.05885,0.0],[113.79088,-7.05521,0.0],[113.79108,-7.04984,0.0],[113.78783,-7.04831,0.0],[113.78973,-7.04637,0.0],[113.80685,-7.04767,0.0],[113.80866,-7.04684,0.0],[113.81883,-7.04991,0.0],[113.82163,-7.05206,0.0],[113.8247,-7.05214,0.0],[113.82628,-7.04957,0.0],[113.82814,-7.03695,0.0],[113.83192,-7.04164,0.0],[113.83395,-7.03876,0.0],[113.83962,-7.04747,0.0],[113.84722,-7.05274,0.0],[113.85319,-7.05098,0.0],[113.85925,-7.05345,0.0],[113.86386,-7.04988,0.0],[113.86576,-7.05389,0.0],[113.86473,-7.05545,0.0],[113.86608,-7.05567,0.0],[113.86451,-7.0575,0.0],[113.8708,-7.06081,0.0],[113.86921,-7.063,0.0],[113.86173,-7.06409,0.0],[113.8556,-7.07162,0.0],[113.85558,-7.07385,0.0],[113.86293,-7.07662,0.0],[113.85937,-7.08785,0.0],[113.85922,-7.09223,0.0],[113.86964,-7.09425,0.0],[113.86879,-7.09622,0.0],[113.87184,-7.0971,0.0],[113.87582,-7.10052,0.0],[113.87944,-7.10197,0.0],[113.88395,-7.10182,0.0],[113.88536,-7.10462,0.0],[113.88802,-7.10447,0.0],[113.88766,-7.10644,0.0],[113.89001,-7.11173,0.0],[113.88869,-7.11572,0.0],[113.89215,-7.12143,0.0],[113.89483,-7.12274,0.0],[113.89287,-7.12442,0.0],[113.89203,-7.12835,0.0],[113.89329,-7.13148,0.0],[113.88866,-7.13367,0.0],[113.8643,-7.13436,0.0],[113.86031,-7.13351,0.0],[113.85704,-7.13455,0.0],[113.83485,-7.13292,0.0],[113.83556,-7.12498,0.0],[113.83783,-7.12261,0.0],[113.83576,-7.11887,0.0]]]}},{"type":"Feature","properties":{"kecamatan":"Lenteng","kab_kota":"Sumenep"},"geometry":{"type":"Polygon","coordinates":[[[113.75074,-7.08405,0.0],[113.73948,-7.09267,0.0],[113.73422,-7.08949,0.0],[113.72961,-7.08147,0.0],[113.73204,-7.07913,0.0],[113.73446,-7.07379,0.0],[113.73269,-7.07079,0.0],[113.73289,-7.06791,0.0],[113.73848,-7.05314,0.0],[113.73925,-7.04315,0.0],[113.73182,-7.04186,0.0],[113.73032,-7.04204,0.0],[113.73001,-7.04476,0.0],[113.72628,-7.044,0.0],[113.72449,-7.04089,0.0],[113.72189,-7.03955,0.0],[113.72264,-7.03682,0.0],[113.72152,-7.03238,0.0],[113.71788,-7.03302,0.0],[113.7155,-7.0299,0.0],[113.71708,-7.02373,0.0],[113.72197,-7.0204,0.0],[113.72463,-7.02108,0.0],[113.72719,-7.0158,0.0],[113.73031,-7.01595,0.0],[113.73128,-7.01392,0.0],[113.7307,-7.01154,0.0],[113.73351,-7.00351,0.0],[113.7287,-6.99804,0.0],[113.72837,-6.99508,0.0],[113.73466,-6.99639,0.0],[113.73966,-6.99548,0.0],[113.74285,-6.99772,0.0],[113.7484,-6.99764,0.0],[113.75774,-6.99988,0.0],[113.77729,-7.00039,0.0],[113.78267,-7.0036,0.0],[113.79945,-7.00173,0.0],[113.80095,-7.00779,0.0],[113.80478,-7.01106,0.0],[113.80852,-7.01821,0.0],[113.80841,-7.02828,0.0],[113.81534,-7.02993,0.0],[113.81564,-7.02601,0.0],[113.81972,-7.02576,0.0],[113.82462,-7.02822,0.0],[113.82725,-7.02816,0.0],[113.83395,-7.03876,0.0],[113.83192,-7.04164,0.0],[113.82803,-7.03698,0.0],[113.82628,-7.04957,0.0],[113.82416,-7.05224,0.0],[113.80866,-7.04684,0.0],[113.80685,-7.04767,0.0],[113.78973,-7.04637,0.0],[113.78783,-7.04831,0.0],[113.79108,-7.04984,0.0],[113.79088,-7.05521,0.0],[113.78264,-7.07754,0.0],[113.78168,-7.07802,0.0],[113.77936,-7.07493,0.0],[113.77279,-7.07093,0.0],[113.77035,-7.06595,0.0],[113.76488,-7.06535,0.0],[113.76201,-7.07061,0.0],[113.75074,-7.08405,0.0]],[[113.72883,-6.99717,0.0],[113.72875,-6.99719,0.0],[113.72885,-6.9972,0.0],[113.72883,-6.99717,0.0]]]}},{"type":"Feature","properties":{"kecamatan":"Talango","kab_kota":"Sumenep"},"geometry":{"type":"MultiPolygon","coordinates":[[[[114.0456,-7.20607,0.0],[114.04529,-7.2026,0.0],[114.04708,-7.20143,0.0],[114.04797,-7.2033,0.0],[114.0456,-7.20607,0.0]]],[[[114.05995,-7.0959,0.0],[114.06483,-7.10484,0.0],[114.06387,-7.10773,0.0],[114.06458,-7.11051,0.0],[114.0523,-7.11275,0.0],[114.04333,-7.11272,0.0],[114.01237,-7.10513,0.0],[114.00751,-7.10632,0.0],[113.98466,-7.10572,0.0],[113.97605,-7.10018,0.0],[113.97133,-7.09961,0.0],[113.96974,-7.09762,0.0],[113.96047,-7.09635,0.0],[113.95782,-7.09279,0.0],[113.94911,-7.08837,0.0],[113.94493,-7.08791,0.0],[113.94124,-7.08946,0.0],[113.942,-7.08388,0.0],[113.93655,-7.07481,0.0],[113.93627,-7.06873,0.0],[113.94052,-7.06203,0.0],[113.94598,-7.05908,0.0],[113.9471,-7.05654,0.0],[113.95127,-7.05524,0.0],[113.95405,-7.06097,0.0],[113.9592,-7.06558,0.0],[113.96801,-7.06997,0.0],[113.97849,-7.0725,0.0],[114.0103,-7.07137,0.0],[114.01413,-7.06969,0.0],[114.03863,-7.07372,0.0],[114.04704,-7.07379,0.0],[114.0504,-7.07514,0.0],[114.05395,-7.07892,0.0],[114.05995,-7.0959,0.0]]]]}},{"type":"Feature","properties":{"kecamatan":"Bluto","kab_kota":"Sumenep"},"geometry":{"type":"Polygon","coordinates":[[[113.76926,-7.12168,0.0],[113.75142,-7.11915,0.0],[113.7518,-7.11804,0.0],[113.75034,-7.11697,0.0],[113.7462,-7.11577,0.0],[113.724,-7.11617,0.0],[113.71998,-7.11353,0.0],[113.71296,-7.11238,0.0],[113.7146,-7.10346,0.0],[113.71978,-7.09755,0.0],[113.72305,-7.09695,0.0],[113.72403,-7.09486,0.0],[113.7252,-7.08593,0.0],[113.72372,-7.07854,0.0],[113.72843,-7.0802,0.0],[113.73346,-7.08878,0.0],[113.73952,-7.09266,0.0],[113.7455,-7.08927,0.0],[113.75074,-7.08405,0.0],[113.76201,-7.07061,0.0],[113.76438,-7.06557,0.0],[113.76906,-7.06534,0.0],[113.77108,-7.06673,0.0],[113.77279,-7.07093,0.0],[113.78016,-7.0756,0.0],[113.78128,-7.07932,0.0],[113.78657,-7.08149,0.0],[113.78516,-7.08821,0.0],[113.79123,-7.08867,0.0],[113.79221,-7.08617,0.0],[113.79781,-7.08337,0.0],[113.80189,-7.08367,0.0],[113.8055,-7.08635,0.0],[113.81633,-7.08957,0.0],[113.81245,-7.10019,0.0],[113.82285,-7.10454,0.0],[113.82261,-7.10632,0.0],[113.81917,-7.10868,0.0],[113.81898,-7.11127,0.0],[113.8355,-7.1187,0.0],[113.83783,-7.12261,0.0],[113.83556,-7.12498,0.0],[113.83426,-7.13285,0.0],[113.82289,-7.13353,0.0],[113.81572,-7.13305,0.0],[113.81121,-7.12844,0.0],[113.79958,-7.12678,0.0],[113.79655,-7.12493,0.0],[113.78513,-7.12537,0.0],[113.78168,-7.12375,0.0],[113.77057,-7.12335,0.0],[113.76926,-7.12168,0.0]]]}},{"type":"Feature","properties":{"kecamatan":"Giliginting","kab_kota":"Sumenep"},"geometry":{"type":"MultiPolygon","coordinates":[[[[113.66403,-7.25202,0.0],[113.66554,-7.25,0.0],[113.66741,-7.24859,0.0],[113.66403,-7.25202,0.0]]],[[[113.72491,-7.24796,0.0],[113.72853,-7.25123,0.0],[113.72528,-7.2516,0.0],[113.72403,-7.24921,0.0],[113.72491,-7.24796,0.0]]],[[[113.69778,-7.24189,0.0],[113.69774,-7.2415,0.0],[113.69798,-7.2419,0.0],[113.69778,-7.24189,0.0]]],[[[113.67348,-7.2382,0.0],[113.67429,-7.23952,0.0],[113.67398,-7.23972,0.0],[113.67348,-7.2382,0.0]]],[[[113.79292,-7.23589,0.0],[113.78056,-7.22893,0.0],[113.77282,-7.22804,0.0],[113.75945,-7.21834,0.0],[113.75569,-7.21766,0.0],[113.7496,-7.21884,0.0],[113.74934,-7.21691,0.0],[113.75448,-7.2064,0.0],[113.76736,-7.21001,0.0],[113.77028,-7.20919,0.0],[113.77434,-7.21017,0.0],[113.77544,-7.20915,0.0],[113.78063,-7.21006,0.0],[113.78688,-7.21229,0.0],[113.79257,-7.21623,0.0],[113.79565,-7.21618,0.0],[113.79994,-7.21375,0.0],[113.80169,-7.21475,0.0],[113.80381,-7.21404,0.0],[113.80983,-7.21592,0.0],[113.812,-7.21865,0.0],[113.81118,-7.22178,0.0],[113.80468,-7.22463,0.0],[113.79778,-7.22998,0.0],[113.79625,-7.23561,0.0],[113.79292,-7.23589,0.0]]],[[[113.92675,-7.17502,0.0],[113.93297,-7.19169,0.0],[113.93323,-7.19068,0.0],[113.93731,-7.1946,0.0],[113.94018,-7.19954,0.0],[113.94112,-7.20344,0.0],[113.93941,-7.21445,0.0],[113.94388,-7.22007,0.0],[113.94821,-7.22083,0.0],[113.95415,-7.22476,0.0],[113.95408,-7.22795,0.0],[113.95605,-7.23063,0.0],[113.95463,-7.23225,0.0],[113.94701,-7.2297,0.0],[113.94368,-7.22508,0.0],[113.9416,-7.21911,0.0],[113.93642,-7.21362,0.0],[113.93608,-7.20933,0.0],[113.92948,-7.2037,0.0],[113.92347,-7.20286,0.0],[113.90875,-7.20995,0.0],[113.90453,-7.21031,0.0],[113.90254,-7.20904,0.0],[113.89067,-7.21214,0.0],[113.88658,-7.21148,0.0],[113.88113,-7.20306,0.0],[113.88091,-7.19985,0.0],[113.88327,-7.1935,0.0],[113.88822,-7.18959,0.0],[113.89714,-7.18411,0.0],[113.90178,-7.18366,0.0],[113.90548,-7.18117,0.0],[113.90874,-7.18188,0.0],[113.91367,-7.18001,0.0],[113.92102,-7.17591,0.0],[113.92239,-7.17399,0.0],[113.92675,-7.17502,0.0]]]]}},{"type":"Feature","properties":{"kecamatan":"Guluk-Guluk","kab_kota":"Sumenep"},"geometry":{"type":"Polygon","coordinates":[[[113.63962,-7.07145,0.0],[113.61851,-7.06456,0.0],[113.60321,-7.06468,0.0],[113.59928,-7.06261,0.0],[113.59127,-7.06136,0.0],[113.59698,-7.05242,0.0],[113.60086,-7.04913,0.0],[113.60191,-7.0459,0.0],[113.60583,-7.04408,0.0],[113.60373,-7.04144,0.0],[113.60006,-7.04216,0.0],[113.59816,-7.03896,0.0],[113.59233,-7.03869,0.0],[113.59174,-7.03996,0.0],[113.58833,-7.0397,0.0],[113.58654,-7.0422,0.0],[113.5837,-7.04178,0.0],[113.58222,-7.04357,0.0],[113.57824,-7.04117,0.0],[113.57864,-7.0381,0.0],[113.57624,-7.0314,0.0],[113.57932,-7.02533,0.0],[113.57781,-7.02245,0.0],[113.57914,-7.0222,0.0],[113.5804,-7.01836,0.0],[113.58656,-7.01845,0.0],[113.5878,-7.01758,0.0],[113.58714,-7.01661,0.0],[113.5923,-7.01656,0.0],[113.59123,-7.01199,0.0],[113.5922,-7.00948,0.0],[113.61178,-7.01136,0.0],[113.61599,-7.0106,0.0],[113.62305,-7.0147,0.0],[113.6281,-7.01415,0.0],[113.63854,-7.01669,0.0],[113.64061,-7.01046,0.0],[113.65667,-7.01094,0.0],[113.66559,-7.01256,0.0],[113.66474,-7.01708,0.0],[113.66703,-7.01667,0.0],[113.66807,-7.03151,0.0],[113.67363,-7.03533,0.0],[113.67975,-7.03706,0.0],[113.67922,-7.04138,0.0],[113.68207,-7.04285,0.0],[113.68496,-7.04229,0.0],[113.68995,-7.04901,0.0],[113.68817,-7.05488,0.0],[113.68887,-7.05679,0.0],[113.68477,-7.06224,0.0],[113.68531,-7.06974,0.0],[113.68367,-7.07545,0.0],[113.68017,-7.07496,0.0],[113.67656,-7.07857,0.0],[113.65696,-7.07237,0.0],[113.64812,-7.07624,0.0],[113.6466,-7.08037,0.0],[113.64534,-7.08066,0.0],[113.64517,-7.07542,0.0],[113.63962,-7.07145,0.0]]]}},{"type":"Feature","properties":{"kecamatan":"Kalianget","kab_kota":"Sumenep"},"geometry":{"type":"Polygon","coordinates":[[[113.88462,-7.06904,0.0],[113.87564,-7.08088,0.0],[113.87194,-7.09127,0.0],[113.86964,-7.09425,0.0],[113.85954,-7.09272,0.0],[113.85937,-7.08785,0.0],[113.86293,-7.07662,0.0],[113.85558,-7.07385,0.0],[113.8556,-7.07162,0.0],[113.86173,-7.06409,0.0],[113.86921,-7.063,0.0],[113.8708,-7.06081,0.0],[113.86451,-7.0575,0.0],[113.86608,-7.05567,0.0],[113.86473,-7.05545,0.0],[113.86576,-7.05389,0.0],[113.86386,-7.04988,0.0],[113.86535,-7.05029,0.0],[113.86561,-7.04828,0.0],[113.86905,-7.04918,0.0],[113.8765,-7.0373,0.0],[113.88381,-7.03193,0.0],[113.88418,-7.0294,0.0],[113.88976,-7.03176,0.0],[113.89724,-7.03792,0.0],[113.90124,-7.0323,0.0],[113.89168,-7.02527,0.0],[113.89295,-7.02325,0.0],[113.89659,-7.02379,0.0],[113.89828,-7.02045,0.0],[113.90552,-7.02261,0.0],[113.90931,-7.02109,0.0],[113.91064,-7.01747,0.0],[113.91155,-7.01945,0.0],[113.9133,-7.01924,0.0],[113.91057,-7.02047,0.0],[113.91356,-7.02118,0.0],[113.91322,-7.02314,0.0],[113.91735,-7.02264,0.0],[113.91752,-7.02494,0.0],[113.92067,-7.02255,0.0],[113.92279,-7.02394,0.0],[113.92016,-7.03035,0.0],[113.9229,-7.03055,0.0],[113.93028,-7.03676,0.0],[113.93412,-7.03747,0.0],[113.94713,-7.04485,0.0],[113.9467,-7.04619,0.0],[113.94848,-7.04926,0.0],[113.94779,-7.05254,0.0],[113.94376,-7.05702,0.0],[113.9411,-7.05729,0.0],[113.94144,-7.05644,0.0],[113.93502,-7.0531,0.0],[113.92812,-7.0468,0.0],[113.9207,-7.04288,0.0],[113.92028,-7.04423,0.0],[113.91565,-7.04315,0.0],[113.90672,-7.04754,0.0],[113.88462,-7.06904,0.0]]]}},{"type":"Feature","properties":{"kecamatan":"Manding","kab_kota":"Sumenep"},"geometry":{"type":"Polygon","coordinates":[[[113.85064,-6.98573,0.0],[113.84593,-6.99043,0.0],[113.84079,-6.99224,0.0],[113.83758,-6.99256,0.0],[113.83632,-6.99148,0.0],[113.83317,-6.99328,0.0],[113.8276,-6.99247,0.0],[113.82895,-6.98965,0.0],[113.82728,-6.97779,0.0],[113.82902,-6.96967,0.0],[113.83113,-6.96785,0.0],[113.833,-6.96345,0.0],[113.83096,-6.96017,0.0],[113.83167,-6.95873,0.0],[113.83047,-6.95881,0.0],[113.83086,-6.95599,0.0],[113.83521,-6.95413,0.0],[113.84114,-6.95556,0.0],[113.8419,-6.9533,0.0],[113.84078,-6.94839,0.0],[113.83813,-6.94692,0.0],[113.83665,-6.94292,0.0],[113.83343,-6.94193,0.0],[113.83225,-6.93835,0.0],[113.83459,-6.93103,0.0],[113.83446,-6.92583,0.0],[113.83785,-6.92576,0.0],[113.84099,-6.92788,0.0],[113.84283,-6.92562,0.0],[113.8457,-6.927,0.0],[113.84636,-6.93,0.0],[113.8531,-6.93716,0.0],[113.85811,-6.93543,0.0],[113.86343,-6.93756,0.0],[113.86501,-6.93653,0.0],[113.86403,-6.93283,0.0],[113.86625,-6.92952,0.0],[113.87098,-6.92764,0.0],[113.87117,-6.92289,0.0],[113.87671,-6.91185,0.0],[113.87994,-6.91207,0.0],[113.8805,-6.91405,0.0],[113.88626,-6.9145,0.0],[113.88547,-6.92014,0.0],[113.88096,-6.92481,0.0],[113.87919,-6.93191,0.0],[113.87566,-6.93473,0.0],[113.87645,-6.9388,0.0],[113.87916,-6.94184,0.0],[113.88558,-6.94457,0.0],[113.88809,-6.94142,0.0],[113.89183,-6.92819,0.0],[113.89795,-6.92899,0.0],[113.89959,-6.93051,0.0],[113.90016,-6.92682,0.0],[113.90241,-6.92405,0.0],[113.9043,-6.92314,0.0],[113.90625,-6.92385,0.0],[113.90882,-6.92569,0.0],[113.90959,-6.92904,0.0],[113.91248,-6.93118,0.0],[113.91031,-6.93739,0.0],[113.91423,-6.93515,0.0],[113.91801,-6.93711,0.0],[113.92133,-6.93554,0.0],[113.92181,-6.93701,0.0],[113.92539,-6.93854,0.0],[113.92636,-6.93751,0.0],[113.9298,-6.93806,0.0],[113.92958,-6.94261,0.0],[113.93207,-6.9434,0.0],[113.93088,-6.95099,0.0],[113.92898,-6.95343,0.0],[113.92951,-6.95561,0.0],[113.92694,-6.96089,0.0],[113.92997,-6.96363,0.0],[113.93557,-6.96455,0.0],[113.94155,-6.96795,0.0],[113.94076,-6.97066,0.0],[113.94162,-6.97154,0.0],[113.93628,-6.97315,0.0],[113.93597,-6.97914,0.0],[113.93335,-6.9821,0.0],[113.92588,-6.98123,0.0],[113.92079,-6.97918,0.0],[113.91729,-6.98451,0.0],[113.91086,-6.98398,0.0],[113.90931,-6.9852,0.0],[113.9,-6.98104,0.0],[113.89728,-6.98248,0.0],[113.89394,-6.98152,0.0],[113.88085,-6.98474,0.0],[113.87605,-6.98446,0.0],[113.87381,-6.98199,0.0],[113.86942,-6.98406,0.0],[113.86423,-6.98273,0.0],[113.85927,-6.98734,0.0],[113.85259,-6.98792,0.0],[113.85221,-6.98617,0.0],[113.85064,-6.98573,0.0]]]}},{"type":"Feature","properties":{"kecamatan":"Kota Sumenep","kab_kota":"Sumenep"},"geometry":{"type":"Polygon","coordinates":[[[113.87118,-7.03231,0.0],[113.86403,-7.03072,0.0],[113.86345,-7.02953,0.0],[113.86231,-7.03017,0.0],[113.86138,-7.02885,0.0],[113.8582,-7.02869,0.0],[113.85834,-7.02685,0.0],[113.85494,-7.02582,0.0],[113.85671,-7.0223,0.0],[113.85349,-7.02204,0.0],[113.85375,-7.01668,0.0],[113.85034,-7.01457,0.0],[113.84792,-7.01463,0.0],[113.84927,-7.0105,0.0],[113.84557,-7.01037,0.0],[113.84472,-7.00925,0.0],[113.84591,-7.00307,0.0],[113.8417,-7.00037,0.0],[113.84072,-6.99224,0.0],[113.84593,-6.99043,0.0],[113.85066,-6.98545,0.0],[113.85259,-6.98792,0.0],[113.85927,-6.98734,0.0],[113.86423,-6.98273,0.0],[113.86942,-6.98406,0.0],[113.87381,-6.98199,0.0],[113.87605,-6.98446,0.0],[113.88085,-6.98474,0.0],[113.88488,-6.98305,0.0],[113.89213,-6.98242,0.0],[113.89047,-6.98602,0.0],[113.89169,-6.98883,0.0],[113.89466,-6.99192,0.0],[113.89492,-6.99058,0.0],[113.89993,-6.99185,0.0],[113.90029,-6.99303,0.0],[113.89878,-6.99375,0.0],[113.90038,-6.99471,0.0],[113.90212,-7.00092,0.0],[113.89946,-7.01583,0.0],[113.89728,-7.01983,0.0],[113.89796,-7.02202,0.0],[113.89659,-7.02379,0.0],[113.89295,-7.02325,0.0],[113.89168,-7.02527,0.0],[113.90124,-7.0323,0.0],[113.89724,-7.03792,0.0],[113.88976,-7.03176,0.0],[113.88418,-7.0294,0.0],[113.88381,-7.03193,0.0],[113.88099,-7.03447,0.0],[113.87686,-7.03432,0.0],[113.87577,-7.0368,0.0],[113.87118,-7.03231,0.0]]]}},{"type":"Feature","properties":{"kecamatan":"Batuputih","kab_kota":"Sumenep"},"geometry":{"type":"Polygon","coordinates":[[[113.91415,-6.93519,0.0],[113.90996,-6.93715,0.0],[113.91237,-6.9309,0.0],[113.90959,-6.92904,0.0],[113.90882,-6.92569,0.0],[113.9038,-6.92317,0.0],[113.90016,-6.92682,0.0],[113.89959,-6.93051,0.0],[113.89795,-6.92899,0.0],[113.89183,-6.92819,0.0],[113.88809,-6.94142,0.0],[113.88558,-6.94457,0.0],[113.87947,-6.94206,0.0],[113.87645,-6.9388,0.0],[113.87566,-6.93473,0.0],[113.87919,-6.93191,0.0],[113.88096,-6.92481,0.0],[113.88547,-6.92014,0.0],[113.88626,-6.9145,0.0],[113.8805,-6.91405,0.0],[113.87947,-6.91183,0.0],[113.87671,-6.91185,0.0],[113.87117,-6.92289,0.0],[113.87041,-6.92837,0.0],[113.86812,-6.92856,0.0],[113.8665,-6.92719,0.0],[113.8625,-6.91495,0.0],[113.85488,-6.9053,0.0],[113.85387,-6.89918,0.0],[113.85199,-6.89862,0.0],[113.85512,-6.89662,0.0],[113.85614,-6.88853,0.0],[113.86129,-6.8818,0.0],[113.86259,-6.87763,0.0],[113.86548,-6.87486,0.0],[113.86655,-6.87569,0.0],[113.868,-6.87487,0.0],[113.86908,-6.87185,0.0],[113.87555,-6.8684,0.0],[113.88572,-6.86589,0.0],[113.89171,-6.86657,0.0],[113.90829,-6.86336,0.0],[113.9171,-6.86434,0.0],[113.92163,-6.86616,0.0],[113.92399,-6.86538,0.0],[113.92946,-6.86721,0.0],[113.93467,-6.8669,0.0],[113.94091,-6.86912,0.0],[113.94247,-6.86822,0.0],[113.94645,-6.86983,0.0],[113.94953,-6.8694,0.0],[113.95439,-6.8718,0.0],[113.96729,-6.87309,0.0],[113.97013,-6.87525,0.0],[113.9765,-6.87719,0.0],[113.98025,-6.8806,0.0],[114.0006,-6.88676,0.0],[114.01502,-6.89475,0.0],[114.01313,-6.89886,0.0],[114.01445,-6.8999,0.0],[114.01437,-6.90205,0.0],[114.01316,-6.90207,0.0],[114.00813,-6.91143,0.0],[114.00405,-6.91595,0.0],[114.00331,-6.91879,0.0],[114.00524,-6.92193,0.0],[114.00414,-6.92452,0.0],[113.99887,-6.92466,0.0],[113.99738,-6.92322,0.0],[113.99426,-6.92467,0.0],[113.99163,-6.92325,0.0],[113.99138,-6.92139,0.0],[113.9873,-6.92167,0.0],[113.98358,-6.91795,0.0],[113.98047,-6.92145,0.0],[113.97703,-6.92209,0.0],[113.97662,-6.92585,0.0],[113.96843,-6.92992,0.0],[113.96581,-6.92821,0.0],[113.95369,-6.92732,0.0],[113.95144,-6.93285,0.0],[113.95447,-6.93514,0.0],[113.95299,-6.93947,0.0],[113.95424,-6.94336,0.0],[113.95289,-6.94705,0.0],[113.94951,-6.95084,0.0],[113.94879,-6.95523,0.0],[113.95092,-6.95741,0.0],[113.94831,-6.95902,0.0],[113.94953,-6.96135,0.0],[113.9519,-6.96192,0.0],[113.95189,-6.96528,0.0],[113.94648,-6.96516,0.0],[113.94407,-6.96733,0.0],[113.94219,-6.97207,0.0],[113.94076,-6.97066,0.0],[113.94136,-6.96761,0.0],[113.94018,-6.96804,0.0],[113.93882,-6.96599,0.0],[113.93557,-6.96455,0.0],[113.92997,-6.96363,0.0],[113.92694,-6.96089,0.0],[113.92951,-6.95561,0.0],[113.92898,-6.95343,0.0],[113.93088,-6.95099,0.0],[113.93207,-6.9434,0.0],[113.92958,-6.94261,0.0],[113.9298,-6.93806,0.0],[113.92636,-6.93751,0.0],[113.92539,-6.93854,0.0],[113.92181,-6.93701,0.0],[113.92133,-6.93554,0.0],[113.91801,-6.93711,0.0],[113.91415,-6.93519,0.0]]]}},{"type":"Feature","properties":{"kecamatan":"Dungkek","kab_kota":"Sumenep"},"geometry":{"type":"MultiPolygon","coordinates":[[[[114.0598,-7.00305,0.0],[114.03566,-7.00918,0.0],[114.02604,-7.00714,0.0],[114.02819,-6.99453,0.0],[114.02565,-6.98922,0.0],[114.03337,-6.97369,0.0],[114.03326,-6.97162,0.0],[114.03256,-6.97225,0.0],[114.03206,-6.97126,0.0],[114.03297,-6.96886,0.0],[114.03232,-6.96535,0.0],[114.02986,-6.96386,0.0],[114.03207,-6.96304,0.0],[114.03378,-6.95976,0.0],[114.0361,-6.95928,0.0],[114.03683,-6.95609,0.0],[114.0447,-6.95822,0.0],[114.05247,-6.94208,0.0],[114.0678,-6.94652,0.0],[114.06953,-6.9459,0.0],[114.07504,-6.93452,0.0],[114.08167,-6.93532,0.0],[114.08418,-6.93028,0.0],[114.08731,-6.92719,0.0],[114.09805,-6.93344,0.0],[114.10611,-6.94101,0.0],[114.11227,-6.95208,0.0],[114.11985,-6.97026,0.0],[114.12464,-6.97749,0.0],[114.12048,-6.98051,0.0],[114.11319,-6.98247,0.0],[114.11102,-6.98063,0.0],[114.10534,-6.97957,0.0],[114.09273,-6.98005,0.0],[114.06731,-6.99827,0.0],[114.0598,-7.00305,0.0]]],[[[114.18432,-6.9875,0.0],[114.18302,-6.99557,0.0],[114.18376,-6.99856,0.0],[114.18257,-7.00234,0.0],[114.18055,-7.00431,0.0],[114.1777,-7.00511,0.0],[114.16654,-7.00231,0.0],[114.16138,-6.99904,0.0],[114.167,-6.97376,0.0],[114.17101,-6.96648,0.0],[114.17775,-6.96488,0.0],[114.18248,-6.96729,0.0],[114.1864,-6.97148,0.0],[114.18714,-6.98004,0.0],[114.18432,-6.9875,0.0]]]]}},{"type":"Feature","properties":{"kecamatan":"Rubaru","kab_kota":"Sumenep"},"geometry":{"type":"Polygon","coordinates":[[[113.77879,-7.00126,0.0],[113.77161,-6.99959,0.0],[113.75774,-6.99988,0.0],[113.7484,-6.99764,0.0],[113.74285,-6.99772,0.0],[113.73966,-6.99548,0.0],[113.73466,-6.99639,0.0],[113.7285,-6.99492,0.0],[113.72775,-6.99744,0.0],[113.71774,-6.99587,0.0],[113.71528,-6.99675,0.0],[113.71541,-6.99801,0.0],[113.70924,-6.99822,0.0],[113.70693,-6.99672,0.0],[113.70675,-6.98981,0.0],[113.70271,-6.99136,0.0],[113.69852,-6.98694,0.0],[113.69879,-6.98141,0.0],[113.70236,-6.97996,0.0],[113.70541,-6.9756,0.0],[113.70602,-6.97665,0.0],[113.70696,-6.97582,0.0],[113.70584,-6.96903,0.0],[113.70924,-6.96576,0.0],[113.7096,-6.9626,0.0],[113.71101,-6.96217,0.0],[113.71167,-6.9594,0.0],[113.71068,-6.95842,0.0],[113.71176,-6.95724,0.0],[113.7107,-6.95617,0.0],[113.71319,-6.95475,0.0],[113.71529,-6.95532,0.0],[113.71665,-6.95327,0.0],[113.7148,-6.94458,0.0],[113.71614,-6.94129,0.0],[113.71829,-6.93974,0.0],[113.71781,-6.93594,0.0],[113.72025,-6.92982,0.0],[113.72482,-6.93226,0.0],[113.73269,-6.93322,0.0],[113.73378,-6.93654,0.0],[113.74111,-6.93918,0.0],[113.74343,-6.93837,0.0],[113.75596,-6.94263,0.0],[113.76066,-6.941,0.0],[113.76357,-6.9381,0.0],[113.76525,-6.93229,0.0],[113.7693,-6.93351,0.0],[113.77129,-6.93237,0.0],[113.77583,-6.93328,0.0],[113.77714,-6.9402,0.0],[113.78017,-6.93958,0.0],[113.78577,-6.94128,0.0],[113.78899,-6.94485,0.0],[113.78896,-6.94653,0.0],[113.79099,-6.94836,0.0],[113.79042,-6.95064,0.0],[113.79241,-6.95117,0.0],[113.79209,-6.95389,0.0],[113.79346,-6.95433,0.0],[113.79356,-6.95649,0.0],[113.79634,-6.95858,0.0],[113.8003,-6.95817,0.0],[113.80555,-6.96268,0.0],[113.80825,-6.96317,0.0],[113.80919,-6.96241,0.0],[113.80807,-6.95952,0.0],[113.81329,-6.96192,0.0],[113.81584,-6.95919,0.0],[113.81503,-6.9584,0.0],[113.81788,-6.95686,0.0],[113.81494,-6.95355,0.0],[113.81378,-6.94991,0.0],[113.81113,-6.94783,0.0],[113.81243,-6.94359,0.0],[113.81436,-6.94273,0.0],[113.82444,-6.9469,0.0],[113.82516,-6.95683,0.0],[113.83167,-6.95873,0.0],[113.83096,-6.96017,0.0],[113.833,-6.96345,0.0],[113.83113,-6.96785,0.0],[113.82902,-6.96967,0.0],[113.82728,-6.97779,0.0],[113.82895,-6.98965,0.0],[113.82774,-6.99284,0.0],[113.81711,-6.9942,0.0],[113.81682,-7.00045,0.0],[113.81331,-7.00246,0.0],[113.79945,-7.00173,0.0],[113.78267,-7.0036,0.0],[113.77879,-7.00126,0.0]]]}},{"type":"Feature","properties":{"kecamatan":"Batang Batang","kab_kota":"Sumenep"},"geometry":{"type":"Polygon","coordinates":[[[114.02259,-6.98664,0.0],[114.00407,-6.98451,0.0],[114.0035,-6.98314,0.0],[114.00608,-6.98033,0.0],[114.00492,-6.97896,0.0],[114.00621,-6.97767,0.0],[114.00539,-6.97567,0.0],[114.00202,-6.97574,0.0],[113.99286,-6.98032,0.0],[113.97744,-6.97651,0.0],[113.97426,-6.96979,0.0],[113.96953,-6.97184,0.0],[113.96533,-6.97156,0.0],[113.96174,-6.9736,0.0],[113.95811,-6.96823,0.0],[113.95248,-6.96711,0.0],[113.9519,-6.96192,0.0],[113.94953,-6.96135,0.0],[113.94831,-6.95902,0.0],[113.95092,-6.95741,0.0],[113.94879,-6.95523,0.0],[113.94951,-6.95084,0.0],[113.95289,-6.94705,0.0],[113.95424,-6.94336,0.0],[113.95299,-6.93947,0.0],[113.95447,-6.93514,0.0],[113.95144,-6.93285,0.0],[113.95369,-6.92732,0.0],[113.96581,-6.92821,0.0],[113.96843,-6.92992,0.0],[113.97662,-6.92585,0.0],[113.97703,-6.92209,0.0],[113.98047,-6.92145,0.0],[113.98358,-6.91795,0.0],[113.9873,-6.92167,0.0],[113.99138,-6.92139,0.0],[113.99163,-6.92325,0.0],[113.99426,-6.92467,0.0],[113.99738,-6.92322,0.0],[113.99887,-6.92466,0.0],[114.00414,-6.92452,0.0],[114.00524,-6.92193,0.0],[114.00331,-6.91879,0.0],[114.00405,-6.91595,0.0],[114.00813,-6.91143,0.0],[114.01316,-6.90207,0.0],[114.01437,-6.90205,0.0],[114.01445,-6.8999,0.0],[114.01313,-6.89886,0.0],[114.01502,-6.89475,0.0],[114.02177,-6.89898,0.0],[114.05977,-6.91618,0.0],[114.08731,-6.92719,0.0],[114.08418,-6.93028,0.0],[114.08167,-6.93532,0.0],[114.07504,-6.93452,0.0],[114.06953,-6.9459,0.0],[114.0678,-6.94652,0.0],[114.05247,-6.94208,0.0],[114.0447,-6.95822,0.0],[114.03683,-6.95609,0.0],[114.0361,-6.95928,0.0],[114.03378,-6.95976,0.0],[114.03207,-6.96304,0.0],[114.02986,-6.96386,0.0],[114.03232,-6.96535,0.0],[114.03297,-6.96886,0.0],[114.03206,-6.97126,0.0],[114.03256,-6.97225,0.0],[114.03326,-6.97162,0.0],[114.03337,-6.97369,0.0],[114.02565,-6.98922,0.0],[114.02259,-6.98664,0.0]]]}},{"type":"Feature","properties":{"kecamatan":"Gapura","kab_kota":"Sumenep"},"geometry":{"type":"Polygon","coordinates":[[[113.9105,-7.01742,0.0],[113.90931,-7.02109,0.0],[113.90552,-7.02261,0.0],[113.89728,-7.01983,0.0],[113.89946,-7.01583,0.0],[113.90204,-6.99972,0.0],[113.90038,-6.99471,0.0],[113.89878,-6.99375,0.0],[113.90029,-6.99303,0.0],[113.89993,-6.99185,0.0],[113.89492,-6.99058,0.0],[113.89466,-6.99192,0.0],[113.89169,-6.98883,0.0],[113.89047,-6.98602,0.0],[113.89171,-6.9851,0.0],[113.89176,-6.98272,0.0],[113.89394,-6.98152,0.0],[113.89714,-6.9825,0.0],[113.90182,-6.98115,0.0],[113.90931,-6.9852,0.0],[113.91086,-6.98398,0.0],[113.91729,-6.98451,0.0],[113.92079,-6.97918,0.0],[113.92588,-6.98123,0.0],[113.93335,-6.9821,0.0],[113.93597,-6.97914,0.0],[113.93656,-6.97275,0.0],[113.94234,-6.972,0.0],[113.94407,-6.96733,0.0],[113.94754,-6.9648,0.0],[113.95058,-6.96475,0.0],[113.95252,-6.96715,0.0],[113.95811,-6.96823,0.0],[113.96174,-6.9736,0.0],[113.96533,-6.97156,0.0],[113.96953,-6.97184,0.0],[113.97426,-6.96979,0.0],[113.97744,-6.97651,0.0],[113.98656,-6.97827,0.0],[113.98661,-6.97925,0.0],[113.99296,-6.98032,0.0],[114.00202,-6.97574,0.0],[114.00539,-6.97567,0.0],[114.00621,-6.97767,0.0],[114.00492,-6.97896,0.0],[114.00608,-6.98033,0.0],[114.0035,-6.98314,0.0],[114.00407,-6.98451,0.0],[114.02354,-6.98692,0.0],[114.02696,-6.99014,0.0],[114.02806,-6.9934,0.0],[114.02604,-7.00714,0.0],[114.02067,-7.00607,0.0],[114.0151,-7.00725,0.0],[114.01219,-7.00539,0.0],[114.00197,-7.00549,0.0],[113.99859,-7.00626,0.0],[113.99502,-7.00976,0.0],[113.99495,-7.00733,0.0],[113.98895,-7.00828,0.0],[113.97577,-7.02107,0.0],[113.9661,-7.0379,0.0],[113.96171,-7.04069,0.0],[113.96001,-7.03842,0.0],[113.95677,-7.04036,0.0],[113.952,-7.04117,0.0],[113.94933,-7.04026,0.0],[113.94676,-7.04186,0.0],[113.95037,-7.0347,0.0],[113.94902,-7.03401,0.0],[113.9447,-7.03846,0.0],[113.93883,-7.03535,0.0],[113.93816,-7.03312,0.0],[113.94172,-7.03069,0.0],[113.94097,-7.03005,0.0],[113.94205,-7.02744,0.0],[113.93878,-7.02446,0.0],[113.93966,-7.02317,0.0],[113.93614,-7.0229,0.0],[113.93648,-7.02144,0.0],[113.93322,-7.02146,0.0],[113.93281,-7.02033,0.0],[113.93249,-7.02129,0.0],[113.92953,-7.02143,0.0],[113.9236,-7.01817,0.0],[113.92234,-7.0197,0.0],[113.92407,-7.02172,0.0],[113.92245,-7.02365,0.0],[113.92036,-7.02262,0.0],[113.91752,-7.02494,0.0],[113.91747,-7.02275,0.0],[113.91322,-7.02314,0.0],[113.91356,-7.02118,0.0],[113.91057,-7.02047,0.0],[113.91319,-7.01907,0.0],[113.91155,-7.01945,0.0],[113.9105,-7.01742,0.0]]]}},{"type":"Feature","properties":{"kecamatan":"Ganding","kab_kota":"Sumenep"},"geometry":{"type":"MultiPolygon","coordinates":[[[[113.69601,-7.07881,0.0],[113.69085,-7.0799,0.0],[113.68757,-7.07901,0.0],[113.68686,-7.07669,0.0],[113.68367,-7.07545,0.0],[113.68531,-7.06974,0.0],[113.68477,-7.06224,0.0],[113.68887,-7.05679,0.0],[113.68817,-7.05488,0.0],[113.68995,-7.04901,0.0],[113.68496,-7.04229,0.0],[113.68207,-7.04285,0.0],[113.67922,-7.04138,0.0],[113.67975,-7.03706,0.0],[113.67363,-7.03533,0.0],[113.66807,-7.03151,0.0],[113.6665,-7.01437,0.0],[113.66921,-7.01066,0.0],[113.66805,-7.00709,0.0],[113.67325,-6.99952,0.0],[113.67464,-6.9988,0.0],[113.67598,-7.00003,0.0],[113.68375,-6.99571,0.0],[113.68713,-6.99589,0.0],[113.69439,-6.99297,0.0],[113.70011,-6.99285,0.0],[113.70395,-6.99021,0.0],[113.70675,-6.98981,0.0],[113.70621,-6.99285,0.0],[113.70809,-6.99798,0.0],[113.71541,-6.99801,0.0],[113.71528,-6.99675,0.0],[113.71774,-6.99587,0.0],[113.72835,-6.99729,0.0],[113.73295,-7.00189,0.0],[113.7336,-7.00494,0.0],[113.7307,-7.01154,0.0],[113.73139,-7.01323,0.0],[113.73031,-7.01595,0.0],[113.72719,-7.0158,0.0],[113.72463,-7.02108,0.0],[113.72197,-7.0204,0.0],[113.71708,-7.02373,0.0],[113.7155,-7.0299,0.0],[113.71788,-7.03302,0.0],[113.72152,-7.03238,0.0],[113.72264,-7.03682,0.0],[113.72189,-7.03955,0.0],[113.72449,-7.04089,0.0],[113.72628,-7.044,0.0],[113.72899,-7.04508,0.0],[113.73022,-7.04455,0.0],[113.73032,-7.04204,0.0],[113.73729,-7.04234,0.0],[113.73925,-7.04315,0.0],[113.73828,-7.04579,0.0],[113.73963,-7.04726,0.0],[113.7369,-7.05874,0.0],[113.73289,-7.06791,0.0],[113.73269,-7.07079,0.0],[113.73446,-7.07379,0.0],[113.73204,-7.07913,0.0],[113.72961,-7.08147,0.0],[113.72544,-7.07862,0.0],[113.71839,-7.07892,0.0],[113.71359,-7.07663,0.0],[113.70886,-7.0786,0.0],[113.69801,-7.07971,0.0],[113.69601,-7.07881,0.0]]],[[[113.72875,-6.99719,0.0],[113.72883,-6.99717,0.0],[113.72885,-6.9972,0.0],[113.72875,-6.99719,0.0]]]]}},{"type":"Feature","properties":{"kecamatan":"Pasongsongan","kab_kota":"Sumenep"},"geometry":{"type":"Polygon","coordinates":[[[113.67123,-7.00176,0.0],[113.67018,-7.00521,0.0],[113.66805,-7.00709,0.0],[113.66921,-7.01066,0.0],[113.6665,-7.01437,0.0],[113.66703,-7.01667,0.0],[113.66474,-7.01708,0.0],[113.66559,-7.01256,0.0],[113.65667,-7.01094,0.0],[113.64061,-7.01046,0.0],[113.63854,-7.01669,0.0],[113.6281,-7.01415,0.0],[113.62181,-7.01429,0.0],[113.61683,-7.01101,0.0],[113.61868,-7.01003,0.0],[113.61901,-7.00827,0.0],[113.61479,-7.00687,0.0],[113.61506,-7.00483,0.0],[113.61138,-7.00406,0.0],[113.6092,-7.00044,0.0],[113.60979,-6.99795,0.0],[113.60839,-6.99646,0.0],[113.61051,-6.9955,0.0],[113.60916,-6.99294,0.0],[113.61236,-6.98103,0.0],[113.61002,-6.97874,0.0],[113.60843,-6.97372,0.0],[113.61265,-6.96729,0.0],[113.6204,-6.96509,0.0],[113.6265,-6.96484,0.0],[113.62625,-6.96289,0.0],[113.62329,-6.96086,0.0],[113.62534,-6.95682,0.0],[113.62396,-6.95448,0.0],[113.62537,-6.94846,0.0],[113.6316,-6.9387,0.0],[113.63847,-6.93898,0.0],[113.63729,-6.93612,0.0],[113.63931,-6.93107,0.0],[113.63879,-6.92976,0.0],[113.64008,-6.9277,0.0],[113.64287,-6.92732,0.0],[113.64416,-6.9251,0.0],[113.64701,-6.92444,0.0],[113.64972,-6.91965,0.0],[113.64903,-6.91761,0.0],[113.64313,-6.9159,0.0],[113.63561,-6.91717,0.0],[113.63655,-6.91593,0.0],[113.63655,-6.90691,0.0],[113.63901,-6.90073,0.0],[113.64179,-6.89743,0.0],[113.64253,-6.88758,0.0],[113.65366,-6.8871,0.0],[113.6546,-6.88512,0.0],[113.65665,-6.88717,0.0],[113.65714,-6.8861,0.0],[113.66844,-6.88348,0.0],[113.68272,-6.88214,0.0],[113.69216,-6.88388,0.0],[113.69668,-6.88353,0.0],[113.70156,-6.88497,0.0],[113.69976,-6.88929,0.0],[113.7002,-6.89651,0.0],[113.69276,-6.90904,0.0],[113.69407,-6.90998,0.0],[113.69398,-6.91178,0.0],[113.69878,-6.91496,0.0],[113.70329,-6.91579,0.0],[113.70799,-6.91443,0.0],[113.71056,-6.91541,0.0],[113.7158,-6.9192,0.0],[113.71935,-6.91978,0.0],[113.7207,-6.92279,0.0],[113.72118,-6.92585,0.0],[113.71781,-6.93594,0.0],[113.71829,-6.93974,0.0],[113.71614,-6.94129,0.0],[113.7148,-6.94458,0.0],[113.71665,-6.95327,0.0],[113.71529,-6.95532,0.0],[113.71319,-6.95475,0.0],[113.7107,-6.95617,0.0],[113.71176,-6.95724,0.0],[113.71068,-6.95842,0.0],[113.71167,-6.9594,0.0],[113.71101,-6.96217,0.0],[113.7096,-6.9626,0.0],[113.70924,-6.96576,0.0],[113.70584,-6.96903,0.0],[113.70696,-6.97582,0.0],[113.70602,-6.97665,0.0],[113.70541,-6.9756,0.0],[113.70236,-6.97996,0.0],[113.6998,-6.98029,0.0],[113.69841,-6.98231,0.0],[113.69929,-6.98301,0.0],[113.6983,-6.98381,0.0],[113.69852,-6.98694,0.0],[113.70274,-6.99133,0.0],[113.69981,-6.99291,0.0],[113.68947,-6.99417,0.0],[113.68685,-6.99596,0.0],[113.68375,-6.99571,0.0],[113.67598,-7.00003,0.0],[113.67464,-6.9988,0.0],[113.67123,-7.00176,0.0]]]}},{"type":"Feature","properties":{"kecamatan":"Dasuk","kab_kota":"Sumenep"},"geometry":{"type":"Polygon","coordinates":[[[113.78422,-6.94099,0.0],[113.78017,-6.93958,0.0],[113.77714,-6.9402,0.0],[113.77581,-6.93316,0.0],[113.77723,-6.92463,0.0],[113.78304,-6.92265,0.0],[113.78533,-6.91682,0.0],[113.78754,-6.91573,0.0],[113.7867,-6.91397,0.0],[113.78943,-6.90954,0.0],[113.78956,-6.90435,0.0],[113.78594,-6.90171,0.0],[113.78481,-6.89761,0.0],[113.78627,-6.88493,0.0],[113.79573,-6.88586,0.0],[113.8114,-6.88163,0.0],[113.83224,-6.87815,0.0],[113.8535,-6.87232,0.0],[113.86754,-6.87109,0.0],[113.86908,-6.87185,0.0],[113.868,-6.87487,0.0],[113.86655,-6.87569,0.0],[113.86548,-6.87486,0.0],[113.86259,-6.87763,0.0],[113.86129,-6.8818,0.0],[113.85614,-6.88853,0.0],[113.85512,-6.89662,0.0],[113.85199,-6.89862,0.0],[113.85387,-6.89918,0.0],[113.85488,-6.9053,0.0],[113.8625,-6.91495,0.0],[113.86643,-6.92706,0.0],[113.86812,-6.92856,0.0],[113.86403,-6.93283,0.0],[113.86478,-6.93673,0.0],[113.86306,-6.93755,0.0],[113.85811,-6.93543,0.0],[113.8531,-6.93716,0.0],[113.84636,-6.93,0.0],[113.8457,-6.927,0.0],[113.84283,-6.92562,0.0],[113.84099,-6.92788,0.0],[113.83785,-6.92576,0.0],[113.83486,-6.92552,0.0],[113.83459,-6.93103,0.0],[113.83225,-6.93835,0.0],[113.83343,-6.94193,0.0],[113.83665,-6.94292,0.0],[113.83813,-6.94692,0.0],[113.84155,-6.94981,0.0],[113.84129,-6.95547,0.0],[113.83335,-6.95444,0.0],[113.83094,-6.9558,0.0],[113.83062,-6.95837,0.0],[113.8277,-6.95829,0.0],[113.82516,-6.95683,0.0],[113.82444,-6.9469,0.0],[113.81356,-6.94275,0.0],[113.81113,-6.94783,0.0],[113.81378,-6.94991,0.0],[113.81494,-6.95355,0.0],[113.81788,-6.95686,0.0],[113.81503,-6.9584,0.0],[113.81584,-6.95919,0.0],[113.81329,-6.96192,0.0],[113.80807,-6.95952,0.0],[113.80919,-6.96241,0.0],[113.80825,-6.96317,0.0],[113.80555,-6.96268,0.0],[113.8003,-6.95817,0.0],[113.79634,-6.95858,0.0],[113.79356,-6.95649,0.0],[113.79346,-6.95433,0.0],[113.79209,-6.95389,0.0],[113.79241,-6.95117,0.0],[113.79042,-6.95064,0.0],[113.79099,-6.94836,0.0],[113.78896,-6.94653,0.0],[113.78899,-6.94485,0.0],[113.78422,-6.94099,0.0]]]}},{"type":"Feature","properties":{"kecamatan":"Pragaan","kab_kota":"Sumenep"},"geometry":{"type":"Polygon","coordinates":[[[113.6381,-7.12325,0.0],[113.62146,-7.12442,0.0],[113.62043,-7.12589,0.0],[113.61042,-7.1256,0.0],[113.60756,-7.12673,0.0],[113.6071,-7.12583,0.0],[113.60199,-7.12839,0.0],[113.60169,-7.12468,0.0],[113.6055,-7.12131,0.0],[113.60644,-7.11807,0.0],[113.6106,-7.11282,0.0],[113.61144,-7.10558,0.0],[113.61708,-7.10352,0.0],[113.62269,-7.10403,0.0],[113.62305,-7.09721,0.0],[113.62263,-7.09367,0.0],[113.62163,-7.09333,0.0],[113.6212,-7.08484,0.0],[113.61371,-7.07968,0.0],[113.61336,-7.07765,0.0],[113.60775,-7.07046,0.0],[113.60071,-7.0659,0.0],[113.60016,-7.06327,0.0],[113.60688,-7.06511,0.0],[113.61916,-7.06468,0.0],[113.6351,-7.07068,0.0],[113.63843,-7.07088,0.0],[113.64498,-7.07513,0.0],[113.64566,-7.08073,0.0],[113.64812,-7.07624,0.0],[113.65696,-7.07237,0.0],[113.66019,-7.07255,0.0],[113.66501,-7.0756,0.0],[113.67608,-7.0786,0.0],[113.6803,-7.0749,0.0],[113.68621,-7.07623,0.0],[113.68757,-7.07901,0.0],[113.69085,-7.0799,0.0],[113.70886,-7.0786,0.0],[113.71359,-7.07663,0.0],[113.71839,-7.07892,0.0],[113.72372,-7.07854,0.0],[113.7252,-7.08593,0.0],[113.72403,-7.09486,0.0],[113.72305,-7.09695,0.0],[113.71978,-7.09755,0.0],[113.7146,-7.10346,0.0],[113.71296,-7.11238,0.0],[113.69463,-7.11026,0.0],[113.69302,-7.11118,0.0],[113.68902,-7.1094,0.0],[113.68555,-7.11005,0.0],[113.68407,-7.10861,0.0],[113.67773,-7.10907,0.0],[113.67149,-7.11142,0.0],[113.66994,-7.11543,0.0],[113.66623,-7.11524,0.0],[113.66222,-7.11793,0.0],[113.6576,-7.12297,0.0],[113.6579,-7.12423,0.0],[113.65446,-7.126,0.0],[113.65382,-7.12769,0.0],[113.64792,-7.12681,0.0],[113.64407,-7.12966,0.0],[113.6381,-7.12325,0.0]]]}},{"type":"Feature","properties":{"kecamatan":"Ambunten","kab_kota":"Sumenep"},"geometry":{"type":"Polygon","coordinates":[[[113.73332,-6.93377,0.0],[113.72482,-6.93226,0.0],[113.72042,-6.93009,0.0],[113.72124,-6.92558,0.0],[113.71935,-6.91978,0.0],[113.7158,-6.9192,0.0],[113.70799,-6.91443,0.0],[113.70263,-6.91578,0.0],[113.69723,-6.91438,0.0],[113.69398,-6.91178,0.0],[113.69407,-6.90998,0.0],[113.69276,-6.90904,0.0],[113.7002,-6.89651,0.0],[113.69976,-6.88929,0.0],[113.70156,-6.88497,0.0],[113.73057,-6.88758,0.0],[113.73574,-6.88664,0.0],[113.7391,-6.88442,0.0],[113.74474,-6.88412,0.0],[113.76304,-6.88598,0.0],[113.77283,-6.8831,0.0],[113.77443,-6.88416,0.0],[113.78627,-6.88493,0.0],[113.78481,-6.89761,0.0],[113.78594,-6.90171,0.0],[113.78956,-6.90435,0.0],[113.78943,-6.90954,0.0],[113.7867,-6.91397,0.0],[113.78754,-6.91573,0.0],[113.78533,-6.91682,0.0],[113.78304,-6.92265,0.0],[113.77723,-6.92463,0.0],[113.77581,-6.93316,0.0],[113.7767,-6.93381,0.0],[113.76525,-6.93229,0.0],[113.76357,-6.9381,0.0],[113.76066,-6.941,0.0],[113.75596,-6.94263,0.0],[113.73378,-6.93654,0.0],[113.73332,-6.93377,0.0]]]}},{"type":"Feature","properties":{"kecamatan":"Batuan","kab_kota":"Sumenep"},"geometry":{"type":"Polygon","coordinates":[[[113.86628,-7.03177,0.0],[113.87141,-7.0325,0.0],[113.8747,-7.03666,0.0],[113.87577,-7.0368,0.0],[113.87686,-7.03432,0.0],[113.88017,-7.03416,0.0],[113.8765,-7.0373,0.0],[113.86905,-7.04918,0.0],[113.86546,-7.0483,0.0],[113.86535,-7.05029,0.0],[113.86373,-7.04989,0.0],[113.85925,-7.05345,0.0],[113.85319,-7.05098,0.0],[113.84722,-7.05274,0.0],[113.83962,-7.04747,0.0],[113.82725,-7.02816,0.0],[113.82462,-7.02822,0.0],[113.81972,-7.02576,0.0],[113.81564,-7.02601,0.0],[113.81534,-7.02993,0.0],[113.80841,-7.02828,0.0],[113.80852,-7.01821,0.0],[113.80478,-7.01106,0.0],[113.80095,-7.00779,0.0],[113.79945,-7.00173,0.0],[113.81432,-7.00227,0.0],[113.81682,-7.00045,0.0],[113.81771,-6.99385,0.0],[113.82856,-6.99251,0.0],[113.83317,-6.99328,0.0],[113.83632,-6.99148,0.0],[113.83758,-6.99256,0.0],[113.84076,-6.99222,0.0],[113.8417,-7.00037,0.0],[113.84591,-7.00307,0.0],[113.84472,-7.00925,0.0],[113.84557,-7.01037,0.0],[113.84927,-7.0105,0.0],[113.84792,-7.01463,0.0],[113.85034,-7.01457,0.0],[113.85375,-7.01668,0.0],[113.85349,-7.02204,0.0],[113.85671,-7.0223,0.0],[113.85494,-7.02582,0.0],[113.85834,-7.02685,0.0],[113.8582,-7.02869,0.0],[113.86138,-7.02885,0.0],[113.86231,-7.03017,0.0],[113.86345,-7.02953,0.0],[113.86628,-7.03177,0.0]]]}},{"type":"Feature","properties":{"kecamatan":"Kangayan","kab_kota":"Sumenep"},"geometry":{"type":"MultiPolygon","coordinates":[[[[115.46744,-6.97663,0.0],[115.4633,-6.98841,0.0],[115.46628,-6.99532,0.0],[115.47135,-6.99996,0.0],[115.47283,-7.00363,0.0],[115.47638,-7.00537,0.0],[115.47569,-7.00617,0.0],[115.46666,-7.00718,0.0],[115.46316,-7.00428,0.0],[115.46101,-7.00512,0.0],[115.44718,-7.00383,0.0],[115.44463,-7.00175,0.0],[115.43687,-7.00043,0.0],[115.43152,-6.99748,0.0],[115.42816,-6.9936,0.0],[115.42803,-6.98981,0.0],[115.42551,-6.98503,0.0],[115.42575,-6.98334,0.0],[115.43037,-6.97869,0.0],[115.43247,-6.97987,0.0],[115.43599,-6.97884,0.0],[115.44023,-6.98081,0.0],[115.44817,-6.98101,0.0],[115.45128,-6.98297,0.0],[115.45205,-6.98208,0.0],[115.44908,-6.97702,0.0],[115.4518,-6.97556,0.0],[115.45513,-6.97682,0.0],[115.45742,-6.98099,0.0],[115.46022,-6.97838,0.0],[115.46454,-6.97705,0.0],[115.46121,-6.97376,0.0],[115.46225,-6.97204,0.0],[115.46744,-6.97663,0.0]]],[[[115.41452,-6.98545,0.0],[115.4116,-6.98427,0.0],[115.40895,-6.97907,0.0],[115.41247,-6.97424,0.0],[115.41137,-6.96497,0.0],[115.41511,-6.9599,0.0],[115.41706,-6.96095,0.0],[115.41813,-6.96601,0.0],[115.41426,-6.97441,0.0],[115.41763,-6.98188,0.0],[115.41452,-6.98545,0.0]]],[[[115.49605,-6.96493,0.0],[115.49968,-6.96256,0.0],[115.50104,-6.96396,0.0],[115.49875,-6.96597,0.0],[115.49605,-6.96493,0.0]]],[[[115.43799,-6.9587,0.0],[115.43643,-6.95761,0.0],[115.4378,-6.95668,0.0],[115.43799,-6.9587,0.0]]],[[[115.4167,-6.94907,0.0],[115.41526,-6.94985,0.0],[115.41762,-6.9514,0.0],[115.416,-6.95363,0.0],[115.41371,-6.95166,0.0],[115.41451,-6.94943,0.0],[115.41365,-6.94862,0.0],[115.41611,-6.94663,0.0],[115.4167,-6.94907,0.0]]],[[[115.49082,-6.94417,0.0],[115.49292,-6.94347,0.0],[115.49875,-6.95309,0.0],[115.49452,-6.95041,0.0],[115.49014,-6.94981,0.0],[115.48888,-6.94779,0.0],[115.48959,-6.94641,0.0],[115.48599,-6.94396,0.0],[115.48698,-6.94191,0.0],[115.49082,-6.94417,0.0]]],[[[115.46135,-6.94869,0.0],[115.45884,-6.94868,0.0],[115.45795,-6.94735,0.0],[115.46191,-6.94587,0.0],[115.46258,-6.9473,0.0],[115.46135,-6.94869,0.0]]],[[[115.43283,-6.94675,0.0],[115.43216,-6.94275,0.0],[115.4327,-6.94221,0.0],[115.4346,-6.94728,0.0],[115.43283,-6.94675,0.0]]],[[[115.47597,-6.9427,0.0],[115.47719,-6.94124,0.0],[115.48182,-6.94304,0.0],[115.48034,-6.94545,0.0],[115.47325,-6.94523,0.0],[115.47278,-6.94138,0.0],[115.47597,-6.9427,0.0]]],[[[115.38712,-6.93738,0.0],[115.38418,-6.93918,0.0],[115.38456,-6.93698,0.0],[115.38712,-6.93738,0.0]]],[[[115.44,-6.923,0.0],[115.44024,-6.93053,0.0],[115.43782,-6.92912,0.0],[115.43675,-6.93238,0.0],[115.43513,-6.93325,0.0],[115.43819,-6.93487,0.0],[115.43647,-6.93635,0.0],[115.43571,-6.94013,0.0],[115.4371,-6.94625,0.0],[115.43433,-6.94154,0.0],[115.43174,-6.9418,0.0],[115.43022,-6.93786,0.0],[115.43327,-6.93508,0.0],[115.43241,-6.93409,0.0],[115.43361,-6.9333,0.0],[115.43362,-6.93109,0.0],[115.43566,-6.92997,0.0],[115.43373,-6.92808,0.0],[115.43427,-6.92515,0.0],[115.43116,-6.92341,0.0],[115.43197,-6.92225,0.0],[115.43394,-6.92293,0.0],[115.43615,-6.92064,0.0],[115.44,-6.923,0.0]]],[[[115.38439,-6.93343,0.0],[115.38358,-6.93186,0.0],[115.38443,-6.93179,0.0],[115.38439,-6.93343,0.0]]],[[[115.40505,-6.92741,0.0],[115.40604,-6.92752,0.0],[115.40532,-6.92789,0.0],[115.40505,-6.92741,0.0]]],[[[115.42235,-6.9159,0.0],[115.42128,-6.91871,0.0],[115.42357,-6.92215,0.0],[115.42234,-6.92412,0.0],[115.42391,-6.92524,0.0],[115.42442,-6.93237,0.0],[115.42117,-6.93245,0.0],[115.41872,-6.92829,0.0],[115.41722,-6.92936,0.0],[115.41834,-6.93158,0.0],[115.41733,-6.93302,0.0],[115.42049,-6.93601,0.0],[115.41981,-6.93688,0.0],[115.40967,-6.93342,0.0],[115.41282,-6.93684,0.0],[115.41295,-6.93918,0.0],[115.41687,-6.94178,0.0],[115.41625,-6.94253,0.0],[115.4123,-6.94251,0.0],[115.40856,-6.93881,0.0],[115.40842,-6.93358,0.0],[115.40616,-6.9332,0.0],[115.40708,-6.93175,0.0],[115.40622,-6.92379,0.0],[115.40098,-6.92351,0.0],[115.39928,-6.92664,0.0],[115.39866,-6.92362,0.0],[115.39717,-6.92376,0.0],[115.39607,-6.91947,0.0],[115.39883,-6.91834,0.0],[115.39753,-6.91709,0.0],[115.39862,-6.91483,0.0],[115.39571,-6.91456,0.0],[115.39518,-6.91263,0.0],[115.39779,-6.90973,0.0],[115.39749,-6.90704,0.0],[115.39467,-6.90802,0.0],[115.39448,-6.90589,0.0],[115.38994,-6.90374,0.0],[115.38752,-6.90983,0.0],[115.38385,-6.91081,0.0],[115.38488,-6.91553,0.0],[115.38203,-6.91786,0.0],[115.38238,-6.92243,0.0],[115.38121,-6.92332,0.0],[115.38025,-6.9193,0.0],[115.38151,-6.91435,0.0],[115.37947,-6.91415,0.0],[115.37836,-6.9118,0.0],[115.37976,-6.90911,0.0],[115.37812,-6.90486,0.0],[115.37851,-6.89927,0.0],[115.37377,-6.90072,0.0],[115.37217,-6.89945,0.0],[115.37331,-6.90375,0.0],[115.36799,-6.90627,0.0],[115.36766,-6.91018,0.0],[115.36548,-6.90971,0.0],[115.36548,-6.90613,0.0],[115.3681,-6.89917,0.0],[115.36627,-6.89612,0.0],[115.36609,-6.88953,0.0],[115.36328,-6.88208,0.0],[115.36328,-6.8725,0.0],[115.36506,-6.8668,0.0],[115.36066,-6.86699,0.0],[115.35926,-6.86882,0.0],[115.35642,-6.86834,0.0],[115.35554,-6.86682,0.0],[115.35231,-6.86777,0.0],[115.34805,-6.8617,0.0],[115.33703,-6.8602,0.0],[115.33095,-6.85745,0.0],[115.32958,-6.85114,0.0],[115.33289,-6.85338,0.0],[115.33769,-6.84812,0.0],[115.33585,-6.84726,0.0],[115.33637,-6.84412,0.0],[115.33375,-6.8417,0.0],[115.3382,-6.84259,0.0],[115.34632,-6.83973,0.0],[115.34925,-6.83376,0.0],[115.36602,-6.83358,0.0],[115.38009,-6.83554,0.0],[115.39188,-6.83449,0.0],[115.4053,-6.8369,0.0],[115.41311,-6.84039,0.0],[115.43646,-6.84658,0.0],[115.43939,-6.84982,0.0],[115.44332,-6.84953,0.0],[115.45232,-6.85275,0.0],[115.4766,-6.863,0.0],[115.47967,-6.86577,0.0],[115.48574,-6.86783,0.0],[115.48974,-6.87081,0.0],[115.51798,-6.88121,0.0],[115.53228,-6.89202,0.0],[115.54251,-6.90164,0.0],[115.54776,-6.90327,0.0],[115.55422,-6.90286,0.0],[115.55689,-6.9042,0.0],[115.5596,-6.90631,0.0],[115.56313,-6.91358,0.0],[115.56447,-6.9224,0.0],[115.57472,-6.93,0.0],[115.57591,-6.93234,0.0],[115.57558,-6.93353,0.0],[115.57231,-6.93437,0.0],[115.57028,-6.94334,0.0],[115.56377,-6.94427,0.0],[115.5631,-6.94809,0.0],[115.55892,-6.94911,0.0],[115.55586,-6.95223,0.0],[115.55307,-6.95202,0.0],[115.55244,-6.95494,0.0],[115.55412,-6.95782,0.0],[115.55102,-6.96488,0.0],[115.54816,-6.96606,0.0],[115.5362,-6.95903,0.0],[115.52885,-6.9513,0.0],[115.5192,-6.94517,0.0],[115.50907,-6.94572,0.0],[115.50179,-6.9486,0.0],[115.50192,-6.9506,0.0],[115.49727,-6.94865,0.0],[115.4944,-6.94453,0.0],[115.49657,-6.94122,0.0],[115.49229,-6.93862,0.0],[115.4936,-6.936,0.0],[115.49146,-6.93507,0.0],[115.49016,-6.93685,0.0],[115.48811,-6.93689,0.0],[115.48801,-6.9299,0.0],[115.48538,-6.92745,0.0],[115.48579,-6.93175,0.0],[115.48433,-6.93401,0.0],[115.47624,-6.93096,0.0],[115.47812,-6.92593,0.0],[115.48037,-6.92627,0.0],[115.47561,-6.92313,0.0],[115.47111,-6.92884,0.0],[115.46961,-6.92857,0.0],[115.46743,-6.93084,0.0],[115.46477,-6.93033,0.0],[115.46386,-6.93181,0.0],[115.45903,-6.93353,0.0],[115.4587,-6.9287,0.0],[115.45768,-6.92819,0.0],[115.45392,-6.93153,0.0],[115.45485,-6.92785,0.0],[115.46195,-6.92177,0.0],[115.45709,-6.92008,0.0],[115.45504,-6.92098,0.0],[115.45588,-6.91433,0.0],[115.45418,-6.91271,0.0],[115.45117,-6.91349,0.0],[115.44909,-6.91104,0.0],[115.44537,-6.91199,0.0],[115.44684,-6.91559,0.0],[115.44411,-6.9172,0.0],[115.44683,-6.91994,0.0],[115.44586,-6.9247,0.0],[115.44138,-6.91907,0.0],[115.4402,-6.92036,0.0],[115.43695,-6.91945,0.0],[115.43392,-6.9209,0.0],[115.43183,-6.92009,0.0],[115.43099,-6.91657,0.0],[115.42972,-6.91827,0.0],[115.42811,-6.91667,0.0],[115.42599,-6.91893,0.0],[115.42235,-6.9159,0.0]]],[[[115.55581,-6.96319,0.0],[115.55521,-6.96782,0.0],[115.55216,-6.96822,0.0],[115.55351,-6.96376,0.0],[115.55581,-6.96319,0.0]]],[[[115.52473,-6.95938,0.0],[115.52537,-6.95836,0.0],[115.52579,-6.9594,0.0],[115.52473,-6.95938,0.0]]],[[[115.50743,-6.95944,0.0],[115.50404,-6.95921,0.0],[115.50313,-6.95809,0.0],[115.5067,-6.95688,0.0],[115.50743,-6.95944,0.0]]],[[[115.52265,-6.95933,0.0],[115.51812,-6.96011,0.0],[115.52276,-6.95512,0.0],[115.52195,-6.95395,0.0],[115.52325,-6.95297,0.0],[115.52456,-6.95358,0.0],[115.52512,-6.95719,0.0],[115.52265,-6.95933,0.0]]],[[[115.50086,-6.95832,0.0],[115.49771,-6.95713,0.0],[115.49838,-6.9542,0.0],[115.50271,-6.95654,0.0],[115.50086,-6.95832,0.0]]],[[[115.50471,-6.9513,0.0],[115.5037,-6.95275,0.0],[115.50437,-6.95405,0.0],[115.50153,-6.95386,0.0],[115.50339,-6.95108,0.0],[115.50471,-6.9513,0.0]]],[[[115.50126,-6.95101,0.0],[115.50157,-6.95125,0.0],[115.50111,-6.95129,0.0],[115.50126,-6.95101,0.0]]],[[[115.50097,-6.95075,0.0],[115.50101,-6.9511,0.0],[115.50078,-6.95099,0.0],[115.50097,-6.95075,0.0]]],[[[115.5005,-6.95051,0.0],[115.50062,-6.95082,0.0],[115.50036,-6.95078,0.0],[115.5005,-6.95051,0.0]]],[[[115.50567,-6.95111,0.0],[115.50674,-6.94921,0.0],[115.50869,-6.94928,0.0],[115.50743,-6.95236,0.0],[115.50567,-6.95111,0.0]]],[[[115.52094,-6.94801,0.0],[115.52236,-6.95046,0.0],[115.52082,-6.95035,0.0],[115.51812,-6.95265,0.0],[115.51469,-6.94931,0.0],[115.51249,-6.95207,0.0],[115.50882,-6.94828,0.0],[115.51625,-6.94628,0.0],[115.52094,-6.94801,0.0]]],[[[115.65579,-6.71823,0.0],[115.65632,-6.71892,0.0],[115.65547,-6.72157,0.0],[115.65495,-6.71938,0.0],[115.65579,-6.71823,0.0]]],[[[115.63529,-6.67425,0.0],[115.6353,-6.67116,0.0],[115.6364,-6.6703,0.0],[115.63529,-6.67425,0.0]]],[[[115.73674,-6.65521,0.0],[115.73749,-6.65344,0.0],[115.73686,-6.65546,0.0],[115.73674,-6.65521,0.0]]],[[[115.71296,-6.63485,0.0],[115.71558,-6.63146,0.0],[115.71536,-6.63328,0.0],[115.71296,-6.63485,0.0]]],[[[115.51245,-6.60682,0.0],[115.51306,-6.60505,0.0],[115.51272,-6.60838,0.0],[115.51245,-6.60682,0.0]]],[[[115.54427,-6.56158,0.0],[115.54541,-6.56128,0.0],[115.54612,-6.5616,0.0],[115.54516,-6.56267,0.0],[115.54427,-6.56158,0.0]]],[[[115.74827,-6.48371,0.0],[115.7506,-6.48433,0.0],[115.75034,-6.48632,0.0],[115.74894,-6.48647,0.0],[115.74827,-6.48371,0.0]]]]}},{"type":"Feature","properties":{"kecamatan":"Gayam","kab_kota":"Sumenep"},"geometry":{"type":"Polygon","coordinates":[[[114.38757,-7.18146,0.0],[114.38355,-7.18141,0.0],[114.3803,-7.17948,0.0],[114.36341,-7.17908,0.0],[114.35239,-7.17325,0.0],[114.34463,-7.17157,0.0],[114.33612,-7.16672,0.0],[114.32835,-7.16474,0.0],[114.32683,-7.1661,0.0],[114.32617,-7.16448,0.0],[114.31748,-7.16194,0.0],[114.30966,-7.15742,0.0],[114.29516,-7.14241,0.0],[114.282,-7.11783,0.0],[114.27646,-7.11074,0.0],[114.27084,-7.09407,0.0],[114.27399,-7.08639,0.0],[114.27838,-7.08984,0.0],[114.28797,-7.09085,0.0],[114.29154,-7.09373,0.0],[114.29617,-7.09002,0.0],[114.30172,-7.08947,0.0],[114.30366,-7.0907,0.0],[114.30873,-7.09893,0.0],[114.31383,-7.10102,0.0],[114.32018,-7.10023,0.0],[114.32587,-7.09641,0.0],[114.33476,-7.09491,0.0],[114.34173,-7.09754,0.0],[114.3424,-7.09958,0.0],[114.34408,-7.10013,0.0],[114.34528,-7.10303,0.0],[114.34369,-7.10522,0.0],[114.34387,-7.10822,0.0],[114.35828,-7.10968,0.0],[114.36151,-7.10718,0.0],[114.36768,-7.10522,0.0],[114.37455,-7.10768,0.0],[114.37592,-7.11525,0.0],[114.37778,-7.11554,0.0],[114.38059,-7.12146,0.0],[114.38294,-7.1227,0.0],[114.39164,-7.13286,0.0],[114.39371,-7.14084,0.0],[114.39391,-7.15225,0.0],[114.39614,-7.15793,0.0],[114.39842,-7.16114,0.0],[114.40727,-7.16527,0.0],[114.40596,-7.16975,0.0],[114.39996,-7.17467,0.0],[114.38757,-7.18146,0.0]]]}},{"type":"Feature","properties":{"kecamatan":"Nonggunong","kab_kota":"Sumenep"},"geometry":{"type":"MultiPolygon","coordinates":[[[[114.37309,-7.09209,0.0],[114.37484,-7.09999,0.0],[114.37455,-7.10768,0.0],[114.36768,-7.10522,0.0],[114.35748,-7.10968,0.0],[114.34387,-7.10822,0.0],[114.34369,-7.10522,0.0],[114.34528,-7.10303,0.0],[114.34408,-7.10013,0.0],[114.3424,-7.09958,0.0],[114.34173,-7.09754,0.0],[114.33421,-7.09474,0.0],[114.32481,-7.09675,0.0],[114.31928,-7.10051,0.0],[114.31383,-7.10102,0.0],[114.30873,-7.09893,0.0],[114.30366,-7.0907,0.0],[114.30172,-7.08947,0.0],[114.29617,-7.09002,0.0],[114.29154,-7.09373,0.0],[114.28797,-7.09085,0.0],[114.27838,-7.08984,0.0],[114.27399,-7.08639,0.0],[114.27564,-7.08266,0.0],[114.29804,-7.06204,0.0],[114.30657,-7.05899,0.0],[114.32948,-7.0552,0.0],[114.33517,-7.05669,0.0],[114.3405,-7.06011,0.0],[114.34618,-7.06605,0.0],[114.3461,-7.0681,0.0],[114.35035,-7.06973,0.0],[114.36905,-7.08522,0.0],[114.37309,-7.09209,0.0]]],[[[114.49147,-6.99893,0.0],[114.48514,-6.99978,0.0],[114.4897,-6.99288,0.0],[114.49228,-6.9856,0.0],[114.4954,-6.98965,0.0],[114.49525,-6.99289,0.0],[114.49147,-6.99893,0.0]]],[[[114.43413,-6.96704,0.0],[114.43677,-6.96854,0.0],[114.43475,-6.97075,0.0],[114.43395,-6.97721,0.0],[114.43203,-6.98071,0.0],[114.42844,-6.97395,0.0],[114.42844,-6.96993,0.0],[114.43248,-6.9626,0.0],[114.43413,-6.96704,0.0]]]]}},{"type":"Feature","properties":{"kecamatan":"Arjasa","kab_kota":"Sumenep"},"geometry":{"type":"MultiPolygon","coordinates":[[[[115.25762,-6.97063,0.0],[115.26313,-6.9756,0.0],[115.26177,-6.98507,0.0],[115.25488,-6.98175,0.0],[115.25003,-6.97697,0.0],[115.24731,-6.97678,0.0],[115.24439,-6.97056,0.0],[115.25274,-6.96851,0.0],[115.25762,-6.97063,0.0]]],[[[115.25942,-6.96983,0.0],[115.24924,-6.962,0.0],[115.24993,-6.96014,0.0],[115.25494,-6.96117,0.0],[115.26112,-6.96809,0.0],[115.25942,-6.96983,0.0]]],[[[115.30324,-6.94839,0.0],[115.30024,-6.9535,0.0],[115.30149,-6.95632,0.0],[115.29809,-6.95614,0.0],[115.30264,-6.96029,0.0],[115.30392,-6.96549,0.0],[115.3068,-6.96758,0.0],[115.30633,-6.9705,0.0],[115.30915,-6.97491,0.0],[115.30937,-6.97767,0.0],[115.30378,-6.97795,0.0],[115.2965,-6.97157,0.0],[115.2922,-6.97104,0.0],[115.28985,-6.97216,0.0],[115.28599,-6.97007,0.0],[115.28778,-6.97312,0.0],[115.28722,-6.97454,0.0],[115.29065,-6.97635,0.0],[115.28863,-6.9781,0.0],[115.28952,-6.98006,0.0],[115.29277,-6.98131,0.0],[115.30051,-6.98836,0.0],[115.30045,-6.99052,0.0],[115.29847,-6.99164,0.0],[115.3009,-6.9957,0.0],[115.30077,-6.99833,0.0],[115.297,-7.00293,0.0],[115.29203,-7.00528,0.0],[115.29107,-7.00941,0.0],[115.29268,-7.01266,0.0],[115.28736,-7.00949,0.0],[115.28622,-7.00687,0.0],[115.27994,-7.00333,0.0],[115.27345,-6.99408,0.0],[115.2666,-6.99452,0.0],[115.26444,-6.99121,0.0],[115.26296,-6.98344,0.0],[115.26423,-6.97625,0.0],[115.26087,-6.97247,0.0],[115.26272,-6.96358,0.0],[115.25907,-6.96263,0.0],[115.25571,-6.95471,0.0],[115.26063,-6.95131,0.0],[115.26645,-6.95126,0.0],[115.27373,-6.94884,0.0],[115.27509,-6.94312,0.0],[115.27359,-6.94076,0.0],[115.26975,-6.9414,0.0],[115.26965,-6.93546,0.0],[115.26243,-6.93585,0.0],[115.25808,-6.94243,0.0],[115.25437,-6.94096,0.0],[115.25326,-6.94514,0.0],[115.24729,-6.94804,0.0],[115.24444,-6.94509,0.0],[115.24458,-6.93882,0.0],[115.24293,-6.93481,0.0],[115.24008,-6.93322,0.0],[115.23819,-6.94121,0.0],[115.23531,-6.9444,0.0],[115.23272,-6.94397,0.0],[115.22934,-6.94128,0.0],[115.23064,-6.93989,0.0],[115.22901,-6.93875,0.0],[115.22964,-6.93659,0.0],[115.22779,-6.93535,0.0],[115.22559,-6.93628,0.0],[115.2243,-6.93473,0.0],[115.22199,-6.93487,0.0],[115.21421,-6.94173,0.0],[115.21152,-6.94244,0.0],[115.20303,-6.93817,0.0],[115.20371,-6.93279,0.0],[115.20537,-6.93043,0.0],[115.20701,-6.93157,0.0],[115.20703,-6.93001,0.0],[115.20993,-6.92851,0.0],[115.21041,-6.92392,0.0],[115.20601,-6.91822,0.0],[115.20579,-6.92274,0.0],[115.20729,-6.92715,0.0],[115.20358,-6.92682,0.0],[115.19752,-6.92161,0.0],[115.19943,-6.91838,0.0],[115.19981,-6.90733,0.0],[115.20162,-6.90655,0.0],[115.20107,-6.90355,0.0],[115.20316,-6.89956,0.0],[115.20286,-6.89744,0.0],[115.20657,-6.88967,0.0],[115.21267,-6.88743,0.0],[115.21407,-6.88489,0.0],[115.22008,-6.88268,0.0],[115.22706,-6.88276,0.0],[115.22952,-6.88585,0.0],[115.2328,-6.88389,0.0],[115.23947,-6.88596,0.0],[115.24157,-6.88304,0.0],[115.24233,-6.87888,0.0],[115.24158,-6.87824,0.0],[115.24044,-6.87948,0.0],[115.23958,-6.87839,0.0],[115.23836,-6.8727,0.0],[115.24244,-6.87295,0.0],[115.24366,-6.87656,0.0],[115.24408,-6.87391,0.0],[115.25305,-6.86224,0.0],[115.25309,-6.85873,0.0],[115.25165,-6.85609,0.0],[115.2522,-6.85194,0.0],[115.24839,-6.84445,0.0],[115.24301,-6.84292,0.0],[115.23623,-6.83803,0.0],[115.23213,-6.83949,0.0],[115.23127,-6.83847,0.0],[115.23098,-6.84081,0.0],[115.22817,-6.84109,0.0],[115.22706,-6.84312,0.0],[115.2263,-6.8424,0.0],[115.22735,-6.83773,0.0],[115.23257,-6.83283,0.0],[115.23323,-6.83393,0.0],[115.2361,-6.83372,0.0],[115.2462,-6.82705,0.0],[115.26239,-6.82671,0.0],[115.27541,-6.82737,0.0],[115.28393,-6.83011,0.0],[115.29078,-6.83008,0.0],[115.29802,-6.83205,0.0],[115.30909,-6.83183,0.0],[115.31847,-6.83431,0.0],[115.32167,-6.83318,0.0],[115.32336,-6.83446,0.0],[115.34212,-6.83219,0.0],[115.34989,-6.83401,0.0],[115.34632,-6.83973,0.0],[115.3382,-6.84259,0.0],[115.33375,-6.8417,0.0],[115.33603,-6.84337,0.0],[115.33585,-6.84726,0.0],[115.33763,-6.84832,0.0],[115.33289,-6.85338,0.0],[115.33071,-6.85116,0.0],[115.32945,-6.85176,0.0],[115.33095,-6.85745,0.0],[115.33306,-6.85906,0.0],[115.34805,-6.8617,0.0],[115.35231,-6.86777,0.0],[115.35554,-6.86682,0.0],[115.35642,-6.86834,0.0],[115.35926,-6.86882,0.0],[115.36066,-6.86699,0.0],[115.36506,-6.8668,0.0],[115.36328,-6.8725,0.0],[115.36328,-6.88208,0.0],[115.3681,-6.90002,0.0],[115.36627,-6.90308,0.0],[115.36458,-6.91166,0.0],[115.37008,-6.91606,0.0],[115.3687,-6.9173,0.0],[115.36918,-6.92353,0.0],[115.36727,-6.9239,0.0],[115.36589,-6.92202,0.0],[115.36517,-6.92472,0.0],[115.36926,-6.92865,0.0],[115.3686,-6.92922,0.0],[115.36635,-6.92683,0.0],[115.36068,-6.92466,0.0],[115.35831,-6.9247,0.0],[115.35732,-6.91884,0.0],[115.35374,-6.91582,0.0],[115.35319,-6.91903,0.0],[115.34989,-6.91914,0.0],[115.353,-6.92274,0.0],[115.35205,-6.9246,0.0],[115.34941,-6.92501,0.0],[115.34676,-6.92217,0.0],[115.34387,-6.92219,0.0],[115.33858,-6.9182,0.0],[115.33693,-6.91864,0.0],[115.33749,-6.9219,0.0],[115.33365,-6.92007,0.0],[115.33461,-6.92121,0.0],[115.33305,-6.92229,0.0],[115.33624,-6.92746,0.0],[115.33397,-6.9288,0.0],[115.33858,-6.93209,0.0],[115.33176,-6.93035,0.0],[115.33043,-6.93104,0.0],[115.33382,-6.93571,0.0],[115.33861,-6.93673,0.0],[115.33886,-6.9448,0.0],[115.33669,-6.94766,0.0],[115.34118,-6.9456,0.0],[115.3436,-6.93718,0.0],[115.35067,-6.93651,0.0],[115.35281,-6.93722,0.0],[115.34996,-6.93836,0.0],[115.35194,-6.94209,0.0],[115.35697,-6.94097,0.0],[115.35666,-6.94363,0.0],[115.35987,-6.94374,0.0],[115.36399,-6.94688,0.0],[115.36112,-6.95032,0.0],[115.35858,-6.95089,0.0],[115.35851,-6.95234,0.0],[115.36112,-6.95308,0.0],[115.36195,-6.95523,0.0],[115.36722,-6.95127,0.0],[115.36904,-6.95173,0.0],[115.37059,-6.95053,0.0],[115.3703,-6.95334,0.0],[115.37607,-6.95123,0.0],[115.37667,-6.95338,0.0],[115.38487,-6.95778,0.0],[115.38645,-6.96004,0.0],[115.3845,-6.96303,0.0],[115.38893,-6.96453,0.0],[115.39195,-6.96985,0.0],[115.39066,-6.97593,0.0],[115.38638,-6.97751,0.0],[115.38166,-6.97582,0.0],[115.38014,-6.97385,0.0],[115.37484,-6.97335,0.0],[115.38636,-6.98139,0.0],[115.39672,-6.97871,0.0],[115.40179,-6.98193,0.0],[115.40398,-6.98798,0.0],[115.39018,-6.99079,0.0],[115.38095,-6.99521,0.0],[115.36186,-6.99185,0.0],[115.35855,-6.99217,0.0],[115.35157,-6.9958,0.0],[115.34443,-6.99338,0.0],[115.33626,-6.99601,0.0],[115.33324,-6.99567,0.0],[115.32968,-6.99338,0.0],[115.32939,-6.98741,0.0],[115.32778,-6.98469,0.0],[115.32256,-6.98094,0.0],[115.32049,-6.97467,0.0],[115.31498,-6.96972,0.0],[115.316,-6.96848,0.0],[115.31619,-6.97026,0.0],[115.32212,-6.97056,0.0],[115.32333,-6.97235,0.0],[115.32529,-6.96969,0.0],[115.32567,-6.96171,0.0],[115.32212,-6.96127,0.0],[115.32091,-6.95991,0.0],[115.31953,-6.96214,0.0],[115.31798,-6.96208,0.0],[115.31739,-6.96087,0.0],[115.31914,-6.95808,0.0],[115.31537,-6.95634,0.0],[115.31338,-6.95104,0.0],[115.31111,-6.95571,0.0],[115.30507,-6.95181,0.0],[115.30324,-6.94839,0.0]]],[[[115.20769,-6.9225,0.0],[115.20798,-6.92172,0.0],[115.20824,-6.92225,0.0],[115.20769,-6.9225,0.0]]],[[[115.23581,-6.87425,0.0],[115.23746,-6.87349,0.0],[115.23593,-6.87491,0.0],[115.23581,-6.87425,0.0]]],[[[115.21609,-6.84428,0.0],[115.2183,-6.83947,0.0],[115.21943,-6.83916,0.0],[115.22114,-6.84376,0.0],[115.21676,-6.84574,0.0],[115.21609,-6.84428,0.0]]],[[[115.29146,-6.97701,0.0],[115.29227,-6.97614,0.0],[115.29559,-6.9772,0.0],[115.29274,-6.97776,0.0],[115.29146,-6.97701,0.0]]],[[[115.32194,-6.97013,0.0],[115.32348,-6.96543,0.0],[115.32518,-6.9642,0.0],[115.32435,-6.96956,0.0],[115.32194,-6.97013,0.0]]],[[[115.30598,-6.96261,0.0],[115.30572,-6.95945,0.0],[115.30793,-6.96066,0.0],[115.30916,-6.96354,0.0],[115.30598,-6.96261,0.0]]],[[[115.36421,-6.94395,0.0],[115.3653,-6.9446,0.0],[115.36419,-6.94535,0.0],[115.36376,-6.94493,0.0],[115.36421,-6.94395,0.0]]],[[[115.35844,-6.93597,0.0],[115.35894,-6.93469,0.0],[115.36066,-6.9358,0.0],[115.35991,-6.93664,0.0],[115.35844,-6.93597,0.0]]],[[[115.37346,-6.93076,0.0],[115.37078,-6.92881,0.0],[115.37132,-6.92775,0.0],[115.37464,-6.92975,0.0],[115.37346,-6.93076,0.0]]]]}},{"type":"Feature","properties":{"kecamatan":"Sapeken","kab_kota":"Sumenep"},"geometry":{"type":"MultiPolygon","coordinates":[[[[115.5936,-7.05381,0.0],[115.59485,-7.05307,0.0],[115.59358,-7.05469,0.0],[115.5936,-7.05381,0.0]]],[[[115.60261,-7.0534,0.0],[115.60218,-7.05464,0.0],[115.59647,-7.05357,0.0],[115.59616,-7.05119,0.0],[115.59912,-7.05041,0.0],[115.60261,-7.0534,0.0]]],[[[115.63657,-7.0364,0.0],[115.63385,-7.05646,0.0],[115.6366,-7.05798,0.0],[115.63576,-7.06114,0.0],[115.63052,-7.06484,0.0],[115.62138,-7.06467,0.0],[115.61562,-7.06252,0.0],[115.61674,-7.05865,0.0],[115.61318,-7.05646,0.0],[115.61391,-7.05354,0.0],[115.61767,-7.05005,0.0],[115.61817,-7.04716,0.0],[115.61481,-7.04955,0.0],[115.61322,-7.04849,0.0],[115.6069,-7.04853,0.0],[115.60282,-7.05245,0.0],[115.59987,-7.05066,0.0],[115.60086,-7.04762,0.0],[115.60017,-7.04368,0.0],[115.59559,-7.04037,0.0],[115.5965,-7.03819,0.0],[115.59817,-7.03874,0.0],[115.60043,-7.03662,0.0],[115.60489,-7.03784,0.0],[115.60656,-7.03995,0.0],[115.60952,-7.03773,0.0],[115.61349,-7.03726,0.0],[115.61802,-7.04005,0.0],[115.62216,-7.0402,0.0],[115.62723,-7.04223,0.0],[115.62702,-7.03728,0.0],[115.63187,-7.03399,0.0],[115.63657,-7.0364,0.0]]],[[[115.59954,-7.0487,0.0],[115.59963,-7.04578,0.0],[115.60033,-7.04778,0.0],[115.59954,-7.0487,0.0]]],[[[115.53338,-7.03412,0.0],[115.53385,-7.0339,0.0],[115.53381,-7.03423,0.0],[115.53338,-7.03412,0.0]]],[[[115.55448,-7.0125,0.0],[115.55509,-7.01818,0.0],[115.55134,-7.02123,0.0],[115.54943,-7.02522,0.0],[115.54147,-7.02788,0.0],[115.54135,-7.02502,0.0],[115.53939,-7.02522,0.0],[115.54031,-7.02302,0.0],[115.53944,-7.02278,0.0],[115.5396,-7.01823,0.0],[115.54035,-7.01406,0.0],[115.54344,-7.01182,0.0],[115.5436,-7.00999,0.0],[115.55448,-7.0125,0.0]]],[[[115.50127,-7.01407,0.0],[115.50239,-7.01409,0.0],[115.5015,-7.0145,0.0],[115.50127,-7.01407,0.0]]],[[[115.54161,-7.01118,0.0],[115.53929,-7.01051,0.0],[115.54244,-7.00882,0.0],[115.54288,-7.01007,0.0],[115.54161,-7.01118,0.0]]],[[[115.54555,-6.99148,0.0],[115.54434,-6.99328,0.0],[115.5453,-6.99812,0.0],[115.5438,-6.99934,0.0],[115.54222,-6.99737,0.0],[115.54195,-6.99099,0.0],[115.54062,-6.99027,0.0],[115.54054,-6.99386,0.0],[115.53844,-6.99468,0.0],[115.53883,-6.9977,0.0],[115.53601,-7.0025,0.0],[115.53738,-7.00672,0.0],[115.54092,-7.00873,0.0],[115.53621,-7.00749,0.0],[115.53861,-7.01229,0.0],[115.53749,-7.02204,0.0],[115.53854,-7.02224,0.0],[115.53586,-7.02516,0.0],[115.53383,-7.03336,0.0],[115.53068,-7.03272,0.0],[115.52866,-7.0341,0.0],[115.52857,-7.0319,0.0],[115.52376,-7.02788,0.0],[115.52281,-7.02467,0.0],[115.51638,-7.01734,0.0],[115.50435,-7.01432,0.0],[115.50567,-7.01309,0.0],[115.50843,-7.01326,0.0],[115.51149,-7.00751,0.0],[115.51535,-7.00596,0.0],[115.51737,-7.00254,0.0],[115.51748,-7.0041,0.0],[115.51944,-7.00674,0.0],[115.51693,-6.99987,0.0],[115.51916,-6.99783,0.0],[115.52698,-6.99642,0.0],[115.52843,-6.99428,0.0],[115.52867,-6.9904,0.0],[115.53167,-6.98852,0.0],[115.53783,-6.988,0.0],[115.538,-6.98605,0.0],[115.54292,-6.98155,0.0],[115.5446,-6.98174,0.0],[115.54598,-6.98411,0.0],[115.54555,-6.99148,0.0]]],[[[115.59605,-7.00503,0.0],[115.59492,-7.00386,0.0],[115.59862,-7.00175,0.0],[115.59806,-7.00448,0.0],[115.59605,-7.00503,0.0]]],[[[115.60528,-7.00071,0.0],[115.60531,-7.00246,0.0],[115.60168,-7.00199,0.0],[115.60222,-7.00058,0.0],[115.60528,-7.00071,0.0]]],[[[115.58737,-6.99881,0.0],[115.58859,-6.9988,0.0],[115.58869,-6.99985,0.0],[115.58755,-6.9998,0.0],[115.58737,-6.99881,0.0]]],[[[115.60122,-6.99555,0.0],[115.60121,-6.9945,0.0],[115.6019,-6.99477,0.0],[115.60122,-6.99555,0.0]]],[[[115.58736,-6.98938,0.0],[115.58531,-6.99549,0.0],[115.58322,-6.99222,0.0],[115.57785,-6.99135,0.0],[115.57951,-6.9894,0.0],[115.57879,-6.98581,0.0],[115.58196,-6.98507,0.0],[115.58612,-6.98692,0.0],[115.58736,-6.98938,0.0]]],[[[115.58647,-6.9397,0.0],[115.60273,-6.94863,0.0],[115.60299,-6.94984,0.0],[115.60673,-6.95017,0.0],[115.61573,-6.95615,0.0],[115.62156,-6.95805,0.0],[115.63685,-6.9668,0.0],[115.64476,-6.96998,0.0],[115.64607,-6.96925,0.0],[115.64719,-6.97247,0.0],[115.65284,-6.97515,0.0],[115.65539,-6.9797,0.0],[115.66548,-6.9851,0.0],[115.668,-6.98853,0.0],[115.67093,-6.98781,0.0],[115.67385,-6.98926,0.0],[115.67592,-6.99206,0.0],[115.67579,-6.99506,0.0],[115.68383,-7.00052,0.0],[115.68525,-7.01282,0.0],[115.6819,-7.0145,0.0],[115.6784,-7.0132,0.0],[115.66811,-7.00485,0.0],[115.64824,-6.99736,0.0],[115.64081,-6.9968,0.0],[115.63549,-7.0034,0.0],[115.632,-7.00551,0.0],[115.62384,-7.00087,0.0],[115.6206,-7.0015,0.0],[115.61946,-7.00323,0.0],[115.61714,-7.00181,0.0],[115.61525,-7.00304,0.0],[115.60874,-6.9989,0.0],[115.6068,-6.99573,0.0],[115.60072,-6.99262,0.0],[115.59786,-6.99241,0.0],[115.59829,-6.99493,0.0],[115.59736,-6.99551,0.0],[115.59338,-6.99427,0.0],[115.59234,-6.99278,0.0],[115.58991,-6.99309,0.0],[115.5925,-6.99073,0.0],[115.58921,-6.98689,0.0],[115.5915,-6.98439,0.0],[115.59236,-6.97916,0.0],[115.58401,-6.97428,0.0],[115.57247,-6.97537,0.0],[115.5692,-6.96672,0.0],[115.56518,-6.96026,0.0],[115.57042,-6.95574,0.0],[115.57233,-6.96084,0.0],[115.57632,-6.96204,0.0],[115.57729,-6.95987,0.0],[115.57391,-6.95554,0.0],[115.57194,-6.947,0.0],[115.57303,-6.94478,0.0],[115.5766,-6.94524,0.0],[115.57666,-6.94168,0.0],[115.5783,-6.94101,0.0],[115.57877,-6.9428,0.0],[115.58222,-6.94442,0.0],[115.5817,-6.94003,0.0],[115.58647,-6.9397,0.0]]],[[[115.63627,-6.93739,0.0],[115.63604,-6.93414,0.0],[115.63672,-6.93339,0.0],[115.63739,-6.93701,0.0],[115.63627,-6.93739,0.0]]],[[[115.76837,-7.12118,0.0],[115.76898,-7.12412,0.0],[115.77063,-7.12366,0.0],[115.77144,-7.1261,0.0],[115.76997,-7.12959,0.0],[115.76886,-7.1286,0.0],[115.76703,-7.1305,0.0],[115.76536,-7.12832,0.0],[115.76042,-7.12923,0.0],[115.76296,-7.12548,0.0],[115.76275,-7.12149,0.0],[115.76513,-7.12021,0.0],[115.76837,-7.12118,0.0]]],[[[115.76734,-7.11964,0.0],[115.76803,-7.12005,0.0],[115.76748,-7.12016,0.0],[115.76734,-7.11964,0.0]]],[[[115.75845,-7.11416,0.0],[115.76416,-7.11604,0.0],[115.7597,-7.11871,0.0],[115.75746,-7.11796,0.0],[115.75603,-7.1152,0.0],[115.75845,-7.11416,0.0]]],[[[115.76145,-7.10585,0.0],[115.77044,-7.10966,0.0],[115.77026,-7.11547,0.0],[115.76375,-7.11503,0.0],[115.75727,-7.11218,0.0],[115.75788,-7.10993,0.0],[115.7591,-7.10971,0.0],[115.75943,-7.10602,0.0],[115.76145,-7.10585,0.0]]],[[[115.75795,-7.10271,0.0],[115.7589,-7.10322,0.0],[115.75819,-7.10401,0.0],[115.75795,-7.10271,0.0]]],[[[115.76137,-7.08443,0.0],[115.76641,-7.09025,0.0],[115.76477,-7.09583,0.0],[115.76305,-7.09813,0.0],[115.75743,-7.09856,0.0],[115.75641,-7.1064,0.0],[115.75505,-7.10791,0.0],[115.74952,-7.10368,0.0],[115.74854,-7.10094,0.0],[115.74961,-7.09832,0.0],[115.75286,-7.0972,0.0],[115.75412,-7.09539,0.0],[115.7535,-7.08988,0.0],[115.75472,-7.08681,0.0],[115.75587,-7.08593,0.0],[115.75687,-7.08705,0.0],[115.75713,-7.08547,0.0],[115.76137,-7.08443,0.0]]],[[[115.69555,-7.05922,0.0],[115.70794,-7.05824,0.0],[115.71118,-7.06023,0.0],[115.7125,-7.0632,0.0],[115.71205,-7.06945,0.0],[115.70901,-7.07243,0.0],[115.70523,-7.07398,0.0],[115.6953,-7.07302,0.0],[115.68978,-7.0705,0.0],[115.68518,-7.06577,0.0],[115.68424,-7.06269,0.0],[115.68622,-7.05628,0.0],[115.69555,-7.05922,0.0]]],[[[115.66165,-7.0413,0.0],[115.6668,-7.05253,0.0],[115.66975,-7.05607,0.0],[115.66965,-7.05826,0.0],[115.67518,-7.06205,0.0],[115.66799,-7.06652,0.0],[115.66191,-7.06654,0.0],[115.65344,-7.06432,0.0],[115.64963,-7.0602,0.0],[115.64834,-7.05505,0.0],[115.64845,-7.04655,0.0],[115.64976,-7.04446,0.0],[115.65959,-7.04054,0.0],[115.66165,-7.0413,0.0]]],[[[115.69808,-7.027,0.0],[115.69014,-7.02365,0.0],[115.69419,-7.01978,0.0],[115.69666,-7.02066,0.0],[115.69896,-7.0243,0.0],[115.69808,-7.027,0.0]]],[[[115.6915,-7.01086,0.0],[115.6901,-7.01005,0.0],[115.69011,-7.00937,0.0],[115.69207,-7.00936,0.0],[115.6915,-7.01086,0.0]]],[[[115.66034,-7.00846,0.0],[115.66205,-7.00715,0.0],[115.6639,-7.00928,0.0],[115.66167,-7.01102,0.0],[115.66034,-7.00846,0.0]]],[[[115.70537,-7.01065,0.0],[115.70415,-7.00814,0.0],[115.70507,-7.00257,0.0],[115.70882,-7.00066,0.0],[115.71186,-7.00486,0.0],[115.70812,-7.00981,0.0],[115.70537,-7.01065,0.0]]],[[[115.76113,-6.96724,0.0],[115.76171,-6.97038,0.0],[115.75798,-6.97606,0.0],[115.75559,-6.97615,0.0],[115.7529,-6.97319,0.0],[115.74801,-6.97113,0.0],[115.7507,-6.9693,0.0],[115.75339,-6.96977,0.0],[115.75786,-6.96606,0.0],[115.76113,-6.96724,0.0]]],[[[115.70703,-6.96703,0.0],[115.7099,-6.96213,0.0],[115.70925,-6.96526,0.0],[115.70703,-6.96703,0.0]]],[[[115.78948,-6.93754,0.0],[115.79386,-6.94241,0.0],[115.79487,-6.94173,0.0],[115.79459,-6.93889,0.0],[115.79653,-6.94698,0.0],[115.79571,-6.95484,0.0],[115.79192,-6.96135,0.0],[115.78943,-6.96315,0.0],[115.78484,-6.96412,0.0],[115.77859,-6.96258,0.0],[115.78316,-6.95322,0.0],[115.78863,-6.93717,0.0],[115.79031,-6.93646,0.0],[115.791,-6.9368,0.0],[115.78948,-6.93754,0.0]]],[[[115.74538,-6.93601,0.0],[115.74811,-6.93202,0.0],[115.74837,-6.92838,0.0],[115.74964,-6.93052,0.0],[115.74874,-6.9347,0.0],[115.74538,-6.93601,0.0]]],[[[115.78329,-7.10961,0.0],[115.78947,-7.11391,0.0],[115.79124,-7.11735,0.0],[115.7968,-7.12085,0.0],[115.7984,-7.12483,0.0],[115.7959,-7.12734,0.0],[115.79798,-7.12698,0.0],[115.79872,-7.12819,0.0],[115.79367,-7.13429,0.0],[115.79357,-7.13884,0.0],[115.79786,-7.14087,0.0],[115.79836,-7.14348,0.0],[115.80209,-7.14793,0.0],[115.80461,-7.14477,0.0],[115.80852,-7.14671,0.0],[115.80892,-7.15389,0.0],[115.81304,-7.15239,0.0],[115.81457,-7.14955,0.0],[115.8205,-7.14803,0.0],[115.83555,-7.14894,0.0],[115.83771,-7.15157,0.0],[115.83704,-7.15669,0.0],[115.84318,-7.1627,0.0],[115.84996,-7.16264,0.0],[115.85367,-7.15991,0.0],[115.8577,-7.16009,0.0],[115.86057,-7.15814,0.0],[115.86579,-7.16252,0.0],[115.86903,-7.16322,0.0],[115.86949,-7.15826,0.0],[115.87228,-7.15668,0.0],[115.87661,-7.16052,0.0],[115.8852,-7.16448,0.0],[115.88745,-7.16117,0.0],[115.89038,-7.16204,0.0],[115.89302,-7.1589,0.0],[115.89279,-7.15767,0.0],[115.8908,-7.15866,0.0],[115.8898,-7.15732,0.0],[115.89242,-7.14992,0.0],[115.88995,-7.14663,0.0],[115.88763,-7.14689,0.0],[115.88727,-7.15413,0.0],[115.8857,-7.15503,0.0],[115.88293,-7.16068,0.0],[115.87991,-7.15986,0.0],[115.87344,-7.15151,0.0],[115.87004,-7.13674,0.0],[115.87048,-7.13173,0.0],[115.87816,-7.12822,0.0],[115.88812,-7.12029,0.0],[115.88977,-7.12189,0.0],[115.88953,-7.12428,0.0],[115.89325,-7.12617,0.0],[115.88998,-7.1321,0.0],[115.89029,-7.13661,0.0],[115.89224,-7.13834,0.0],[115.8964,-7.13244,0.0],[115.89654,-7.12611,0.0],[115.89912,-7.11634,0.0],[115.89806,-7.11336,0.0],[115.8913,-7.11004,0.0],[115.89601,-7.10558,0.0],[115.90071,-7.10528,0.0],[115.90687,-7.10264,0.0],[115.90237,-7.12093,0.0],[115.90168,-7.14675,0.0],[115.89927,-7.17413,0.0],[115.89343,-7.19247,0.0],[115.88501,-7.20021,0.0],[115.87784,-7.20247,0.0],[115.8366,-7.20669,0.0],[115.82884,-7.20622,0.0],[115.81904,-7.19802,0.0],[115.79378,-7.18658,0.0],[115.77174,-7.18044,0.0],[115.75456,-7.17158,0.0],[115.74674,-7.16386,0.0],[115.74229,-7.15617,0.0],[115.74161,-7.15252,0.0],[115.74379,-7.15098,0.0],[115.74769,-7.15059,0.0],[115.75337,-7.14588,0.0],[115.75421,-7.14395,0.0],[115.75224,-7.14133,0.0],[115.75448,-7.14089,0.0],[115.75429,-7.13974,0.0],[115.75579,-7.13935,0.0],[115.75747,-7.13643,0.0],[115.76082,-7.13502,0.0],[115.7617,-7.13331,0.0],[115.76068,-7.13077,0.0],[115.76293,-7.12939,0.0],[115.76739,-7.1331,0.0],[115.76968,-7.14113,0.0],[115.77197,-7.14288,0.0],[115.77171,-7.14677,0.0],[115.76989,-7.14869,0.0],[115.77209,-7.14959,0.0],[115.77252,-7.1483,0.0],[115.77538,-7.15002,0.0],[115.77423,-7.14418,0.0],[115.77707,-7.1425,0.0],[115.77485,-7.14252,0.0],[115.77136,-7.13731,0.0],[115.77412,-7.13123,0.0],[115.77893,-7.129,0.0],[115.77726,-7.12462,0.0],[115.78008,-7.12374,0.0],[115.78051,-7.1194,0.0],[115.77674,-7.11675,0.0],[115.77996,-7.10986,0.0],[115.78329,-7.10961,0.0]]],[[[115.86887,-7.15644,0.0],[115.86965,-7.15513,0.0],[115.87002,-7.15496,0.0],[115.87003,-7.15725,0.0],[115.86887,-7.15644,0.0]]],[[[115.83983,-7.15083,0.0],[115.84103,-7.15088,0.0],[115.84188,-7.15192,0.0],[115.83973,-7.15206,0.0],[115.83983,-7.15083,0.0]]],[[[115.85607,-7.15046,0.0],[115.85471,-7.14789,0.0],[115.85694,-7.14502,0.0],[115.85958,-7.14511,0.0],[115.86459,-7.14814,0.0],[115.86315,-7.14945,0.0],[115.86356,-7.1513,0.0],[115.85953,-7.15222,0.0],[115.85607,-7.15046,0.0]]],[[[115.85349,-7.14212,0.0],[115.85383,-7.14736,0.0],[115.85134,-7.14768,0.0],[115.85075,-7.14209,0.0],[115.85349,-7.14212,0.0]]],[[[115.84174,-7.1414,0.0],[115.84338,-7.14406,0.0],[115.8417,-7.14593,0.0],[115.84045,-7.1428,0.0],[115.84174,-7.1414,0.0]]],[[[115.84152,-7.1402,0.0],[115.83574,-7.14009,0.0],[115.83496,-7.13818,0.0],[115.83975,-7.13564,0.0],[115.84155,-7.1369,0.0],[115.84152,-7.1402,0.0]]],[[[115.80047,-7.05733,0.0],[115.80277,-7.05437,0.0],[115.80426,-7.05157,0.0],[115.80102,-7.05977,0.0],[115.80047,-7.05733,0.0]]],[[[115.81161,-7.03832,0.0],[115.81082,-7.03609,0.0],[115.81257,-7.03278,0.0],[115.81657,-7.03242,0.0],[115.81668,-7.03412,0.0],[115.81331,-7.03879,0.0],[115.81161,-7.03832,0.0]]],[[[115.91484,-6.94988,0.0],[115.92359,-6.95131,0.0],[115.9313,-6.95487,0.0],[115.93492,-6.95817,0.0],[115.9354,-6.96134,0.0],[115.93321,-6.96213,0.0],[115.92866,-6.9604,0.0],[115.92726,-6.96409,0.0],[115.92827,-6.96024,0.0],[115.92555,-6.95931,0.0],[115.91352,-6.96226,0.0],[115.90666,-6.9626,0.0],[115.90229,-6.96118,0.0],[115.90061,-6.9572,0.0],[115.90099,-6.95191,0.0],[115.90535,-6.95015,0.0],[115.91484,-6.94988,0.0]]],[[[115.87678,-6.9401,0.0],[115.8813,-6.94511,0.0],[115.88398,-6.95069,0.0],[115.87871,-6.95944,0.0],[115.87458,-6.96153,0.0],[115.86859,-6.96141,0.0],[115.8692,-6.95665,0.0],[115.86753,-6.95138,0.0],[115.87118,-6.94728,0.0],[115.8742,-6.93894,0.0],[115.87678,-6.9401,0.0]]],[[[115.87115,-6.94021,0.0],[115.87134,-6.93996,0.0],[115.87139,-6.94016,0.0],[115.87115,-6.94021,0.0]]],[[[116.25848,-6.93002,0.0],[116.26512,-6.93366,0.0],[116.26994,-6.93881,0.0],[116.26994,-6.94011,0.0],[116.26799,-6.93918,0.0],[116.26667,-6.94357,0.0],[116.26372,-6.94603,0.0],[116.25749,-6.94893,0.0],[116.25028,-6.95002,0.0],[116.23991,-6.94831,0.0],[116.23551,-6.946,0.0],[116.23469,-6.94295,0.0],[116.23681,-6.93758,0.0],[116.24382,-6.9361,0.0],[116.25341,-6.93034,0.0],[116.26512,-6.93489,0.0],[116.25764,-6.9301,0.0],[116.25223,-6.92852,0.0],[116.25848,-6.93002,0.0]]],[[[115.79849,-6.79669,0.0],[115.79877,-6.79651,0.0],[115.79882,-6.79672,0.0],[115.79849,-6.79669,0.0]]],[[[115.79876,-6.79458,0.0],[115.79917,-6.79443,0.0],[115.79911,-6.79468,0.0],[115.79876,-6.79458,0.0]]]]}},{"type":"Feature","properties":{"kecamatan":"Ra'as","kab_kota":"Sumenep"},"geometry":{"type":"MultiPolygon","coordinates":[[[[114.60622,-7.15922,0.0],[114.6034,-7.16217,0.0],[114.60119,-7.15992,0.0],[114.60055,-7.16249,0.0],[114.59769,-7.16412,0.0],[114.59598,-7.16423,0.0],[114.59543,-7.1626,0.0],[114.59553,-7.16414,0.0],[114.59442,-7.16413,0.0],[114.5943,-7.16278,0.0],[114.59234,-7.16435,0.0],[114.58683,-7.16237,0.0],[114.58456,-7.16401,0.0],[114.57799,-7.16398,0.0],[114.5755,-7.16631,0.0],[114.57322,-7.16461,0.0],[114.57562,-7.16205,0.0],[114.57542,-7.16006,0.0],[114.57268,-7.15712,0.0],[114.56658,-7.15458,0.0],[114.56524,-7.15095,0.0],[114.55785,-7.14909,0.0],[114.55591,-7.14498,0.0],[114.55102,-7.14174,0.0],[114.54369,-7.14356,0.0],[114.53917,-7.14191,0.0],[114.53313,-7.14174,0.0],[114.5291,-7.14349,0.0],[114.51458,-7.14366,0.0],[114.50713,-7.14505,0.0],[114.50885,-7.14638,0.0],[114.50471,-7.14646,0.0],[114.50801,-7.14952,0.0],[114.50596,-7.15297,0.0],[114.50925,-7.15381,0.0],[114.51046,-7.15244,0.0],[114.5101,-7.15371,0.0],[114.49635,-7.15893,0.0],[114.48802,-7.15954,0.0],[114.48098,-7.15706,0.0],[114.47593,-7.14996,0.0],[114.47491,-7.14627,0.0],[114.47599,-7.14109,0.0],[114.48109,-7.13821,0.0],[114.48732,-7.13911,0.0],[114.49623,-7.13688,0.0],[114.49671,-7.13784,0.0],[114.49755,-7.13749,0.0],[114.49829,-7.13617,0.0],[114.49912,-7.13576,0.0],[114.49835,-7.13659,0.0],[114.50023,-7.13679,0.0],[114.49977,-7.13875,0.0],[114.50191,-7.1391,0.0],[114.499,-7.14165,0.0],[114.49939,-7.14291,0.0],[114.50768,-7.14431,0.0],[114.51593,-7.1417,0.0],[114.51384,-7.1386,0.0],[114.51396,-7.13558,0.0],[114.523,-7.13329,0.0],[114.53764,-7.13201,0.0],[114.53966,-7.13046,0.0],[114.54267,-7.13081,0.0],[114.54776,-7.12856,0.0],[114.55423,-7.13184,0.0],[114.55694,-7.13087,0.0],[114.55788,-7.13234,0.0],[114.5658,-7.13289,0.0],[114.57574,-7.12836,0.0],[114.57587,-7.13,0.0],[114.57852,-7.13156,0.0],[114.5782,-7.13334,0.0],[114.5793,-7.13219,0.0],[114.58151,-7.13356,0.0],[114.58361,-7.13237,0.0],[114.58536,-7.13407,0.0],[114.59019,-7.13246,0.0],[114.59541,-7.13702,0.0],[114.60177,-7.1374,0.0],[114.60394,-7.13518,0.0],[114.60499,-7.13786,0.0],[114.60686,-7.1371,0.0],[114.60958,-7.13959,0.0],[114.61317,-7.1393,0.0],[114.61457,-7.14215,0.0],[114.6121,-7.1464,0.0],[114.61372,-7.14687,0.0],[114.61371,-7.14831,0.0],[114.61656,-7.14718,0.0],[114.61364,-7.14878,0.0],[114.61594,-7.15302,0.0],[114.60987,-7.15796,0.0],[114.60622,-7.15922,0.0]]],[[[114.58627,-7.12902,0.0],[114.58056,-7.13025,0.0],[114.57965,-7.12971,0.0],[114.58067,-7.12793,0.0],[114.58412,-7.12639,0.0],[114.58738,-7.12734,0.0],[114.58627,-7.12902,0.0]]],[[[114.53531,-7.12149,0.0],[114.53874,-7.12194,0.0],[114.538,-7.12341,0.0],[114.5366,-7.12332,0.0],[114.53764,-7.12523,0.0],[114.53608,-7.1254,0.0],[114.53437,-7.12227,0.0],[114.53284,-7.12258,0.0],[114.53299,-7.11963,0.0],[114.5347,-7.11987,0.0],[114.53531,-7.12149,0.0]]],[[[114.57412,-7.07649,0.0],[114.5713,-7.0759,0.0],[114.5749,-7.07492,0.0],[114.5788,-7.07123,0.0],[114.57912,-7.07412,0.0],[114.57412,-7.07649,0.0]]],[[[114.61135,-7.16619,0.0],[114.61678,-7.16467,0.0],[114.61756,-7.16928,0.0],[114.60984,-7.17221,0.0],[114.60503,-7.17103,0.0],[114.60598,-7.16655,0.0],[114.60973,-7.16217,0.0],[114.61277,-7.16184,0.0],[114.61078,-7.16512,0.0],[114.61135,-7.16619,0.0]]],[[[114.67815,-7.15884,0.0],[114.68365,-7.16174,0.0],[114.68529,-7.16441,0.0],[114.68412,-7.16543,0.0],[114.68217,-7.16447,0.0],[114.67917,-7.16623,0.0],[114.67768,-7.16487,0.0],[114.66849,-7.16824,0.0],[114.65672,-7.17005,0.0],[114.65605,-7.16567,0.0],[114.65834,-7.16282,0.0],[114.66761,-7.15877,0.0],[114.67815,-7.15884,0.0]]],[[[114.77316,-7.13267,0.0],[114.76908,-7.13278,0.0],[114.76791,-7.13099,0.0],[114.768,-7.12947,0.0],[114.76914,-7.12906,0.0],[114.7681,-7.13006,0.0],[114.76955,-7.13166,0.0],[114.77316,-7.13267,0.0]]],[[[114.78406,-7.11967,0.0],[114.77981,-7.13002,0.0],[114.77711,-7.13324,0.0],[114.77528,-7.13356,0.0],[114.77374,-7.13087,0.0],[114.77477,-7.13046,0.0],[114.7747,-7.12848,0.0],[114.77347,-7.1288,0.0],[114.77287,-7.12749,0.0],[114.77406,-7.12646,0.0],[114.77398,-7.12275,0.0],[114.7795,-7.11474,0.0],[114.78124,-7.11577,0.0],[114.78214,-7.11897,0.0],[114.78406,-7.11967,0.0]]],[[[114.79553,-7.10407,0.0],[114.79511,-7.10784,0.0],[114.79346,-7.10752,0.0],[114.79342,-7.10439,0.0],[114.79553,-7.10407,0.0]]],[[[114.69923,-7.10702,0.0],[114.69646,-7.10545,0.0],[114.69983,-7.10296,0.0],[114.70222,-7.10502,0.0],[114.69923,-7.10702,0.0]]],[[[114.68605,-7.09836,0.0],[114.68291,-7.09926,0.0],[114.67778,-7.09822,0.0],[114.67629,-7.09733,0.0],[114.6849,-7.09217,0.0],[114.68779,-7.09521,0.0],[114.68605,-7.09836,0.0]]],[[[115.19367,-7.09221,0.0],[115.19244,-7.0889,0.0],[115.19325,-7.08632,0.0],[115.19589,-7.08319,0.0],[115.19799,-7.08258,0.0],[115.20052,-7.08506,0.0],[115.20082,-7.08773,0.0],[115.19711,-7.09209,0.0],[115.19367,-7.09221,0.0]]],[[[114.64724,-7.08581,0.0],[114.6448,-7.08393,0.0],[114.6437,-7.08045,0.0],[114.64436,-7.07576,0.0],[114.64608,-7.07326,0.0],[114.64886,-7.07521,0.0],[114.65096,-7.07957,0.0],[114.64955,-7.08505,0.0],[114.64724,-7.08581,0.0]]]]}},{"type":"Feature","properties":{"kecamatan":"Masalembu","kab_kota":"Sumenep"},"geometry":{"type":"MultiPolygon","coordinates":[[[[114.42933,-5.55229,0.0],[114.43128,-5.54591,0.0],[114.43216,-5.54725,0.0],[114.43632,-5.54738,0.0],[114.43859,-5.5447,0.0],[114.43991,-5.54991,0.0],[114.44213,-5.54868,0.0],[114.44496,-5.54952,0.0],[114.44632,-5.54753,0.0],[114.45182,-5.547,0.0],[114.45189,-5.5514,0.0],[114.4533,-5.55291,0.0],[114.45184,-5.55409,0.0],[114.45209,-5.55811,0.0],[114.4508,-5.56138,0.0],[114.45485,-5.56525,0.0],[114.45095,-5.56728,0.0],[114.45176,-5.56867,0.0],[114.44955,-5.56915,0.0],[114.4506,-5.57149,0.0],[114.44666,-5.57213,0.0],[114.44647,-5.57425,0.0],[114.44844,-5.57685,0.0],[114.44725,-5.57904,0.0],[114.43484,-5.58804,0.0],[114.42954,-5.58691,0.0],[114.42232,-5.59003,0.0],[114.41958,-5.57713,0.0],[114.41722,-5.57414,0.0],[114.4061,-5.56928,0.0],[114.39749,-5.57129,0.0],[114.39454,-5.56797,0.0],[114.39344,-5.56464,0.0],[114.39518,-5.56133,0.0],[114.39728,-5.54908,0.0],[114.39694,-5.54669,0.0],[114.39404,-5.54504,0.0],[114.39522,-5.54336,0.0],[114.39378,-5.54278,0.0],[114.39882,-5.53917,0.0],[114.4046,-5.53887,0.0],[114.40458,-5.53725,0.0],[114.40719,-5.53666,0.0],[114.40702,-5.53488,0.0],[114.4096,-5.53287,0.0],[114.41308,-5.53238,0.0],[114.4155,-5.53638,0.0],[114.41307,-5.54565,0.0],[114.41621,-5.54798,0.0],[114.4175,-5.5514,0.0],[114.41971,-5.55232,0.0],[114.41954,-5.54854,0.0],[114.42174,-5.54595,0.0],[114.42377,-5.54756,0.0],[114.42439,-5.55032,0.0],[114.42632,-5.55016,0.0],[114.42688,-5.5488,0.0],[114.42933,-5.55229,0.0]]],[[[114.41492,-5.42791,0.0],[114.42278,-5.42962,0.0],[114.42409,-5.43182,0.0],[114.43057,-5.43608,0.0],[114.43143,-5.43941,0.0],[114.43778,-5.44579,0.0],[114.43982,-5.45323,0.0],[114.43737,-5.45845,0.0],[114.43317,-5.45931,0.0],[114.43154,-5.45831,0.0],[114.42913,-5.46158,0.0],[114.42528,-5.46057,0.0],[114.42227,-5.45599,0.0],[114.41727,-5.45378,0.0],[114.41425,-5.45015,0.0],[114.41419,-5.44735,0.0],[114.41128,-5.44457,0.0],[114.40953,-5.43979,0.0],[114.41332,-5.43338,0.0],[114.41162,-5.43196,0.0],[114.41245,-5.42996,0.0],[114.41492,-5.42791,0.0]]],[[[114.59562,-5.10245,0.0],[114.5941,-5.10401,0.0],[114.59324,-5.10287,0.0],[114.59562,-5.10245,0.0]]],[[[114.60803,-5.0556,0.0],[114.61193,-5.0624,0.0],[114.61106,-5.0728,0.0],[114.61207,-5.07414,0.0],[114.60608,-5.08304,0.0],[114.60407,-5.09075,0.0],[114.60416,-5.09693,0.0],[114.60059,-5.09467,0.0],[114.59912,-5.09604,0.0],[114.59599,-5.09589,0.0],[114.58962,-5.09068,0.0],[114.5926,-5.08639,0.0],[114.59379,-5.0751,0.0],[114.59332,-5.07194,0.0],[114.58998,-5.0707,0.0],[114.58979,-5.06682,0.0],[114.58814,-5.06534,0.0],[114.58828,-5.06116,0.0],[114.60024,-5.04732,0.0],[114.60947,-5.04297,0.0],[114.6108,-5.04464,0.0],[114.61082,-5.04789,0.0],[114.60803,-5.0556,0.0]]]]}}]}