{"type":"FeatureCollection","features":[{"type":"Feature","properties":{"kecamatan":"Tlogosari","kab_kota":"Bondowoso"},"geometry":{"type":"Polygon","coordinates":[[[114.04525,-8.08684,0.0],[114.04709,-8.09136,0.0],[114.05147,-8.1081,0.0],[114.0537,-8.11096,0.0],[114.05393,-8.11632,0.0],[114.05864,-8.12447,0.0],[114.05555,-8.12798,0.0],[114.0473,-8.12622,0.0],[114.04468,-8.12007,0.0],[114.03988,-8.11351,0.0],[114.03382,-8.11413,0.0],[114.02763,-8.1127,0.0],[114.02525,-8.10872,0.0],[114.02535,-8.10491,0.0],[114.02164,-8.1012,0.0],[114.01937,-8.09628,0.0],[114.01557,-8.09311,0.0],[114.01473,-8.08691,0.0],[114.00285,-8.0743,0.0],[113.99156,-8.07003,0.0],[113.98922,-8.06712,0.0],[113.97846,-8.06204,0.0],[113.97085,-8.0552,0.0],[113.96247,-8.05608,0.0],[113.95865,-8.05507,0.0],[113.9534,-8.05185,0.0],[113.94888,-8.04553,0.0],[113.93865,-8.04236,0.0],[113.93764,-8.03912,0.0],[113.92883,-8.03454,0.0],[113.92859,-8.03228,0.0],[113.92532,-8.03135,0.0],[113.92029,-8.02683,0.0],[113.92252,-8.00958,0.0],[113.92057,-8.00824,0.0],[113.92171,-8.0067,0.0],[113.92178,-8.00121,0.0],[113.9185,-7.99745,0.0],[113.9163,-7.99672,0.0],[113.91435,-7.98919,0.0],[113.90995,-7.98688,0.0],[113.9092,-7.97677,0.0],[113.8982,-7.97744,0.0],[113.89787,-7.96856,0.0],[113.89559,-7.96208,0.0],[113.90247,-7.96089,0.0],[113.90035,-7.95893,0.0],[113.9034,-7.95714,0.0],[113.90341,-7.95516,0.0],[113.90528,-7.95536,0.0],[113.89962,-7.94922,0.0],[113.90758,-7.95219,0.0],[113.91379,-7.95234,0.0],[113.92926,-7.95697,0.0],[113.93081,-7.95638,0.0],[113.93185,-7.96824,0.0],[113.9386,-7.97466,0.0],[113.94141,-7.98199,0.0],[113.94292,-7.9822,0.0],[113.94296,-7.97873,0.0],[113.94507,-7.97883,0.0],[113.9445,-7.97691,0.0],[113.94676,-7.97744,0.0],[113.94873,-7.97458,0.0],[113.95084,-7.97392,0.0],[113.94911,-7.97088,0.0],[113.95148,-7.96806,0.0],[113.95515,-7.97036,0.0],[113.95951,-7.97761,0.0],[113.96516,-7.98081,0.0],[113.97625,-7.99183,0.0],[113.9826,-7.99609,0.0],[113.98353,-7.99557,0.0],[113.9835,-7.99719,0.0],[113.99133,-8.00422,0.0],[113.99117,-8.00586,0.0],[113.99287,-8.00651,0.0],[113.99447,-8.01083,0.0],[113.99844,-8.01289,0.0],[113.99887,-8.01467,0.0],[114.00477,-8.0199,0.0],[114.00659,-8.02733,0.0],[114.01164,-8.03165,0.0],[114.01548,-8.03705,0.0],[114.0178,-8.03817,0.0],[114.01883,-8.04047,0.0],[114.02087,-8.04076,0.0],[114.02381,-8.04611,0.0],[114.02378,-8.05201,0.0],[114.02948,-8.05772,0.0],[114.02991,-8.06037,0.0],[114.0317,-8.06172,0.0],[114.03828,-8.0808,0.0],[114.04525,-8.08684,0.0]]]}},{"type":"Feature","properties":{"kecamatan":"Sukosari","kab_kota":"Bondowoso"},"geometry":{"type":"MultiPolygon","coordinates":[[[[113.93409,-7.94467,0.0],[113.94049,-7.95485,0.0],[113.94369,-7.95619,0.0],[113.95148,-7.96806,0.0],[113.94911,-7.97088,0.0],[113.95084,-7.97392,0.0],[113.94873,-7.97458,0.0],[113.94676,-7.97744,0.0],[113.94427,-7.97715,0.0],[113.94507,-7.97883,0.0],[113.94296,-7.97873,0.0],[113.94292,-7.9822,0.0],[113.94141,-7.98199,0.0],[113.9386,-7.97466,0.0],[113.93185,-7.96824,0.0],[113.93072,-7.95963,0.0],[113.93159,-7.95688,0.0],[113.92091,-7.95436,0.0],[113.9225,-7.95004,0.0],[113.92375,-7.9508,0.0],[113.92485,-7.94663,0.0],[113.92027,-7.94413,0.0],[113.91537,-7.93856,0.0],[113.9178,-7.93359,0.0],[113.92071,-7.93375,0.0],[113.92394,-7.932,0.0],[113.92304,-7.92956,0.0],[113.92401,-7.92922,0.0],[113.93049,-7.92777,0.0],[113.93432,-7.92928,0.0],[113.93722,-7.92787,0.0],[113.94047,-7.9318,0.0],[113.94044,-7.93613,0.0],[113.94543,-7.94116,0.0],[113.95054,-7.93801,0.0],[113.94956,-7.93507,0.0],[113.96001,-7.93105,0.0],[113.96165,-7.93364,0.0],[113.96303,-7.94098,0.0],[113.96646,-7.94386,0.0],[113.97039,-7.95153,0.0],[113.95546,-7.95694,0.0],[113.94576,-7.94664,0.0],[113.93909,-7.94888,0.0],[113.93554,-7.94394,0.0],[113.93409,-7.94467,0.0]]],[[[113.96782,-7.91232,0.0],[113.97632,-7.91233,0.0],[113.97733,-7.91657,0.0],[113.97946,-7.91713,0.0],[113.98227,-7.92134,0.0],[113.9857,-7.92316,0.0],[113.9905,-7.93206,0.0],[113.99013,-7.93377,0.0],[113.99139,-7.93367,0.0],[113.99135,-7.93707,0.0],[113.99379,-7.94166,0.0],[113.99156,-7.94275,0.0],[113.99218,-7.94386,0.0],[113.98847,-7.94449,0.0],[113.98927,-7.94627,0.0],[113.98614,-7.94605,0.0],[113.98477,-7.94408,0.0],[113.97704,-7.94599,0.0],[113.97599,-7.94469,0.0],[113.97341,-7.94484,0.0],[113.9691,-7.94083,0.0],[113.96501,-7.9331,0.0],[113.96164,-7.93017,0.0],[113.96035,-7.92419,0.0],[113.96104,-7.92156,0.0],[113.95899,-7.91895,0.0],[113.95732,-7.91464,0.0],[113.95761,-7.91073,0.0],[113.95515,-7.90847,0.0],[113.95517,-7.90646,0.0],[113.95623,-7.90533,0.0],[113.95854,-7.90579,0.0],[113.96014,-7.90735,0.0],[113.95972,-7.9084,0.0],[113.96253,-7.91046,0.0],[113.96294,-7.91312,0.0],[113.96478,-7.9138,0.0],[113.96751,-7.91366,0.0],[113.96782,-7.91232,0.0]]]]}},{"type":"Feature","properties":{"kecamatan":"Maesan","kab_kota":"Bondowoso"},"geometry":{"type":"Polygon","coordinates":[[[113.77503,-8.03786,0.0],[113.77252,-8.03693,0.0],[113.77101,-8.0397,0.0],[113.76437,-8.04353,0.0],[113.76022,-8.05079,0.0],[113.7563,-8.04738,0.0],[113.75298,-8.0526,0.0],[113.75161,-8.04932,0.0],[113.74925,-8.04943,0.0],[113.75189,-8.06083,0.0],[113.74892,-8.06535,0.0],[113.74738,-8.0649,0.0],[113.74753,-8.06155,0.0],[113.74655,-8.06119,0.0],[113.74515,-8.05471,0.0],[113.74612,-8.05134,0.0],[113.73961,-8.04679,0.0],[113.73897,-8.04212,0.0],[113.73551,-8.03965,0.0],[113.7333,-8.03362,0.0],[113.72801,-8.02825,0.0],[113.72853,-8.02717,0.0],[113.72619,-8.02357,0.0],[113.72024,-8.02168,0.0],[113.71019,-8.01122,0.0],[113.70379,-8.01178,0.0],[113.69559,-8.01039,0.0],[113.68724,-8.01151,0.0],[113.68643,-8.00688,0.0],[113.68239,-8.00159,0.0],[113.68113,-7.99772,0.0],[113.67867,-7.9963,0.0],[113.67169,-7.98595,0.0],[113.67265,-7.9845,0.0],[113.67075,-7.98283,0.0],[113.66933,-7.97447,0.0],[113.67024,-7.96908,0.0],[113.67282,-7.96818,0.0],[113.67719,-7.96965,0.0],[113.68245,-7.97357,0.0],[113.68838,-7.98095,0.0],[113.69137,-7.98206,0.0],[113.69493,-7.98556,0.0],[113.70229,-7.98722,0.0],[113.7042,-7.99003,0.0],[113.7154,-7.9917,0.0],[113.7209,-7.99494,0.0],[113.72315,-7.99432,0.0],[113.72612,-7.99791,0.0],[113.73176,-7.99855,0.0],[113.7425,-8.00315,0.0],[113.75148,-8.00493,0.0],[113.75251,-8.00293,0.0],[113.75501,-8.00374,0.0],[113.76155,-8.00079,0.0],[113.76862,-8.00496,0.0],[113.77452,-8.00352,0.0],[113.78364,-8.00506,0.0],[113.78621,-8.00378,0.0],[113.789,-8.00639,0.0],[113.79132,-8.00669,0.0],[113.79168,-8.00803,0.0],[113.79736,-8.00603,0.0],[113.79947,-8.00375,0.0],[113.80808,-8.00591,0.0],[113.80417,-8.01709,0.0],[113.81019,-8.01969,0.0],[113.80832,-8.02473,0.0],[113.79982,-8.0213,0.0],[113.79773,-8.029,0.0],[113.81237,-8.0348,0.0],[113.81166,-8.04295,0.0],[113.81275,-8.04612,0.0],[113.80965,-8.04847,0.0],[113.80988,-8.04981,0.0],[113.80755,-8.05021,0.0],[113.80735,-8.05413,0.0],[113.80568,-8.05649,0.0],[113.80219,-8.05767,0.0],[113.79998,-8.05523,0.0],[113.79561,-8.05555,0.0],[113.79176,-8.05135,0.0],[113.7819,-8.05014,0.0],[113.77958,-8.04398,0.0],[113.77492,-8.04033,0.0],[113.77503,-8.03786,0.0]]]}},{"type":"Feature","properties":{"kecamatan":"Tamanan","kab_kota":"Bondowoso"},"geometry":{"type":"Polygon","coordinates":[[[113.85034,-8.03205,0.0],[113.85832,-8.03894,0.0],[113.85703,-8.04169,0.0],[113.85388,-8.04414,0.0],[113.85139,-8.04318,0.0],[113.84989,-8.04565,0.0],[113.8441,-8.04726,0.0],[113.83561,-8.04601,0.0],[113.82986,-8.0479,0.0],[113.82414,-8.04535,0.0],[113.8168,-8.04545,0.0],[113.8135,-8.04692,0.0],[113.81166,-8.04295,0.0],[113.81237,-8.0348,0.0],[113.79773,-8.029,0.0],[113.79982,-8.0213,0.0],[113.80832,-8.02473,0.0],[113.81019,-8.01969,0.0],[113.80417,-8.01709,0.0],[113.80808,-8.00591,0.0],[113.79949,-8.00386,0.0],[113.80106,-8.00288,0.0],[113.8011,-7.99869,0.0],[113.80283,-7.99795,0.0],[113.80485,-7.99185,0.0],[113.80646,-7.99033,0.0],[113.81226,-7.99264,0.0],[113.81471,-7.9915,0.0],[113.81584,-7.99281,0.0],[113.83927,-7.9969,0.0],[113.8438,-7.99833,0.0],[113.8437,-8.00056,0.0],[113.8513,-8.00543,0.0],[113.85614,-8.00655,0.0],[113.85804,-8.01044,0.0],[113.86194,-8.01219,0.0],[113.86097,-8.01443,0.0],[113.86486,-8.0158,0.0],[113.86227,-8.02154,0.0],[113.86385,-8.02465,0.0],[113.86203,-8.0284,0.0],[113.85948,-8.02714,0.0],[113.8601,-8.02537,0.0],[113.85853,-8.02428,0.0],[113.85741,-8.01857,0.0],[113.8552,-8.01933,0.0],[113.85328,-8.02415,0.0],[113.84376,-8.0206,0.0],[113.84726,-8.03034,0.0],[113.85154,-8.03091,0.0],[113.85034,-8.03205,0.0]]]}},{"type":"Feature","properties":{"kecamatan":"Curahdami","kab_kota":"Bondowoso"},"geometry":{"type":"Polygon","coordinates":[[[113.77855,-7.95562,0.0],[113.77668,-7.95768,0.0],[113.77187,-7.959,0.0],[113.76798,-7.96402,0.0],[113.76334,-7.96679,0.0],[113.75629,-7.96867,0.0],[113.75106,-7.96371,0.0],[113.7448,-7.96136,0.0],[113.74306,-7.95841,0.0],[113.73664,-7.95649,0.0],[113.72972,-7.94734,0.0],[113.73145,-7.94285,0.0],[113.72325,-7.93817,0.0],[113.72822,-7.93541,0.0],[113.73661,-7.92769,0.0],[113.74081,-7.92632,0.0],[113.74316,-7.92297,0.0],[113.74572,-7.92231,0.0],[113.75062,-7.91813,0.0],[113.76007,-7.91452,0.0],[113.7614,-7.91146,0.0],[113.769,-7.91008,0.0],[113.77019,-7.90801,0.0],[113.77723,-7.90784,0.0],[113.7784,-7.90902,0.0],[113.78166,-7.90815,0.0],[113.78167,-7.90677,0.0],[113.78026,-7.90636,0.0],[113.78075,-7.9027,0.0],[113.77806,-7.90036,0.0],[113.78169,-7.89968,0.0],[113.78183,-7.90124,0.0],[113.78342,-7.90087,0.0],[113.78243,-7.89955,0.0],[113.78681,-7.89219,0.0],[113.78767,-7.88121,0.0],[113.79074,-7.87926,0.0],[113.79731,-7.87921,0.0],[113.79963,-7.88009,0.0],[113.80072,-7.8821,0.0],[113.80522,-7.88322,0.0],[113.80686,-7.8863,0.0],[113.80767,-7.89126,0.0],[113.80595,-7.8972,0.0],[113.80841,-7.90024,0.0],[113.80539,-7.9086,0.0],[113.80616,-7.91434,0.0],[113.80428,-7.91778,0.0],[113.80161,-7.934,0.0],[113.79769,-7.93719,0.0],[113.79201,-7.93746,0.0],[113.79123,-7.93908,0.0],[113.79206,-7.93936,0.0],[113.79176,-7.94549,0.0],[113.79467,-7.94839,0.0],[113.80035,-7.94674,0.0],[113.80209,-7.94817,0.0],[113.80054,-7.95606,0.0],[113.79597,-7.96544,0.0],[113.79703,-7.96587,0.0],[113.79549,-7.97029,0.0],[113.78965,-7.96766,0.0],[113.77896,-7.96548,0.0],[113.78024,-7.95763,0.0],[113.77855,-7.95562,0.0]]]}},{"type":"Feature","properties":{"kecamatan":"Tenggarang","kab_kota":"Bondowoso"},"geometry":{"type":"Polygon","coordinates":[[[113.84665,-7.9504,0.0],[113.84795,-7.95469,0.0],[113.84666,-7.96281,0.0],[113.8422,-7.96444,0.0],[113.84221,-7.96626,0.0],[113.83857,-7.96074,0.0],[113.83857,-7.95829,0.0],[113.83214,-7.95491,0.0],[113.83104,-7.95144,0.0],[113.82532,-7.95047,0.0],[113.82386,-7.94669,0.0],[113.82147,-7.94457,0.0],[113.8212,-7.94278,0.0],[113.82265,-7.94126,0.0],[113.82111,-7.93685,0.0],[113.82202,-7.93319,0.0],[113.82585,-7.93158,0.0],[113.83026,-7.92592,0.0],[113.83595,-7.92356,0.0],[113.84381,-7.91209,0.0],[113.85196,-7.90769,0.0],[113.8542,-7.90472,0.0],[113.85874,-7.90271,0.0],[113.86227,-7.90339,0.0],[113.8635,-7.90172,0.0],[113.86274,-7.89961,0.0],[113.8664,-7.898,0.0],[113.86746,-7.90338,0.0],[113.86661,-7.90493,0.0],[113.86922,-7.90988,0.0],[113.86984,-7.91648,0.0],[113.86872,-7.92421,0.0],[113.8741,-7.93272,0.0],[113.87223,-7.93351,0.0],[113.87114,-7.93222,0.0],[113.87034,-7.93336,0.0],[113.86712,-7.93344,0.0],[113.8674,-7.9366,0.0],[113.86364,-7.93773,0.0],[113.86326,-7.93925,0.0],[113.86088,-7.9387,0.0],[113.86024,-7.94042,0.0],[113.86666,-7.95273,0.0],[113.86626,-7.95565,0.0],[113.87035,-7.95725,0.0],[113.87174,-7.96097,0.0],[113.8772,-7.96665,0.0],[113.87775,-7.97001,0.0],[113.87317,-7.96812,0.0],[113.87324,-7.96659,0.0],[113.8655,-7.96695,0.0],[113.8653,-7.96299,0.0],[113.85964,-7.96217,0.0],[113.8567,-7.95774,0.0],[113.85249,-7.95509,0.0],[113.85166,-7.95227,0.0],[113.84665,-7.9504,0.0]]]}},{"type":"Feature","properties":{"kecamatan":"Pujer","kab_kota":"Bondowoso"},"geometry":{"type":"Polygon","coordinates":[[[113.8825,-8.0145,0.0],[113.87612,-8.00848,0.0],[113.8743,-8.00301,0.0],[113.86785,-7.99766,0.0],[113.86728,-7.99477,0.0],[113.86208,-7.98975,0.0],[113.87087,-7.98932,0.0],[113.87122,-7.98749,0.0],[113.86768,-7.9853,0.0],[113.86453,-7.98027,0.0],[113.86486,-7.97885,0.0],[113.86059,-7.97439,0.0],[113.858,-7.9627,0.0],[113.85778,-7.95912,0.0],[113.85964,-7.96217,0.0],[113.8653,-7.96299,0.0],[113.8655,-7.96695,0.0],[113.87324,-7.96659,0.0],[113.87317,-7.96812,0.0],[113.87778,-7.96996,0.0],[113.8772,-7.96665,0.0],[113.87174,-7.96097,0.0],[113.87035,-7.95725,0.0],[113.86626,-7.95565,0.0],[113.86666,-7.95273,0.0],[113.86024,-7.94042,0.0],[113.86088,-7.9387,0.0],[113.86326,-7.93925,0.0],[113.86364,-7.93773,0.0],[113.8674,-7.9366,0.0],[113.86712,-7.93344,0.0],[113.87034,-7.93336,0.0],[113.87114,-7.93222,0.0],[113.87607,-7.93531,0.0],[113.87721,-7.93366,0.0],[113.88159,-7.93426,0.0],[113.88363,-7.93669,0.0],[113.88402,-7.93958,0.0],[113.88614,-7.94033,0.0],[113.88671,-7.94376,0.0],[113.88879,-7.9455,0.0],[113.8898,-7.94877,0.0],[113.89667,-7.95395,0.0],[113.89877,-7.95625,0.0],[113.89894,-7.95842,0.0],[113.90258,-7.96074,0.0],[113.89559,-7.96208,0.0],[113.89787,-7.96856,0.0],[113.8982,-7.97744,0.0],[113.9092,-7.97677,0.0],[113.90995,-7.98688,0.0],[113.91435,-7.98919,0.0],[113.9163,-7.99672,0.0],[113.9185,-7.99745,0.0],[113.92178,-8.00121,0.0],[113.92171,-8.0067,0.0],[113.92057,-8.00824,0.0],[113.92252,-8.00958,0.0],[113.92029,-8.02683,0.0],[113.91845,-8.0249,0.0],[113.91441,-8.02503,0.0],[113.91013,-8.02231,0.0],[113.90835,-8.02265,0.0],[113.90687,-8.02059,0.0],[113.9037,-8.02024,0.0],[113.90262,-8.01826,0.0],[113.8999,-8.01908,0.0],[113.89588,-8.01824,0.0],[113.89509,-8.01602,0.0],[113.89375,-8.01649,0.0],[113.89322,-8.01549,0.0],[113.88608,-8.01615,0.0],[113.8825,-8.0145,0.0]]]}},{"type":"Feature","properties":{"kecamatan":"Grujugan","kab_kota":"Bondowoso"},"geometry":{"type":"Polygon","coordinates":[[[113.78669,-8.00412,0.0],[113.78364,-8.00506,0.0],[113.77322,-8.00355,0.0],[113.76862,-8.00496,0.0],[113.76155,-8.00079,0.0],[113.75501,-8.00374,0.0],[113.75251,-8.00293,0.0],[113.75148,-8.00493,0.0],[113.7425,-8.00315,0.0],[113.73176,-7.99855,0.0],[113.72612,-7.99791,0.0],[113.72315,-7.99432,0.0],[113.7209,-7.99494,0.0],[113.7154,-7.9917,0.0],[113.7042,-7.99003,0.0],[113.70213,-7.98713,0.0],[113.69493,-7.98556,0.0],[113.68734,-7.98001,0.0],[113.68343,-7.97457,0.0],[113.67842,-7.97042,0.0],[113.67502,-7.96858,0.0],[113.67126,-7.96839,0.0],[113.67452,-7.96343,0.0],[113.67887,-7.96077,0.0],[113.68564,-7.96171,0.0],[113.70248,-7.95441,0.0],[113.70507,-7.9523,0.0],[113.71001,-7.94352,0.0],[113.71606,-7.94097,0.0],[113.71824,-7.93778,0.0],[113.72009,-7.93714,0.0],[113.73145,-7.94285,0.0],[113.72972,-7.94734,0.0],[113.73664,-7.95649,0.0],[113.74306,-7.95841,0.0],[113.7448,-7.96136,0.0],[113.75106,-7.96371,0.0],[113.75629,-7.96867,0.0],[113.76329,-7.96681,0.0],[113.76798,-7.96402,0.0],[113.77187,-7.959,0.0],[113.77668,-7.95768,0.0],[113.77712,-7.95559,0.0],[113.78024,-7.95763,0.0],[113.77896,-7.96548,0.0],[113.7822,-7.96688,0.0],[113.78307,-7.966,0.0],[113.78965,-7.96766,0.0],[113.79656,-7.97062,0.0],[113.80046,-7.96829,0.0],[113.8013,-7.96642,0.0],[113.81373,-7.96771,0.0],[113.81538,-7.96619,0.0],[113.81677,-7.9615,0.0],[113.81868,-7.96078,0.0],[113.81727,-7.95866,0.0],[113.81777,-7.95617,0.0],[113.81667,-7.95624,0.0],[113.81936,-7.95335,0.0],[113.81877,-7.94924,0.0],[113.8212,-7.94278,0.0],[113.82404,-7.94718,0.0],[113.82575,-7.95549,0.0],[113.82507,-7.95726,0.0],[113.82803,-7.9562,0.0],[113.82873,-7.95726,0.0],[113.82511,-7.96399,0.0],[113.82683,-7.96543,0.0],[113.82623,-7.96985,0.0],[113.82846,-7.9711,0.0],[113.8282,-7.97554,0.0],[113.82974,-7.9788,0.0],[113.82249,-7.97863,0.0],[113.8232,-7.98588,0.0],[113.82267,-7.99101,0.0],[113.82146,-7.99196,0.0],[113.82291,-7.99373,0.0],[113.81584,-7.99281,0.0],[113.81471,-7.9915,0.0],[113.81226,-7.99264,0.0],[113.80646,-7.99033,0.0],[113.80296,-7.99575,0.0],[113.80283,-7.99795,0.0],[113.8011,-7.99869,0.0],[113.80106,-8.00288,0.0],[113.79736,-8.00603,0.0],[113.79168,-8.00803,0.0],[113.79132,-8.00669,0.0],[113.789,-8.00639,0.0],[113.78669,-8.00412,0.0]]]}},{"type":"Feature","properties":{"kecamatan":"Wonosari","kab_kota":"Bondowoso"},"geometry":{"type":"Polygon","coordinates":[[[113.90758,-7.95219,0.0],[113.89962,-7.94922,0.0],[113.90006,-7.95032,0.0],[113.90528,-7.95536,0.0],[113.90341,-7.95516,0.0],[113.9034,-7.95714,0.0],[113.90094,-7.95898,0.0],[113.89911,-7.95858,0.0],[113.89667,-7.95395,0.0],[113.8898,-7.94877,0.0],[113.88879,-7.9455,0.0],[113.88671,-7.94376,0.0],[113.88614,-7.94033,0.0],[113.88402,-7.93958,0.0],[113.88363,-7.93669,0.0],[113.88159,-7.93426,0.0],[113.87721,-7.93366,0.0],[113.87607,-7.93531,0.0],[113.8736,-7.93436,0.0],[113.87407,-7.9325,0.0],[113.86872,-7.92421,0.0],[113.86986,-7.917,0.0],[113.86922,-7.90988,0.0],[113.86661,-7.90493,0.0],[113.86746,-7.90338,0.0],[113.8664,-7.898,0.0],[113.86863,-7.89507,0.0],[113.87069,-7.89526,0.0],[113.87205,-7.89218,0.0],[113.87705,-7.89065,0.0],[113.87843,-7.88745,0.0],[113.8828,-7.88654,0.0],[113.88272,-7.88069,0.0],[113.88486,-7.8765,0.0],[113.88799,-7.87518,0.0],[113.88869,-7.8725,0.0],[113.89478,-7.87036,0.0],[113.89671,-7.8712,0.0],[113.89773,-7.86877,0.0],[113.89892,-7.8729,0.0],[113.89749,-7.87591,0.0],[113.89604,-7.87641,0.0],[113.89569,-7.88509,0.0],[113.90071,-7.88223,0.0],[113.90156,-7.88864,0.0],[113.90439,-7.88848,0.0],[113.9047,-7.89113,0.0],[113.9061,-7.8911,0.0],[113.90633,-7.89388,0.0],[113.90772,-7.89446,0.0],[113.9076,-7.89671,0.0],[113.9108,-7.89694,0.0],[113.91297,-7.90113,0.0],[113.92241,-7.89985,0.0],[113.92469,-7.90737,0.0],[113.93045,-7.91363,0.0],[113.9373,-7.92745,0.0],[113.93432,-7.92928,0.0],[113.93049,-7.92777,0.0],[113.92304,-7.92956,0.0],[113.92394,-7.932,0.0],[113.92027,-7.93385,0.0],[113.91862,-7.93304,0.0],[113.91687,-7.93511,0.0],[113.91751,-7.93596,0.0],[113.91537,-7.93856,0.0],[113.92027,-7.94413,0.0],[113.92485,-7.94663,0.0],[113.92375,-7.9508,0.0],[113.9225,-7.95004,0.0],[113.9212,-7.95421,0.0],[113.90758,-7.95219,0.0]]]}},{"type":"Feature","properties":{"kecamatan":"Tapen","kab_kota":"Bondowoso"},"geometry":{"type":"Polygon","coordinates":[[[113.97456,-7.91293,0.0],[113.96782,-7.91232,0.0],[113.96672,-7.91375,0.0],[113.96315,-7.91323,0.0],[113.96253,-7.91046,0.0],[113.9596,-7.90823,0.0],[113.96003,-7.9072,0.0],[113.95579,-7.90554,0.0],[113.95515,-7.90847,0.0],[113.95761,-7.91073,0.0],[113.95732,-7.91464,0.0],[113.96104,-7.92156,0.0],[113.96035,-7.92419,0.0],[113.96156,-7.92973,0.0],[113.95815,-7.93228,0.0],[113.94956,-7.93507,0.0],[113.95054,-7.93801,0.0],[113.94543,-7.94116,0.0],[113.94044,-7.93613,0.0],[113.94047,-7.9318,0.0],[113.93721,-7.92804,0.0],[113.93045,-7.91363,0.0],[113.92469,-7.90737,0.0],[113.92241,-7.89985,0.0],[113.91297,-7.90113,0.0],[113.9108,-7.89694,0.0],[113.9076,-7.89671,0.0],[113.90772,-7.89446,0.0],[113.90633,-7.89388,0.0],[113.9061,-7.8911,0.0],[113.9047,-7.89113,0.0],[113.90439,-7.88848,0.0],[113.90156,-7.88864,0.0],[113.90071,-7.88223,0.0],[113.89556,-7.88483,0.0],[113.89604,-7.87641,0.0],[113.89749,-7.87591,0.0],[113.89892,-7.8729,0.0],[113.89691,-7.86365,0.0],[113.9025,-7.8638,0.0],[113.90538,-7.86088,0.0],[113.90881,-7.86202,0.0],[113.91098,-7.86006,0.0],[113.91053,-7.85692,0.0],[113.91886,-7.85398,0.0],[113.91833,-7.85291,0.0],[113.92067,-7.84999,0.0],[113.925,-7.8466,0.0],[113.92405,-7.84495,0.0],[113.9261,-7.84378,0.0],[113.92859,-7.83881,0.0],[113.92935,-7.83414,0.0],[113.93436,-7.83089,0.0],[113.93626,-7.82589,0.0],[113.93901,-7.82844,0.0],[113.93782,-7.83232,0.0],[113.94122,-7.83409,0.0],[113.9415,-7.83919,0.0],[113.94482,-7.84602,0.0],[113.94562,-7.84971,0.0],[113.94322,-7.85418,0.0],[113.95192,-7.85626,0.0],[113.95113,-7.86296,0.0],[113.95858,-7.86286,0.0],[113.95864,-7.86774,0.0],[113.96317,-7.87304,0.0],[113.96764,-7.88849,0.0],[113.97129,-7.89404,0.0],[113.97606,-7.90779,0.0],[113.97626,-7.91166,0.0],[113.97497,-7.91092,0.0],[113.97456,-7.91293,0.0]]]}},{"type":"Feature","properties":{"kecamatan":"Bondowoso","kab_kota":"Bondowoso"},"geometry":{"type":"Polygon","coordinates":[[[113.81686,-7.95588,0.0],[113.81868,-7.96078,0.0],[113.81677,-7.9615,0.0],[113.81538,-7.96619,0.0],[113.81373,-7.96771,0.0],[113.8013,-7.96642,0.0],[113.80046,-7.96829,0.0],[113.79545,-7.97039,0.0],[113.79703,-7.96587,0.0],[113.79597,-7.96544,0.0],[113.80054,-7.95606,0.0],[113.80209,-7.94817,0.0],[113.80035,-7.94674,0.0],[113.79467,-7.94839,0.0],[113.79176,-7.94549,0.0],[113.79206,-7.93936,0.0],[113.79123,-7.93908,0.0],[113.79201,-7.93746,0.0],[113.79769,-7.93719,0.0],[113.80161,-7.934,0.0],[113.80428,-7.91778,0.0],[113.80616,-7.91434,0.0],[113.80539,-7.9086,0.0],[113.80754,-7.90096,0.0],[113.81412,-7.90432,0.0],[113.81707,-7.90427,0.0],[113.81796,-7.90575,0.0],[113.82181,-7.90322,0.0],[113.82326,-7.90603,0.0],[113.83324,-7.90803,0.0],[113.83568,-7.90949,0.0],[113.83528,-7.91192,0.0],[113.83857,-7.91322,0.0],[113.83984,-7.91219,0.0],[113.84003,-7.90829,0.0],[113.84159,-7.90846,0.0],[113.84299,-7.90652,0.0],[113.84253,-7.90358,0.0],[113.84477,-7.90063,0.0],[113.84348,-7.90035,0.0],[113.84419,-7.89407,0.0],[113.8456,-7.89297,0.0],[113.84772,-7.89294,0.0],[113.84794,-7.89436,0.0],[113.84875,-7.8928,0.0],[113.85041,-7.89427,0.0],[113.85211,-7.89308,0.0],[113.85402,-7.89454,0.0],[113.85516,-7.89371,0.0],[113.85608,-7.89422,0.0],[113.85525,-7.89561,0.0],[113.85652,-7.8947,0.0],[113.85751,-7.89613,0.0],[113.86084,-7.8958,0.0],[113.86509,-7.89794,0.0],[113.86274,-7.89961,0.0],[113.8635,-7.90172,0.0],[113.86227,-7.90339,0.0],[113.85874,-7.90271,0.0],[113.8542,-7.90472,0.0],[113.85196,-7.90769,0.0],[113.84381,-7.91209,0.0],[113.83595,-7.92356,0.0],[113.83026,-7.92592,0.0],[113.82585,-7.93158,0.0],[113.8221,-7.93306,0.0],[113.82111,-7.93685,0.0],[113.82265,-7.94126,0.0],[113.81955,-7.94506,0.0],[113.81936,-7.95335,0.0],[113.81686,-7.95588,0.0]]]}},{"type":"Feature","properties":{"kecamatan":"Klabang","kab_kota":"Bondowoso"},"geometry":{"type":"Polygon","coordinates":[[[113.95192,-7.85626,0.0],[113.94322,-7.85418,0.0],[113.94562,-7.84971,0.0],[113.94482,-7.84602,0.0],[113.9415,-7.83919,0.0],[113.94122,-7.83409,0.0],[113.93782,-7.83232,0.0],[113.93901,-7.82844,0.0],[113.93699,-7.82586,0.0],[113.93436,-7.83089,0.0],[113.93026,-7.83309,0.0],[113.92746,-7.83718,0.0],[113.92412,-7.83776,0.0],[113.92147,-7.83633,0.0],[113.9181,-7.83808,0.0],[113.91379,-7.8367,0.0],[113.90862,-7.83935,0.0],[113.90118,-7.83676,0.0],[113.89385,-7.83702,0.0],[113.88263,-7.82528,0.0],[113.88131,-7.82288,0.0],[113.8821,-7.82007,0.0],[113.88037,-7.81831,0.0],[113.87781,-7.81862,0.0],[113.8745,-7.82434,0.0],[113.87059,-7.8222,0.0],[113.85758,-7.82534,0.0],[113.85412,-7.82782,0.0],[113.85467,-7.82548,0.0],[113.8506,-7.82339,0.0],[113.84553,-7.82417,0.0],[113.84317,-7.82583,0.0],[113.8421,-7.82487,0.0],[113.84254,-7.82167,0.0],[113.83898,-7.8184,0.0],[113.83689,-7.8123,0.0],[113.84106,-7.80803,0.0],[113.84306,-7.8034,0.0],[113.84733,-7.79979,0.0],[113.84901,-7.79606,0.0],[113.85325,-7.79436,0.0],[113.86449,-7.79331,0.0],[113.8722,-7.79754,0.0],[113.87573,-7.79514,0.0],[113.87574,-7.7916,0.0],[113.87729,-7.79108,0.0],[113.88292,-7.79709,0.0],[113.88645,-7.79791,0.0],[113.88964,-7.7968,0.0],[113.89248,-7.79849,0.0],[113.89672,-7.79828,0.0],[113.89771,-7.80002,0.0],[113.8996,-7.80006,0.0],[113.89933,-7.80174,0.0],[113.90399,-7.80361,0.0],[113.90596,-7.8001,0.0],[113.90477,-7.79884,0.0],[113.9055,-7.79564,0.0],[113.9169,-7.79249,0.0],[113.91823,-7.78881,0.0],[113.92869,-7.79061,0.0],[113.92976,-7.79271,0.0],[113.93181,-7.79222,0.0],[113.93278,-7.79339,0.0],[113.93573,-7.7919,0.0],[113.93674,-7.80149,0.0],[113.94268,-7.80856,0.0],[113.94783,-7.81141,0.0],[113.95244,-7.81024,0.0],[113.95876,-7.81644,0.0],[113.96121,-7.812,0.0],[113.96422,-7.81283,0.0],[113.96643,-7.81105,0.0],[113.96878,-7.81065,0.0],[113.9694,-7.81158,0.0],[113.96807,-7.81602,0.0],[113.96964,-7.81932,0.0],[113.96884,-7.82325,0.0],[113.96925,-7.82549,0.0],[113.97097,-7.82674,0.0],[113.97184,-7.83256,0.0],[113.96697,-7.83144,0.0],[113.96469,-7.83658,0.0],[113.96546,-7.83862,0.0],[113.96439,-7.83928,0.0],[113.96712,-7.84378,0.0],[113.96737,-7.84745,0.0],[113.96931,-7.84813,0.0],[113.9699,-7.85188,0.0],[113.97141,-7.85307,0.0],[113.97263,-7.86227,0.0],[113.97382,-7.86216,0.0],[113.9756,-7.86618,0.0],[113.9789,-7.86672,0.0],[113.97933,-7.86959,0.0],[113.97828,-7.87003,0.0],[113.98134,-7.87611,0.0],[113.98796,-7.87995,0.0],[113.98962,-7.88322,0.0],[113.99008,-7.88458,0.0],[113.98751,-7.88754,0.0],[113.99015,-7.89542,0.0],[113.99428,-7.89353,0.0],[113.99495,-7.89622,0.0],[113.99788,-7.89674,0.0],[113.99845,-7.90077,0.0],[113.99481,-7.89944,0.0],[113.99058,-7.90082,0.0],[113.9882,-7.89744,0.0],[113.98338,-7.89752,0.0],[113.9751,-7.90419,0.0],[113.97129,-7.89404,0.0],[113.96764,-7.88849,0.0],[113.96317,-7.87304,0.0],[113.95864,-7.86774,0.0],[113.95858,-7.86286,0.0],[113.95113,-7.86296,0.0],[113.95192,-7.85626,0.0]]]}},{"type":"Feature","properties":{"kecamatan":"Cermee","kab_kota":"Bondowoso"},"geometry":{"type":"Polygon","coordinates":[[[114.06247,-7.89678,0.0],[114.06258,-7.89402,0.0],[114.05877,-7.88951,0.0],[114.05794,-7.88303,0.0],[114.05564,-7.88112,0.0],[114.05348,-7.87171,0.0],[114.04919,-7.86307,0.0],[114.04908,-7.85373,0.0],[114.04511,-7.84719,0.0],[114.04334,-7.84119,0.0],[114.04349,-7.83249,0.0],[114.04089,-7.82859,0.0],[114.0378,-7.82822,0.0],[114.03581,-7.82642,0.0],[114.03711,-7.8231,0.0],[114.03696,-7.81552,0.0],[114.0359,-7.81399,0.0],[114.03004,-7.81295,0.0],[114.02718,-7.80917,0.0],[114.02564,-7.80423,0.0],[114.02103,-7.80204,0.0],[114.0214,-7.80031,0.0],[114.01923,-7.79888,0.0],[114.01968,-7.79152,0.0],[114.01686,-7.79127,0.0],[114.01423,-7.78848,0.0],[114.01259,-7.78326,0.0],[114.01041,-7.78204,0.0],[114.00832,-7.78286,0.0],[114.0044,-7.78191,0.0],[113.99816,-7.77928,0.0],[113.99874,-7.77812,0.0],[113.99675,-7.77714,0.0],[113.99844,-7.77661,0.0],[113.99841,-7.77353,0.0],[114.00426,-7.76449,0.0],[114.00674,-7.75534,0.0],[114.00922,-7.75568,0.0],[114.0149,-7.761,0.0],[114.03007,-7.76022,0.0],[114.03132,-7.75786,0.0],[114.0354,-7.75988,0.0],[114.04966,-7.75854,0.0],[114.05074,-7.76074,0.0],[114.05647,-7.75876,0.0],[114.06628,-7.75937,0.0],[114.07133,-7.76126,0.0],[114.07077,-7.7641,0.0],[114.07277,-7.76488,0.0],[114.07472,-7.76974,0.0],[114.07935,-7.77071,0.0],[114.07929,-7.77364,0.0],[114.07489,-7.78317,0.0],[114.0778,-7.78865,0.0],[114.07941,-7.78937,0.0],[114.08061,-7.79554,0.0],[114.08687,-7.7993,0.0],[114.08844,-7.80274,0.0],[114.08959,-7.80723,0.0],[114.08789,-7.81515,0.0],[114.08975,-7.81904,0.0],[114.08916,-7.82427,0.0],[114.09047,-7.8252,0.0],[114.0956,-7.84062,0.0],[114.09415,-7.84176,0.0],[114.09484,-7.84433,0.0],[114.09321,-7.8452,0.0],[114.09387,-7.85824,0.0],[114.09191,-7.86229,0.0],[114.09349,-7.86459,0.0],[114.09226,-7.86698,0.0],[114.0939,-7.87251,0.0],[114.09253,-7.87544,0.0],[114.09394,-7.88167,0.0],[114.09615,-7.88274,0.0],[114.09884,-7.88897,0.0],[114.10225,-7.89248,0.0],[114.10272,-7.89922,0.0],[114.11114,-7.9096,0.0],[114.11168,-7.92114,0.0],[114.11372,-7.92442,0.0],[114.11374,-7.93262,0.0],[114.11563,-7.936,0.0],[114.11344,-7.93896,0.0],[114.11442,-7.94157,0.0],[114.11351,-7.94208,0.0],[114.11623,-7.94778,0.0],[114.11711,-7.95407,0.0],[114.12335,-7.9635,0.0],[114.12473,-7.9696,0.0],[114.12401,-7.97192,0.0],[114.12755,-7.97611,0.0],[114.12592,-7.98351,0.0],[114.12787,-7.98684,0.0],[114.12764,-7.99302,0.0],[114.12339,-7.99528,0.0],[114.12205,-7.98727,0.0],[114.11716,-7.98271,0.0],[114.11416,-7.98275,0.0],[114.1125,-7.98095,0.0],[114.11105,-7.97591,0.0],[114.10732,-7.97048,0.0],[114.10639,-7.96484,0.0],[114.09498,-7.9575,0.0],[114.09146,-7.95144,0.0],[114.08923,-7.95066,0.0],[114.08487,-7.94486,0.0],[114.08182,-7.94425,0.0],[114.08347,-7.93843,0.0],[114.08202,-7.93547,0.0],[114.08195,-7.93097,0.0],[114.08019,-7.92969,0.0],[114.07968,-7.92648,0.0],[114.07685,-7.92433,0.0],[114.0769,-7.91809,0.0],[114.07409,-7.91454,0.0],[114.07166,-7.90815,0.0],[114.06733,-7.90347,0.0],[114.06457,-7.89797,0.0],[114.06247,-7.89678,0.0]]]}},{"type":"Feature","properties":{"kecamatan":"Wringin","kab_kota":"Bondowoso"},"geometry":{"type":"Polygon","coordinates":[[[113.79306,-7.86885,0.0],[113.77585,-7.86911,0.0],[113.77307,-7.86728,0.0],[113.77279,-7.86471,0.0],[113.77477,-7.86221,0.0],[113.77338,-7.86092,0.0],[113.75338,-7.85584,0.0],[113.75486,-7.84636,0.0],[113.74993,-7.84725,0.0],[113.74892,-7.84915,0.0],[113.74747,-7.848,0.0],[113.74479,-7.84853,0.0],[113.7437,-7.84279,0.0],[113.74036,-7.84009,0.0],[113.74117,-7.83825,0.0],[113.73664,-7.83693,0.0],[113.73459,-7.83367,0.0],[113.73219,-7.83371,0.0],[113.73373,-7.83143,0.0],[113.73136,-7.81993,0.0],[113.7337,-7.81554,0.0],[113.73368,-7.80932,0.0],[113.73656,-7.80835,0.0],[113.73938,-7.80445,0.0],[113.73989,-7.79969,0.0],[113.73851,-7.79101,0.0],[113.73972,-7.7889,0.0],[113.74404,-7.78967,0.0],[113.74625,-7.79309,0.0],[113.74542,-7.79511,0.0],[113.74736,-7.79625,0.0],[113.75648,-7.79551,0.0],[113.76075,-7.79685,0.0],[113.7604,-7.79215,0.0],[113.78137,-7.80025,0.0],[113.78384,-7.7991,0.0],[113.7877,-7.80292,0.0],[113.79343,-7.80281,0.0],[113.79993,-7.80778,0.0],[113.80158,-7.81653,0.0],[113.80449,-7.81653,0.0],[113.80908,-7.81311,0.0],[113.81574,-7.81336,0.0],[113.8198,-7.81119,0.0],[113.82489,-7.81115,0.0],[113.81978,-7.81713,0.0],[113.81562,-7.8183,0.0],[113.81497,-7.8198,0.0],[113.81633,-7.82567,0.0],[113.81196,-7.83303,0.0],[113.81283,-7.83656,0.0],[113.81106,-7.83862,0.0],[113.8108,-7.84155,0.0],[113.80921,-7.84166,0.0],[113.81033,-7.8431,0.0],[113.80892,-7.84353,0.0],[113.81045,-7.84478,0.0],[113.80907,-7.84586,0.0],[113.80866,-7.84872,0.0],[113.81081,-7.85384,0.0],[113.80317,-7.85937,0.0],[113.80057,-7.85892,0.0],[113.79618,-7.85572,0.0],[113.79306,-7.86885,0.0]]]}},{"type":"Feature","properties":{"kecamatan":"Tegalampel","kab_kota":"Bondowoso"},"geometry":{"type":"Polygon","coordinates":[[[113.84772,-7.89294,0.0],[113.84419,-7.89407,0.0],[113.84348,-7.90035,0.0],[113.84477,-7.90063,0.0],[113.84253,-7.90358,0.0],[113.84299,-7.90652,0.0],[113.84159,-7.90846,0.0],[113.84003,-7.90829,0.0],[113.83934,-7.91288,0.0],[113.83673,-7.91266,0.0],[113.83517,-7.91169,0.0],[113.83568,-7.90949,0.0],[113.82709,-7.90619,0.0],[113.82324,-7.90602,0.0],[113.82181,-7.90322,0.0],[113.81796,-7.90575,0.0],[113.817,-7.90424,0.0],[113.81415,-7.90432,0.0],[113.8082,-7.90139,0.0],[113.80828,-7.89901,0.0],[113.80595,-7.8972,0.0],[113.80767,-7.89126,0.0],[113.80522,-7.88322,0.0],[113.80072,-7.8821,0.0],[113.79963,-7.88009,0.0],[113.79731,-7.87921,0.0],[113.78738,-7.87981,0.0],[113.78753,-7.87781,0.0],[113.78518,-7.87712,0.0],[113.78522,-7.87438,0.0],[113.78372,-7.87425,0.0],[113.78145,-7.87009,0.0],[113.77932,-7.86888,0.0],[113.79306,-7.86885,0.0],[113.79618,-7.85572,0.0],[113.80057,-7.85892,0.0],[113.80317,-7.85937,0.0],[113.81081,-7.85384,0.0],[113.80866,-7.84872,0.0],[113.80907,-7.84586,0.0],[113.81045,-7.84489,0.0],[113.80889,-7.8439,0.0],[113.81033,-7.8431,0.0],[113.80921,-7.84166,0.0],[113.81089,-7.84139,0.0],[113.81106,-7.83862,0.0],[113.81283,-7.83656,0.0],[113.81196,-7.83303,0.0],[113.81542,-7.82753,0.0],[113.82287,-7.82865,0.0],[113.83191,-7.83663,0.0],[113.83488,-7.85004,0.0],[113.83431,-7.85165,0.0],[113.8374,-7.85415,0.0],[113.83587,-7.85746,0.0],[113.84256,-7.87412,0.0],[113.84244,-7.87637,0.0],[113.84112,-7.87698,0.0],[113.84267,-7.87766,0.0],[113.84348,-7.87638,0.0],[113.84644,-7.87951,0.0],[113.8464,-7.87729,0.0],[113.84811,-7.87569,0.0],[113.84843,-7.8767,0.0],[113.85264,-7.87736,0.0],[113.85171,-7.89315,0.0],[113.85041,-7.89427,0.0],[113.84854,-7.89284,0.0],[113.84794,-7.89436,0.0],[113.84772,-7.89294,0.0]]]}},{"type":"Feature","properties":{"kecamatan":"Sumberwringin","kab_kota":"Bondowoso"},"geometry":{"type":"Polygon","coordinates":[[[114.06646,-8.11233,0.0],[114.0683,-8.11551,0.0],[114.06812,-8.11988,0.0],[114.06923,-8.1219,0.0],[114.06667,-8.12306,0.0],[114.06447,-8.12192,0.0],[114.06042,-8.12242,0.0],[114.05864,-8.12447,0.0],[114.05393,-8.11632,0.0],[114.0537,-8.11096,0.0],[114.04938,-8.10228,0.0],[114.04536,-8.08704,0.0],[114.03828,-8.0808,0.0],[114.0317,-8.06172,0.0],[114.02991,-8.06037,0.0],[114.02948,-8.05772,0.0],[114.02378,-8.05201,0.0],[114.02381,-8.04611,0.0],[114.02087,-8.04076,0.0],[114.01883,-8.04047,0.0],[114.0178,-8.03817,0.0],[114.01548,-8.03705,0.0],[114.01164,-8.03165,0.0],[114.00659,-8.02733,0.0],[114.00477,-8.0199,0.0],[113.99887,-8.01467,0.0],[113.99844,-8.01289,0.0],[113.99447,-8.01083,0.0],[113.99287,-8.00651,0.0],[113.99117,-8.00586,0.0],[113.99133,-8.00422,0.0],[113.9835,-7.99719,0.0],[113.98353,-7.99557,0.0],[113.9826,-7.99609,0.0],[113.97625,-7.99183,0.0],[113.96516,-7.98081,0.0],[113.95951,-7.97761,0.0],[113.95898,-7.97552,0.0],[113.95791,-7.97587,0.0],[113.95515,-7.97036,0.0],[113.95015,-7.9671,0.0],[113.94369,-7.95619,0.0],[113.93855,-7.95314,0.0],[113.93409,-7.94467,0.0],[113.93586,-7.94402,0.0],[113.93909,-7.94888,0.0],[113.94576,-7.94664,0.0],[113.95546,-7.95694,0.0],[113.96967,-7.9525,0.0],[113.97039,-7.95153,0.0],[113.96868,-7.94773,0.0],[113.96287,-7.94054,0.0],[113.96165,-7.93364,0.0],[113.95974,-7.93064,0.0],[113.96171,-7.92969,0.0],[113.96501,-7.9331,0.0],[113.9691,-7.94083,0.0],[113.97341,-7.94484,0.0],[113.97599,-7.94469,0.0],[113.97729,-7.946,0.0],[113.98477,-7.94408,0.0],[113.98614,-7.94605,0.0],[113.98822,-7.94648,0.0],[113.98939,-7.9461,0.0],[113.98847,-7.94449,0.0],[113.99218,-7.94386,0.0],[113.99156,-7.94275,0.0],[113.99378,-7.94107,0.0],[113.99135,-7.93707,0.0],[113.99196,-7.93504,0.0],[113.99122,-7.93336,0.0],[113.99013,-7.93377,0.0],[113.98866,-7.92784,0.0],[113.9857,-7.92316,0.0],[113.98227,-7.92134,0.0],[113.97946,-7.91713,0.0],[113.97733,-7.91657,0.0],[113.97632,-7.91233,0.0],[113.97446,-7.91251,0.0],[113.97497,-7.91092,0.0],[113.97626,-7.91166,0.0],[113.97505,-7.90424,0.0],[113.98305,-7.89763,0.0],[113.9882,-7.89744,0.0],[113.99058,-7.90082,0.0],[113.99481,-7.89944,0.0],[113.99845,-7.90077,0.0],[114.00693,-7.90763,0.0],[114.00662,-7.90959,0.0],[114.01122,-7.91787,0.0],[114.00996,-7.9216,0.0],[114.01366,-7.92477,0.0],[114.0128,-7.92686,0.0],[114.01479,-7.93113,0.0],[114.0172,-7.93141,0.0],[114.01762,-7.93364,0.0],[114.02047,-7.93451,0.0],[114.02045,-7.93921,0.0],[114.02442,-7.94621,0.0],[114.02634,-7.94795,0.0],[114.02886,-7.94776,0.0],[114.03198,-7.95187,0.0],[114.03817,-7.95426,0.0],[114.04008,-7.95728,0.0],[114.04261,-7.95743,0.0],[114.04766,-7.96572,0.0],[114.05306,-7.96937,0.0],[114.05696,-7.97754,0.0],[114.05923,-7.97713,0.0],[114.06521,-7.9809,0.0],[114.06752,-7.98752,0.0],[114.08472,-8.0,0.0],[114.08928,-8.00543,0.0],[114.08906,-8.0084,0.0],[114.09356,-8.01433,0.0],[114.09368,-8.01806,0.0],[114.09635,-8.02453,0.0],[114.09545,-8.03471,0.0],[114.099,-8.04433,0.0],[114.09848,-8.05167,0.0],[114.08963,-8.06457,0.0],[114.08619,-8.07345,0.0],[114.08036,-8.07999,0.0],[114.07811,-8.08686,0.0],[114.07682,-8.10076,0.0],[114.07075,-8.10477,0.0],[114.06646,-8.11233,0.0]]]}},{"type":"Feature","properties":{"kecamatan":"Sempol","kab_kota":"Bondowoso"},"geometry":{"type":"Polygon","coordinates":[[[114.14366,-8.10142,0.0],[114.13855,-8.10334,0.0],[114.13525,-8.10291,0.0],[114.12885,-8.10969,0.0],[114.11658,-8.11438,0.0],[114.1135,-8.1149,0.0],[114.10932,-8.11298,0.0],[114.09174,-8.11615,0.0],[114.08389,-8.12089,0.0],[114.08137,-8.12555,0.0],[114.07857,-8.12681,0.0],[114.06667,-8.12306,0.0],[114.06938,-8.12165,0.0],[114.06812,-8.11988,0.0],[114.0675,-8.11283,0.0],[114.06605,-8.11207,0.0],[114.06912,-8.10881,0.0],[114.07075,-8.10477,0.0],[114.07682,-8.10076,0.0],[114.07811,-8.08686,0.0],[114.08036,-8.07999,0.0],[114.08619,-8.07345,0.0],[114.08963,-8.06457,0.0],[114.09848,-8.05167,0.0],[114.099,-8.04433,0.0],[114.0957,-8.03597,0.0],[114.09546,-8.02965,0.0],[114.10184,-8.02743,0.0],[114.10809,-8.01782,0.0],[114.1155,-8.01114,0.0],[114.11953,-8.00424,0.0],[114.125,-8.0,0.0],[114.12339,-7.99528,0.0],[114.12882,-7.9923,0.0],[114.132,-7.98833,0.0],[114.14115,-7.98139,0.0],[114.15052,-7.97676,0.0],[114.16359,-7.97292,0.0],[114.16636,-7.97044,0.0],[114.17454,-7.9694,0.0],[114.19112,-7.97138,0.0],[114.19909,-7.97582,0.0],[114.20364,-7.97544,0.0],[114.21674,-7.98049,0.0],[114.22434,-7.98666,0.0],[114.22439,-7.98976,0.0],[114.23217,-7.99646,0.0],[114.23826,-8.00615,0.0],[114.23771,-8.01233,0.0],[114.23881,-8.01391,0.0],[114.24071,-8.01344,0.0],[114.23765,-8.01973,0.0],[114.23579,-8.03109,0.0],[114.23889,-8.03713,0.0],[114.24852,-8.04406,0.0],[114.24863,-8.04612,0.0],[114.24647,-8.04946,0.0],[114.24672,-8.05467,0.0],[114.24165,-8.05812,0.0],[114.2385,-8.06321,0.0],[114.23228,-8.06785,0.0],[114.23114,-8.07043,0.0],[114.22329,-8.07393,0.0],[114.22193,-8.07262,0.0],[114.21975,-8.07374,0.0],[114.2199,-8.07932,0.0],[114.21756,-8.08299,0.0],[114.21787,-8.08668,0.0],[114.21655,-8.09013,0.0],[114.21745,-8.09269,0.0],[114.21405,-8.09948,0.0],[114.19521,-8.10356,0.0],[114.18774,-8.11285,0.0],[114.18438,-8.12091,0.0],[114.17646,-8.12032,0.0],[114.17416,-8.11388,0.0],[114.1755,-8.11191,0.0],[114.17255,-8.10724,0.0],[114.17033,-8.10815,0.0],[114.16139,-8.10552,0.0],[114.15328,-8.10542,0.0],[114.14806,-8.10137,0.0],[114.14366,-8.10142,0.0]]]}},{"type":"Feature","properties":{"kecamatan":"Prajekan","kab_kota":"Bondowoso"},"geometry":{"type":"Polygon","coordinates":[[[114.01283,-7.78356,0.0],[114.01423,-7.78848,0.0],[114.01686,-7.79127,0.0],[114.01968,-7.79152,0.0],[114.01923,-7.79888,0.0],[114.0214,-7.80031,0.0],[114.02103,-7.80204,0.0],[114.02564,-7.80423,0.0],[114.02718,-7.80917,0.0],[114.03004,-7.81295,0.0],[114.0359,-7.81399,0.0],[114.03698,-7.81556,0.0],[114.03711,-7.8231,0.0],[114.03581,-7.82642,0.0],[114.0378,-7.82822,0.0],[114.04089,-7.82859,0.0],[114.04349,-7.83249,0.0],[114.04334,-7.84119,0.0],[114.04511,-7.84719,0.0],[114.04908,-7.85373,0.0],[114.04919,-7.86307,0.0],[114.05348,-7.87171,0.0],[114.05564,-7.88112,0.0],[114.05794,-7.88303,0.0],[114.05874,-7.88944,0.0],[114.0616,-7.89182,0.0],[114.06235,-7.89754,0.0],[114.06457,-7.89797,0.0],[114.06733,-7.90347,0.0],[114.06937,-7.90482,0.0],[114.07505,-7.91587,0.0],[114.06572,-7.91118,0.0],[114.06294,-7.90351,0.0],[114.05704,-7.89939,0.0],[114.05073,-7.8812,0.0],[114.04398,-7.873,0.0],[114.04093,-7.86653,0.0],[114.03754,-7.86395,0.0],[114.03762,-7.86075,0.0],[114.03422,-7.85536,0.0],[114.02969,-7.85072,0.0],[114.02129,-7.84535,0.0],[114.02101,-7.84257,0.0],[114.01821,-7.83945,0.0],[114.01939,-7.83776,0.0],[114.01936,-7.83355,0.0],[114.0175,-7.83244,0.0],[114.00525,-7.83321,0.0],[114.00222,-7.82525,0.0],[114.00301,-7.8178,0.0],[113.99923,-7.81366,0.0],[113.99731,-7.81331,0.0],[113.9954,-7.80654,0.0],[113.99616,-7.80186,0.0],[113.99526,-7.79937,0.0],[113.99325,-7.79946,0.0],[113.99294,-7.79646,0.0],[113.98936,-7.79702,0.0],[113.98871,-7.80019,0.0],[113.98645,-7.80007,0.0],[113.98734,-7.80457,0.0],[113.98627,-7.80435,0.0],[113.98705,-7.8069,0.0],[113.98542,-7.80905,0.0],[113.98383,-7.80895,0.0],[113.9843,-7.80747,0.0],[113.97529,-7.8046,0.0],[113.9734,-7.813,0.0],[113.97018,-7.81284,0.0],[113.96878,-7.81065,0.0],[113.96523,-7.81144,0.0],[113.96422,-7.81283,0.0],[113.96121,-7.812,0.0],[113.95876,-7.81644,0.0],[113.95244,-7.81024,0.0],[113.94783,-7.81141,0.0],[113.94097,-7.80743,0.0],[113.938,-7.80391,0.0],[113.936,-7.79875,0.0],[113.93573,-7.7919,0.0],[113.93682,-7.79173,0.0],[113.936,-7.79013,0.0],[113.9378,-7.78614,0.0],[113.93657,-7.78364,0.0],[113.93777,-7.78263,0.0],[113.9357,-7.77671,0.0],[113.9409,-7.77549,0.0],[113.94614,-7.77136,0.0],[113.95084,-7.76523,0.0],[113.95962,-7.77013,0.0],[113.96989,-7.76917,0.0],[113.97352,-7.77151,0.0],[113.97877,-7.7719,0.0],[113.97992,-7.77397,0.0],[113.98346,-7.77251,0.0],[113.99064,-7.77541,0.0],[113.99241,-7.77779,0.0],[113.99841,-7.77353,0.0],[113.99844,-7.77661,0.0],[113.99675,-7.77714,0.0],[113.99874,-7.77812,0.0],[113.99816,-7.77928,0.0],[114.00585,-7.78244,0.0],[114.01041,-7.78204,0.0],[114.01283,-7.78356,0.0]]]}},{"type":"Feature","properties":{"kecamatan":"Pakem","kab_kota":"Bondowoso"},"geometry":{"type":"Polygon","coordinates":[[[113.72324,-7.90794,0.0],[113.72274,-7.91109,0.0],[113.72117,-7.91204,0.0],[113.72081,-7.91649,0.0],[113.71882,-7.9155,0.0],[113.71175,-7.91836,0.0],[113.70766,-7.92424,0.0],[113.70426,-7.92486,0.0],[113.70049,-7.92994,0.0],[113.6978,-7.93731,0.0],[113.69291,-7.94326,0.0],[113.68856,-7.94806,0.0],[113.68091,-7.9518,0.0],[113.67693,-7.95557,0.0],[113.67126,-7.96839,0.0],[113.66259,-7.96824,0.0],[113.66143,-7.96637,0.0],[113.66042,-7.9689,0.0],[113.65808,-7.96796,0.0],[113.65186,-7.96959,0.0],[113.64981,-7.97063,0.0],[113.64874,-7.97354,0.0],[113.64603,-7.97415,0.0],[113.64086,-7.97159,0.0],[113.63567,-7.96558,0.0],[113.62928,-7.97226,0.0],[113.62927,-7.96741,0.0],[113.62667,-7.96671,0.0],[113.62611,-7.96397,0.0],[113.6235,-7.9617,0.0],[113.63181,-7.9555,0.0],[113.63713,-7.94959,0.0],[113.64425,-7.94767,0.0],[113.64837,-7.94551,0.0],[113.65151,-7.94172,0.0],[113.66044,-7.93846,0.0],[113.6617,-7.93162,0.0],[113.66086,-7.92643,0.0],[113.66292,-7.92159,0.0],[113.67332,-7.91893,0.0],[113.67942,-7.91259,0.0],[113.68485,-7.91033,0.0],[113.68909,-7.90315,0.0],[113.69985,-7.89935,0.0],[113.70319,-7.89245,0.0],[113.70635,-7.8896,0.0],[113.70711,-7.8854,0.0],[113.72246,-7.87903,0.0],[113.72093,-7.87228,0.0],[113.72379,-7.86983,0.0],[113.72418,-7.86604,0.0],[113.72703,-7.86066,0.0],[113.7276,-7.85771,0.0],[113.72607,-7.85432,0.0],[113.73051,-7.8442,0.0],[113.73078,-7.83871,0.0],[113.73283,-7.83572,0.0],[113.73219,-7.83371,0.0],[113.73436,-7.83358,0.0],[113.73664,-7.83693,0.0],[113.74117,-7.83825,0.0],[113.74036,-7.84009,0.0],[113.7437,-7.84279,0.0],[113.74479,-7.84853,0.0],[113.74747,-7.848,0.0],[113.74892,-7.84915,0.0],[113.74993,-7.84725,0.0],[113.75486,-7.84636,0.0],[113.75338,-7.85584,0.0],[113.76915,-7.85934,0.0],[113.77472,-7.86182,0.0],[113.77285,-7.86683,0.0],[113.77585,-7.86911,0.0],[113.76446,-7.86823,0.0],[113.76018,-7.87025,0.0],[113.75801,-7.87871,0.0],[113.75868,-7.8807,0.0],[113.76089,-7.88077,0.0],[113.7596,-7.88761,0.0],[113.75792,-7.88812,0.0],[113.75568,-7.88674,0.0],[113.75421,-7.89144,0.0],[113.75065,-7.89199,0.0],[113.74965,-7.89098,0.0],[113.75039,-7.88755,0.0],[113.74933,-7.88598,0.0],[113.74651,-7.88527,0.0],[113.7411,-7.8877,0.0],[113.73875,-7.89045,0.0],[113.73222,-7.89126,0.0],[113.73136,-7.89625,0.0],[113.73285,-7.89754,0.0],[113.72324,-7.90794,0.0]]]}},{"type":"Feature","properties":{"kecamatan":"Taman Krocok","kab_kota":"Bondowoso"},"geometry":{"type":"Polygon","coordinates":[[[113.88301,-7.88214,0.0],[113.88349,-7.88509,0.0],[113.88238,-7.88697,0.0],[113.87804,-7.8877,0.0],[113.87705,-7.89065,0.0],[113.87235,-7.89197,0.0],[113.87092,-7.89508,0.0],[113.86878,-7.89494,0.0],[113.8664,-7.898,0.0],[113.86084,-7.8958,0.0],[113.85751,-7.89613,0.0],[113.85652,-7.8947,0.0],[113.85525,-7.89561,0.0],[113.85608,-7.89422,0.0],[113.85402,-7.89454,0.0],[113.85171,-7.89315,0.0],[113.85264,-7.87736,0.0],[113.84843,-7.8767,0.0],[113.84811,-7.87569,0.0],[113.8464,-7.87729,0.0],[113.84644,-7.87951,0.0],[113.84348,-7.87638,0.0],[113.84267,-7.87766,0.0],[113.84112,-7.87698,0.0],[113.84244,-7.87637,0.0],[113.84256,-7.87412,0.0],[113.83587,-7.85746,0.0],[113.8374,-7.85415,0.0],[113.83431,-7.85165,0.0],[113.83249,-7.8378,0.0],[113.82981,-7.83413,0.0],[113.82287,-7.82865,0.0],[113.81542,-7.82753,0.0],[113.81636,-7.82545,0.0],[113.81497,-7.8198,0.0],[113.81562,-7.8183,0.0],[113.81978,-7.81713,0.0],[113.82489,-7.81115,0.0],[113.82942,-7.81319,0.0],[113.83689,-7.8123,0.0],[113.83898,-7.8184,0.0],[113.84254,-7.82167,0.0],[113.84233,-7.82524,0.0],[113.8506,-7.82339,0.0],[113.85467,-7.82548,0.0],[113.85412,-7.82782,0.0],[113.85758,-7.82534,0.0],[113.87059,-7.8222,0.0],[113.8745,-7.82434,0.0],[113.87781,-7.81862,0.0],[113.88037,-7.81831,0.0],[113.8821,-7.82007,0.0],[113.88131,-7.82288,0.0],[113.88263,-7.82528,0.0],[113.89412,-7.83722,0.0],[113.90118,-7.83676,0.0],[113.90874,-7.83935,0.0],[113.91379,-7.8367,0.0],[113.9181,-7.83808,0.0],[113.92147,-7.83633,0.0],[113.92576,-7.83791,0.0],[113.92847,-7.83625,0.0],[113.92859,-7.83881,0.0],[113.92651,-7.84298,0.0],[113.92405,-7.84495,0.0],[113.925,-7.8466,0.0],[113.92067,-7.84999,0.0],[113.91833,-7.85291,0.0],[113.91886,-7.85398,0.0],[113.91053,-7.85692,0.0],[113.91098,-7.86006,0.0],[113.90881,-7.86202,0.0],[113.90538,-7.86088,0.0],[113.9025,-7.8638,0.0],[113.89691,-7.86365,0.0],[113.89842,-7.8676,0.0],[113.89694,-7.87097,0.0],[113.89478,-7.87036,0.0],[113.88869,-7.8725,0.0],[113.88799,-7.87518,0.0],[113.88479,-7.87661,0.0],[113.88301,-7.88214,0.0]]]}},{"type":"Feature","properties":{"kecamatan":"Botolinggo","kab_kota":"Bondowoso"},"geometry":{"type":"Polygon","coordinates":[[[114.11953,-8.00424,0.0],[114.1155,-8.01114,0.0],[114.10809,-8.01782,0.0],[114.10184,-8.02743,0.0],[114.09546,-8.02965,0.0],[114.09624,-8.02349,0.0],[114.09391,-8.01887,0.0],[114.09356,-8.01433,0.0],[114.08906,-8.0084,0.0],[114.08928,-8.00543,0.0],[114.08472,-8.0,0.0],[114.06752,-7.98752,0.0],[114.06521,-7.9809,0.0],[114.05923,-7.97713,0.0],[114.05696,-7.97754,0.0],[114.05306,-7.96937,0.0],[114.04766,-7.96572,0.0],[114.04261,-7.95743,0.0],[114.04008,-7.95728,0.0],[114.03817,-7.95426,0.0],[114.03198,-7.95187,0.0],[114.02886,-7.94776,0.0],[114.02634,-7.94795,0.0],[114.02298,-7.94438,0.0],[114.02045,-7.93921,0.0],[114.02047,-7.93451,0.0],[114.01762,-7.93364,0.0],[114.0172,-7.93141,0.0],[114.01479,-7.93113,0.0],[114.0128,-7.92686,0.0],[114.01366,-7.92477,0.0],[114.00996,-7.9216,0.0],[114.01122,-7.91787,0.0],[114.00662,-7.90959,0.0],[114.00693,-7.90763,0.0],[114.00001,-7.90277,0.0],[113.99802,-7.9002,0.0],[113.99878,-7.89895,0.0],[113.99788,-7.89674,0.0],[113.99495,-7.89622,0.0],[113.99428,-7.89353,0.0],[113.99015,-7.89542,0.0],[113.98751,-7.88754,0.0],[113.99008,-7.88458,0.0],[113.98962,-7.88322,0.0],[113.98796,-7.87995,0.0],[113.98134,-7.87611,0.0],[113.97828,-7.87003,0.0],[113.97933,-7.86959,0.0],[113.9789,-7.86672,0.0],[113.9756,-7.86618,0.0],[113.97382,-7.86216,0.0],[113.97263,-7.86227,0.0],[113.97141,-7.85307,0.0],[113.9699,-7.85188,0.0],[113.96931,-7.84813,0.0],[113.96737,-7.84745,0.0],[113.96712,-7.84378,0.0],[113.96439,-7.83928,0.0],[113.96546,-7.83862,0.0],[113.96469,-7.83658,0.0],[113.96697,-7.83144,0.0],[113.97184,-7.83256,0.0],[113.97097,-7.82674,0.0],[113.96915,-7.82528,0.0],[113.96964,-7.81932,0.0],[113.96807,-7.81602,0.0],[113.96924,-7.81212,0.0],[113.97363,-7.8127,0.0],[113.97524,-7.80463,0.0],[113.9843,-7.80747,0.0],[113.98383,-7.80895,0.0],[113.98542,-7.80905,0.0],[113.98705,-7.8069,0.0],[113.98627,-7.80435,0.0],[113.98734,-7.80457,0.0],[113.98645,-7.80007,0.0],[113.98871,-7.80019,0.0],[113.98936,-7.79702,0.0],[113.99294,-7.79646,0.0],[113.99325,-7.79946,0.0],[113.99526,-7.79937,0.0],[113.99616,-7.80186,0.0],[113.9954,-7.80654,0.0],[113.99731,-7.81331,0.0],[113.99923,-7.81366,0.0],[114.00301,-7.8178,0.0],[114.00222,-7.82525,0.0],[114.00525,-7.83321,0.0],[114.0175,-7.83244,0.0],[114.01936,-7.83355,0.0],[114.01939,-7.83776,0.0],[114.01821,-7.83945,0.0],[114.02101,-7.84257,0.0],[114.02129,-7.84535,0.0],[114.02969,-7.85072,0.0],[114.03422,-7.85536,0.0],[114.03762,-7.86075,0.0],[114.03754,-7.86395,0.0],[114.04093,-7.86653,0.0],[114.04398,-7.873,0.0],[114.05073,-7.8812,0.0],[114.05704,-7.89939,0.0],[114.06294,-7.90351,0.0],[114.06572,-7.91118,0.0],[114.07629,-7.91674,0.0],[114.07757,-7.92212,0.0],[114.07685,-7.92433,0.0],[114.07968,-7.92648,0.0],[114.08019,-7.92969,0.0],[114.08195,-7.93097,0.0],[114.08202,-7.93547,0.0],[114.08347,-7.93843,0.0],[114.08182,-7.94425,0.0],[114.08487,-7.94486,0.0],[114.08923,-7.95066,0.0],[114.09146,-7.95144,0.0],[114.09498,-7.9575,0.0],[114.10639,-7.96484,0.0],[114.10732,-7.97048,0.0],[114.11105,-7.97591,0.0],[114.1125,-7.98095,0.0],[114.11416,-7.98275,0.0],[114.11716,-7.98271,0.0],[114.12205,-7.98727,0.0],[114.125,-8.0,0.0],[114.11953,-8.00424,0.0]]]}},{"type":"Feature","properties":{"kecamatan":"Binakal","kab_kota":"Bondowoso"},"geometry":{"type":"Polygon","coordinates":[[[113.78235,-7.89982,0.0],[113.78342,-7.90087,0.0],[113.78183,-7.90124,0.0],[113.78169,-7.89968,0.0],[113.77806,-7.90036,0.0],[113.78075,-7.9027,0.0],[113.78026,-7.90636,0.0],[113.78167,-7.90677,0.0],[113.78162,-7.90817,0.0],[113.7784,-7.90902,0.0],[113.77723,-7.90784,0.0],[113.77019,-7.90801,0.0],[113.769,-7.91008,0.0],[113.7614,-7.91146,0.0],[113.76007,-7.91452,0.0],[113.75314,-7.91657,0.0],[113.74572,-7.92231,0.0],[113.74316,-7.92297,0.0],[113.74081,-7.92632,0.0],[113.73661,-7.92769,0.0],[113.72774,-7.93573,0.0],[113.72325,-7.93817,0.0],[113.71895,-7.9373,0.0],[113.71606,-7.94097,0.0],[113.71047,-7.94314,0.0],[113.70507,-7.9523,0.0],[113.70248,-7.95441,0.0],[113.68564,-7.96171,0.0],[113.67887,-7.96077,0.0],[113.67452,-7.96343,0.0],[113.67126,-7.96839,0.0],[113.6762,-7.95647,0.0],[113.68091,-7.9518,0.0],[113.68856,-7.94806,0.0],[113.69291,-7.94326,0.0],[113.6978,-7.93731,0.0],[113.70049,-7.92994,0.0],[113.70426,-7.92486,0.0],[113.70766,-7.92424,0.0],[113.71175,-7.91836,0.0],[113.71882,-7.9155,0.0],[113.72081,-7.91649,0.0],[113.72117,-7.91204,0.0],[113.72274,-7.91109,0.0],[113.72409,-7.90594,0.0],[113.72598,-7.90533,0.0],[113.73285,-7.89754,0.0],[113.73136,-7.89625,0.0],[113.73222,-7.89126,0.0],[113.73875,-7.89045,0.0],[113.7411,-7.8877,0.0],[113.74651,-7.88527,0.0],[113.74933,-7.88598,0.0],[113.75039,-7.88755,0.0],[113.74965,-7.89098,0.0],[113.75065,-7.89199,0.0],[113.75421,-7.89144,0.0],[113.75568,-7.88674,0.0],[113.75792,-7.88812,0.0],[113.7596,-7.88761,0.0],[113.76089,-7.88077,0.0],[113.75868,-7.8807,0.0],[113.75809,-7.87817,0.0],[113.76018,-7.87025,0.0],[113.76278,-7.86857,0.0],[113.77937,-7.86895,0.0],[113.78145,-7.87009,0.0],[113.78372,-7.87425,0.0],[113.78522,-7.87438,0.0],[113.78546,-7.87743,0.0],[113.78753,-7.87781,0.0],[113.78736,-7.87978,0.0],[113.78847,-7.87984,0.0],[113.78732,-7.88258,0.0],[113.78797,-7.88642,0.0],[113.78621,-7.89057,0.0],[113.78681,-7.89219,0.0],[113.78235,-7.89982,0.0]]]}},{"type":"Feature","properties":{"kecamatan":"Jambesari Darus Sholah","kab_kota":"Bondowoso"},"geometry":{"type":"Polygon","coordinates":[[[113.88544,-8.01899,0.0],[113.8836,-8.02489,0.0],[113.88643,-8.02606,0.0],[113.88497,-8.0299,0.0],[113.87279,-8.02782,0.0],[113.87203,-8.03253,0.0],[113.86799,-8.03208,0.0],[113.86203,-8.0284,0.0],[113.86385,-8.02465,0.0],[113.86227,-8.02154,0.0],[113.86486,-8.0158,0.0],[113.86097,-8.01443,0.0],[113.86194,-8.01219,0.0],[113.85804,-8.01044,0.0],[113.85614,-8.00655,0.0],[113.8513,-8.00543,0.0],[113.8437,-8.00056,0.0],[113.8436,-7.99823,0.0],[113.82167,-7.99265,0.0],[113.8232,-7.98588,0.0],[113.82249,-7.97863,0.0],[113.82974,-7.9788,0.0],[113.8282,-7.97554,0.0],[113.82846,-7.9711,0.0],[113.82623,-7.96985,0.0],[113.82683,-7.96543,0.0],[113.82511,-7.96399,0.0],[113.82873,-7.95726,0.0],[113.82803,-7.9562,0.0],[113.82507,-7.95726,0.0],[113.82546,-7.95284,0.0],[113.82411,-7.94878,0.0],[113.82532,-7.95047,0.0],[113.83104,-7.95144,0.0],[113.83214,-7.95491,0.0],[113.83857,-7.95829,0.0],[113.83857,-7.96074,0.0],[113.84221,-7.96626,0.0],[113.8422,-7.96444,0.0],[113.84666,-7.96281,0.0],[113.84795,-7.95469,0.0],[113.84778,-7.95242,0.0],[113.84633,-7.95176,0.0],[113.84673,-7.94966,0.0],[113.85166,-7.95227,0.0],[113.85249,-7.95509,0.0],[113.85681,-7.95788,0.0],[113.86059,-7.97439,0.0],[113.86486,-7.97885,0.0],[113.86453,-7.98027,0.0],[113.86768,-7.9853,0.0],[113.87122,-7.98749,0.0],[113.87087,-7.98932,0.0],[113.86208,-7.98975,0.0],[113.86728,-7.99477,0.0],[113.86785,-7.99766,0.0],[113.8743,-8.00301,0.0],[113.87631,-8.00873,0.0],[113.88098,-8.01183,0.0],[113.8825,-8.0145,0.0],[113.8868,-8.01609,0.0],[113.88736,-8.01774,0.0],[113.88544,-8.01899,0.0]]]}}]}