{"type":"FeatureCollection","features":[{"type":"Feature","properties":{"kecamatan":"Karanggeneng","kab_kota":"Lamongan"},"geometry":{"type":"Polygon","coordinates":[[[112.34512,-7.05135,0.0],[112.34546,-7.06101,0.0],[112.34169,-7.07518,0.0],[112.3341,-7.07316,0.0],[112.33443,-7.06609,0.0],[112.33083,-7.06508,0.0],[112.3317,-7.06203,0.0],[112.33321,-7.0623,0.0],[112.33537,-7.05937,0.0],[112.33505,-7.05497,0.0],[112.331,-7.05406,0.0],[112.33048,-7.05652,0.0],[112.32673,-7.0555,0.0],[112.32938,-7.04752,0.0],[112.32776,-7.04711,0.0],[112.32814,-7.04075,0.0],[112.32903,-7.04083,0.0],[112.32945,-7.03751,0.0],[112.3316,-7.03807,0.0],[112.33401,-7.02874,0.0],[112.32179,-7.0263,0.0],[112.31481,-7.02152,0.0],[112.31523,-7.01882,0.0],[112.30595,-7.01625,0.0],[112.30614,-7.0069,0.0],[112.30178,-7.00415,0.0],[112.30367,-6.99795,0.0],[112.31118,-6.99913,0.0],[112.3144,-6.99103,0.0],[112.31656,-6.99084,0.0],[112.31983,-6.98439,0.0],[112.31993,-6.98289,0.0],[112.31689,-6.97947,0.0],[112.32302,-6.97017,0.0],[112.32533,-6.96883,0.0],[112.32773,-6.96896,0.0],[112.33931,-6.97532,0.0],[112.34256,-6.97899,0.0],[112.34128,-6.97981,0.0],[112.34149,-6.98444,0.0],[112.3374,-6.98906,0.0],[112.32797,-6.98509,0.0],[112.32411,-6.98612,0.0],[112.32275,-6.98786,0.0],[112.32322,-6.99027,0.0],[112.32634,-6.99382,0.0],[112.33263,-6.99771,0.0],[112.3358,-7.00376,0.0],[112.3385,-7.00315,0.0],[112.34209,-6.99658,0.0],[112.35371,-6.9935,0.0],[112.35481,-6.9915,0.0],[112.35292,-6.98838,0.0],[112.35482,-6.98664,0.0],[112.35987,-6.98871,0.0],[112.36208,-6.99661,0.0],[112.36629,-6.99699,0.0],[112.36897,-6.98701,0.0],[112.37228,-6.98461,0.0],[112.37973,-6.98825,0.0],[112.37912,-6.99288,0.0],[112.38036,-6.99317,0.0],[112.38039,-6.99635,0.0],[112.38291,-6.99938,0.0],[112.38516,-7.00685,0.0],[112.38468,-7.01134,0.0],[112.38267,-7.01095,0.0],[112.38202,-7.01311,0.0],[112.37598,-7.01553,0.0],[112.37187,-7.01611,0.0],[112.36432,-7.01369,0.0],[112.36361,-7.01556,0.0],[112.36231,-7.01559,0.0],[112.36061,-7.03046,0.0],[112.35815,-7.0297,0.0],[112.3567,-7.03135,0.0],[112.35275,-7.0303,0.0],[112.35133,-7.03219,0.0],[112.34538,-7.03198,0.0],[112.34524,-7.03285,0.0],[112.34891,-7.03383,0.0],[112.34868,-7.03502,0.0],[112.35408,-7.03588,0.0],[112.3529,-7.03631,0.0],[112.35195,-7.04034,0.0],[112.35082,-7.0398,0.0],[112.34931,-7.04189,0.0],[112.33971,-7.0441,0.0],[112.33946,-7.04556,0.0],[112.34685,-7.04614,0.0],[112.34512,-7.05135,0.0]]]}},{"type":"Feature","properties":{"kecamatan":"Kembangbahu","kab_kota":"Lamongan"},"geometry":{"type":"Polygon","coordinates":[[[112.36177,-7.26198,0.0],[112.34767,-7.25239,0.0],[112.34706,-7.24904,0.0],[112.34376,-7.24441,0.0],[112.348,-7.23563,0.0],[112.35121,-7.23483,0.0],[112.35398,-7.22852,0.0],[112.35888,-7.2254,0.0],[112.3576,-7.2238,0.0],[112.35812,-7.21966,0.0],[112.35202,-7.21189,0.0],[112.34952,-7.21353,0.0],[112.3473,-7.20704,0.0],[112.33845,-7.19551,0.0],[112.32837,-7.19274,0.0],[112.3285,-7.1904,0.0],[112.32659,-7.18966,0.0],[112.32584,-7.19101,0.0],[112.3215,-7.19128,0.0],[112.31803,-7.19365,0.0],[112.31192,-7.19389,0.0],[112.31111,-7.1898,0.0],[112.31432,-7.18598,0.0],[112.31798,-7.17624,0.0],[112.31461,-7.16619,0.0],[112.31684,-7.15812,0.0],[112.32062,-7.15249,0.0],[112.32211,-7.15351,0.0],[112.33102,-7.15387,0.0],[112.33186,-7.15567,0.0],[112.34392,-7.15265,0.0],[112.34465,-7.15576,0.0],[112.3502,-7.15594,0.0],[112.35141,-7.15722,0.0],[112.35372,-7.15327,0.0],[112.35701,-7.15439,0.0],[112.35715,-7.15795,0.0],[112.3647,-7.16067,0.0],[112.36493,-7.16422,0.0],[112.3758,-7.16402,0.0],[112.37791,-7.1586,0.0],[112.38214,-7.15705,0.0],[112.3812,-7.15485,0.0],[112.38258,-7.14963,0.0],[112.38694,-7.14973,0.0],[112.38897,-7.15044,0.0],[112.38842,-7.15282,0.0],[112.38651,-7.15297,0.0],[112.38579,-7.15487,0.0],[112.38681,-7.15477,0.0],[112.38653,-7.15624,0.0],[112.38773,-7.15597,0.0],[112.38671,-7.16281,0.0],[112.38744,-7.16469,0.0],[112.38893,-7.16494,0.0],[112.3893,-7.1699,0.0],[112.3909,-7.17032,0.0],[112.39311,-7.1681,0.0],[112.39312,-7.17026,0.0],[112.39128,-7.17042,0.0],[112.39088,-7.17284,0.0],[112.39168,-7.18359,0.0],[112.38826,-7.18961,0.0],[112.38983,-7.18945,0.0],[112.39089,-7.19123,0.0],[112.38899,-7.19251,0.0],[112.38671,-7.19215,0.0],[112.38384,-7.19494,0.0],[112.38063,-7.1935,0.0],[112.37629,-7.19393,0.0],[112.37385,-7.19189,0.0],[112.36906,-7.19262,0.0],[112.36811,-7.19379,0.0],[112.37281,-7.19711,0.0],[112.37251,-7.20309,0.0],[112.37868,-7.20533,0.0],[112.38112,-7.20434,0.0],[112.38209,-7.20805,0.0],[112.38429,-7.20738,0.0],[112.38772,-7.2101,0.0],[112.39153,-7.21022,0.0],[112.39069,-7.21289,0.0],[112.39307,-7.2205,0.0],[112.38845,-7.22539,0.0],[112.38767,-7.23027,0.0],[112.38965,-7.2332,0.0],[112.38799,-7.23721,0.0],[112.3896,-7.23939,0.0],[112.39395,-7.24087,0.0],[112.3943,-7.24341,0.0],[112.40427,-7.24374,0.0],[112.40639,-7.24579,0.0],[112.40634,-7.24843,0.0],[112.40798,-7.24658,0.0],[112.41169,-7.24949,0.0],[112.40971,-7.25257,0.0],[112.40541,-7.25408,0.0],[112.4033,-7.25798,0.0],[112.39975,-7.26015,0.0],[112.39695,-7.26455,0.0],[112.37345,-7.26143,0.0],[112.36177,-7.26198,0.0]]]}},{"type":"Feature","properties":{"kecamatan":"Tikung","kab_kota":"Lamongan"},"geometry":{"type":"Polygon","coordinates":[[[112.41418,-7.23836,0.0],[112.41599,-7.24238,0.0],[112.41453,-7.2432,0.0],[112.41244,-7.24947,0.0],[112.40798,-7.24658,0.0],[112.40634,-7.24843,0.0],[112.40639,-7.24579,0.0],[112.40427,-7.24374,0.0],[112.3943,-7.24341,0.0],[112.39395,-7.24087,0.0],[112.3896,-7.23939,0.0],[112.38799,-7.23721,0.0],[112.38965,-7.2332,0.0],[112.38767,-7.23027,0.0],[112.38845,-7.22539,0.0],[112.39307,-7.2205,0.0],[112.39069,-7.21289,0.0],[112.39153,-7.21022,0.0],[112.38772,-7.2101,0.0],[112.38429,-7.20738,0.0],[112.38209,-7.20805,0.0],[112.38112,-7.20434,0.0],[112.37868,-7.20533,0.0],[112.37251,-7.20309,0.0],[112.37281,-7.19711,0.0],[112.36811,-7.19379,0.0],[112.36906,-7.19262,0.0],[112.37385,-7.19189,0.0],[112.37629,-7.19393,0.0],[112.38063,-7.1935,0.0],[112.38384,-7.19494,0.0],[112.38671,-7.19215,0.0],[112.39044,-7.19181,0.0],[112.39056,-7.18998,0.0],[112.38826,-7.18961,0.0],[112.39168,-7.18359,0.0],[112.39088,-7.17284,0.0],[112.39128,-7.17042,0.0],[112.39312,-7.17026,0.0],[112.39311,-7.1681,0.0],[112.3909,-7.17032,0.0],[112.38923,-7.16985,0.0],[112.38893,-7.16494,0.0],[112.38744,-7.16469,0.0],[112.38671,-7.16281,0.0],[112.38773,-7.15597,0.0],[112.39363,-7.15484,0.0],[112.39614,-7.15881,0.0],[112.40096,-7.15855,0.0],[112.40608,-7.15388,0.0],[112.40635,-7.15112,0.0],[112.40832,-7.15064,0.0],[112.4085,-7.14783,0.0],[112.41353,-7.14831,0.0],[112.41526,-7.14667,0.0],[112.41709,-7.14396,0.0],[112.41571,-7.14195,0.0],[112.42124,-7.13936,0.0],[112.4206,-7.13714,0.0],[112.42205,-7.13472,0.0],[112.42197,-7.12983,0.0],[112.43207,-7.12153,0.0],[112.43235,-7.12582,0.0],[112.43718,-7.12572,0.0],[112.43721,-7.13199,0.0],[112.43899,-7.13312,0.0],[112.43818,-7.13453,0.0],[112.43708,-7.13206,0.0],[112.43524,-7.13163,0.0],[112.43469,-7.13326,0.0],[112.43605,-7.13294,0.0],[112.43699,-7.13547,0.0],[112.43863,-7.13427,0.0],[112.43946,-7.1327,0.0],[112.44026,-7.1329,0.0],[112.43871,-7.14136,0.0],[112.43607,-7.1448,0.0],[112.43697,-7.14612,0.0],[112.44057,-7.14665,0.0],[112.43984,-7.14902,0.0],[112.44173,-7.14998,0.0],[112.43655,-7.1512,0.0],[112.43644,-7.15452,0.0],[112.43545,-7.15395,0.0],[112.43239,-7.1578,0.0],[112.43465,-7.15828,0.0],[112.435,-7.16057,0.0],[112.43776,-7.16116,0.0],[112.43947,-7.16013,0.0],[112.44012,-7.16223,0.0],[112.44198,-7.16146,0.0],[112.44718,-7.16427,0.0],[112.44737,-7.16567,0.0],[112.44948,-7.16543,0.0],[112.45179,-7.17063,0.0],[112.44453,-7.17436,0.0],[112.44034,-7.18414,0.0],[112.43563,-7.18278,0.0],[112.43208,-7.18323,0.0],[112.43082,-7.18555,0.0],[112.43136,-7.18712,0.0],[112.42913,-7.18695,0.0],[112.4308,-7.19234,0.0],[112.42881,-7.19673,0.0],[112.42505,-7.19175,0.0],[112.41918,-7.19044,0.0],[112.41882,-7.19759,0.0],[112.42133,-7.19866,0.0],[112.41874,-7.20136,0.0],[112.41844,-7.20795,0.0],[112.42015,-7.2093,0.0],[112.42143,-7.2077,0.0],[112.42758,-7.20983,0.0],[112.42781,-7.2122,0.0],[112.43423,-7.21551,0.0],[112.43691,-7.21469,0.0],[112.44171,-7.21654,0.0],[112.43971,-7.21847,0.0],[112.43986,-7.22023,0.0],[112.4371,-7.22105,0.0],[112.43714,-7.22423,0.0],[112.43478,-7.22849,0.0],[112.43294,-7.22755,0.0],[112.42805,-7.22889,0.0],[112.4254,-7.23207,0.0],[112.42153,-7.23275,0.0],[112.4191,-7.23179,0.0],[112.41849,-7.23406,0.0],[112.41555,-7.23532,0.0],[112.41418,-7.23836,0.0]]]}},{"type":"Feature","properties":{"kecamatan":"Karangbinangun","kab_kota":"Lamongan"},"geometry":{"type":"Polygon","coordinates":[[[112.43486,-7.06142,0.0],[112.434,-7.06525,0.0],[112.43236,-7.06601,0.0],[112.42833,-7.0616,0.0],[112.42342,-7.05984,0.0],[112.42326,-7.05706,0.0],[112.42769,-7.05707,0.0],[112.42778,-7.05457,0.0],[112.42118,-7.04679,0.0],[112.41594,-7.04699,0.0],[112.41395,-7.04573,0.0],[112.41521,-7.04169,0.0],[112.41382,-7.04167,0.0],[112.41254,-7.03911,0.0],[112.41393,-7.03547,0.0],[112.41302,-7.03523,0.0],[112.41196,-7.02543,0.0],[112.41406,-7.02421,0.0],[112.4149,-7.02134,0.0],[112.4185,-7.02655,0.0],[112.42454,-7.02745,0.0],[112.42542,-7.02208,0.0],[112.43022,-7.02106,0.0],[112.43096,-7.01833,0.0],[112.42743,-7.01595,0.0],[112.4283,-7.0123,0.0],[112.43997,-7.01116,0.0],[112.44298,-7.00764,0.0],[112.44252,-7.00196,0.0],[112.45258,-7.00139,0.0],[112.44862,-7.013,0.0],[112.44932,-7.01476,0.0],[112.45287,-7.01575,0.0],[112.45725,-7.01461,0.0],[112.45814,-7.01085,0.0],[112.46073,-7.0084,0.0],[112.48107,-7.00288,0.0],[112.48312,-7.00373,0.0],[112.47996,-7.00804,0.0],[112.48036,-7.01066,0.0],[112.48351,-7.01128,0.0],[112.48877,-7.0073,0.0],[112.49576,-7.0086,0.0],[112.49838,-7.00985,0.0],[112.49685,-7.01548,0.0],[112.49746,-7.01723,0.0],[112.50048,-7.01562,0.0],[112.50137,-7.01085,0.0],[112.51216,-7.01303,0.0],[112.51003,-7.01938,0.0],[112.49819,-7.02331,0.0],[112.49617,-7.02685,0.0],[112.49901,-7.03128,0.0],[112.51277,-7.04015,0.0],[112.51679,-7.04513,0.0],[112.51287,-7.04659,0.0],[112.50897,-7.04564,0.0],[112.50339,-7.04657,0.0],[112.50093,-7.05061,0.0],[112.4992,-7.0513,0.0],[112.4962,-7.04991,0.0],[112.49554,-7.04585,0.0],[112.49218,-7.04905,0.0],[112.48283,-7.05242,0.0],[112.47897,-7.05,0.0],[112.47622,-7.05074,0.0],[112.47546,-7.04831,0.0],[112.4714,-7.04762,0.0],[112.46926,-7.05084,0.0],[112.46643,-7.04764,0.0],[112.46318,-7.04697,0.0],[112.46008,-7.05054,0.0],[112.45514,-7.05051,0.0],[112.45329,-7.05167,0.0],[112.45517,-7.0561,0.0],[112.45209,-7.06376,0.0],[112.44984,-7.06347,0.0],[112.44737,-7.05723,0.0],[112.44548,-7.05805,0.0],[112.44571,-7.06297,0.0],[112.44093,-7.06107,0.0],[112.43486,-7.06142,0.0]],[[112.47805,-7.04378,0.0],[112.47779,-7.0435,0.0],[112.47738,-7.04539,0.0],[112.47805,-7.04378,0.0]]]}},{"type":"Feature","properties":{"kecamatan":"Turi","kab_kota":"Lamongan"},"geometry":{"type":"Polygon","coordinates":[[[112.38137,-7.09671,0.0],[112.37991,-7.10248,0.0],[112.37122,-7.10079,0.0],[112.36656,-7.10355,0.0],[112.36076,-7.10114,0.0],[112.35555,-7.10199,0.0],[112.35689,-7.09316,0.0],[112.351,-7.09178,0.0],[112.35267,-7.08499,0.0],[112.34779,-7.08487,0.0],[112.34803,-7.08269,0.0],[112.34517,-7.08199,0.0],[112.34688,-7.07115,0.0],[112.34298,-7.07028,0.0],[112.34545,-7.05673,0.0],[112.35152,-7.05529,0.0],[112.35356,-7.04719,0.0],[112.35578,-7.04648,0.0],[112.36464,-7.04856,0.0],[112.36579,-7.04549,0.0],[112.36833,-7.04584,0.0],[112.36992,-7.04435,0.0],[112.37185,-7.03645,0.0],[112.36709,-7.03522,0.0],[112.36742,-7.03305,0.0],[112.36936,-7.03332,0.0],[112.36964,-7.0315,0.0],[112.37726,-7.0337,0.0],[112.38214,-7.03724,0.0],[112.38302,-7.03969,0.0],[112.38749,-7.03776,0.0],[112.38854,-7.04342,0.0],[112.39319,-7.04348,0.0],[112.39411,-7.04473,0.0],[112.39642,-7.04389,0.0],[112.39653,-7.04563,0.0],[112.40093,-7.04549,0.0],[112.40408,-7.04763,0.0],[112.41079,-7.04492,0.0],[112.41594,-7.04699,0.0],[112.42118,-7.04679,0.0],[112.42834,-7.05574,0.0],[112.42769,-7.05707,0.0],[112.42326,-7.05706,0.0],[112.42342,-7.05984,0.0],[112.4291,-7.06215,0.0],[112.43215,-7.06646,0.0],[112.4322,-7.06862,0.0],[112.43064,-7.06958,0.0],[112.43174,-7.07079,0.0],[112.43019,-7.07187,0.0],[112.4312,-7.07205,0.0],[112.43047,-7.07756,0.0],[112.42783,-7.07891,0.0],[112.42608,-7.07848,0.0],[112.42624,-7.07669,0.0],[112.42268,-7.07589,0.0],[112.4215,-7.08042,0.0],[112.42397,-7.08181,0.0],[112.42351,-7.0855,0.0],[112.42616,-7.08626,0.0],[112.42129,-7.09538,0.0],[112.417,-7.09434,0.0],[112.41786,-7.09216,0.0],[112.4134,-7.09123,0.0],[112.41269,-7.0937,0.0],[112.40986,-7.09402,0.0],[112.40804,-7.1003,0.0],[112.4057,-7.0999,0.0],[112.40501,-7.10119,0.0],[112.40154,-7.10035,0.0],[112.39834,-7.10432,0.0],[112.39562,-7.10457,0.0],[112.39561,-7.10268,0.0],[112.39657,-7.10262,0.0],[112.38768,-7.10104,0.0],[112.38758,-7.09719,0.0],[112.38137,-7.09671,0.0]]]}},{"type":"Feature","properties":{"kecamatan":"Lamongan","kab_kota":"Lamongan"},"geometry":{"type":"Polygon","coordinates":[[[112.38123,-7.15529,0.0],[112.38183,-7.15761,0.0],[112.37791,-7.1586,0.0],[112.37592,-7.16394,0.0],[112.36962,-7.16398,0.0],[112.37059,-7.15596,0.0],[112.37224,-7.15546,0.0],[112.3729,-7.15303,0.0],[112.3653,-7.15222,0.0],[112.36646,-7.14743,0.0],[112.37255,-7.14108,0.0],[112.3693,-7.14002,0.0],[112.36754,-7.14082,0.0],[112.3653,-7.13884,0.0],[112.36616,-7.13436,0.0],[112.36339,-7.1336,0.0],[112.3636,-7.12814,0.0],[112.35698,-7.12671,0.0],[112.35856,-7.11857,0.0],[112.36044,-7.11882,0.0],[112.3633,-7.11656,0.0],[112.36843,-7.1171,0.0],[112.36845,-7.11548,0.0],[112.36742,-7.11514,0.0],[112.367,-7.11128,0.0],[112.36082,-7.11127,0.0],[112.3608,-7.10986,0.0],[112.35683,-7.10829,0.0],[112.35728,-7.10432,0.0],[112.35391,-7.10211,0.0],[112.36076,-7.10114,0.0],[112.36656,-7.10355,0.0],[112.37122,-7.10079,0.0],[112.37991,-7.10248,0.0],[112.38155,-7.09611,0.0],[112.38758,-7.09719,0.0],[112.38768,-7.10104,0.0],[112.39491,-7.10205,0.0],[112.39657,-7.10262,0.0],[112.39504,-7.10451,0.0],[112.39834,-7.10432,0.0],[112.40154,-7.10035,0.0],[112.40501,-7.10119,0.0],[112.4057,-7.0999,0.0],[112.40804,-7.1003,0.0],[112.40986,-7.09402,0.0],[112.41269,-7.0937,0.0],[112.4134,-7.09123,0.0],[112.41786,-7.09216,0.0],[112.417,-7.09434,0.0],[112.42129,-7.09538,0.0],[112.41973,-7.10022,0.0],[112.42663,-7.10079,0.0],[112.42673,-7.11427,0.0],[112.4307,-7.11508,0.0],[112.43021,-7.12018,0.0],[112.43532,-7.12105,0.0],[112.43528,-7.12599,0.0],[112.43235,-7.12582,0.0],[112.43207,-7.12153,0.0],[112.42207,-7.12972,0.0],[112.42114,-7.13955,0.0],[112.41571,-7.14195,0.0],[112.41703,-7.14426,0.0],[112.41375,-7.14825,0.0],[112.4085,-7.14783,0.0],[112.40832,-7.15064,0.0],[112.40635,-7.15112,0.0],[112.40608,-7.15388,0.0],[112.40096,-7.15855,0.0],[112.39614,-7.15881,0.0],[112.39363,-7.15484,0.0],[112.38653,-7.15624,0.0],[112.38625,-7.15346,0.0],[112.38842,-7.15282,0.0],[112.38897,-7.15044,0.0],[112.38694,-7.14973,0.0],[112.38258,-7.14963,0.0],[112.38123,-7.15529,0.0]]]}},{"type":"Feature","properties":{"kecamatan":"Sarirejo","kab_kota":"Lamongan"},"geometry":{"type":"Polygon","coordinates":[[[112.4439,-7.2173,0.0],[112.43989,-7.21968,0.0],[112.44165,-7.21642,0.0],[112.43691,-7.21469,0.0],[112.43423,-7.21551,0.0],[112.42781,-7.2122,0.0],[112.42758,-7.20983,0.0],[112.42143,-7.2077,0.0],[112.42015,-7.2093,0.0],[112.41844,-7.20795,0.0],[112.41874,-7.20136,0.0],[112.42133,-7.19866,0.0],[112.41894,-7.19792,0.0],[112.41837,-7.19286,0.0],[112.41996,-7.19011,0.0],[112.42505,-7.19175,0.0],[112.42881,-7.19673,0.0],[112.4308,-7.19234,0.0],[112.42913,-7.18695,0.0],[112.43136,-7.18712,0.0],[112.43082,-7.18555,0.0],[112.43208,-7.18323,0.0],[112.43563,-7.18278,0.0],[112.44034,-7.18414,0.0],[112.44453,-7.17436,0.0],[112.45159,-7.17109,0.0],[112.44948,-7.16543,0.0],[112.44737,-7.16567,0.0],[112.44718,-7.16427,0.0],[112.44198,-7.16146,0.0],[112.44012,-7.16223,0.0],[112.43947,-7.16013,0.0],[112.43776,-7.16116,0.0],[112.435,-7.16057,0.0],[112.43469,-7.15833,0.0],[112.43237,-7.15737,0.0],[112.43545,-7.15395,0.0],[112.43644,-7.15452,0.0],[112.43655,-7.1512,0.0],[112.44173,-7.14998,0.0],[112.43984,-7.14902,0.0],[112.44057,-7.14665,0.0],[112.43697,-7.14612,0.0],[112.43607,-7.1448,0.0],[112.43871,-7.14136,0.0],[112.44026,-7.1329,0.0],[112.44542,-7.13375,0.0],[112.4471,-7.13002,0.0],[112.44911,-7.13042,0.0],[112.44999,-7.12726,0.0],[112.45513,-7.1271,0.0],[112.46065,-7.13251,0.0],[112.47343,-7.13407,0.0],[112.47268,-7.14085,0.0],[112.47149,-7.14087,0.0],[112.47084,-7.14503,0.0],[112.47204,-7.14524,0.0],[112.47204,-7.15287,0.0],[112.47005,-7.15895,0.0],[112.4774,-7.16214,0.0],[112.47878,-7.16473,0.0],[112.48014,-7.16323,0.0],[112.49622,-7.16495,0.0],[112.49843,-7.16268,0.0],[112.50491,-7.16316,0.0],[112.5059,-7.16361,0.0],[112.5058,-7.16599,0.0],[112.50371,-7.1722,0.0],[112.50739,-7.17507,0.0],[112.50385,-7.17812,0.0],[112.50447,-7.18205,0.0],[112.50401,-7.18351,0.0],[112.50166,-7.18439,0.0],[112.50303,-7.18711,0.0],[112.50151,-7.19183,0.0],[112.48665,-7.19467,0.0],[112.48333,-7.19749,0.0],[112.47902,-7.19788,0.0],[112.47571,-7.20097,0.0],[112.4746,-7.20407,0.0],[112.47073,-7.2016,0.0],[112.46736,-7.20165,0.0],[112.4661,-7.20713,0.0],[112.4645,-7.20719,0.0],[112.46403,-7.20858,0.0],[112.45879,-7.20663,0.0],[112.45566,-7.2072,0.0],[112.45525,-7.21139,0.0],[112.45258,-7.21162,0.0],[112.44985,-7.21381,0.0],[112.44627,-7.21354,0.0],[112.4439,-7.2173,0.0]]]}},{"type":"Feature","properties":{"kecamatan":"Deket","kab_kota":"Lamongan"},"geometry":{"type":"Polygon","coordinates":[[[112.45562,-7.12721,0.0],[112.44962,-7.12759,0.0],[112.44911,-7.13042,0.0],[112.4471,-7.13002,0.0],[112.44542,-7.13375,0.0],[112.43946,-7.1327,0.0],[112.43901,-7.13313,0.0],[112.43875,-7.1341,0.0],[112.43863,-7.13427,0.0],[112.43684,-7.13546,0.0],[112.43605,-7.13294,0.0],[112.43469,-7.13326,0.0],[112.43524,-7.13163,0.0],[112.43708,-7.13206,0.0],[112.43818,-7.13453,0.0],[112.43899,-7.13312,0.0],[112.43721,-7.13199,0.0],[112.43718,-7.12572,0.0],[112.43528,-7.12599,0.0],[112.43532,-7.12105,0.0],[112.43021,-7.12018,0.0],[112.4307,-7.11508,0.0],[112.42673,-7.11427,0.0],[112.42663,-7.10079,0.0],[112.41973,-7.10022,0.0],[112.42436,-7.08796,0.0],[112.42616,-7.08626,0.0],[112.42351,-7.0855,0.0],[112.42397,-7.08181,0.0],[112.4215,-7.08042,0.0],[112.42268,-7.07589,0.0],[112.42624,-7.07669,0.0],[112.42608,-7.07848,0.0],[112.42937,-7.07841,0.0],[112.43088,-7.07549,0.0],[112.4312,-7.07205,0.0],[112.43019,-7.07187,0.0],[112.43193,-7.06994,0.0],[112.43064,-7.06958,0.0],[112.43228,-7.06843,0.0],[112.43165,-7.06633,0.0],[112.434,-7.06525,0.0],[112.43474,-7.06146,0.0],[112.44093,-7.06107,0.0],[112.44571,-7.06297,0.0],[112.44538,-7.05848,0.0],[112.44651,-7.05719,0.0],[112.44857,-7.05834,0.0],[112.44966,-7.0632,0.0],[112.45097,-7.06424,0.0],[112.45717,-7.06313,0.0],[112.45768,-7.0648,0.0],[112.45968,-7.06316,0.0],[112.4636,-7.06399,0.0],[112.46951,-7.067,0.0],[112.4708,-7.06972,0.0],[112.47785,-7.06995,0.0],[112.47315,-7.07918,0.0],[112.47343,-7.08234,0.0],[112.47097,-7.08728,0.0],[112.46955,-7.09432,0.0],[112.47854,-7.09722,0.0],[112.48717,-7.0982,0.0],[112.49062,-7.0969,0.0],[112.49043,-7.09883,0.0],[112.48696,-7.09972,0.0],[112.48571,-7.1018,0.0],[112.48481,-7.11106,0.0],[112.49294,-7.11283,0.0],[112.49605,-7.11805,0.0],[112.49577,-7.12162,0.0],[112.49934,-7.12458,0.0],[112.49577,-7.12523,0.0],[112.4943,-7.12297,0.0],[112.48764,-7.12878,0.0],[112.48659,-7.12805,0.0],[112.48736,-7.12621,0.0],[112.48554,-7.12635,0.0],[112.48426,-7.12838,0.0],[112.48423,-7.12728,0.0],[112.47961,-7.12667,0.0],[112.47765,-7.12475,0.0],[112.476,-7.12566,0.0],[112.4737,-7.13408,0.0],[112.46065,-7.13251,0.0],[112.45562,-7.12721,0.0]]]}},{"type":"Feature","properties":{"kecamatan":"Glagah","kab_kota":"Lamongan"},"geometry":{"type":"MultiPolygon","coordinates":[[[[112.50167,-7.10686,0.0],[112.49879,-7.11555,0.0],[112.49572,-7.11792,0.0],[112.49294,-7.11283,0.0],[112.48481,-7.11106,0.0],[112.48571,-7.1018,0.0],[112.48696,-7.09972,0.0],[112.49043,-7.09883,0.0],[112.49062,-7.0969,0.0],[112.48717,-7.0982,0.0],[112.47854,-7.09722,0.0],[112.46955,-7.09432,0.0],[112.47097,-7.08728,0.0],[112.47343,-7.08234,0.0],[112.47315,-7.07918,0.0],[112.47785,-7.06995,0.0],[112.4708,-7.06972,0.0],[112.46951,-7.067,0.0],[112.4636,-7.06399,0.0],[112.45968,-7.06316,0.0],[112.45768,-7.0648,0.0],[112.45723,-7.06314,0.0],[112.45209,-7.06376,0.0],[112.45517,-7.0561,0.0],[112.45329,-7.05167,0.0],[112.4552,-7.0505,0.0],[112.45988,-7.05063,0.0],[112.46183,-7.04769,0.0],[112.46433,-7.04688,0.0],[112.46926,-7.05084,0.0],[112.4714,-7.04762,0.0],[112.47546,-7.04831,0.0],[112.47622,-7.05074,0.0],[112.47897,-7.05,0.0],[112.48338,-7.05235,0.0],[112.49218,-7.04905,0.0],[112.49554,-7.04585,0.0],[112.4962,-7.04991,0.0],[112.4992,-7.0513,0.0],[112.50407,-7.04636,0.0],[112.50897,-7.04564,0.0],[112.51287,-7.04659,0.0],[112.51698,-7.04485,0.0],[112.51922,-7.04706,0.0],[112.52106,-7.04711,0.0],[112.52292,-7.04506,0.0],[112.52242,-7.04026,0.0],[112.52358,-7.03897,0.0],[112.54143,-7.05343,0.0],[112.54418,-7.05315,0.0],[112.54534,-7.04749,0.0],[112.55248,-7.05053,0.0],[112.55093,-7.05237,0.0],[112.54899,-7.05223,0.0],[112.5459,-7.05695,0.0],[112.54691,-7.05925,0.0],[112.54644,-7.06654,0.0],[112.54196,-7.06623,0.0],[112.54029,-7.07499,0.0],[112.53754,-7.08102,0.0],[112.53529,-7.07908,0.0],[112.53174,-7.08203,0.0],[112.53243,-7.08431,0.0],[112.53101,-7.08537,0.0],[112.53058,-7.08956,0.0],[112.53488,-7.09259,0.0],[112.53562,-7.09614,0.0],[112.52991,-7.09978,0.0],[112.52643,-7.09988,0.0],[112.52531,-7.10148,0.0],[112.52224,-7.09957,0.0],[112.52002,-7.10301,0.0],[112.51754,-7.10392,0.0],[112.51643,-7.10276,0.0],[112.51725,-7.10747,0.0],[112.50167,-7.10686,0.0]]],[[[112.47717,-7.04528,0.0],[112.47827,-7.04322,0.0],[112.47738,-7.04539,0.0],[112.47717,-7.04528,0.0]]]]}},{"type":"Feature","properties":{"kecamatan":"Kalitengah","kab_kota":"Lamongan"},"geometry":{"type":"Polygon","coordinates":[[[112.37185,-7.03645,0.0],[112.36992,-7.04435,0.0],[112.36833,-7.04584,0.0],[112.36579,-7.04549,0.0],[112.36464,-7.04856,0.0],[112.35578,-7.04648,0.0],[112.35356,-7.04719,0.0],[112.35194,-7.05471,0.0],[112.34703,-7.05678,0.0],[112.34526,-7.05655,0.0],[112.34512,-7.05135,0.0],[112.34685,-7.04614,0.0],[112.33946,-7.04556,0.0],[112.33971,-7.0441,0.0],[112.34686,-7.04288,0.0],[112.35082,-7.0398,0.0],[112.35195,-7.04034,0.0],[112.3529,-7.03631,0.0],[112.35403,-7.03604,0.0],[112.34868,-7.03502,0.0],[112.34891,-7.03383,0.0],[112.34524,-7.03285,0.0],[112.34538,-7.03198,0.0],[112.35133,-7.03219,0.0],[112.35275,-7.0303,0.0],[112.3567,-7.03135,0.0],[112.35815,-7.0297,0.0],[112.36061,-7.03046,0.0],[112.3614,-7.01924,0.0],[112.36231,-7.01559,0.0],[112.36361,-7.01556,0.0],[112.36432,-7.01369,0.0],[112.37368,-7.016,0.0],[112.38202,-7.01311,0.0],[112.38267,-7.01095,0.0],[112.38468,-7.01134,0.0],[112.38462,-7.00474,0.0],[112.38149,-6.99642,0.0],[112.38039,-6.99635,0.0],[112.38036,-6.99317,0.0],[112.37912,-6.99286,0.0],[112.37973,-6.98825,0.0],[112.38379,-6.98863,0.0],[112.39163,-6.98584,0.0],[112.39421,-6.98733,0.0],[112.39606,-6.99137,0.0],[112.39873,-6.99342,0.0],[112.40555,-6.99095,0.0],[112.42015,-6.99506,0.0],[112.42792,-7.00239,0.0],[112.44252,-7.00196,0.0],[112.44298,-7.00764,0.0],[112.43997,-7.01116,0.0],[112.4283,-7.0123,0.0],[112.42743,-7.01595,0.0],[112.43096,-7.01833,0.0],[112.43022,-7.02106,0.0],[112.42542,-7.02208,0.0],[112.42454,-7.02745,0.0],[112.4185,-7.02655,0.0],[112.4149,-7.02134,0.0],[112.41406,-7.02421,0.0],[112.41214,-7.02506,0.0],[112.41302,-7.03523,0.0],[112.41393,-7.03547,0.0],[112.41254,-7.03911,0.0],[112.41382,-7.04167,0.0],[112.41521,-7.04169,0.0],[112.41395,-7.04573,0.0],[112.41018,-7.04503,0.0],[112.40408,-7.04763,0.0],[112.40093,-7.04549,0.0],[112.39653,-7.04563,0.0],[112.39642,-7.04389,0.0],[112.39411,-7.04473,0.0],[112.39319,-7.04348,0.0],[112.38854,-7.04342,0.0],[112.38749,-7.03776,0.0],[112.38302,-7.03969,0.0],[112.38214,-7.03724,0.0],[112.37726,-7.0337,0.0],[112.36964,-7.0315,0.0],[112.36936,-7.03332,0.0],[112.36742,-7.03305,0.0],[112.36709,-7.03522,0.0],[112.37185,-7.03645,0.0]]]}},{"type":"Feature","properties":{"kecamatan":"Sukorame","kab_kota":"Lamongan"},"geometry":{"type":"Polygon","coordinates":[[[112.11721,-7.37794,0.0],[112.1112,-7.38052,0.0],[112.11063,-7.382,0.0],[112.10698,-7.38143,0.0],[112.10661,-7.38377,0.0],[112.1025,-7.38317,0.0],[112.10155,-7.38464,0.0],[112.09179,-7.38377,0.0],[112.08962,-7.38159,0.0],[112.08658,-7.38235,0.0],[112.08613,-7.38442,0.0],[112.08153,-7.38255,0.0],[112.08608,-7.37593,0.0],[112.08601,-7.36938,0.0],[112.08933,-7.36849,0.0],[112.08947,-7.36581,0.0],[112.08791,-7.36337,0.0],[112.08936,-7.36153,0.0],[112.089,-7.35847,0.0],[112.08446,-7.35663,0.0],[112.08479,-7.35434,0.0],[112.0861,-7.35441,0.0],[112.085,-7.35029,0.0],[112.07983,-7.34679,0.0],[112.07666,-7.3409,0.0],[112.07674,-7.33662,0.0],[112.07256,-7.33325,0.0],[112.07484,-7.32525,0.0],[112.07832,-7.32418,0.0],[112.0774,-7.32292,0.0],[112.07835,-7.32204,0.0],[112.07811,-7.31642,0.0],[112.07655,-7.31461,0.0],[112.07726,-7.3132,0.0],[112.07973,-7.31343,0.0],[112.08406,-7.3057,0.0],[112.08452,-7.30738,0.0],[112.0893,-7.31119,0.0],[112.09206,-7.31139,0.0],[112.09331,-7.31728,0.0],[112.09074,-7.31804,0.0],[112.09053,-7.31952,0.0],[112.09419,-7.32448,0.0],[112.10264,-7.32589,0.0],[112.10754,-7.32099,0.0],[112.11172,-7.32185,0.0],[112.11138,-7.32391,0.0],[112.11945,-7.3242,0.0],[112.12017,-7.32924,0.0],[112.1186,-7.33233,0.0],[112.12277,-7.33407,0.0],[112.12158,-7.33534,0.0],[112.12205,-7.33737,0.0],[112.11723,-7.34043,0.0],[112.11637,-7.34404,0.0],[112.11756,-7.35111,0.0],[112.1199,-7.34869,0.0],[112.12767,-7.35003,0.0],[112.12966,-7.34506,0.0],[112.13327,-7.34212,0.0],[112.13965,-7.34446,0.0],[112.14473,-7.34172,0.0],[112.14717,-7.3431,0.0],[112.14738,-7.34514,0.0],[112.1506,-7.34608,0.0],[112.155,-7.34409,0.0],[112.15202,-7.35316,0.0],[112.15407,-7.35472,0.0],[112.15361,-7.35793,0.0],[112.15547,-7.36235,0.0],[112.15455,-7.36575,0.0],[112.15063,-7.36726,0.0],[112.13776,-7.36793,0.0],[112.13349,-7.37108,0.0],[112.12245,-7.37375,0.0],[112.11721,-7.37794,0.0]]]}},{"type":"Feature","properties":{"kecamatan":"Bluluk","kab_kota":"Lamongan"},"geometry":{"type":"Polygon","coordinates":[[[112.14001,-7.34443,0.0],[112.13347,-7.34209,0.0],[112.1321,-7.34274,0.0],[112.12811,-7.34736,0.0],[112.12767,-7.35003,0.0],[112.1199,-7.34869,0.0],[112.11756,-7.35111,0.0],[112.11637,-7.34404,0.0],[112.11723,-7.34043,0.0],[112.12205,-7.33737,0.0],[112.12158,-7.33534,0.0],[112.12277,-7.33407,0.0],[112.1186,-7.33233,0.0],[112.12017,-7.32924,0.0],[112.11945,-7.3242,0.0],[112.11138,-7.32391,0.0],[112.11172,-7.32185,0.0],[112.10754,-7.32099,0.0],[112.10264,-7.32589,0.0],[112.1002,-7.32592,0.0],[112.09419,-7.32448,0.0],[112.09243,-7.32156,0.0],[112.09085,-7.32118,0.0],[112.09074,-7.31804,0.0],[112.09331,-7.31728,0.0],[112.09288,-7.31384,0.0],[112.09153,-7.31236,0.0],[112.09206,-7.31139,0.0],[112.0893,-7.31119,0.0],[112.08593,-7.30813,0.0],[112.08978,-7.30478,0.0],[112.08961,-7.30345,0.0],[112.08722,-7.30262,0.0],[112.09002,-7.29808,0.0],[112.08862,-7.29335,0.0],[112.08715,-7.2927,0.0],[112.08741,-7.29047,0.0],[112.08532,-7.28962,0.0],[112.08531,-7.2884,0.0],[112.08684,-7.28885,0.0],[112.08753,-7.28718,0.0],[112.08902,-7.28701,0.0],[112.08617,-7.28354,0.0],[112.09116,-7.28222,0.0],[112.0901,-7.27828,0.0],[112.09164,-7.27739,0.0],[112.09133,-7.27434,0.0],[112.09318,-7.27309,0.0],[112.09194,-7.27208,0.0],[112.09442,-7.26931,0.0],[112.10252,-7.2683,0.0],[112.10562,-7.27133,0.0],[112.10872,-7.27149,0.0],[112.11527,-7.26913,0.0],[112.1153,-7.26499,0.0],[112.11767,-7.26442,0.0],[112.11954,-7.26127,0.0],[112.12111,-7.26148,0.0],[112.12471,-7.25896,0.0],[112.12589,-7.25979,0.0],[112.12776,-7.25812,0.0],[112.1344,-7.25723,0.0],[112.14075,-7.25915,0.0],[112.14451,-7.25758,0.0],[112.14679,-7.25909,0.0],[112.14871,-7.2577,0.0],[112.15312,-7.26055,0.0],[112.15386,-7.26393,0.0],[112.15283,-7.26651,0.0],[112.14876,-7.26858,0.0],[112.15458,-7.26999,0.0],[112.15792,-7.27253,0.0],[112.16493,-7.27279,0.0],[112.16603,-7.27804,0.0],[112.1625,-7.2822,0.0],[112.16244,-7.28454,0.0],[112.15774,-7.28693,0.0],[112.15765,-7.29001,0.0],[112.15461,-7.29351,0.0],[112.15483,-7.29543,0.0],[112.1571,-7.29602,0.0],[112.15655,-7.29776,0.0],[112.15791,-7.29919,0.0],[112.15663,-7.30818,0.0],[112.15768,-7.31007,0.0],[112.15452,-7.32341,0.0],[112.15075,-7.3301,0.0],[112.15188,-7.3318,0.0],[112.14786,-7.33664,0.0],[112.1461,-7.34204,0.0],[112.14393,-7.34167,0.0],[112.14001,-7.34443,0.0]]]}},{"type":"Feature","properties":{"kecamatan":"Babat","kab_kota":"Lamongan"},"geometry":{"type":"Polygon","coordinates":[[[112.18001,-7.13356,0.0],[112.16257,-7.13185,0.0],[112.16133,-7.12336,0.0],[112.16428,-7.11862,0.0],[112.16559,-7.1185,0.0],[112.16544,-7.11292,0.0],[112.16408,-7.11287,0.0],[112.16381,-7.11534,0.0],[112.15877,-7.11615,0.0],[112.15854,-7.11835,0.0],[112.1541,-7.11981,0.0],[112.15431,-7.11585,0.0],[112.15251,-7.11599,0.0],[112.1522,-7.10942,0.0],[112.15794,-7.11054,0.0],[112.16097,-7.10938,0.0],[112.16308,-7.10679,0.0],[112.1643,-7.09948,0.0],[112.16618,-7.09781,0.0],[112.17035,-7.09755,0.0],[112.17525,-7.09947,0.0],[112.17834,-7.09775,0.0],[112.18387,-7.08872,0.0],[112.18162,-7.08775,0.0],[112.17722,-7.08847,0.0],[112.17462,-7.08691,0.0],[112.17608,-7.08063,0.0],[112.17932,-7.0751,0.0],[112.18338,-7.07462,0.0],[112.18493,-7.07632,0.0],[112.18385,-7.08346,0.0],[112.18814,-7.08317,0.0],[112.18983,-7.08438,0.0],[112.20365,-7.07448,0.0],[112.20832,-7.07368,0.0],[112.21494,-7.07518,0.0],[112.21728,-7.07335,0.0],[112.21836,-7.07769,0.0],[112.22839,-7.07956,0.0],[112.22832,-7.08096,0.0],[112.23193,-7.08446,0.0],[112.23141,-7.088,0.0],[112.2345,-7.08629,0.0],[112.23723,-7.08255,0.0],[112.24235,-7.08275,0.0],[112.24301,-7.08017,0.0],[112.25035,-7.08116,0.0],[112.25018,-7.08298,0.0],[112.25219,-7.08451,0.0],[112.26163,-7.08521,0.0],[112.26167,-7.09485,0.0],[112.25957,-7.09524,0.0],[112.25855,-7.10429,0.0],[112.25736,-7.10521,0.0],[112.25833,-7.10611,0.0],[112.26228,-7.10444,0.0],[112.26608,-7.10535,0.0],[112.26171,-7.12073,0.0],[112.25852,-7.12122,0.0],[112.25819,-7.12698,0.0],[112.26221,-7.12807,0.0],[112.25806,-7.1294,0.0],[112.25651,-7.13463,0.0],[112.24879,-7.13763,0.0],[112.24766,-7.14225,0.0],[112.24377,-7.14187,0.0],[112.24314,-7.14436,0.0],[112.23928,-7.13941,0.0],[112.23719,-7.14214,0.0],[112.2334,-7.14402,0.0],[112.22879,-7.14346,0.0],[112.22602,-7.13969,0.0],[112.21829,-7.13695,0.0],[112.21573,-7.13455,0.0],[112.20828,-7.13292,0.0],[112.18001,-7.13356,0.0]]]}},{"type":"Feature","properties":{"kecamatan":"Kedungpring","kab_kota":"Lamongan"},"geometry":{"type":"Polygon","coordinates":[[[112.21371,-7.23527,0.0],[112.21211,-7.2369,0.0],[112.21165,-7.23586,0.0],[112.21094,-7.23696,0.0],[112.20779,-7.23574,0.0],[112.19953,-7.23777,0.0],[112.18657,-7.2361,0.0],[112.18001,-7.23766,0.0],[112.17966,-7.23427,0.0],[112.17735,-7.23316,0.0],[112.17702,-7.22966,0.0],[112.17821,-7.22902,0.0],[112.17617,-7.22481,0.0],[112.17305,-7.22411,0.0],[112.17241,-7.22229,0.0],[112.17154,-7.22467,0.0],[112.1693,-7.22471,0.0],[112.17069,-7.22034,0.0],[112.17009,-7.21888,0.0],[112.16843,-7.21911,0.0],[112.16848,-7.21476,0.0],[112.16631,-7.2131,0.0],[112.16592,-7.20816,0.0],[112.1631,-7.20526,0.0],[112.17088,-7.20108,0.0],[112.17036,-7.19449,0.0],[112.16868,-7.19335,0.0],[112.16762,-7.18776,0.0],[112.16832,-7.18573,0.0],[112.1705,-7.18532,0.0],[112.16893,-7.17427,0.0],[112.16987,-7.17223,0.0],[112.1686,-7.17211,0.0],[112.16838,-7.17023,0.0],[112.16632,-7.17016,0.0],[112.16564,-7.16557,0.0],[112.16754,-7.16408,0.0],[112.16597,-7.15373,0.0],[112.16815,-7.15276,0.0],[112.16819,-7.14187,0.0],[112.16984,-7.1392,0.0],[112.1697,-7.13553,0.0],[112.16715,-7.13287,0.0],[112.18729,-7.13412,0.0],[112.20435,-7.13253,0.0],[112.21573,-7.13455,0.0],[112.21829,-7.13695,0.0],[112.22602,-7.13969,0.0],[112.22829,-7.14325,0.0],[112.23298,-7.14394,0.0],[112.23367,-7.15193,0.0],[112.23253,-7.1545,0.0],[112.23371,-7.1614,0.0],[112.23802,-7.16156,0.0],[112.23827,-7.16295,0.0],[112.2444,-7.16402,0.0],[112.24401,-7.16841,0.0],[112.24137,-7.16858,0.0],[112.23922,-7.17831,0.0],[112.24131,-7.18486,0.0],[112.24008,-7.19545,0.0],[112.23746,-7.2006,0.0],[112.23769,-7.2061,0.0],[112.23611,-7.21069,0.0],[112.23755,-7.22334,0.0],[112.23706,-7.23226,0.0],[112.23226,-7.24142,0.0],[112.23117,-7.24889,0.0],[112.22422,-7.24734,0.0],[112.22276,-7.24067,0.0],[112.21693,-7.23641,0.0],[112.21398,-7.2367,0.0],[112.21371,-7.23527,0.0]]]}},{"type":"Feature","properties":{"kecamatan":"Modo","kab_kota":"Lamongan"},"geometry":{"type":"Polygon","coordinates":[[[112.14075,-7.25915,0.0],[112.1344,-7.25723,0.0],[112.12776,-7.25812,0.0],[112.12615,-7.25971,0.0],[112.12471,-7.25896,0.0],[112.12111,-7.26148,0.0],[112.11954,-7.26127,0.0],[112.11767,-7.26442,0.0],[112.11521,-7.26512,0.0],[112.11527,-7.26913,0.0],[112.10872,-7.27149,0.0],[112.10562,-7.27133,0.0],[112.10252,-7.2683,0.0],[112.09703,-7.26819,0.0],[112.09548,-7.26951,0.0],[112.09218,-7.26669,0.0],[112.08757,-7.26703,0.0],[112.08693,-7.26225,0.0],[112.0853,-7.26242,0.0],[112.08459,-7.26071,0.0],[112.0853,-7.25713,0.0],[112.08382,-7.25513,0.0],[112.08809,-7.25298,0.0],[112.08642,-7.25063,0.0],[112.08385,-7.25,0.0],[112.08535,-7.24916,0.0],[112.08539,-7.24744,0.0],[112.08691,-7.24715,0.0],[112.08686,-7.24514,0.0],[112.08562,-7.24458,0.0],[112.08709,-7.24434,0.0],[112.08701,-7.2424,0.0],[112.08504,-7.24221,0.0],[112.08734,-7.24171,0.0],[112.08764,-7.23897,0.0],[112.08898,-7.23976,0.0],[112.08947,-7.23888,0.0],[112.08833,-7.23768,0.0],[112.08913,-7.23065,0.0],[112.08708,-7.22966,0.0],[112.08948,-7.22939,0.0],[112.09005,-7.22714,0.0],[112.0919,-7.22627,0.0],[112.09134,-7.22559,0.0],[112.09334,-7.22482,0.0],[112.09258,-7.22307,0.0],[112.09447,-7.227,0.0],[112.09658,-7.22839,0.0],[112.10934,-7.2225,0.0],[112.10961,-7.21893,0.0],[112.11302,-7.21707,0.0],[112.11376,-7.21311,0.0],[112.11845,-7.21213,0.0],[112.11687,-7.21006,0.0],[112.11708,-7.20693,0.0],[112.12112,-7.20563,0.0],[112.11919,-7.20431,0.0],[112.12065,-7.20426,0.0],[112.12028,-7.20252,0.0],[112.12125,-7.2027,0.0],[112.12023,-7.19873,0.0],[112.1219,-7.19744,0.0],[112.12337,-7.19296,0.0],[112.12224,-7.19141,0.0],[112.12464,-7.19037,0.0],[112.12417,-7.18579,0.0],[112.12637,-7.18338,0.0],[112.12997,-7.18368,0.0],[112.13296,-7.17534,0.0],[112.13406,-7.1757,0.0],[112.13663,-7.16486,0.0],[112.13997,-7.16275,0.0],[112.1385,-7.162,0.0],[112.13961,-7.15799,0.0],[112.15132,-7.15816,0.0],[112.15237,-7.15535,0.0],[112.15085,-7.15413,0.0],[112.1517,-7.14947,0.0],[112.15644,-7.14505,0.0],[112.15757,-7.14207,0.0],[112.16007,-7.1417,0.0],[112.16257,-7.13185,0.0],[112.16454,-7.13214,0.0],[112.16715,-7.13287,0.0],[112.16976,-7.13575,0.0],[112.16963,-7.14043,0.0],[112.16819,-7.14187,0.0],[112.16815,-7.15276,0.0],[112.16597,-7.15373,0.0],[112.16754,-7.16408,0.0],[112.16564,-7.16557,0.0],[112.16632,-7.17016,0.0],[112.16838,-7.17023,0.0],[112.1686,-7.17211,0.0],[112.16987,-7.17223,0.0],[112.16893,-7.17427,0.0],[112.1705,-7.18532,0.0],[112.16832,-7.18573,0.0],[112.16762,-7.18776,0.0],[112.16868,-7.19335,0.0],[112.17036,-7.19449,0.0],[112.17088,-7.20108,0.0],[112.1631,-7.20526,0.0],[112.16592,-7.20816,0.0],[112.16631,-7.2131,0.0],[112.16848,-7.21476,0.0],[112.16843,-7.21911,0.0],[112.17009,-7.21888,0.0],[112.17069,-7.22034,0.0],[112.16908,-7.22288,0.0],[112.16936,-7.22482,0.0],[112.17154,-7.22467,0.0],[112.17255,-7.22231,0.0],[112.17305,-7.22411,0.0],[112.17602,-7.22471,0.0],[112.1774,-7.22633,0.0],[112.17823,-7.22934,0.0],[112.17702,-7.22966,0.0],[112.17735,-7.23316,0.0],[112.17957,-7.23413,0.0],[112.18017,-7.23663,0.0],[112.17931,-7.24111,0.0],[112.18254,-7.2436,0.0],[112.17988,-7.24625,0.0],[112.18021,-7.24868,0.0],[112.17796,-7.251,0.0],[112.17776,-7.25495,0.0],[112.17324,-7.255,0.0],[112.16732,-7.26055,0.0],[112.15233,-7.26936,0.0],[112.14876,-7.26858,0.0],[112.15346,-7.26542,0.0],[112.15312,-7.26055,0.0],[112.14871,-7.2577,0.0],[112.14679,-7.25909,0.0],[112.14451,-7.25758,0.0],[112.14075,-7.25915,0.0]]]}},{"type":"Feature","properties":{"kecamatan":"Ngimbang","kab_kota":"Lamongan"},"geometry":{"type":"Polygon","coordinates":[[[112.16969,-7.35718,0.0],[112.16381,-7.36161,0.0],[112.15455,-7.36575,0.0],[112.15547,-7.36235,0.0],[112.15361,-7.35793,0.0],[112.15407,-7.35472,0.0],[112.15202,-7.35316,0.0],[112.155,-7.34409,0.0],[112.1506,-7.34608,0.0],[112.14738,-7.34514,0.0],[112.14611,-7.34248,0.0],[112.14786,-7.33664,0.0],[112.15188,-7.3318,0.0],[112.15075,-7.3301,0.0],[112.15452,-7.32341,0.0],[112.15768,-7.31007,0.0],[112.15663,-7.30818,0.0],[112.15791,-7.29919,0.0],[112.15655,-7.29776,0.0],[112.1571,-7.29602,0.0],[112.15483,-7.29543,0.0],[112.15461,-7.29351,0.0],[112.15765,-7.29001,0.0],[112.15774,-7.28693,0.0],[112.16244,-7.28454,0.0],[112.1625,-7.2822,0.0],[112.16603,-7.27804,0.0],[112.16493,-7.27279,0.0],[112.15792,-7.27253,0.0],[112.15233,-7.26936,0.0],[112.16732,-7.26055,0.0],[112.17324,-7.255,0.0],[112.17776,-7.25495,0.0],[112.17796,-7.251,0.0],[112.18021,-7.24868,0.0],[112.17988,-7.24625,0.0],[112.18254,-7.2436,0.0],[112.17931,-7.24111,0.0],[112.1796,-7.23769,0.0],[112.18657,-7.2361,0.0],[112.19953,-7.23777,0.0],[112.20779,-7.23574,0.0],[112.21094,-7.23696,0.0],[112.21165,-7.23586,0.0],[112.21211,-7.2369,0.0],[112.21245,-7.23535,0.0],[112.21371,-7.23527,0.0],[112.21398,-7.2367,0.0],[112.21693,-7.23641,0.0],[112.22276,-7.24067,0.0],[112.22422,-7.24734,0.0],[112.23139,-7.24898,0.0],[112.23861,-7.24636,0.0],[112.23998,-7.24834,0.0],[112.24093,-7.24522,0.0],[112.24235,-7.24485,0.0],[112.24242,-7.24682,0.0],[112.24456,-7.24563,0.0],[112.24782,-7.24678,0.0],[112.26464,-7.24454,0.0],[112.26708,-7.25572,0.0],[112.26568,-7.25701,0.0],[112.25917,-7.26012,0.0],[112.25175,-7.26041,0.0],[112.23874,-7.26398,0.0],[112.2339,-7.27058,0.0],[112.23088,-7.27201,0.0],[112.22669,-7.27682,0.0],[112.22883,-7.28121,0.0],[112.2257,-7.28215,0.0],[112.21912,-7.28124,0.0],[112.21981,-7.29139,0.0],[112.21727,-7.29639,0.0],[112.21703,-7.30639,0.0],[112.21463,-7.30833,0.0],[112.21732,-7.3143,0.0],[112.21587,-7.31735,0.0],[112.22045,-7.31919,0.0],[112.22219,-7.31814,0.0],[112.22364,-7.31947,0.0],[112.22763,-7.31923,0.0],[112.22534,-7.32251,0.0],[112.22563,-7.32847,0.0],[112.22438,-7.33114,0.0],[112.2284,-7.33264,0.0],[112.23266,-7.33251,0.0],[112.23139,-7.33484,0.0],[112.23232,-7.34217,0.0],[112.23092,-7.34953,0.0],[112.2285,-7.3503,0.0],[112.22913,-7.35136,0.0],[112.22726,-7.35043,0.0],[112.22183,-7.35113,0.0],[112.21136,-7.34857,0.0],[112.2073,-7.35075,0.0],[112.203,-7.34998,0.0],[112.20314,-7.35178,0.0],[112.20039,-7.35336,0.0],[112.199,-7.35219,0.0],[112.19043,-7.35349,0.0],[112.18712,-7.35218,0.0],[112.17908,-7.35636,0.0],[112.16969,-7.35718,0.0]]]}},{"type":"Feature","properties":{"kecamatan":"Sekaran","kab_kota":"Lamongan"},"geometry":{"type":"Polygon","coordinates":[[[112.23723,-7.08255,0.0],[112.23141,-7.088,0.0],[112.23193,-7.08446,0.0],[112.22832,-7.08096,0.0],[112.22839,-7.07956,0.0],[112.21836,-7.07769,0.0],[112.21728,-7.07335,0.0],[112.2188,-7.06592,0.0],[112.21526,-7.05472,0.0],[112.21576,-7.04294,0.0],[112.21719,-7.04055,0.0],[112.222,-7.03849,0.0],[112.22268,-7.03599,0.0],[112.23699,-7.0421,0.0],[112.2419,-7.04299,0.0],[112.24561,-7.04294,0.0],[112.246,-7.03831,0.0],[112.24849,-7.03901,0.0],[112.25054,-7.04239,0.0],[112.25301,-7.04317,0.0],[112.25351,-7.04049,0.0],[112.25915,-7.03662,0.0],[112.25902,-7.03226,0.0],[112.26279,-7.02803,0.0],[112.26538,-7.01985,0.0],[112.27805,-7.02022,0.0],[112.28497,-7.01811,0.0],[112.29396,-7.01742,0.0],[112.29541,-7.01777,0.0],[112.29601,-7.02419,0.0],[112.30289,-7.02724,0.0],[112.31541,-7.02852,0.0],[112.31614,-7.02768,0.0],[112.3203,-7.02893,0.0],[112.32179,-7.0263,0.0],[112.33401,-7.02874,0.0],[112.3316,-7.03807,0.0],[112.32945,-7.03751,0.0],[112.32903,-7.04083,0.0],[112.32814,-7.04075,0.0],[112.32778,-7.04632,0.0],[112.29836,-7.04113,0.0],[112.29724,-7.0518,0.0],[112.29296,-7.05106,0.0],[112.29224,-7.05997,0.0],[112.29329,-7.05985,0.0],[112.29322,-7.0647,0.0],[112.28881,-7.07537,0.0],[112.28732,-7.07512,0.0],[112.28355,-7.0779,0.0],[112.27337,-7.07646,0.0],[112.27001,-7.08316,0.0],[112.26163,-7.08521,0.0],[112.25219,-7.08451,0.0],[112.25018,-7.08298,0.0],[112.25035,-7.08116,0.0],[112.24473,-7.08014,0.0],[112.24276,-7.08025,0.0],[112.24235,-7.08275,0.0],[112.23723,-7.08255,0.0]]]}},{"type":"Feature","properties":{"kecamatan":"Brondong","kab_kota":"Lamongan"},"geometry":{"type":"Polygon","coordinates":[[[112.23695,-6.94829,0.0],[112.23413,-6.955,0.0],[112.23123,-6.95707,0.0],[112.22227,-6.95485,0.0],[112.21349,-6.95688,0.0],[112.21366,-6.95425,0.0],[112.21176,-6.95372,0.0],[112.20901,-6.94637,0.0],[112.20783,-6.93769,0.0],[112.20644,-6.93751,0.0],[112.20574,-6.94039,0.0],[112.20409,-6.94012,0.0],[112.20396,-6.93752,0.0],[112.20292,-6.93775,0.0],[112.203,-6.9183,0.0],[112.19882,-6.91283,0.0],[112.19496,-6.91264,0.0],[112.19377,-6.91448,0.0],[112.1895,-6.91193,0.0],[112.1868,-6.91179,0.0],[112.18375,-6.91489,0.0],[112.18278,-6.91407,0.0],[112.18324,-6.91206,0.0],[112.18036,-6.91315,0.0],[112.17968,-6.91206,0.0],[112.18084,-6.91059,0.0],[112.17898,-6.90508,0.0],[112.17535,-6.90214,0.0],[112.17214,-6.90272,0.0],[112.17102,-6.89976,0.0],[112.17038,-6.89486,0.0],[112.17128,-6.89781,0.0],[112.17244,-6.89515,0.0],[112.1794,-6.89142,0.0],[112.18139,-6.8915,0.0],[112.18499,-6.88819,0.0],[112.19096,-6.88861,0.0],[112.19439,-6.88758,0.0],[112.19674,-6.88518,0.0],[112.20155,-6.88481,0.0],[112.2005,-6.88373,0.0],[112.20447,-6.88293,0.0],[112.20417,-6.88127,0.0],[112.20442,-6.87971,0.0],[112.20492,-6.88275,0.0],[112.20642,-6.87928,0.0],[112.20595,-6.88199,0.0],[112.20764,-6.88173,0.0],[112.20745,-6.88082,0.0],[112.20856,-6.88151,0.0],[112.20798,-6.8803,0.0],[112.20865,-6.88149,0.0],[112.21421,-6.88122,0.0],[112.21632,-6.87475,0.0],[112.21915,-6.87488,0.0],[112.22102,-6.87348,0.0],[112.22293,-6.87524,0.0],[112.22281,-6.87284,0.0],[112.22387,-6.87241,0.0],[112.22552,-6.8725,0.0],[112.22587,-6.87378,0.0],[112.22923,-6.87252,0.0],[112.23006,-6.87469,0.0],[112.23192,-6.87374,0.0],[112.23229,-6.87463,0.0],[112.23263,-6.87277,0.0],[112.23512,-6.87201,0.0],[112.2442,-6.87235,0.0],[112.24534,-6.87702,0.0],[112.24685,-6.87836,0.0],[112.25053,-6.87858,0.0],[112.26754,-6.87615,0.0],[112.2654,-6.87044,0.0],[112.26706,-6.87462,0.0],[112.26986,-6.87344,0.0],[112.26858,-6.87421,0.0],[112.26934,-6.87572,0.0],[112.26781,-6.87642,0.0],[112.26977,-6.8784,0.0],[112.27727,-6.87406,0.0],[112.27859,-6.87197,0.0],[112.28488,-6.86925,0.0],[112.28674,-6.86969,0.0],[112.28719,-6.86758,0.0],[112.28619,-6.86712,0.0],[112.28704,-6.86493,0.0],[112.28838,-6.86528,0.0],[112.28724,-6.86995,0.0],[112.28839,-6.86793,0.0],[112.29305,-6.86813,0.0],[112.29368,-6.86602,0.0],[112.29472,-6.86646,0.0],[112.29683,-6.86842,0.0],[112.29423,-6.86834,0.0],[112.29374,-6.87009,0.0],[112.28831,-6.86848,0.0],[112.28776,-6.86987,0.0],[112.29285,-6.87276,0.0],[112.29468,-6.87231,0.0],[112.29425,-6.87143,0.0],[112.29832,-6.87204,0.0],[112.29636,-6.87315,0.0],[112.294,-6.87898,0.0],[112.29668,-6.88181,0.0],[112.29516,-6.88995,0.0],[112.29676,-6.89043,0.0],[112.29684,-6.89381,0.0],[112.29887,-6.89433,0.0],[112.2987,-6.89788,0.0],[112.29429,-6.89605,0.0],[112.29327,-6.89722,0.0],[112.28895,-6.89729,0.0],[112.29103,-6.90313,0.0],[112.28917,-6.90582,0.0],[112.2865,-6.90322,0.0],[112.28526,-6.90287,0.0],[112.28369,-6.90483,0.0],[112.28228,-6.90213,0.0],[112.27913,-6.90174,0.0],[112.27655,-6.90522,0.0],[112.27553,-6.90436,0.0],[112.27469,-6.90582,0.0],[112.27593,-6.91076,0.0],[112.27939,-6.9118,0.0],[112.28183,-6.9154,0.0],[112.28771,-6.91594,0.0],[112.28957,-6.91957,0.0],[112.28756,-6.92746,0.0],[112.28253,-6.9293,0.0],[112.27796,-6.9331,0.0],[112.27622,-6.93653,0.0],[112.27657,-6.94101,0.0],[112.27749,-6.94233,0.0],[112.27915,-6.94153,0.0],[112.27825,-6.94358,0.0],[112.27281,-6.94327,0.0],[112.26767,-6.93904,0.0],[112.26553,-6.94073,0.0],[112.25846,-6.94026,0.0],[112.25461,-6.93625,0.0],[112.2477,-6.93656,0.0],[112.24466,-6.93917,0.0],[112.246,-6.94091,0.0],[112.24135,-6.94591,0.0],[112.23695,-6.94829,0.0]]]}},{"type":"Feature","properties":{"kecamatan":"Laren","kab_kota":"Lamongan"},"geometry":{"type":"Polygon","coordinates":[[[112.22236,-7.03731,0.0],[112.20735,-7.03413,0.0],[112.20333,-7.02942,0.0],[112.20409,-7.02589,0.0],[112.21079,-7.02057,0.0],[112.21457,-7.00944,0.0],[112.21187,-7.0047,0.0],[112.21164,-7.0018,0.0],[112.21398,-6.99924,0.0],[112.20975,-6.9967,0.0],[112.21088,-6.98561,0.0],[112.20957,-6.97967,0.0],[112.21304,-6.97913,0.0],[112.20675,-6.97132,0.0],[112.20559,-6.9677,0.0],[112.20397,-6.9512,0.0],[112.20252,-6.94696,0.0],[112.20292,-6.93775,0.0],[112.20396,-6.93752,0.0],[112.20409,-6.94012,0.0],[112.20574,-6.94039,0.0],[112.20644,-6.93751,0.0],[112.20783,-6.93769,0.0],[112.20901,-6.94637,0.0],[112.21176,-6.95372,0.0],[112.21366,-6.95425,0.0],[112.21349,-6.95688,0.0],[112.22227,-6.95485,0.0],[112.23028,-6.95723,0.0],[112.23193,-6.95668,0.0],[112.23413,-6.955,0.0],[112.23695,-6.94829,0.0],[112.24135,-6.94591,0.0],[112.246,-6.94091,0.0],[112.24466,-6.93917,0.0],[112.2477,-6.93656,0.0],[112.25461,-6.93625,0.0],[112.25846,-6.94026,0.0],[112.26553,-6.94073,0.0],[112.26767,-6.93904,0.0],[112.27243,-6.94305,0.0],[112.27572,-6.944,0.0],[112.27825,-6.94358,0.0],[112.27915,-6.94153,0.0],[112.27749,-6.94233,0.0],[112.27657,-6.94101,0.0],[112.27668,-6.93588,0.0],[112.27822,-6.93736,0.0],[112.27726,-6.93972,0.0],[112.27807,-6.94047,0.0],[112.28176,-6.93735,0.0],[112.28713,-6.93882,0.0],[112.28722,-6.9491,0.0],[112.29223,-6.95467,0.0],[112.29811,-6.95609,0.0],[112.2976,-6.95146,0.0],[112.29502,-6.94993,0.0],[112.29519,-6.94881,0.0],[112.29719,-6.94994,0.0],[112.29814,-6.94889,0.0],[112.29895,-6.9519,0.0],[112.30203,-6.95256,0.0],[112.30174,-6.94897,0.0],[112.3082,-6.94869,0.0],[112.30681,-6.95123,0.0],[112.30767,-6.95163,0.0],[112.30895,-6.94983,0.0],[112.3117,-6.94987,0.0],[112.31366,-6.95179,0.0],[112.31254,-6.96028,0.0],[112.32575,-6.96132,0.0],[112.32555,-6.9592,0.0],[112.32818,-6.95856,0.0],[112.32751,-6.95632,0.0],[112.33225,-6.95808,0.0],[112.33302,-6.9568,0.0],[112.34437,-6.95697,0.0],[112.3466,-6.95469,0.0],[112.35241,-6.95578,0.0],[112.35278,-6.95475,0.0],[112.35466,-6.9563,0.0],[112.36493,-6.95762,0.0],[112.36759,-6.95631,0.0],[112.37472,-6.95757,0.0],[112.37217,-6.96654,0.0],[112.36863,-6.97086,0.0],[112.36708,-6.97775,0.0],[112.36691,-6.98689,0.0],[112.36855,-6.98804,0.0],[112.36629,-6.99699,0.0],[112.36208,-6.99661,0.0],[112.35987,-6.98871,0.0],[112.35482,-6.98664,0.0],[112.35292,-6.98838,0.0],[112.35481,-6.9915,0.0],[112.35371,-6.9935,0.0],[112.34209,-6.99658,0.0],[112.33908,-7.00244,0.0],[112.33618,-7.00396,0.0],[112.33263,-6.99771,0.0],[112.324,-6.99135,0.0],[112.32275,-6.98786,0.0],[112.32411,-6.98612,0.0],[112.32797,-6.98509,0.0],[112.33646,-6.98925,0.0],[112.3386,-6.98836,0.0],[112.34149,-6.98444,0.0],[112.34128,-6.97981,0.0],[112.34256,-6.97899,0.0],[112.33931,-6.97532,0.0],[112.32773,-6.96896,0.0],[112.32533,-6.96883,0.0],[112.32302,-6.97017,0.0],[112.31645,-6.98018,0.0],[112.31481,-6.98029,0.0],[112.31265,-6.97905,0.0],[112.30831,-6.96844,0.0],[112.30002,-6.96595,0.0],[112.29649,-6.96814,0.0],[112.29586,-6.97127,0.0],[112.29736,-6.97439,0.0],[112.30062,-6.97551,0.0],[112.3,-6.97738,0.0],[112.29466,-6.97983,0.0],[112.28749,-6.97969,0.0],[112.28418,-6.98275,0.0],[112.27764,-6.99366,0.0],[112.27815,-7.00549,0.0],[112.27328,-7.01205,0.0],[112.26663,-7.01315,0.0],[112.26314,-7.00836,0.0],[112.26182,-7.00826,0.0],[112.25571,-7.01206,0.0],[112.24486,-7.01581,0.0],[112.23902,-7.01144,0.0],[112.23594,-7.01136,0.0],[112.22817,-7.01762,0.0],[112.23035,-7.02057,0.0],[112.22477,-7.02887,0.0],[112.22236,-7.03731,0.0]]]}},{"type":"Feature","properties":{"kecamatan":"Sugio","kab_kota":"Lamongan"},"geometry":{"type":"Polygon","coordinates":[[[112.26576,-7.22502,0.0],[112.2645,-7.23067,0.0],[112.26597,-7.23757,0.0],[112.26415,-7.24501,0.0],[112.24782,-7.24678,0.0],[112.24456,-7.24563,0.0],[112.24242,-7.24682,0.0],[112.24235,-7.24485,0.0],[112.24093,-7.24522,0.0],[112.23998,-7.24834,0.0],[112.23861,-7.24636,0.0],[112.23117,-7.24889,0.0],[112.23226,-7.24142,0.0],[112.23706,-7.23226,0.0],[112.23755,-7.22334,0.0],[112.23611,-7.21069,0.0],[112.23769,-7.2061,0.0],[112.23746,-7.2006,0.0],[112.24008,-7.19545,0.0],[112.24131,-7.18486,0.0],[112.23922,-7.17831,0.0],[112.24137,-7.16858,0.0],[112.24401,-7.16841,0.0],[112.2444,-7.16402,0.0],[112.23827,-7.16295,0.0],[112.23802,-7.16156,0.0],[112.23371,-7.1614,0.0],[112.23253,-7.1545,0.0],[112.23367,-7.15193,0.0],[112.23298,-7.14394,0.0],[112.23719,-7.14214,0.0],[112.23928,-7.13941,0.0],[112.2437,-7.14445,0.0],[112.24377,-7.14187,0.0],[112.248,-7.14202,0.0],[112.24879,-7.13763,0.0],[112.25651,-7.13463,0.0],[112.25806,-7.1294,0.0],[112.26221,-7.12807,0.0],[112.26177,-7.13209,0.0],[112.26574,-7.13696,0.0],[112.27321,-7.14105,0.0],[112.27928,-7.14068,0.0],[112.27934,-7.13604,0.0],[112.27755,-7.13479,0.0],[112.27858,-7.13232,0.0],[112.28015,-7.13245,0.0],[112.28085,-7.13027,0.0],[112.28181,-7.13034,0.0],[112.28478,-7.11905,0.0],[112.28727,-7.12319,0.0],[112.29336,-7.12285,0.0],[112.29457,-7.12391,0.0],[112.29543,-7.13065,0.0],[112.29843,-7.1331,0.0],[112.30284,-7.13314,0.0],[112.30517,-7.13051,0.0],[112.30815,-7.13048,0.0],[112.31238,-7.1253,0.0],[112.31611,-7.12404,0.0],[112.31547,-7.13387,0.0],[112.3158,-7.13622,0.0],[112.31737,-7.13597,0.0],[112.31667,-7.13825,0.0],[112.32555,-7.14157,0.0],[112.32561,-7.14548,0.0],[112.31934,-7.14635,0.0],[112.31896,-7.14973,0.0],[112.31711,-7.1524,0.0],[112.31842,-7.15407,0.0],[112.31461,-7.16619,0.0],[112.31798,-7.17624,0.0],[112.31432,-7.18598,0.0],[112.31111,-7.1898,0.0],[112.31209,-7.19278,0.0],[112.30956,-7.20392,0.0],[112.303,-7.21362,0.0],[112.30229,-7.21958,0.0],[112.30036,-7.2204,0.0],[112.29684,-7.21745,0.0],[112.29775,-7.21264,0.0],[112.2937,-7.21183,0.0],[112.28982,-7.20888,0.0],[112.2896,-7.21114,0.0],[112.29319,-7.22062,0.0],[112.28978,-7.22062,0.0],[112.28624,-7.21728,0.0],[112.28207,-7.21831,0.0],[112.28025,-7.21721,0.0],[112.27886,-7.21919,0.0],[112.27273,-7.21534,0.0],[112.27196,-7.21954,0.0],[112.27346,-7.22088,0.0],[112.27186,-7.22107,0.0],[112.27035,-7.22348,0.0],[112.26782,-7.22333,0.0],[112.26576,-7.22502,0.0]]]}},{"type":"Feature","properties":{"kecamatan":"Pucuk","kab_kota":"Lamongan"},"geometry":{"type":"Polygon","coordinates":[[[112.29336,-7.12285,0.0],[112.28727,-7.12319,0.0],[112.28465,-7.1192,0.0],[112.28181,-7.13034,0.0],[112.28085,-7.13027,0.0],[112.28015,-7.13245,0.0],[112.27858,-7.13232,0.0],[112.27755,-7.13479,0.0],[112.27934,-7.13604,0.0],[112.27928,-7.14068,0.0],[112.27321,-7.14105,0.0],[112.26574,-7.13696,0.0],[112.26316,-7.1341,0.0],[112.26356,-7.13323,0.0],[112.26177,-7.13209,0.0],[112.26221,-7.12807,0.0],[112.25819,-7.12698,0.0],[112.25841,-7.12195,0.0],[112.2586,-7.12087,0.0],[112.26171,-7.12073,0.0],[112.26608,-7.10535,0.0],[112.26228,-7.10444,0.0],[112.25833,-7.10611,0.0],[112.25736,-7.10521,0.0],[112.25855,-7.10429,0.0],[112.25957,-7.09524,0.0],[112.26167,-7.09485,0.0],[112.26163,-7.08521,0.0],[112.27001,-7.08316,0.0],[112.27337,-7.07646,0.0],[112.28355,-7.0779,0.0],[112.28908,-7.07511,0.0],[112.29332,-7.06414,0.0],[112.29329,-7.05985,0.0],[112.29224,-7.05997,0.0],[112.29296,-7.05106,0.0],[112.29724,-7.0518,0.0],[112.29838,-7.04111,0.0],[112.32778,-7.04632,0.0],[112.32938,-7.04752,0.0],[112.32673,-7.0555,0.0],[112.33048,-7.05652,0.0],[112.331,-7.05406,0.0],[112.33505,-7.05497,0.0],[112.33537,-7.05937,0.0],[112.33321,-7.0623,0.0],[112.3317,-7.06203,0.0],[112.33056,-7.06622,0.0],[112.32858,-7.06761,0.0],[112.328,-7.07212,0.0],[112.32333,-7.07117,0.0],[112.32275,-7.0694,0.0],[112.3157,-7.06724,0.0],[112.31481,-7.07045,0.0],[112.31918,-7.07117,0.0],[112.3186,-7.0745,0.0],[112.31512,-7.07374,0.0],[112.31475,-7.07594,0.0],[112.31332,-7.07547,0.0],[112.31245,-7.07885,0.0],[112.31402,-7.07927,0.0],[112.31319,-7.08443,0.0],[112.30928,-7.08424,0.0],[112.30881,-7.08655,0.0],[112.30647,-7.08688,0.0],[112.30644,-7.09074,0.0],[112.30811,-7.09225,0.0],[112.30984,-7.10299,0.0],[112.31304,-7.10368,0.0],[112.30947,-7.11651,0.0],[112.30805,-7.11765,0.0],[112.30929,-7.1194,0.0],[112.3068,-7.12474,0.0],[112.3083,-7.12533,0.0],[112.31382,-7.12285,0.0],[112.31348,-7.12486,0.0],[112.30938,-7.12978,0.0],[112.30517,-7.13051,0.0],[112.30284,-7.13314,0.0],[112.29929,-7.13323,0.0],[112.29558,-7.13102,0.0],[112.29547,-7.12518,0.0],[112.29336,-7.12285,0.0]]]}},{"type":"Feature","properties":{"kecamatan":"Maduran","kab_kota":"Lamongan"},"geometry":{"type":"Polygon","coordinates":[[[112.24561,-7.04294,0.0],[112.23699,-7.0421,0.0],[112.22268,-7.03599,0.0],[112.22477,-7.02887,0.0],[112.23035,-7.02057,0.0],[112.22823,-7.0182,0.0],[112.22877,-7.01671,0.0],[112.23594,-7.01136,0.0],[112.23902,-7.01144,0.0],[112.24391,-7.01562,0.0],[112.24613,-7.01569,0.0],[112.26264,-7.00816,0.0],[112.26663,-7.01315,0.0],[112.27328,-7.01205,0.0],[112.27815,-7.00549,0.0],[112.27764,-6.99366,0.0],[112.28418,-6.98275,0.0],[112.28749,-6.97969,0.0],[112.29466,-6.97983,0.0],[112.3,-6.97738,0.0],[112.30062,-6.97551,0.0],[112.29736,-6.97439,0.0],[112.29586,-6.97127,0.0],[112.29649,-6.96814,0.0],[112.29878,-6.96634,0.0],[112.30431,-6.96657,0.0],[112.30831,-6.96844,0.0],[112.31265,-6.97905,0.0],[112.31481,-6.98029,0.0],[112.31689,-6.97947,0.0],[112.31993,-6.98289,0.0],[112.31983,-6.98439,0.0],[112.31656,-6.99084,0.0],[112.3144,-6.99103,0.0],[112.31118,-6.99913,0.0],[112.30367,-6.99795,0.0],[112.30178,-7.00415,0.0],[112.30614,-7.0069,0.0],[112.30595,-7.01625,0.0],[112.31523,-7.01882,0.0],[112.31481,-7.02152,0.0],[112.32181,-7.02616,0.0],[112.3209,-7.02845,0.0],[112.30289,-7.02724,0.0],[112.29816,-7.02575,0.0],[112.29522,-7.02313,0.0],[112.29507,-7.01743,0.0],[112.28497,-7.01811,0.0],[112.27805,-7.02022,0.0],[112.2661,-7.0197,0.0],[112.26279,-7.02803,0.0],[112.25902,-7.03226,0.0],[112.25886,-7.03713,0.0],[112.25351,-7.04049,0.0],[112.25301,-7.04317,0.0],[112.25054,-7.04239,0.0],[112.24849,-7.03901,0.0],[112.24588,-7.03829,0.0],[112.24561,-7.04294,0.0]]]}},{"type":"Feature","properties":{"kecamatan":"Sambeng","kab_kota":"Lamongan"},"geometry":{"type":"MultiPolygon","coordinates":[[[[112.27309,-7.35739,0.0],[112.26419,-7.36197,0.0],[112.2512,-7.36336,0.0],[112.24168,-7.35803,0.0],[112.23965,-7.35523,0.0],[112.22933,-7.35157,0.0],[112.2285,-7.3503,0.0],[112.23133,-7.34847,0.0],[112.23232,-7.34217,0.0],[112.23139,-7.33484,0.0],[112.23266,-7.33251,0.0],[112.2284,-7.33264,0.0],[112.22438,-7.33114,0.0],[112.22563,-7.32847,0.0],[112.22534,-7.32251,0.0],[112.22763,-7.31923,0.0],[112.22364,-7.31947,0.0],[112.22219,-7.31814,0.0],[112.22045,-7.31919,0.0],[112.21587,-7.31735,0.0],[112.21732,-7.3143,0.0],[112.21463,-7.30833,0.0],[112.21703,-7.30639,0.0],[112.21727,-7.29639,0.0],[112.21981,-7.29139,0.0],[112.21912,-7.28124,0.0],[112.2257,-7.28215,0.0],[112.22883,-7.28121,0.0],[112.22669,-7.27682,0.0],[112.23088,-7.27201,0.0],[112.2339,-7.27058,0.0],[112.23874,-7.26398,0.0],[112.25175,-7.26041,0.0],[112.25917,-7.26012,0.0],[112.26708,-7.25572,0.0],[112.26464,-7.24454,0.0],[112.26597,-7.23757,0.0],[112.2645,-7.23067,0.0],[112.26612,-7.22674,0.0],[112.26556,-7.22529,0.0],[112.27346,-7.22088,0.0],[112.27196,-7.21954,0.0],[112.27273,-7.21534,0.0],[112.27886,-7.21919,0.0],[112.28025,-7.21721,0.0],[112.28207,-7.21831,0.0],[112.28624,-7.21728,0.0],[112.28978,-7.22062,0.0],[112.29319,-7.22062,0.0],[112.2896,-7.21114,0.0],[112.28982,-7.20888,0.0],[112.2937,-7.21183,0.0],[112.29775,-7.21264,0.0],[112.29684,-7.21745,0.0],[112.30366,-7.22198,0.0],[112.30772,-7.23542,0.0],[112.31304,-7.24185,0.0],[112.31793,-7.24466,0.0],[112.32061,-7.24964,0.0],[112.32266,-7.26567,0.0],[112.32645,-7.27751,0.0],[112.3289,-7.28065,0.0],[112.32903,-7.28779,0.0],[112.33064,-7.28978,0.0],[112.32957,-7.29078,0.0],[112.32766,-7.3102,0.0],[112.32903,-7.31378,0.0],[112.33352,-7.31743,0.0],[112.33498,-7.32524,0.0],[112.34079,-7.32637,0.0],[112.34205,-7.32886,0.0],[112.34374,-7.32731,0.0],[112.34629,-7.3288,0.0],[112.34987,-7.32755,0.0],[112.35244,-7.33111,0.0],[112.35676,-7.33403,0.0],[112.35326,-7.33695,0.0],[112.34894,-7.3374,0.0],[112.34712,-7.3442,0.0],[112.3458,-7.34506,0.0],[112.33536,-7.34575,0.0],[112.33314,-7.34381,0.0],[112.3289,-7.34398,0.0],[112.32494,-7.34494,0.0],[112.31681,-7.34962,0.0],[112.30778,-7.35184,0.0],[112.30627,-7.35652,0.0],[112.3085,-7.35879,0.0],[112.31352,-7.35894,0.0],[112.31496,-7.36176,0.0],[112.31278,-7.36471,0.0],[112.31405,-7.36504,0.0],[112.30632,-7.36448,0.0],[112.30565,-7.35784,0.0],[112.30335,-7.35727,0.0],[112.30011,-7.35821,0.0],[112.29989,-7.36085,0.0],[112.29336,-7.3647,0.0],[112.29202,-7.36424,0.0],[112.29303,-7.36239,0.0],[112.29625,-7.36112,0.0],[112.29483,-7.35951,0.0],[112.27309,-7.35739,0.0]]],[[[112.33044,-7.34606,0.0],[112.3307,-7.34754,0.0],[112.33265,-7.34839,0.0],[112.33063,-7.35079,0.0],[112.32952,-7.34872,0.0],[112.33036,-7.34793,0.0],[112.32852,-7.34686,0.0],[112.33044,-7.34606,0.0]]]]}},{"type":"Feature","properties":{"kecamatan":"Mantup","kab_kota":"Lamongan"},"geometry":{"type":"Polygon","coordinates":[[[112.36768,-7.32497,0.0],[112.36273,-7.32705,0.0],[112.36271,-7.32846,0.0],[112.36243,-7.32679,0.0],[112.35855,-7.32648,0.0],[112.3584,-7.32861,0.0],[112.35737,-7.32867,0.0],[112.35898,-7.33321,0.0],[112.35714,-7.33425,0.0],[112.35244,-7.33111,0.0],[112.34987,-7.32755,0.0],[112.34629,-7.3288,0.0],[112.34374,-7.32731,0.0],[112.34205,-7.32886,0.0],[112.34079,-7.32637,0.0],[112.33512,-7.32545,0.0],[112.33352,-7.31743,0.0],[112.32852,-7.31289,0.0],[112.32766,-7.3102,0.0],[112.32957,-7.29078,0.0],[112.33064,-7.28978,0.0],[112.32903,-7.28779,0.0],[112.3289,-7.28065,0.0],[112.32645,-7.27751,0.0],[112.32266,-7.26567,0.0],[112.32095,-7.25053,0.0],[112.31793,-7.24466,0.0],[112.31304,-7.24185,0.0],[112.30772,-7.23542,0.0],[112.3052,-7.22497,0.0],[112.30154,-7.22073,0.0],[112.303,-7.21362,0.0],[112.30956,-7.20392,0.0],[112.31148,-7.19379,0.0],[112.31803,-7.19365,0.0],[112.3215,-7.19128,0.0],[112.32584,-7.19101,0.0],[112.32659,-7.18966,0.0],[112.3285,-7.1904,0.0],[112.32837,-7.19274,0.0],[112.33845,-7.19551,0.0],[112.3473,-7.20704,0.0],[112.34952,-7.21353,0.0],[112.35202,-7.21189,0.0],[112.35812,-7.21966,0.0],[112.3576,-7.2238,0.0],[112.35888,-7.2254,0.0],[112.35398,-7.22852,0.0],[112.35121,-7.23483,0.0],[112.348,-7.23563,0.0],[112.34385,-7.24405,0.0],[112.34706,-7.24904,0.0],[112.34767,-7.25239,0.0],[112.36177,-7.26198,0.0],[112.37345,-7.26143,0.0],[112.39545,-7.26379,0.0],[112.408,-7.26938,0.0],[112.4081,-7.27073,0.0],[112.41241,-7.27291,0.0],[112.41087,-7.28231,0.0],[112.40873,-7.28432,0.0],[112.40711,-7.29106,0.0],[112.40956,-7.29556,0.0],[112.41163,-7.29628,0.0],[112.41022,-7.30526,0.0],[112.40542,-7.30829,0.0],[112.40338,-7.31145,0.0],[112.40074,-7.31089,0.0],[112.39554,-7.31415,0.0],[112.39391,-7.31246,0.0],[112.39195,-7.31314,0.0],[112.38886,-7.32147,0.0],[112.37201,-7.32037,0.0],[112.37045,-7.32165,0.0],[112.36972,-7.32559,0.0],[112.36768,-7.32497,0.0]]]}},{"type":"Feature","properties":{"kecamatan":"Sukodadi","kab_kota":"Lamongan"},"geometry":{"type":"Polygon","coordinates":[[[112.34408,-7.1527,0.0],[112.33186,-7.15567,0.0],[112.33102,-7.15387,0.0],[112.32211,-7.15351,0.0],[112.32062,-7.15249,0.0],[112.31808,-7.15501,0.0],[112.31711,-7.1524,0.0],[112.31896,-7.14973,0.0],[112.31934,-7.14635,0.0],[112.32561,-7.14548,0.0],[112.32555,-7.14157,0.0],[112.31667,-7.13825,0.0],[112.31737,-7.13597,0.0],[112.3158,-7.13622,0.0],[112.31547,-7.13387,0.0],[112.31611,-7.12404,0.0],[112.31376,-7.12423,0.0],[112.31382,-7.12285,0.0],[112.3083,-7.12533,0.0],[112.3068,-7.12474,0.0],[112.30929,-7.1194,0.0],[112.30805,-7.11765,0.0],[112.30947,-7.11651,0.0],[112.31304,-7.10368,0.0],[112.30984,-7.10299,0.0],[112.30811,-7.09225,0.0],[112.30644,-7.09074,0.0],[112.30647,-7.08688,0.0],[112.30881,-7.08655,0.0],[112.30928,-7.08424,0.0],[112.31319,-7.08443,0.0],[112.31402,-7.07927,0.0],[112.31245,-7.07885,0.0],[112.31332,-7.07547,0.0],[112.31475,-7.07594,0.0],[112.31512,-7.07374,0.0],[112.3186,-7.0745,0.0],[112.31918,-7.07117,0.0],[112.31481,-7.07045,0.0],[112.31581,-7.06718,0.0],[112.32275,-7.0694,0.0],[112.32333,-7.07117,0.0],[112.328,-7.07212,0.0],[112.32858,-7.06761,0.0],[112.33077,-7.06508,0.0],[112.33443,-7.06609,0.0],[112.33387,-7.07291,0.0],[112.34169,-7.07518,0.0],[112.34298,-7.07028,0.0],[112.34688,-7.07115,0.0],[112.34517,-7.08199,0.0],[112.34803,-7.08269,0.0],[112.34779,-7.08487,0.0],[112.35267,-7.08499,0.0],[112.351,-7.09178,0.0],[112.35689,-7.09316,0.0],[112.35608,-7.1014,0.0],[112.35389,-7.10219,0.0],[112.35728,-7.10432,0.0],[112.35683,-7.10829,0.0],[112.3608,-7.10986,0.0],[112.36082,-7.11127,0.0],[112.367,-7.11128,0.0],[112.36742,-7.11514,0.0],[112.36845,-7.11548,0.0],[112.36843,-7.1171,0.0],[112.3633,-7.11656,0.0],[112.36044,-7.11882,0.0],[112.35856,-7.11857,0.0],[112.35698,-7.12671,0.0],[112.3636,-7.12814,0.0],[112.36339,-7.1336,0.0],[112.36616,-7.13436,0.0],[112.3653,-7.13884,0.0],[112.36754,-7.14082,0.0],[112.3693,-7.14002,0.0],[112.37255,-7.14108,0.0],[112.36646,-7.14743,0.0],[112.3653,-7.15222,0.0],[112.3729,-7.15303,0.0],[112.37224,-7.15546,0.0],[112.37059,-7.15596,0.0],[112.36962,-7.16398,0.0],[112.36493,-7.16422,0.0],[112.3647,-7.16067,0.0],[112.35715,-7.15795,0.0],[112.35701,-7.15439,0.0],[112.35372,-7.15327,0.0],[112.35141,-7.15722,0.0],[112.35036,-7.15716,0.0],[112.3502,-7.15594,0.0],[112.34465,-7.15576,0.0],[112.34408,-7.1527,0.0]]]}},{"type":"Feature","properties":{"kecamatan":"Paciran","kab_kota":"Lamongan"},"geometry":{"type":"MultiPolygon","coordinates":[[[[112.37637,-6.87475,0.0],[112.37731,-6.87372,0.0],[112.38059,-6.87538,0.0],[112.38215,-6.8737,0.0],[112.38254,-6.87346,0.0],[112.38285,-6.87347,0.0],[112.38081,-6.87533,0.0],[112.38445,-6.87575,0.0],[112.38593,-6.87403,0.0],[112.38548,-6.87542,0.0],[112.38638,-6.87574,0.0],[112.3873,-6.8739,0.0],[112.38805,-6.87609,0.0],[112.38816,-6.87476,0.0],[112.38888,-6.87589,0.0],[112.39833,-6.8743,0.0],[112.39864,-6.87407,0.0],[112.39812,-6.87405,0.0],[112.39776,-6.87117,0.0],[112.39783,-6.87047,0.0],[112.39821,-6.87402,0.0],[112.39939,-6.87401,0.0],[112.40111,-6.8729,0.0],[112.40137,-6.8709,0.0],[112.40365,-6.87068,0.0],[112.40511,-6.86774,0.0],[112.40349,-6.87211,0.0],[112.40742,-6.87092,0.0],[112.40691,-6.86937,0.0],[112.41201,-6.86489,0.0],[112.41174,-6.86435,0.0],[112.40831,-6.86574,0.0],[112.40665,-6.86541,0.0],[112.41408,-6.86302,0.0],[112.41356,-6.86409,0.0],[112.41805,-6.86447,0.0],[112.4183,-6.86168,0.0],[112.41828,-6.86451,0.0],[112.42298,-6.86395,0.0],[112.42364,-6.86599,0.0],[112.42552,-6.86381,0.0],[112.42368,-6.86638,0.0],[112.42618,-6.86421,0.0],[112.42498,-6.86674,0.0],[112.42759,-6.86425,0.0],[112.42776,-6.86571,0.0],[112.43062,-6.86528,0.0],[112.4308,-6.86755,0.0],[112.43578,-6.8689,0.0],[112.43921,-6.87204,0.0],[112.43995,-6.87102,0.0],[112.43858,-6.87301,0.0],[112.44003,-6.87429,0.0],[112.43959,-6.87682,0.0],[112.44224,-6.87935,0.0],[112.44063,-6.8826,0.0],[112.44153,-6.88358,0.0],[112.44329,-6.87995,0.0],[112.44588,-6.88171,0.0],[112.44571,-6.88275,0.0],[112.44739,-6.88251,0.0],[112.44845,-6.88481,0.0],[112.44265,-6.89345,0.0],[112.43798,-6.89742,0.0],[112.43617,-6.90213,0.0],[112.43458,-6.90015,0.0],[112.43241,-6.90162,0.0],[112.42934,-6.9014,0.0],[112.42617,-6.89721,0.0],[112.41543,-6.89723,0.0],[112.41101,-6.89548,0.0],[112.40293,-6.89546,0.0],[112.40051,-6.90167,0.0],[112.39349,-6.89728,0.0],[112.38972,-6.89812,0.0],[112.38878,-6.90547,0.0],[112.38674,-6.90422,0.0],[112.38189,-6.90465,0.0],[112.38053,-6.90412,0.0],[112.38129,-6.90253,0.0],[112.37862,-6.90227,0.0],[112.37287,-6.90338,0.0],[112.37245,-6.90726,0.0],[112.37014,-6.90768,0.0],[112.36615,-6.90472,0.0],[112.35813,-6.90408,0.0],[112.35362,-6.91003,0.0],[112.35101,-6.91041,0.0],[112.34892,-6.91751,0.0],[112.34369,-6.91655,0.0],[112.33788,-6.91738,0.0],[112.34076,-6.90332,0.0],[112.33188,-6.90324,0.0],[112.32952,-6.90173,0.0],[112.32595,-6.90254,0.0],[112.32462,-6.89976,0.0],[112.32008,-6.89801,0.0],[112.32268,-6.89259,0.0],[112.32125,-6.89171,0.0],[112.32531,-6.88744,0.0],[112.32527,-6.88526,0.0],[112.32067,-6.88585,0.0],[112.3192,-6.88915,0.0],[112.31689,-6.88956,0.0],[112.31386,-6.89338,0.0],[112.30637,-6.89072,0.0],[112.30397,-6.89105,0.0],[112.30276,-6.88959,0.0],[112.30184,-6.89916,0.0],[112.2987,-6.89788,0.0],[112.29887,-6.89433,0.0],[112.29684,-6.89381,0.0],[112.29676,-6.89043,0.0],[112.29516,-6.88995,0.0],[112.29668,-6.88181,0.0],[112.294,-6.87898,0.0],[112.2966,-6.87327,0.0],[112.29854,-6.87416,0.0],[112.30637,-6.87204,0.0],[112.31331,-6.87173,0.0],[112.31495,-6.87079,0.0],[112.31461,-6.86961,0.0],[112.31569,-6.87054,0.0],[112.32017,-6.8686,0.0],[112.31949,-6.86772,0.0],[112.31907,-6.86549,0.0],[112.31967,-6.86776,0.0],[112.31977,-6.8658,0.0],[112.32008,-6.86688,0.0],[112.32913,-6.86311,0.0],[112.33057,-6.86421,0.0],[112.33113,-6.86158,0.0],[112.33264,-6.86125,0.0],[112.33409,-6.86138,0.0],[112.33339,-6.86423,0.0],[112.34272,-6.8701,0.0],[112.35232,-6.86922,0.0],[112.35798,-6.86368,0.0],[112.36008,-6.86508,0.0],[112.36052,-6.86353,0.0],[112.36203,-6.86661,0.0],[112.36511,-6.86798,0.0],[112.36854,-6.86462,0.0],[112.3663,-6.86842,0.0],[112.36786,-6.86676,0.0],[112.36914,-6.8671,0.0],[112.36872,-6.87039,0.0],[112.37334,-6.87443,0.0],[112.37726,-6.87185,0.0],[112.3755,-6.87361,0.0],[112.37637,-6.87475,0.0]]],[[[112.4561,-6.88356,0.0],[112.45291,-6.88326,0.0],[112.44861,-6.87934,0.0],[112.44655,-6.875,0.0],[112.44678,-6.87346,0.0],[112.44971,-6.87723,0.0],[112.45136,-6.87624,0.0],[112.45119,-6.87761,0.0],[112.45309,-6.87937,0.0],[112.45499,-6.87854,0.0],[112.45343,-6.88055,0.0],[112.4557,-6.88182,0.0],[112.4561,-6.88356,0.0]]]]}},{"type":"Feature","properties":{"kecamatan":"Solokuro","kab_kota":"Lamongan"},"geometry":{"type":"Polygon","coordinates":[[[112.43006,-6.93007,0.0],[112.42412,-6.94007,0.0],[112.42336,-6.94681,0.0],[112.4239,-6.94851,0.0],[112.42624,-6.94861,0.0],[112.42534,-6.95153,0.0],[112.42094,-6.95075,0.0],[112.41753,-6.95359,0.0],[112.4124,-6.95189,0.0],[112.40806,-6.95712,0.0],[112.40711,-6.95684,0.0],[112.40716,-6.95926,0.0],[112.40516,-6.96046,0.0],[112.39434,-6.95511,0.0],[112.39256,-6.95563,0.0],[112.39059,-6.95921,0.0],[112.38713,-6.95894,0.0],[112.38182,-6.95742,0.0],[112.38092,-6.95368,0.0],[112.37696,-6.95268,0.0],[112.37472,-6.95757,0.0],[112.37327,-6.95813,0.0],[112.36829,-6.95639,0.0],[112.36533,-6.95654,0.0],[112.36493,-6.95762,0.0],[112.35466,-6.9563,0.0],[112.35278,-6.95475,0.0],[112.35241,-6.95578,0.0],[112.3466,-6.95469,0.0],[112.34437,-6.95697,0.0],[112.33302,-6.9568,0.0],[112.33225,-6.95808,0.0],[112.32751,-6.95632,0.0],[112.32818,-6.95856,0.0],[112.32555,-6.9592,0.0],[112.32575,-6.96132,0.0],[112.31299,-6.96038,0.0],[112.31205,-6.95812,0.0],[112.31366,-6.95179,0.0],[112.3117,-6.94987,0.0],[112.30895,-6.94983,0.0],[112.30767,-6.95163,0.0],[112.30681,-6.95123,0.0],[112.3082,-6.94869,0.0],[112.30174,-6.94897,0.0],[112.30203,-6.95256,0.0],[112.29895,-6.9519,0.0],[112.29814,-6.94889,0.0],[112.29719,-6.94994,0.0],[112.29519,-6.94881,0.0],[112.29502,-6.94993,0.0],[112.2976,-6.95146,0.0],[112.29811,-6.95609,0.0],[112.29304,-6.95497,0.0],[112.29004,-6.95329,0.0],[112.28738,-6.94953,0.0],[112.28713,-6.93882,0.0],[112.28176,-6.93735,0.0],[112.27807,-6.94047,0.0],[112.27726,-6.93972,0.0],[112.27827,-6.93752,0.0],[112.27668,-6.93588,0.0],[112.27796,-6.9331,0.0],[112.28454,-6.92779,0.0],[112.28756,-6.92746,0.0],[112.28957,-6.91957,0.0],[112.28771,-6.91594,0.0],[112.28183,-6.9154,0.0],[112.27939,-6.9118,0.0],[112.27593,-6.91076,0.0],[112.27469,-6.90582,0.0],[112.27553,-6.90436,0.0],[112.27655,-6.90522,0.0],[112.27913,-6.90174,0.0],[112.28228,-6.90213,0.0],[112.28369,-6.90483,0.0],[112.28526,-6.90287,0.0],[112.2865,-6.90322,0.0],[112.28917,-6.90582,0.0],[112.29103,-6.90313,0.0],[112.28895,-6.89729,0.0],[112.29327,-6.89722,0.0],[112.29429,-6.89605,0.0],[112.30184,-6.89916,0.0],[112.30276,-6.88959,0.0],[112.30397,-6.89105,0.0],[112.30637,-6.89072,0.0],[112.31386,-6.89338,0.0],[112.31689,-6.88956,0.0],[112.3192,-6.88915,0.0],[112.32067,-6.88585,0.0],[112.32436,-6.88528,0.0],[112.32527,-6.88526,0.0],[112.32541,-6.8872,0.0],[112.32125,-6.89171,0.0],[112.32268,-6.89259,0.0],[112.32008,-6.89801,0.0],[112.32462,-6.89976,0.0],[112.32595,-6.90254,0.0],[112.32952,-6.90173,0.0],[112.33188,-6.90324,0.0],[112.34076,-6.90332,0.0],[112.33827,-6.9128,0.0],[112.33788,-6.91738,0.0],[112.3394,-6.91776,0.0],[112.34369,-6.91655,0.0],[112.34892,-6.91751,0.0],[112.35101,-6.91041,0.0],[112.35362,-6.91003,0.0],[112.3583,-6.90401,0.0],[112.36615,-6.90472,0.0],[112.37014,-6.90768,0.0],[112.37245,-6.90726,0.0],[112.37287,-6.90338,0.0],[112.37862,-6.90227,0.0],[112.38129,-6.90253,0.0],[112.38053,-6.90412,0.0],[112.38189,-6.90465,0.0],[112.38674,-6.90422,0.0],[112.38898,-6.90541,0.0],[112.38972,-6.89812,0.0],[112.39304,-6.89727,0.0],[112.40051,-6.90167,0.0],[112.40293,-6.89546,0.0],[112.41101,-6.89548,0.0],[112.41543,-6.89723,0.0],[112.42617,-6.89721,0.0],[112.42744,-6.89996,0.0],[112.4301,-6.9017,0.0],[112.42407,-6.91087,0.0],[112.42339,-6.91446,0.0],[112.42489,-6.91666,0.0],[112.42138,-6.9245,0.0],[112.43006,-6.93007,0.0]]]}}]}