{"type":"FeatureCollection","features":[{"type":"Feature","properties":{"kecamatan":"Trawas","kab_kota":"Mojokerto"},"geometry":{"type":"Polygon","coordinates":[[[112.62359,-7.66681,0.0],[112.61441,-7.68168,0.0],[112.60893,-7.68711,0.0],[112.60207,-7.68997,0.0],[112.59819,-7.69438,0.0],[112.59754,-7.69793,0.0],[112.59546,-7.70093,0.0],[112.59338,-7.7014,0.0],[112.59172,-7.70684,0.0],[112.58926,-7.70986,0.0],[112.58933,-7.71393,0.0],[112.58565,-7.72069,0.0],[112.57471,-7.73265,0.0],[112.57912,-7.72244,0.0],[112.57933,-7.71805,0.0],[112.5776,-7.70934,0.0],[112.57607,-7.70829,0.0],[112.57414,-7.70076,0.0],[112.57895,-7.68728,0.0],[112.57809,-7.68162,0.0],[112.58086,-7.67738,0.0],[112.58009,-7.67023,0.0],[112.58208,-7.66489,0.0],[112.57757,-7.6543,0.0],[112.57075,-7.65281,0.0],[112.57289,-7.63819,0.0],[112.57146,-7.63684,0.0],[112.57326,-7.63446,0.0],[112.57297,-7.62998,0.0],[112.56465,-7.62001,0.0],[112.56297,-7.62027,0.0],[112.5602,-7.61496,0.0],[112.55888,-7.61115,0.0],[112.55987,-7.61013,0.0],[112.55835,-7.60938,0.0],[112.55832,-7.5978,0.0],[112.55692,-7.59531,0.0],[112.56341,-7.59428,0.0],[112.5632,-7.59745,0.0],[112.57344,-7.59963,0.0],[112.57473,-7.58527,0.0],[112.57828,-7.59158,0.0],[112.58323,-7.59585,0.0],[112.58766,-7.59109,0.0],[112.59121,-7.57985,0.0],[112.59235,-7.5784,0.0],[112.59695,-7.57876,0.0],[112.59988,-7.57262,0.0],[112.60057,-7.57762,0.0],[112.60396,-7.58317,0.0],[112.60204,-7.5879,0.0],[112.60337,-7.58909,0.0],[112.60282,-7.5918,0.0],[112.60531,-7.59428,0.0],[112.60731,-7.60785,0.0],[112.62076,-7.61538,0.0],[112.62034,-7.62278,0.0],[112.62258,-7.633,0.0],[112.6269,-7.63699,0.0],[112.62866,-7.64259,0.0],[112.62579,-7.649,0.0],[112.62782,-7.65291,0.0],[112.62529,-7.6583,0.0],[112.62238,-7.66064,0.0],[112.6223,-7.66453,0.0],[112.62359,-7.66681,0.0]]]}},{"type":"Feature","properties":{"kecamatan":"Ngoro","kab_kota":"Mojokerto"},"geometry":{"type":"Polygon","coordinates":[[[112.60788,-7.60864,0.0],[112.60531,-7.59428,0.0],[112.60282,-7.5918,0.0],[112.60337,-7.58909,0.0],[112.60204,-7.5879,0.0],[112.60396,-7.58317,0.0],[112.60057,-7.57762,0.0],[112.59988,-7.57262,0.0],[112.59695,-7.57876,0.0],[112.59235,-7.5784,0.0],[112.59121,-7.57985,0.0],[112.58808,-7.59015,0.0],[112.58458,-7.5951,0.0],[112.58323,-7.59585,0.0],[112.58061,-7.59425,0.0],[112.57458,-7.58527,0.0],[112.57344,-7.59963,0.0],[112.56786,-7.5981,0.0],[112.56713,-7.59689,0.0],[112.56984,-7.58849,0.0],[112.5727,-7.58464,0.0],[112.57135,-7.57837,0.0],[112.57272,-7.57418,0.0],[112.57781,-7.57455,0.0],[112.57661,-7.57269,0.0],[112.57682,-7.5687,0.0],[112.57888,-7.56854,0.0],[112.57971,-7.56453,0.0],[112.58469,-7.5599,0.0],[112.58729,-7.55312,0.0],[112.58662,-7.54852,0.0],[112.58955,-7.54502,0.0],[112.59346,-7.54575,0.0],[112.59514,-7.54477,0.0],[112.59553,-7.54389,0.0],[112.59361,-7.54324,0.0],[112.59694,-7.53737,0.0],[112.59559,-7.53464,0.0],[112.59654,-7.52977,0.0],[112.60277,-7.52519,0.0],[112.6006,-7.5244,0.0],[112.60186,-7.52189,0.0],[112.60538,-7.52219,0.0],[112.60583,-7.5212,0.0],[112.60601,-7.5164,0.0],[112.59745,-7.51353,0.0],[112.59629,-7.51168,0.0],[112.59688,-7.50778,0.0],[112.6003,-7.5014,0.0],[112.59705,-7.49969,0.0],[112.60257,-7.50089,0.0],[112.60519,-7.50645,0.0],[112.60909,-7.50753,0.0],[112.61352,-7.51268,0.0],[112.61393,-7.51513,0.0],[112.61998,-7.51893,0.0],[112.62553,-7.52752,0.0],[112.6308,-7.53307,0.0],[112.64708,-7.53842,0.0],[112.64974,-7.54473,0.0],[112.66377,-7.55726,0.0],[112.66288,-7.56265,0.0],[112.66078,-7.56654,0.0],[112.65687,-7.56895,0.0],[112.65425,-7.58133,0.0],[112.65593,-7.5855,0.0],[112.65266,-7.59692,0.0],[112.63609,-7.61271,0.0],[112.6293,-7.61704,0.0],[112.62304,-7.61608,0.0],[112.60788,-7.60864,0.0]]]}},{"type":"Feature","properties":{"kecamatan":"Gondang","kab_kota":"Mojokerto"},"geometry":{"type":"Polygon","coordinates":[[[112.49346,-7.76288,0.0],[112.48946,-7.76554,0.0],[112.48786,-7.76429,0.0],[112.48382,-7.76429,0.0],[112.47856,-7.7679,0.0],[112.46882,-7.76842,0.0],[112.46964,-7.76499,0.0],[112.46843,-7.76231,0.0],[112.47147,-7.75329,0.0],[112.46659,-7.75104,0.0],[112.46487,-7.74528,0.0],[112.467,-7.74137,0.0],[112.46032,-7.73002,0.0],[112.45737,-7.71958,0.0],[112.45322,-7.71805,0.0],[112.45019,-7.71232,0.0],[112.45267,-7.70489,0.0],[112.45159,-7.69171,0.0],[112.45351,-7.69022,0.0],[112.45397,-7.68613,0.0],[112.45295,-7.67885,0.0],[112.45054,-7.67482,0.0],[112.45113,-7.64766,0.0],[112.4471,-7.62918,0.0],[112.44714,-7.62667,0.0],[112.44961,-7.62676,0.0],[112.44742,-7.62156,0.0],[112.44695,-7.6147,0.0],[112.44848,-7.60915,0.0],[112.445,-7.60564,0.0],[112.4458,-7.60374,0.0],[112.44871,-7.60444,0.0],[112.44695,-7.60319,0.0],[112.44802,-7.59806,0.0],[112.44618,-7.59821,0.0],[112.4449,-7.59353,0.0],[112.44946,-7.5962,0.0],[112.45104,-7.59394,0.0],[112.44957,-7.59265,0.0],[112.45033,-7.59112,0.0],[112.45533,-7.5913,0.0],[112.45501,-7.58784,0.0],[112.46018,-7.5879,0.0],[112.46129,-7.59266,0.0],[112.46349,-7.59421,0.0],[112.46381,-7.59633,0.0],[112.46609,-7.59698,0.0],[112.46717,-7.60136,0.0],[112.47877,-7.60797,0.0],[112.48236,-7.60834,0.0],[112.48959,-7.60539,0.0],[112.49603,-7.61106,0.0],[112.49819,-7.60962,0.0],[112.49987,-7.61002,0.0],[112.50018,-7.60658,0.0],[112.50379,-7.6049,0.0],[112.50946,-7.60351,0.0],[112.50975,-7.60549,0.0],[112.51204,-7.60554,0.0],[112.52405,-7.60371,0.0],[112.5278,-7.61244,0.0],[112.52552,-7.61662,0.0],[112.52407,-7.62696,0.0],[112.51472,-7.62443,0.0],[112.51474,-7.63029,0.0],[112.51658,-7.63206,0.0],[112.51701,-7.63494,0.0],[112.51497,-7.63685,0.0],[112.51144,-7.6373,0.0],[112.50848,-7.62963,0.0],[112.50461,-7.63125,0.0],[112.49892,-7.63123,0.0],[112.49992,-7.63627,0.0],[112.49798,-7.63741,0.0],[112.50035,-7.64008,0.0],[112.50068,-7.64342,0.0],[112.50243,-7.64341,0.0],[112.50477,-7.64597,0.0],[112.50705,-7.64601,0.0],[112.50635,-7.6476,0.0],[112.5083,-7.65213,0.0],[112.50663,-7.65724,0.0],[112.50704,-7.65988,0.0],[112.5123,-7.66906,0.0],[112.51087,-7.69848,0.0],[112.50899,-7.71082,0.0],[112.50985,-7.71835,0.0],[112.51461,-7.73094,0.0],[112.5157,-7.73842,0.0],[112.51292,-7.74573,0.0],[112.51237,-7.75155,0.0],[112.50637,-7.7541,0.0],[112.49843,-7.75529,0.0],[112.49346,-7.76288,0.0]]]}},{"type":"Feature","properties":{"kecamatan":"Pacet","kab_kota":"Mojokerto"},"geometry":{"type":"Polygon","coordinates":[[[112.56223,-7.73783,0.0],[112.54422,-7.73591,0.0],[112.5385,-7.73782,0.0],[112.53285,-7.73652,0.0],[112.53133,-7.73497,0.0],[112.52839,-7.73499,0.0],[112.52485,-7.73964,0.0],[112.51478,-7.74154,0.0],[112.5157,-7.73842,0.0],[112.51491,-7.73227,0.0],[112.51046,-7.7208,0.0],[112.50899,-7.71082,0.0],[112.51087,-7.69848,0.0],[112.5123,-7.66906,0.0],[112.50704,-7.65988,0.0],[112.50663,-7.65724,0.0],[112.5083,-7.65213,0.0],[112.50635,-7.6476,0.0],[112.50705,-7.64601,0.0],[112.50477,-7.64597,0.0],[112.50243,-7.64341,0.0],[112.50068,-7.64342,0.0],[112.50035,-7.64008,0.0],[112.49798,-7.6371,0.0],[112.49992,-7.63627,0.0],[112.49906,-7.63095,0.0],[112.50386,-7.63137,0.0],[112.50848,-7.62963,0.0],[112.51144,-7.6373,0.0],[112.51497,-7.63685,0.0],[112.51701,-7.63494,0.0],[112.51658,-7.63206,0.0],[112.51474,-7.63029,0.0],[112.51472,-7.62443,0.0],[112.52407,-7.62696,0.0],[112.52552,-7.61662,0.0],[112.52788,-7.61294,0.0],[112.52405,-7.60371,0.0],[112.5348,-7.60068,0.0],[112.53564,-7.60001,0.0],[112.5349,-7.59691,0.0],[112.53736,-7.5956,0.0],[112.55689,-7.59353,0.0],[112.55832,-7.5978,0.0],[112.55835,-7.60938,0.0],[112.55987,-7.61013,0.0],[112.55888,-7.61115,0.0],[112.5602,-7.61496,0.0],[112.56297,-7.62027,0.0],[112.56465,-7.62001,0.0],[112.57297,-7.62998,0.0],[112.57326,-7.63446,0.0],[112.57146,-7.63684,0.0],[112.57289,-7.63819,0.0],[112.57075,-7.65281,0.0],[112.57757,-7.6543,0.0],[112.58208,-7.66489,0.0],[112.58009,-7.67023,0.0],[112.58086,-7.67738,0.0],[112.57809,-7.68162,0.0],[112.57895,-7.68728,0.0],[112.57414,-7.70076,0.0],[112.5787,-7.71323,0.0],[112.57912,-7.72244,0.0],[112.57471,-7.73265,0.0],[112.57062,-7.7347,0.0],[112.56483,-7.73509,0.0],[112.56223,-7.73783,0.0]]]}},{"type":"Feature","properties":{"kecamatan":"Mojosari","kab_kota":"Mojokerto"},"geometry":{"type":"Polygon","coordinates":[[[112.54935,-7.54044,0.0],[112.54404,-7.53714,0.0],[112.54418,-7.53398,0.0],[112.54144,-7.5337,0.0],[112.54078,-7.53559,0.0],[112.53735,-7.53478,0.0],[112.53922,-7.53073,0.0],[112.53234,-7.52839,0.0],[112.53236,-7.52951,0.0],[112.53,-7.52992,0.0],[112.52935,-7.53226,0.0],[112.52498,-7.53141,0.0],[112.52438,-7.53701,0.0],[112.52154,-7.5372,0.0],[112.52135,-7.53846,0.0],[112.51958,-7.53777,0.0],[112.5187,-7.52985,0.0],[112.52347,-7.52226,0.0],[112.52278,-7.51301,0.0],[112.52373,-7.50921,0.0],[112.52573,-7.50938,0.0],[112.52598,-7.50732,0.0],[112.52603,-7.50496,0.0],[112.52272,-7.50365,0.0],[112.5267,-7.48241,0.0],[112.52232,-7.48198,0.0],[112.52336,-7.47895,0.0],[112.52464,-7.47872,0.0],[112.52663,-7.46902,0.0],[112.56021,-7.47565,0.0],[112.56002,-7.48409,0.0],[112.56264,-7.48935,0.0],[112.55982,-7.50234,0.0],[112.56299,-7.50259,0.0],[112.56192,-7.50622,0.0],[112.56905,-7.5088,0.0],[112.56318,-7.51962,0.0],[112.56612,-7.5206,0.0],[112.56527,-7.52565,0.0],[112.56462,-7.52674,0.0],[112.56011,-7.52577,0.0],[112.55941,-7.52766,0.0],[112.56104,-7.52988,0.0],[112.55882,-7.52982,0.0],[112.56003,-7.53294,0.0],[112.55862,-7.5337,0.0],[112.55752,-7.53817,0.0],[112.55303,-7.53722,0.0],[112.55063,-7.54267,0.0],[112.54833,-7.54153,0.0],[112.54935,-7.54044,0.0]]]}},{"type":"Feature","properties":{"kecamatan":"Dlanggu","kab_kota":"Mojokerto"},"geometry":{"type":"Polygon","coordinates":[[[112.4898,-7.60544,0.0],[112.48236,-7.60834,0.0],[112.47877,-7.60797,0.0],[112.46717,-7.60136,0.0],[112.46609,-7.59698,0.0],[112.46381,-7.59633,0.0],[112.46349,-7.59421,0.0],[112.46129,-7.59266,0.0],[112.46028,-7.58801,0.0],[112.45707,-7.5878,0.0],[112.45846,-7.57986,0.0],[112.45691,-7.57985,0.0],[112.45664,-7.57724,0.0],[112.455,-7.577,0.0],[112.45612,-7.58177,0.0],[112.45478,-7.58012,0.0],[112.45393,-7.57542,0.0],[112.45538,-7.57569,0.0],[112.45526,-7.57202,0.0],[112.4563,-7.57148,0.0],[112.45481,-7.56879,0.0],[112.44961,-7.56651,0.0],[112.44938,-7.56857,0.0],[112.44799,-7.56942,0.0],[112.44899,-7.5719,0.0],[112.44771,-7.57035,0.0],[112.44472,-7.57143,0.0],[112.4452,-7.57277,0.0],[112.44265,-7.57166,0.0],[112.44064,-7.5671,0.0],[112.44035,-7.56253,0.0],[112.43756,-7.55845,0.0],[112.43844,-7.5559,0.0],[112.43961,-7.55535,0.0],[112.4406,-7.55665,0.0],[112.44281,-7.55177,0.0],[112.44412,-7.55124,0.0],[112.45211,-7.55417,0.0],[112.45151,-7.54989,0.0],[112.45856,-7.55006,0.0],[112.45767,-7.54806,0.0],[112.46041,-7.5481,0.0],[112.46282,-7.5501,0.0],[112.46362,-7.55419,0.0],[112.47079,-7.55357,0.0],[112.47181,-7.55624,0.0],[112.47305,-7.55592,0.0],[112.47353,-7.55372,0.0],[112.47532,-7.55376,0.0],[112.47011,-7.53699,0.0],[112.47096,-7.53561,0.0],[112.47287,-7.5357,0.0],[112.47164,-7.53054,0.0],[112.47239,-7.51951,0.0],[112.47587,-7.51885,0.0],[112.48216,-7.51973,0.0],[112.48115,-7.52461,0.0],[112.48244,-7.52601,0.0],[112.47979,-7.5283,0.0],[112.48161,-7.52967,0.0],[112.4803,-7.53043,0.0],[112.48083,-7.53319,0.0],[112.48188,-7.53208,0.0],[112.48414,-7.53439,0.0],[112.48582,-7.53416,0.0],[112.48493,-7.53542,0.0],[112.48779,-7.53607,0.0],[112.48713,-7.53786,0.0],[112.48906,-7.53782,0.0],[112.49167,-7.54131,0.0],[112.49485,-7.54245,0.0],[112.49383,-7.54566,0.0],[112.49626,-7.54733,0.0],[112.49392,-7.5486,0.0],[112.49689,-7.54911,0.0],[112.49738,-7.54612,0.0],[112.49864,-7.54615,0.0],[112.49969,-7.5554,0.0],[112.49813,-7.5591,0.0],[112.49876,-7.56675,0.0],[112.49588,-7.56787,0.0],[112.49432,-7.57154,0.0],[112.49611,-7.57326,0.0],[112.49579,-7.57755,0.0],[112.49774,-7.57989,0.0],[112.49651,-7.58104,0.0],[112.49824,-7.58228,0.0],[112.49869,-7.58508,0.0],[112.50648,-7.59379,0.0],[112.50495,-7.59771,0.0],[112.50487,-7.60491,0.0],[112.50018,-7.60658,0.0],[112.49987,-7.61002,0.0],[112.49516,-7.61109,0.0],[112.4898,-7.60544,0.0]]]}},{"type":"Feature","properties":{"kecamatan":"Pungging","kab_kota":"Mojokerto"},"geometry":{"type":"Polygon","coordinates":[[[112.57137,-7.57788,0.0],[112.5727,-7.58464,0.0],[112.56977,-7.58865,0.0],[112.56713,-7.59673,0.0],[112.56776,-7.59804,0.0],[112.5632,-7.59745,0.0],[112.56341,-7.59428,0.0],[112.55692,-7.59531,0.0],[112.5512,-7.58364,0.0],[112.55136,-7.58057,0.0],[112.54816,-7.57738,0.0],[112.54794,-7.57287,0.0],[112.54639,-7.57169,0.0],[112.54759,-7.56821,0.0],[112.5464,-7.56566,0.0],[112.54661,-7.56106,0.0],[112.5418,-7.55786,0.0],[112.54433,-7.5539,0.0],[112.53849,-7.55182,0.0],[112.54029,-7.54319,0.0],[112.5431,-7.54363,0.0],[112.54331,-7.54077,0.0],[112.54421,-7.54071,0.0],[112.54404,-7.53714,0.0],[112.54857,-7.53949,0.0],[112.54935,-7.54044,0.0],[112.54833,-7.54153,0.0],[112.55081,-7.54263,0.0],[112.55303,-7.53722,0.0],[112.55787,-7.5376,0.0],[112.55862,-7.5337,0.0],[112.56003,-7.53294,0.0],[112.55882,-7.52982,0.0],[112.56104,-7.52988,0.0],[112.55941,-7.52766,0.0],[112.56011,-7.52577,0.0],[112.56462,-7.52674,0.0],[112.56597,-7.52369,0.0],[112.56612,-7.5206,0.0],[112.56318,-7.51962,0.0],[112.56905,-7.5088,0.0],[112.56192,-7.50622,0.0],[112.56299,-7.50259,0.0],[112.55982,-7.50234,0.0],[112.56264,-7.48935,0.0],[112.56002,-7.48409,0.0],[112.56021,-7.47565,0.0],[112.56362,-7.47607,0.0],[112.57063,-7.47975,0.0],[112.57327,-7.48378,0.0],[112.57782,-7.48455,0.0],[112.58263,-7.49266,0.0],[112.59131,-7.4942,0.0],[112.59838,-7.50122,0.0],[112.6003,-7.5014,0.0],[112.59688,-7.50778,0.0],[112.59629,-7.51168,0.0],[112.59745,-7.51353,0.0],[112.60601,-7.5164,0.0],[112.60538,-7.52219,0.0],[112.60186,-7.52189,0.0],[112.6006,-7.5244,0.0],[112.60277,-7.52519,0.0],[112.59654,-7.52977,0.0],[112.59559,-7.53464,0.0],[112.59694,-7.53737,0.0],[112.59361,-7.54324,0.0],[112.59524,-7.54462,0.0],[112.59346,-7.54575,0.0],[112.58955,-7.54502,0.0],[112.58662,-7.54852,0.0],[112.58729,-7.55312,0.0],[112.58469,-7.5599,0.0],[112.57971,-7.56453,0.0],[112.57888,-7.56854,0.0],[112.57695,-7.56834,0.0],[112.57652,-7.57207,0.0],[112.57781,-7.57455,0.0],[112.57272,-7.57418,0.0],[112.57137,-7.57788,0.0]]]}},{"type":"Feature","properties":{"kecamatan":"Kutorejo","kab_kota":"Mojokerto"},"geometry":{"type":"MultiPolygon","coordinates":[[[[112.5348,-7.60068,0.0],[112.50975,-7.60549,0.0],[112.50946,-7.60351,0.0],[112.50494,-7.60506,0.0],[112.50621,-7.59259,0.0],[112.49961,-7.58671,0.0],[112.49824,-7.58228,0.0],[112.49651,-7.58104,0.0],[112.49774,-7.57989,0.0],[112.49579,-7.57755,0.0],[112.49611,-7.57326,0.0],[112.49432,-7.57154,0.0],[112.49588,-7.56787,0.0],[112.49876,-7.56675,0.0],[112.49813,-7.5591,0.0],[112.49969,-7.5554,0.0],[112.49859,-7.5443,0.0],[112.49736,-7.54204,0.0],[112.49837,-7.53996,0.0],[112.49744,-7.53893,0.0],[112.49845,-7.53857,0.0],[112.49711,-7.53776,0.0],[112.49705,-7.53575,0.0],[112.49879,-7.53537,0.0],[112.49859,-7.52832,0.0],[112.50009,-7.52572,0.0],[112.49994,-7.52221,0.0],[112.50237,-7.51786,0.0],[112.50131,-7.51091,0.0],[112.50801,-7.51112,0.0],[112.50894,-7.50716,0.0],[112.51673,-7.50871,0.0],[112.51589,-7.51507,0.0],[112.51817,-7.51562,0.0],[112.51579,-7.52657,0.0],[112.51659,-7.52731,0.0],[112.51509,-7.53039,0.0],[112.51751,-7.53493,0.0],[112.51905,-7.53459,0.0],[112.51983,-7.53845,0.0],[112.52438,-7.53701,0.0],[112.52498,-7.53141,0.0],[112.52935,-7.53226,0.0],[112.53,-7.52992,0.0],[112.53236,-7.52951,0.0],[112.53234,-7.52839,0.0],[112.53922,-7.53073,0.0],[112.53735,-7.53478,0.0],[112.54078,-7.53559,0.0],[112.54144,-7.5337,0.0],[112.54418,-7.53398,0.0],[112.54421,-7.54071,0.0],[112.54331,-7.54077,0.0],[112.5431,-7.54363,0.0],[112.54029,-7.54319,0.0],[112.53849,-7.55182,0.0],[112.54433,-7.5539,0.0],[112.5418,-7.55786,0.0],[112.54661,-7.56106,0.0],[112.5464,-7.56566,0.0],[112.54759,-7.56821,0.0],[112.54639,-7.57169,0.0],[112.54812,-7.57336,0.0],[112.54816,-7.57738,0.0],[112.55136,-7.58057,0.0],[112.55078,-7.58218,0.0],[112.5544,-7.58875,0.0],[112.55412,-7.5907,0.0],[112.55689,-7.59353,0.0],[112.53736,-7.5956,0.0],[112.5349,-7.59691,0.0],[112.53564,-7.60001,0.0],[112.5348,-7.60068,0.0]]],[[[112.51881,-7.53302,0.0],[112.51882,-7.53332,0.0],[112.51881,-7.53281,0.0],[112.51881,-7.53302,0.0]]],[[[112.51869,-7.52988,0.0],[112.51888,-7.5299,0.0],[112.51888,-7.52991,0.0],[112.51869,-7.52988,0.0]]],[[[112.51885,-7.53228,0.0],[112.51884,-7.53234,0.0],[112.51883,-7.53253,0.0],[112.51885,-7.53228,0.0]]],[[[112.51909,-7.53118,0.0],[112.51905,-7.5314,0.0],[112.5191,-7.53111,0.0],[112.51909,-7.53118,0.0]]],[[[112.51928,-7.52842,0.0],[112.5191,-7.52872,0.0],[112.51928,-7.52819,0.0],[112.51928,-7.52842,0.0]]],[[[112.51955,-7.52756,0.0],[112.51935,-7.52796,0.0],[112.51949,-7.52742,0.0],[112.51955,-7.52756,0.0]]]]}},{"type":"Feature","properties":{"kecamatan":"Jatirejo","kab_kota":"Mojokerto"},"geometry":{"type":"Polygon","coordinates":[[[112.4108,-7.64946,0.0],[112.40943,-7.64408,0.0],[112.40367,-7.64185,0.0],[112.38967,-7.65075,0.0],[112.38888,-7.64589,0.0],[112.38769,-7.64423,0.0],[112.38363,-7.64413,0.0],[112.38275,-7.6395,0.0],[112.37992,-7.63441,0.0],[112.38007,-7.63331,0.0],[112.38259,-7.63251,0.0],[112.38283,-7.63012,0.0],[112.38988,-7.629,0.0],[112.39923,-7.62207,0.0],[112.40059,-7.61939,0.0],[112.40039,-7.59719,0.0],[112.39518,-7.58516,0.0],[112.39511,-7.58194,0.0],[112.39686,-7.57948,0.0],[112.39982,-7.57893,0.0],[112.40839,-7.58073,0.0],[112.40659,-7.57743,0.0],[112.40778,-7.57699,0.0],[112.4071,-7.57476,0.0],[112.40815,-7.57295,0.0],[112.40779,-7.57117,0.0],[112.40625,-7.57105,0.0],[112.40689,-7.56866,0.0],[112.40108,-7.56965,0.0],[112.40025,-7.56636,0.0],[112.40394,-7.56694,0.0],[112.40471,-7.56404,0.0],[112.40841,-7.56372,0.0],[112.41135,-7.56615,0.0],[112.42128,-7.56659,0.0],[112.42595,-7.57066,0.0],[112.42723,-7.57606,0.0],[112.43085,-7.57764,0.0],[112.43178,-7.57761,0.0],[112.43064,-7.57566,0.0],[112.43738,-7.57582,0.0],[112.43839,-7.5739,0.0],[112.4419,-7.57406,0.0],[112.44231,-7.57137,0.0],[112.44501,-7.57282,0.0],[112.44472,-7.57143,0.0],[112.44771,-7.57035,0.0],[112.44899,-7.5719,0.0],[112.44799,-7.56942,0.0],[112.44938,-7.56857,0.0],[112.44943,-7.56657,0.0],[112.45151,-7.56817,0.0],[112.45409,-7.56819,0.0],[112.4563,-7.57148,0.0],[112.45526,-7.57202,0.0],[112.45538,-7.57569,0.0],[112.45393,-7.57542,0.0],[112.45478,-7.58012,0.0],[112.45612,-7.58177,0.0],[112.455,-7.577,0.0],[112.45664,-7.57724,0.0],[112.45691,-7.57985,0.0],[112.45846,-7.57986,0.0],[112.45716,-7.58839,0.0],[112.45493,-7.5879,0.0],[112.45533,-7.5913,0.0],[112.45033,-7.59112,0.0],[112.44957,-7.59265,0.0],[112.45104,-7.59394,0.0],[112.44946,-7.5962,0.0],[112.4449,-7.59353,0.0],[112.44618,-7.59821,0.0],[112.44802,-7.59806,0.0],[112.44695,-7.60319,0.0],[112.44871,-7.60444,0.0],[112.4458,-7.60374,0.0],[112.445,-7.60564,0.0],[112.44848,-7.60915,0.0],[112.44695,-7.6147,0.0],[112.44742,-7.62156,0.0],[112.44961,-7.62676,0.0],[112.44714,-7.62667,0.0],[112.4471,-7.62918,0.0],[112.45113,-7.64766,0.0],[112.45054,-7.67482,0.0],[112.45295,-7.67885,0.0],[112.45397,-7.68613,0.0],[112.45351,-7.69022,0.0],[112.45159,-7.69171,0.0],[112.4526,-7.7054,0.0],[112.45006,-7.71146,0.0],[112.45322,-7.71805,0.0],[112.45737,-7.71958,0.0],[112.46032,-7.73002,0.0],[112.467,-7.74137,0.0],[112.46487,-7.74528,0.0],[112.46659,-7.75104,0.0],[112.47151,-7.75352,0.0],[112.46843,-7.76231,0.0],[112.46964,-7.76499,0.0],[112.46882,-7.76842,0.0],[112.46692,-7.76785,0.0],[112.4616,-7.76971,0.0],[112.45606,-7.7791,0.0],[112.45143,-7.77513,0.0],[112.4516,-7.77185,0.0],[112.45003,-7.77052,0.0],[112.4509,-7.76727,0.0],[112.44778,-7.76477,0.0],[112.44679,-7.75912,0.0],[112.44835,-7.75135,0.0],[112.44623,-7.74495,0.0],[112.44812,-7.74302,0.0],[112.44268,-7.73572,0.0],[112.43859,-7.73287,0.0],[112.433,-7.71417,0.0],[112.4328,-7.70684,0.0],[112.4304,-7.70005,0.0],[112.42402,-7.69196,0.0],[112.42177,-7.68528,0.0],[112.41554,-7.68027,0.0],[112.41168,-7.67354,0.0],[112.41206,-7.66578,0.0],[112.41088,-7.66352,0.0],[112.41212,-7.65818,0.0],[112.41042,-7.65352,0.0],[112.4108,-7.64946,0.0]]]}},{"type":"Feature","properties":{"kecamatan":"Kemlagi","kab_kota":"Mojokerto"},"geometry":{"type":"Polygon","coordinates":[[[112.34785,-7.45596,0.0],[112.34507,-7.4587,0.0],[112.34137,-7.45978,0.0],[112.33502,-7.45462,0.0],[112.33267,-7.45443,0.0],[112.33421,-7.44701,0.0],[112.33783,-7.44741,0.0],[112.34059,-7.4407,0.0],[112.34593,-7.4416,0.0],[112.34583,-7.43946,0.0],[112.34123,-7.43729,0.0],[112.34209,-7.43296,0.0],[112.34129,-7.43225,0.0],[112.34631,-7.4178,0.0],[112.34921,-7.41858,0.0],[112.34986,-7.41554,0.0],[112.35196,-7.41602,0.0],[112.35297,-7.41291,0.0],[112.34592,-7.40994,0.0],[112.34622,-7.4062,0.0],[112.34785,-7.40625,0.0],[112.34903,-7.40391,0.0],[112.34806,-7.40357,0.0],[112.34755,-7.39791,0.0],[112.34062,-7.38816,0.0],[112.33651,-7.38729,0.0],[112.33515,-7.38914,0.0],[112.33407,-7.38882,0.0],[112.33188,-7.37966,0.0],[112.33305,-7.37763,0.0],[112.33238,-7.37035,0.0],[112.33567,-7.36974,0.0],[112.33463,-7.36847,0.0],[112.33598,-7.3624,0.0],[112.34216,-7.35495,0.0],[112.34292,-7.35083,0.0],[112.34712,-7.3442,0.0],[112.34808,-7.34691,0.0],[112.35463,-7.35404,0.0],[112.36103,-7.36906,0.0],[112.36927,-7.37588,0.0],[112.38105,-7.37539,0.0],[112.38329,-7.36854,0.0],[112.3872,-7.36769,0.0],[112.3881,-7.36595,0.0],[112.39202,-7.36609,0.0],[112.39414,-7.36338,0.0],[112.40011,-7.36538,0.0],[112.40584,-7.36957,0.0],[112.40922,-7.36998,0.0],[112.40945,-7.37216,0.0],[112.41295,-7.37438,0.0],[112.41178,-7.38157,0.0],[112.41252,-7.38496,0.0],[112.41079,-7.38661,0.0],[112.41188,-7.3917,0.0],[112.40937,-7.39127,0.0],[112.40637,-7.38825,0.0],[112.40466,-7.38892,0.0],[112.403,-7.39562,0.0],[112.4062,-7.39744,0.0],[112.40394,-7.4028,0.0],[112.40034,-7.40267,0.0],[112.39917,-7.4089,0.0],[112.40043,-7.41533,0.0],[112.40029,-7.41632,0.0],[112.3984,-7.41624,0.0],[112.39796,-7.42535,0.0],[112.38858,-7.42781,0.0],[112.38669,-7.43225,0.0],[112.38543,-7.43241,0.0],[112.38511,-7.42907,0.0],[112.38052,-7.4284,0.0],[112.37337,-7.4312,0.0],[112.36992,-7.43895,0.0],[112.37263,-7.43999,0.0],[112.3722,-7.44363,0.0],[112.37031,-7.44337,0.0],[112.37059,-7.44728,0.0],[112.36678,-7.44789,0.0],[112.36223,-7.44606,0.0],[112.3574,-7.44634,0.0],[112.35524,-7.44782,0.0],[112.3544,-7.45063,0.0],[112.35517,-7.45658,0.0],[112.35117,-7.45486,0.0],[112.34785,-7.45596,0.0]],[[112.36693,-7.43637,0.0],[112.36404,-7.43728,0.0],[112.36414,-7.43614,0.0],[112.36199,-7.43596,0.0],[112.36216,-7.43801,0.0],[112.35995,-7.43813,0.0],[112.35946,-7.44301,0.0],[112.36445,-7.44534,0.0],[112.36533,-7.44009,0.0],[112.36681,-7.4402,0.0],[112.36693,-7.43637,0.0]]]}},{"type":"Feature","properties":{"kecamatan":"Jetis","kab_kota":"Mojokerto"},"geometry":{"type":"Polygon","coordinates":[[[112.43635,-7.4433,0.0],[112.43633,-7.42997,0.0],[112.4322,-7.43003,0.0],[112.43051,-7.41843,0.0],[112.42867,-7.41972,0.0],[112.42993,-7.42048,0.0],[112.42946,-7.42237,0.0],[112.42267,-7.42223,0.0],[112.41716,-7.42874,0.0],[112.40864,-7.42872,0.0],[112.40373,-7.426,0.0],[112.39796,-7.42535,0.0],[112.3984,-7.41624,0.0],[112.40029,-7.41632,0.0],[112.40043,-7.41533,0.0],[112.39917,-7.4089,0.0],[112.40034,-7.40267,0.0],[112.40394,-7.4028,0.0],[112.4062,-7.39744,0.0],[112.403,-7.39562,0.0],[112.40438,-7.38935,0.0],[112.40637,-7.38825,0.0],[112.40937,-7.39127,0.0],[112.41188,-7.3917,0.0],[112.41079,-7.38661,0.0],[112.41252,-7.38496,0.0],[112.41178,-7.38157,0.0],[112.41319,-7.37254,0.0],[112.41537,-7.37057,0.0],[112.41906,-7.36991,0.0],[112.4226,-7.37059,0.0],[112.4245,-7.37325,0.0],[112.42802,-7.375,0.0],[112.42794,-7.37684,0.0],[112.4334,-7.37746,0.0],[112.43384,-7.38228,0.0],[112.4322,-7.3853,0.0],[112.446,-7.38662,0.0],[112.44495,-7.3863,0.0],[112.44439,-7.38254,0.0],[112.44647,-7.38122,0.0],[112.44963,-7.3724,0.0],[112.44592,-7.37229,0.0],[112.44571,-7.36996,0.0],[112.4526,-7.37101,0.0],[112.4514,-7.36697,0.0],[112.44854,-7.36426,0.0],[112.44939,-7.3622,0.0],[112.45222,-7.36245,0.0],[112.45275,-7.36039,0.0],[112.45609,-7.36021,0.0],[112.45621,-7.36381,0.0],[112.45897,-7.36518,0.0],[112.4645,-7.36356,0.0],[112.46474,-7.36185,0.0],[112.46344,-7.36088,0.0],[112.46541,-7.36082,0.0],[112.46698,-7.35896,0.0],[112.46768,-7.35983,0.0],[112.4746,-7.35955,0.0],[112.47567,-7.36295,0.0],[112.47647,-7.36273,0.0],[112.47513,-7.35657,0.0],[112.47695,-7.35674,0.0],[112.47895,-7.35971,0.0],[112.47993,-7.36501,0.0],[112.4795,-7.36696,0.0],[112.47785,-7.36765,0.0],[112.47817,-7.37026,0.0],[112.4741,-7.37206,0.0],[112.47793,-7.37938,0.0],[112.47596,-7.3814,0.0],[112.47569,-7.38519,0.0],[112.478,-7.38729,0.0],[112.4779,-7.39016,0.0],[112.4806,-7.39128,0.0],[112.48111,-7.39396,0.0],[112.48361,-7.3955,0.0],[112.4848,-7.39851,0.0],[112.48333,-7.40098,0.0],[112.48522,-7.40385,0.0],[112.4881,-7.40369,0.0],[112.48936,-7.3994,0.0],[112.49362,-7.39938,0.0],[112.49461,-7.40852,0.0],[112.49242,-7.41022,0.0],[112.48627,-7.40901,0.0],[112.48417,-7.40976,0.0],[112.48297,-7.41148,0.0],[112.48354,-7.41704,0.0],[112.47388,-7.42421,0.0],[112.47347,-7.42911,0.0],[112.46732,-7.4316,0.0],[112.46221,-7.43214,0.0],[112.45945,-7.43716,0.0],[112.45965,-7.44008,0.0],[112.45669,-7.44697,0.0],[112.44742,-7.4502,0.0],[112.43749,-7.45764,0.0],[112.43661,-7.45387,0.0],[112.43347,-7.45171,0.0],[112.43635,-7.4433,0.0]]]}},{"type":"Feature","properties":{"kecamatan":"Sooko","kab_kota":"Mojokerto"},"geometry":{"type":"Polygon","coordinates":[[[112.41341,-7.53396,0.0],[112.40233,-7.52994,0.0],[112.40147,-7.52207,0.0],[112.39937,-7.52105,0.0],[112.4004,-7.51766,0.0],[112.39822,-7.51191,0.0],[112.39826,-7.51,0.0],[112.40024,-7.51032,0.0],[112.40042,-7.50885,0.0],[112.39639,-7.50835,0.0],[112.39678,-7.50435,0.0],[112.39149,-7.50168,0.0],[112.38805,-7.48242,0.0],[112.38908,-7.47887,0.0],[112.39004,-7.47884,0.0],[112.3903,-7.47011,0.0],[112.39296,-7.46701,0.0],[112.39967,-7.46483,0.0],[112.40326,-7.46699,0.0],[112.40293,-7.46261,0.0],[112.40489,-7.46132,0.0],[112.40227,-7.45956,0.0],[112.4157,-7.45741,0.0],[112.41544,-7.46416,0.0],[112.41679,-7.46601,0.0],[112.41402,-7.46658,0.0],[112.41211,-7.46861,0.0],[112.41442,-7.47317,0.0],[112.41343,-7.47429,0.0],[112.41119,-7.47308,0.0],[112.41017,-7.47579,0.0],[112.40605,-7.47789,0.0],[112.40579,-7.47921,0.0],[112.40775,-7.47913,0.0],[112.40766,-7.49164,0.0],[112.41457,-7.4919,0.0],[112.41496,-7.49462,0.0],[112.42033,-7.49247,0.0],[112.42211,-7.49405,0.0],[112.42453,-7.48983,0.0],[112.42494,-7.48364,0.0],[112.42634,-7.48097,0.0],[112.42865,-7.48046,0.0],[112.42829,-7.48235,0.0],[112.43041,-7.48269,0.0],[112.43008,-7.48412,0.0],[112.43357,-7.48484,0.0],[112.43346,-7.48711,0.0],[112.43522,-7.48753,0.0],[112.43353,-7.4983,0.0],[112.42953,-7.49881,0.0],[112.42988,-7.50464,0.0],[112.42771,-7.50613,0.0],[112.42903,-7.5111,0.0],[112.42573,-7.51112,0.0],[112.42542,-7.51666,0.0],[112.42433,-7.51672,0.0],[112.42646,-7.52296,0.0],[112.42481,-7.53629,0.0],[112.4213,-7.53659,0.0],[112.4249,-7.54249,0.0],[112.42568,-7.55228,0.0],[112.41896,-7.55218,0.0],[112.41739,-7.54814,0.0],[112.41923,-7.54335,0.0],[112.41675,-7.54138,0.0],[112.41443,-7.54263,0.0],[112.41618,-7.54056,0.0],[112.41537,-7.53605,0.0],[112.41341,-7.53396,0.0]]]}},{"type":"Feature","properties":{"kecamatan":"Gedeg","kab_kota":"Mojokerto"},"geometry":{"type":"MultiPolygon","coordinates":[[[[112.3995,-7.45782,0.0],[112.38125,-7.4589,0.0],[112.36947,-7.45649,0.0],[112.35775,-7.45724,0.0],[112.35517,-7.45658,0.0],[112.3544,-7.45063,0.0],[112.35524,-7.44782,0.0],[112.35906,-7.44595,0.0],[112.36678,-7.44789,0.0],[112.37059,-7.44728,0.0],[112.37031,-7.44337,0.0],[112.3722,-7.44363,0.0],[112.37263,-7.43999,0.0],[112.36992,-7.43895,0.0],[112.37464,-7.43047,0.0],[112.38038,-7.4284,0.0],[112.38511,-7.42907,0.0],[112.38543,-7.43241,0.0],[112.38669,-7.43225,0.0],[112.38858,-7.42781,0.0],[112.39708,-7.42521,0.0],[112.40373,-7.426,0.0],[112.40864,-7.42872,0.0],[112.41716,-7.42874,0.0],[112.42267,-7.42223,0.0],[112.42946,-7.42237,0.0],[112.42993,-7.42048,0.0],[112.42867,-7.41972,0.0],[112.43051,-7.41843,0.0],[112.4322,-7.43003,0.0],[112.43633,-7.42997,0.0],[112.43633,-7.44359,0.0],[112.43347,-7.45171,0.0],[112.43661,-7.45387,0.0],[112.43749,-7.45764,0.0],[112.43176,-7.46017,0.0],[112.42102,-7.45686,0.0],[112.40781,-7.45805,0.0],[112.4037,-7.46008,0.0],[112.3995,-7.45782,0.0]]],[[[112.36404,-7.43728,0.0],[112.36731,-7.43667,0.0],[112.36681,-7.4402,0.0],[112.36533,-7.44009,0.0],[112.36445,-7.44534,0.0],[112.35946,-7.44301,0.0],[112.35995,-7.43813,0.0],[112.36216,-7.43801,0.0],[112.36199,-7.43596,0.0],[112.36414,-7.43614,0.0],[112.36404,-7.43728,0.0]]]]}},{"type":"Feature","properties":{"kecamatan":"Dawarblandong","kab_kota":"Mojokerto"},"geometry":{"type":"Polygon","coordinates":[[[112.43369,-7.37814,0.0],[112.42794,-7.37684,0.0],[112.42802,-7.375,0.0],[112.4245,-7.37325,0.0],[112.4226,-7.37059,0.0],[112.42001,-7.37001,0.0],[112.41537,-7.37057,0.0],[112.4134,-7.37207,0.0],[112.41295,-7.37438,0.0],[112.41137,-7.37411,0.0],[112.40945,-7.37216,0.0],[112.40922,-7.36998,0.0],[112.40584,-7.36957,0.0],[112.40011,-7.36538,0.0],[112.39457,-7.36338,0.0],[112.3933,-7.36349,0.0],[112.39202,-7.36609,0.0],[112.3881,-7.36595,0.0],[112.3872,-7.36769,0.0],[112.38329,-7.36854,0.0],[112.38105,-7.37539,0.0],[112.36927,-7.37588,0.0],[112.36103,-7.36906,0.0],[112.35463,-7.35404,0.0],[112.34808,-7.34691,0.0],[112.3469,-7.34267,0.0],[112.34859,-7.33791,0.0],[112.35326,-7.33695,0.0],[112.35589,-7.33428,0.0],[112.35884,-7.33356,0.0],[112.35914,-7.33159,0.0],[112.35765,-7.33124,0.0],[112.35737,-7.32867,0.0],[112.3584,-7.32861,0.0],[112.35855,-7.32648,0.0],[112.36243,-7.32679,0.0],[112.36271,-7.32846,0.0],[112.36273,-7.32705,0.0],[112.3673,-7.325,0.0],[112.36972,-7.32559,0.0],[112.37039,-7.32433,0.0],[112.3716,-7.32657,0.0],[112.37251,-7.32568,0.0],[112.37172,-7.32428,0.0],[112.37462,-7.32363,0.0],[112.37421,-7.32534,0.0],[112.37562,-7.32372,0.0],[112.37562,-7.32668,0.0],[112.3774,-7.32642,0.0],[112.37546,-7.32783,0.0],[112.37994,-7.32721,0.0],[112.3798,-7.32911,0.0],[112.38149,-7.33037,0.0],[112.38247,-7.32983,0.0],[112.38177,-7.32857,0.0],[112.38365,-7.3286,0.0],[112.3851,-7.33105,0.0],[112.3823,-7.33064,0.0],[112.38193,-7.33327,0.0],[112.38348,-7.33189,0.0],[112.38479,-7.3333,0.0],[112.38526,-7.33131,0.0],[112.38854,-7.33096,0.0],[112.3912,-7.33351,0.0],[112.3947,-7.3311,0.0],[112.39409,-7.32714,0.0],[112.39624,-7.32726,0.0],[112.39673,-7.3246,0.0],[112.39882,-7.32268,0.0],[112.39885,-7.31997,0.0],[112.40108,-7.31908,0.0],[112.40128,-7.32148,0.0],[112.40304,-7.32057,0.0],[112.40412,-7.32282,0.0],[112.40481,-7.32187,0.0],[112.402,-7.31931,0.0],[112.40371,-7.31939,0.0],[112.40382,-7.31777,0.0],[112.40474,-7.31946,0.0],[112.4078,-7.31772,0.0],[112.40683,-7.31693,0.0],[112.40475,-7.31813,0.0],[112.40426,-7.31663,0.0],[112.40795,-7.3161,0.0],[112.41109,-7.31185,0.0],[112.41177,-7.31351,0.0],[112.41052,-7.31649,0.0],[112.41339,-7.31324,0.0],[112.4138,-7.31593,0.0],[112.41603,-7.31583,0.0],[112.41664,-7.31472,0.0],[112.41427,-7.31336,0.0],[112.41487,-7.31073,0.0],[112.41591,-7.31257,0.0],[112.41812,-7.31254,0.0],[112.41884,-7.31389,0.0],[112.41929,-7.31233,0.0],[112.42292,-7.31231,0.0],[112.4212,-7.31445,0.0],[112.42155,-7.31718,0.0],[112.42236,-7.31537,0.0],[112.42435,-7.3154,0.0],[112.42574,-7.31261,0.0],[112.42892,-7.31081,0.0],[112.42984,-7.31297,0.0],[112.43279,-7.31445,0.0],[112.43392,-7.31319,0.0],[112.4375,-7.31347,0.0],[112.43794,-7.31172,0.0],[112.43894,-7.31432,0.0],[112.4418,-7.31421,0.0],[112.44194,-7.31265,0.0],[112.44042,-7.31173,0.0],[112.44447,-7.31167,0.0],[112.44173,-7.3097,0.0],[112.44302,-7.30695,0.0],[112.44528,-7.30776,0.0],[112.4444,-7.30533,0.0],[112.44745,-7.30314,0.0],[112.44756,-7.3065,0.0],[112.44961,-7.30745,0.0],[112.45073,-7.30545,0.0],[112.45208,-7.30981,0.0],[112.4542,-7.31112,0.0],[112.45595,-7.30986,0.0],[112.45535,-7.30843,0.0],[112.45721,-7.30894,0.0],[112.45869,-7.3097,0.0],[112.45881,-7.31211,0.0],[112.46738,-7.31096,0.0],[112.46931,-7.30395,0.0],[112.47829,-7.30487,0.0],[112.47799,-7.30665,0.0],[112.48024,-7.30854,0.0],[112.47899,-7.32233,0.0],[112.47977,-7.32836,0.0],[112.47637,-7.32848,0.0],[112.47628,-7.3296,0.0],[112.47803,-7.32999,0.0],[112.47813,-7.33244,0.0],[112.48129,-7.33235,0.0],[112.48239,-7.33498,0.0],[112.48098,-7.33551,0.0],[112.48505,-7.33799,0.0],[112.48556,-7.34022,0.0],[112.48081,-7.34915,0.0],[112.47884,-7.34945,0.0],[112.4763,-7.35293,0.0],[112.47301,-7.35321,0.0],[112.47307,-7.35638,0.0],[112.47513,-7.35657,0.0],[112.47647,-7.36273,0.0],[112.47567,-7.36295,0.0],[112.4746,-7.35955,0.0],[112.46768,-7.35983,0.0],[112.46698,-7.35896,0.0],[112.46541,-7.36082,0.0],[112.46344,-7.36088,0.0],[112.46474,-7.36185,0.0],[112.4645,-7.36356,0.0],[112.45897,-7.36518,0.0],[112.45621,-7.36381,0.0],[112.45609,-7.36021,0.0],[112.45275,-7.36039,0.0],[112.45222,-7.36245,0.0],[112.44939,-7.3622,0.0],[112.44854,-7.36426,0.0],[112.4514,-7.36697,0.0],[112.4526,-7.37101,0.0],[112.44571,-7.36996,0.0],[112.44592,-7.37229,0.0],[112.44963,-7.3724,0.0],[112.44647,-7.38122,0.0],[112.44439,-7.38254,0.0],[112.44495,-7.3863,0.0],[112.446,-7.38662,0.0],[112.4322,-7.3853,0.0],[112.43382,-7.38241,0.0],[112.43369,-7.37814,0.0]]]}},{"type":"Feature","properties":{"kecamatan":"Mojoanyar","kab_kota":"Mojokerto"},"geometry":{"type":"Polygon","coordinates":[[[112.47367,-7.49212,0.0],[112.47324,-7.50526,0.0],[112.46766,-7.50453,0.0],[112.46753,-7.50242,0.0],[112.46589,-7.50141,0.0],[112.4536,-7.4999,0.0],[112.45351,-7.4979,0.0],[112.45133,-7.49782,0.0],[112.45088,-7.49377,0.0],[112.44978,-7.49344,0.0],[112.45084,-7.48175,0.0],[112.46049,-7.48294,0.0],[112.46139,-7.47315,0.0],[112.46477,-7.47319,0.0],[112.46476,-7.46699,0.0],[112.46683,-7.46712,0.0],[112.46764,-7.46209,0.0],[112.465,-7.46218,0.0],[112.465,-7.46115,0.0],[112.46848,-7.4607,0.0],[112.46865,-7.45869,0.0],[112.46711,-7.45324,0.0],[112.46519,-7.45325,0.0],[112.46519,-7.4555,0.0],[112.45755,-7.45692,0.0],[112.45509,-7.44738,0.0],[112.46864,-7.44529,0.0],[112.47954,-7.45343,0.0],[112.48234,-7.45241,0.0],[112.4835,-7.45667,0.0],[112.48806,-7.45974,0.0],[112.50549,-7.46248,0.0],[112.51174,-7.4668,0.0],[112.52663,-7.46902,0.0],[112.52464,-7.47872,0.0],[112.51022,-7.47225,0.0],[112.50935,-7.48064,0.0],[112.50732,-7.48227,0.0],[112.50364,-7.48223,0.0],[112.50183,-7.48635,0.0],[112.49651,-7.48678,0.0],[112.49613,-7.49102,0.0],[112.48907,-7.48884,0.0],[112.48723,-7.49082,0.0],[112.48699,-7.4938,0.0],[112.48544,-7.49391,0.0],[112.48551,-7.49169,0.0],[112.48181,-7.49149,0.0],[112.48237,-7.48914,0.0],[112.47745,-7.489,0.0],[112.47763,-7.49282,0.0],[112.47367,-7.49212,0.0]]]}},{"type":"Feature","properties":{"kecamatan":"Puri","kab_kota":"Mojokerto"},"geometry":{"type":"Polygon","coordinates":[[[112.43757,-7.55706,0.0],[112.44099,-7.5648,0.0],[112.4419,-7.57406,0.0],[112.43839,-7.5739,0.0],[112.43738,-7.57582,0.0],[112.43064,-7.57566,0.0],[112.43178,-7.57766,0.0],[112.429,-7.57754,0.0],[112.4263,-7.57455,0.0],[112.42591,-7.57061,0.0],[112.42022,-7.56508,0.0],[112.42169,-7.56067,0.0],[112.41873,-7.55761,0.0],[112.41896,-7.55218,0.0],[112.42568,-7.55228,0.0],[112.4249,-7.54249,0.0],[112.4213,-7.53659,0.0],[112.42481,-7.53629,0.0],[112.42646,-7.52296,0.0],[112.42433,-7.51672,0.0],[112.42542,-7.51666,0.0],[112.42573,-7.51112,0.0],[112.42903,-7.5111,0.0],[112.42771,-7.50613,0.0],[112.42988,-7.50464,0.0],[112.42953,-7.49881,0.0],[112.43353,-7.4983,0.0],[112.43654,-7.48172,0.0],[112.43987,-7.48162,0.0],[112.44376,-7.48186,0.0],[112.44379,-7.49079,0.0],[112.45088,-7.49377,0.0],[112.45133,-7.49782,0.0],[112.45351,-7.4979,0.0],[112.4536,-7.4999,0.0],[112.46589,-7.50141,0.0],[112.46753,-7.50242,0.0],[112.46766,-7.50453,0.0],[112.47324,-7.50526,0.0],[112.47163,-7.52987,0.0],[112.47287,-7.5357,0.0],[112.47096,-7.53561,0.0],[112.47011,-7.53699,0.0],[112.47532,-7.55375,0.0],[112.47353,-7.55372,0.0],[112.47305,-7.55592,0.0],[112.47181,-7.55624,0.0],[112.47079,-7.55357,0.0],[112.46362,-7.55419,0.0],[112.46282,-7.5501,0.0],[112.46041,-7.5481,0.0],[112.45767,-7.54806,0.0],[112.45856,-7.55006,0.0],[112.45151,-7.54989,0.0],[112.45211,-7.55417,0.0],[112.44412,-7.55124,0.0],[112.4419,-7.55228,0.0],[112.4406,-7.55665,0.0],[112.43961,-7.55535,0.0],[112.43757,-7.55706,0.0]]]}},{"type":"Feature","properties":{"kecamatan":"Trowulan","kab_kota":"Mojokerto"},"geometry":{"type":"Polygon","coordinates":[[[112.39967,-7.57902,0.0],[112.39569,-7.58031,0.0],[112.39494,-7.58426,0.0],[112.40039,-7.59719,0.0],[112.40059,-7.61939,0.0],[112.39923,-7.62207,0.0],[112.38988,-7.629,0.0],[112.38537,-7.63,0.0],[112.38406,-7.62927,0.0],[112.38443,-7.62579,0.0],[112.38705,-7.6216,0.0],[112.38616,-7.61688,0.0],[112.38726,-7.61431,0.0],[112.38483,-7.61022,0.0],[112.38104,-7.594,0.0],[112.37567,-7.5863,0.0],[112.37486,-7.58317,0.0],[112.3766,-7.57735,0.0],[112.3739,-7.5752,0.0],[112.37341,-7.57195,0.0],[112.37168,-7.57169,0.0],[112.37136,-7.57005,0.0],[112.37181,-7.56652,0.0],[112.3726,-7.56691,0.0],[112.37286,-7.56497,0.0],[112.37441,-7.5652,0.0],[112.37537,-7.56336,0.0],[112.36931,-7.56127,0.0],[112.36848,-7.55615,0.0],[112.36513,-7.55495,0.0],[112.36498,-7.55324,0.0],[112.36368,-7.55281,0.0],[112.36538,-7.54888,0.0],[112.36416,-7.54871,0.0],[112.36475,-7.54392,0.0],[112.36831,-7.54376,0.0],[112.37046,-7.54026,0.0],[112.36853,-7.53958,0.0],[112.36975,-7.52982,0.0],[112.36726,-7.52922,0.0],[112.36767,-7.52681,0.0],[112.36611,-7.52655,0.0],[112.36669,-7.52414,0.0],[112.37393,-7.52552,0.0],[112.37523,-7.51186,0.0],[112.37802,-7.51218,0.0],[112.37623,-7.51147,0.0],[112.37617,-7.50874,0.0],[112.37493,-7.50847,0.0],[112.37675,-7.49725,0.0],[112.37636,-7.49426,0.0],[112.37483,-7.49382,0.0],[112.37428,-7.4872,0.0],[112.3757,-7.48701,0.0],[112.3762,-7.48363,0.0],[112.38438,-7.47898,0.0],[112.38884,-7.48107,0.0],[112.38891,-7.49008,0.0],[112.39101,-7.49507,0.0],[112.39149,-7.50168,0.0],[112.39678,-7.50435,0.0],[112.39639,-7.50835,0.0],[112.40042,-7.50885,0.0],[112.40024,-7.51032,0.0],[112.39826,-7.51,0.0],[112.39822,-7.51191,0.0],[112.4004,-7.51766,0.0],[112.39937,-7.52105,0.0],[112.40147,-7.52207,0.0],[112.40233,-7.52994,0.0],[112.41349,-7.53395,0.0],[112.41537,-7.53605,0.0],[112.41618,-7.54056,0.0],[112.41443,-7.54263,0.0],[112.41675,-7.54138,0.0],[112.41923,-7.54335,0.0],[112.41739,-7.54814,0.0],[112.41943,-7.55332,0.0],[112.41873,-7.55761,0.0],[112.42163,-7.56026,0.0],[112.42012,-7.56453,0.0],[112.42128,-7.56659,0.0],[112.41135,-7.56615,0.0],[112.40841,-7.56372,0.0],[112.40471,-7.56404,0.0],[112.40394,-7.56694,0.0],[112.40025,-7.56636,0.0],[112.40108,-7.56965,0.0],[112.40689,-7.56866,0.0],[112.40625,-7.57105,0.0],[112.40779,-7.57117,0.0],[112.40815,-7.57295,0.0],[112.4071,-7.57476,0.0],[112.40778,-7.57699,0.0],[112.40659,-7.57743,0.0],[112.40832,-7.58133,0.0],[112.39967,-7.57902,0.0]]]}},{"type":"Feature","properties":{"kecamatan":"Bangsal","kab_kota":"Mojokerto"},"geometry":{"type":"Polygon","coordinates":[[[112.49718,-7.53529,0.0],[112.49845,-7.53857,0.0],[112.49744,-7.53893,0.0],[112.49837,-7.53996,0.0],[112.49736,-7.54204,0.0],[112.49864,-7.54615,0.0],[112.49738,-7.54612,0.0],[112.49689,-7.54911,0.0],[112.49492,-7.54923,0.0],[112.49384,-7.54807,0.0],[112.49626,-7.5472,0.0],[112.49383,-7.54566,0.0],[112.49482,-7.54241,0.0],[112.49167,-7.54131,0.0],[112.48906,-7.53782,0.0],[112.48717,-7.5379,0.0],[112.48779,-7.53607,0.0],[112.48493,-7.53542,0.0],[112.48582,-7.53416,0.0],[112.48414,-7.53439,0.0],[112.48188,-7.53208,0.0],[112.48079,-7.53313,0.0],[112.4803,-7.53043,0.0],[112.48161,-7.52967,0.0],[112.47979,-7.5283,0.0],[112.48244,-7.52601,0.0],[112.48115,-7.52461,0.0],[112.48216,-7.51973,0.0],[112.47272,-7.51941,0.0],[112.47367,-7.49212,0.0],[112.47763,-7.49282,0.0],[112.47741,-7.48903,0.0],[112.4786,-7.48894,0.0],[112.48237,-7.48914,0.0],[112.48181,-7.49149,0.0],[112.48551,-7.49169,0.0],[112.48544,-7.49391,0.0],[112.48699,-7.4938,0.0],[112.48723,-7.49082,0.0],[112.48907,-7.48884,0.0],[112.49613,-7.49102,0.0],[112.49651,-7.48678,0.0],[112.50183,-7.48635,0.0],[112.50364,-7.48223,0.0],[112.50732,-7.48227,0.0],[112.50935,-7.48064,0.0],[112.51022,-7.47225,0.0],[112.5233,-7.47798,0.0],[112.52232,-7.48198,0.0],[112.5267,-7.48241,0.0],[112.52272,-7.50365,0.0],[112.52603,-7.50496,0.0],[112.52573,-7.50938,0.0],[112.52373,-7.50921,0.0],[112.52278,-7.51301,0.0],[112.52347,-7.52226,0.0],[112.51956,-7.5271,0.0],[112.51905,-7.53468,0.0],[112.51751,-7.53493,0.0],[112.51508,-7.53034,0.0],[112.51659,-7.52731,0.0],[112.51579,-7.52657,0.0],[112.51817,-7.51562,0.0],[112.51589,-7.51507,0.0],[112.51673,-7.50871,0.0],[112.50894,-7.50716,0.0],[112.50801,-7.51112,0.0],[112.50131,-7.51091,0.0],[112.50237,-7.51786,0.0],[112.49994,-7.52221,0.0],[112.50009,-7.52572,0.0],[112.49859,-7.52832,0.0],[112.49879,-7.53537,0.0],[112.49718,-7.53529,0.0]]]}}]}