{"type":"FeatureCollection","features":[{"type":"Feature","properties":{"kecamatan":"Kenduruan","kab_kota":"Tuban"},"geometry":{"type":"Polygon","coordinates":[[[111.67997,-6.92448,0.0],[111.68695,-6.92779,0.0],[111.68567,-6.9353,0.0],[111.68677,-6.93612,0.0],[111.68679,-6.93968,0.0],[111.68828,-6.94003,0.0],[111.68805,-6.94231,0.0],[111.68234,-6.94753,0.0],[111.6818,-6.95201,0.0],[111.6802,-6.9543,0.0],[111.67044,-6.95679,0.0],[111.66579,-6.95941,0.0],[111.65545,-6.9811,0.0],[111.6496,-6.98645,0.0],[111.65026,-6.9883,0.0],[111.64641,-6.99685,0.0],[111.63771,-6.99557,0.0],[111.63189,-6.99119,0.0],[111.6301,-6.99274,0.0],[111.62953,-6.99084,0.0],[111.62787,-6.99182,0.0],[111.62367,-6.98944,0.0],[111.62215,-6.98635,0.0],[111.62285,-6.98008,0.0],[111.61469,-6.97111,0.0],[111.6033,-6.96735,0.0],[111.59665,-6.96331,0.0],[111.59437,-6.96058,0.0],[111.59003,-6.96241,0.0],[111.58385,-6.9601,0.0],[111.5792,-6.95663,0.0],[111.57569,-6.9556,0.0],[111.57227,-6.95694,0.0],[111.56733,-6.95233,0.0],[111.56824,-6.94564,0.0],[111.57159,-6.94241,0.0],[111.5721,-6.9392,0.0],[111.57489,-6.93555,0.0],[111.57719,-6.91746,0.0],[111.58918,-6.91355,0.0],[111.59713,-6.91347,0.0],[111.60234,-6.91171,0.0],[111.60798,-6.90285,0.0],[111.60741,-6.89876,0.0],[111.6039,-6.89753,0.0],[111.6042,-6.89615,0.0],[111.6076,-6.89461,0.0],[111.60619,-6.88956,0.0],[111.60914,-6.89015,0.0],[111.61031,-6.88897,0.0],[111.61166,-6.8903,0.0],[111.62416,-6.88575,0.0],[111.62818,-6.88814,0.0],[111.62679,-6.90104,0.0],[111.6405,-6.90121,0.0],[111.64265,-6.8964,0.0],[111.65632,-6.90042,0.0],[111.67222,-6.91482,0.0],[111.67496,-6.91527,0.0],[111.67371,-6.9182,0.0],[111.67997,-6.92448,0.0]]]}},{"type":"Feature","properties":{"kecamatan":"Bancar","kab_kota":"Tuban"},"geometry":{"type":"Polygon","coordinates":[[[111.74032,-6.86728,0.0],[111.73483,-6.86392,0.0],[111.73015,-6.86277,0.0],[111.73368,-6.85974,0.0],[111.72826,-6.85999,0.0],[111.72399,-6.85842,0.0],[111.72226,-6.85611,0.0],[111.72165,-6.85189,0.0],[111.71279,-6.84969,0.0],[111.70973,-6.85051,0.0],[111.70677,-6.84872,0.0],[111.70472,-6.85035,0.0],[111.70086,-6.84881,0.0],[111.69203,-6.84057,0.0],[111.68928,-6.83622,0.0],[111.68609,-6.83606,0.0],[111.68519,-6.83236,0.0],[111.68716,-6.82889,0.0],[111.6845,-6.82418,0.0],[111.68668,-6.82047,0.0],[111.68591,-6.81953,0.0],[111.68909,-6.81791,0.0],[111.68828,-6.81542,0.0],[111.68679,-6.81359,0.0],[111.68246,-6.81467,0.0],[111.67962,-6.81393,0.0],[111.67966,-6.81243,0.0],[111.67448,-6.8071,0.0],[111.67358,-6.80952,0.0],[111.66858,-6.80861,0.0],[111.66723,-6.80523,0.0],[111.66813,-6.80173,0.0],[111.66576,-6.79979,0.0],[111.66426,-6.79256,0.0],[111.66177,-6.79002,0.0],[111.66152,-6.78593,0.0],[111.65949,-6.7854,0.0],[111.66075,-6.77691,0.0],[111.66442,-6.77727,0.0],[111.66413,-6.77324,0.0],[111.66945,-6.76342,0.0],[111.67543,-6.76548,0.0],[111.67374,-6.76945,0.0],[111.67453,-6.7706,0.0],[111.67683,-6.7692,0.0],[111.67757,-6.77191,0.0],[111.67529,-6.77315,0.0],[111.6759,-6.77536,0.0],[111.67672,-6.77318,0.0],[111.67842,-6.77324,0.0],[111.67864,-6.76983,0.0],[111.6848,-6.77121,0.0],[111.68771,-6.76524,0.0],[111.68652,-6.76398,0.0],[111.68814,-6.76265,0.0],[111.68921,-6.75743,0.0],[111.69113,-6.75664,0.0],[111.69139,-6.75417,0.0],[111.70878,-6.76558,0.0],[111.72183,-6.77054,0.0],[111.72342,-6.77064,0.0],[111.72409,-6.76868,0.0],[111.72557,-6.76771,0.0],[111.72723,-6.76752,0.0],[111.72462,-6.76845,0.0],[111.72431,-6.76968,0.0],[111.72732,-6.77013,0.0],[111.72738,-6.76831,0.0],[111.72746,-6.77058,0.0],[111.73207,-6.77173,0.0],[111.74241,-6.77057,0.0],[111.74853,-6.77174,0.0],[111.75101,-6.7706,0.0],[111.76105,-6.775,0.0],[111.76457,-6.77418,0.0],[111.7661,-6.77182,0.0],[111.77249,-6.77726,0.0],[111.78194,-6.78041,0.0],[111.78572,-6.78042,0.0],[111.80381,-6.79154,0.0],[111.82252,-6.79848,0.0],[111.82269,-6.80312,0.0],[111.81916,-6.80306,0.0],[111.81657,-6.80967,0.0],[111.82018,-6.81224,0.0],[111.82129,-6.81515,0.0],[111.81772,-6.81621,0.0],[111.81845,-6.81827,0.0],[111.81643,-6.81598,0.0],[111.81475,-6.81661,0.0],[111.81483,-6.81877,0.0],[111.81245,-6.81919,0.0],[111.81322,-6.82134,0.0],[111.81165,-6.82106,0.0],[111.81107,-6.82262,0.0],[111.80565,-6.82147,0.0],[111.80401,-6.82,0.0],[111.79847,-6.83122,0.0],[111.7962,-6.83283,0.0],[111.79352,-6.83261,0.0],[111.79345,-6.83412,0.0],[111.7913,-6.83471,0.0],[111.79174,-6.8367,0.0],[111.79055,-6.83785,0.0],[111.7879,-6.83641,0.0],[111.782,-6.83588,0.0],[111.77122,-6.83979,0.0],[111.76693,-6.84568,0.0],[111.76429,-6.85438,0.0],[111.76216,-6.85491,0.0],[111.75997,-6.85809,0.0],[111.75596,-6.85598,0.0],[111.75332,-6.85639,0.0],[111.75,-6.8615,0.0],[111.74334,-6.86303,0.0],[111.74348,-6.86536,0.0],[111.74032,-6.86728,0.0]]]}},{"type":"Feature","properties":{"kecamatan":"Senori","kab_kota":"Tuban"},"geometry":{"type":"MultiPolygon","coordinates":[[[[111.73624,-7.07783,0.0],[111.72575,-7.08388,0.0],[111.71785,-7.07814,0.0],[111.71426,-7.08119,0.0],[111.71185,-7.08095,0.0],[111.70916,-7.07674,0.0],[111.70222,-7.07517,0.0],[111.70015,-7.07093,0.0],[111.69651,-7.07055,0.0],[111.69413,-7.06865,0.0],[111.6913,-7.06343,0.0],[111.69384,-7.05413,0.0],[111.69083,-7.05483,0.0],[111.69015,-7.05184,0.0],[111.68325,-7.05184,0.0],[111.67504,-7.04823,0.0],[111.67418,-7.04394,0.0],[111.6715,-7.04086,0.0],[111.65911,-7.03897,0.0],[111.6553,-7.03009,0.0],[111.65477,-7.02489,0.0],[111.65608,-7.01582,0.0],[111.66622,-7.01884,0.0],[111.66991,-7.01654,0.0],[111.67156,-7.0137,0.0],[111.67778,-7.01411,0.0],[111.68264,-7.0101,0.0],[111.68632,-7.00882,0.0],[111.69849,-6.9981,0.0],[111.70797,-7.00105,0.0],[111.71285,-6.99363,0.0],[111.71696,-6.99489,0.0],[111.71943,-6.99409,0.0],[111.7255,-6.99669,0.0],[111.72767,-6.9944,0.0],[111.73271,-6.99354,0.0],[111.73551,-6.98754,0.0],[111.74403,-6.99089,0.0],[111.7556,-6.99998,0.0],[111.75675,-7.0012,0.0],[111.75238,-7.00435,0.0],[111.75083,-7.01067,0.0],[111.75357,-7.01116,0.0],[111.75336,-7.01324,0.0],[111.75469,-7.01364,0.0],[111.75392,-7.01636,0.0],[111.75884,-7.01757,0.0],[111.75841,-7.01848,0.0],[111.76165,-7.01986,0.0],[111.75903,-7.02189,0.0],[111.75375,-7.02024,0.0],[111.75211,-7.02568,0.0],[111.77524,-7.03257,0.0],[111.77621,-7.03015,0.0],[111.77805,-7.03028,0.0],[111.77965,-7.03396,0.0],[111.78363,-7.03525,0.0],[111.78312,-7.03935,0.0],[111.78535,-7.04023,0.0],[111.78347,-7.0413,0.0],[111.78267,-7.04477,0.0],[111.78091,-7.04434,0.0],[111.77937,-7.0474,0.0],[111.78768,-7.05152,0.0],[111.78605,-7.05514,0.0],[111.78729,-7.05425,0.0],[111.79019,-7.0561,0.0],[111.79022,-7.05829,0.0],[111.78723,-7.06154,0.0],[111.78654,-7.06954,0.0],[111.78497,-7.06908,0.0],[111.78352,-7.07205,0.0],[111.78581,-7.07587,0.0],[111.78477,-7.07609,0.0],[111.7843,-7.07925,0.0],[111.77607,-7.07884,0.0],[111.77349,-7.08271,0.0],[111.76998,-7.08236,0.0],[111.76601,-7.08383,0.0],[111.76246,-7.08785,0.0],[111.75951,-7.08492,0.0],[111.751,-7.08483,0.0],[111.74362,-7.08012,0.0],[111.73624,-7.07783,0.0]]],[[[111.76256,-7.0179,0.0],[111.76304,-7.01779,0.0],[111.76266,-7.01797,0.0],[111.76256,-7.0179,0.0]]],[[[111.76319,-7.01639,0.0],[111.76334,-7.01678,0.0],[111.76271,-7.01659,0.0],[111.76319,-7.01639,0.0]]],[[[111.76244,-7.01637,0.0],[111.76271,-7.01659,0.0],[111.7624,-7.01659,0.0],[111.76244,-7.01637,0.0]]],[[[111.76275,-7.01574,0.0],[111.76267,-7.01624,0.0],[111.76251,-7.01567,0.0],[111.76275,-7.01574,0.0]]]]}},{"type":"Feature","properties":{"kecamatan":"Jatirogo","kab_kota":"Tuban"},"geometry":{"type":"Polygon","coordinates":[[[111.65684,-6.90086,0.0],[111.65125,-6.89821,0.0],[111.64265,-6.8964,0.0],[111.6405,-6.90121,0.0],[111.62679,-6.90104,0.0],[111.62818,-6.88814,0.0],[111.62416,-6.88575,0.0],[111.61184,-6.89026,0.0],[111.61031,-6.88897,0.0],[111.60914,-6.89015,0.0],[111.60855,-6.88952,0.0],[111.60814,-6.89017,0.0],[111.60742,-6.89013,0.0],[111.60705,-6.88971,0.0],[111.60758,-6.88789,0.0],[111.60972,-6.88717,0.0],[111.61217,-6.88159,0.0],[111.61356,-6.87297,0.0],[111.61049,-6.8682,0.0],[111.61129,-6.86451,0.0],[111.61414,-6.86437,0.0],[111.61509,-6.86237,0.0],[111.61315,-6.85978,0.0],[111.61183,-6.85437,0.0],[111.61487,-6.84355,0.0],[111.61399,-6.83301,0.0],[111.6192,-6.82167,0.0],[111.63018,-6.82539,0.0],[111.63553,-6.82879,0.0],[111.64274,-6.82786,0.0],[111.64898,-6.82951,0.0],[111.65188,-6.82599,0.0],[111.6555,-6.82708,0.0],[111.65644,-6.82632,0.0],[111.65699,-6.82203,0.0],[111.65941,-6.82057,0.0],[111.66723,-6.80523,0.0],[111.66858,-6.80861,0.0],[111.67029,-6.80946,0.0],[111.67358,-6.80952,0.0],[111.67509,-6.80735,0.0],[111.68,-6.81413,0.0],[111.68772,-6.81439,0.0],[111.68909,-6.81791,0.0],[111.68591,-6.81953,0.0],[111.68668,-6.82047,0.0],[111.6845,-6.82418,0.0],[111.68716,-6.82889,0.0],[111.68519,-6.83236,0.0],[111.68609,-6.83606,0.0],[111.68928,-6.83622,0.0],[111.69922,-6.84771,0.0],[111.70472,-6.85035,0.0],[111.70677,-6.84872,0.0],[111.71048,-6.85066,0.0],[111.71263,-6.84968,0.0],[111.72011,-6.85117,0.0],[111.72199,-6.85228,0.0],[111.72226,-6.85611,0.0],[111.72399,-6.85842,0.0],[111.72826,-6.85999,0.0],[111.73368,-6.85974,0.0],[111.73015,-6.86277,0.0],[111.73483,-6.86392,0.0],[111.73901,-6.86663,0.0],[111.73782,-6.86843,0.0],[111.73627,-6.86833,0.0],[111.73605,-6.8709,0.0],[111.74072,-6.8688,0.0],[111.74491,-6.87382,0.0],[111.74784,-6.89265,0.0],[111.74529,-6.89744,0.0],[111.73319,-6.90443,0.0],[111.72927,-6.90817,0.0],[111.71705,-6.925,0.0],[111.71238,-6.92833,0.0],[111.69335,-6.92917,0.0],[111.68447,-6.92711,0.0],[111.67723,-6.92227,0.0],[111.67371,-6.9182,0.0],[111.67496,-6.91527,0.0],[111.67222,-6.91482,0.0],[111.65684,-6.90086,0.0]]]}},{"type":"Feature","properties":{"kecamatan":"Bangilan","kab_kota":"Tuban"},"geometry":{"type":"Polygon","coordinates":[[[111.69849,-6.9981,0.0],[111.6891,-7.00701,0.0],[111.68264,-7.0101,0.0],[111.67955,-7.0131,0.0],[111.67778,-7.01411,0.0],[111.67156,-7.0137,0.0],[111.66991,-7.01654,0.0],[111.66508,-7.01892,0.0],[111.65608,-7.01582,0.0],[111.6563,-7.01349,0.0],[111.65267,-7.00914,0.0],[111.6519,-7.00046,0.0],[111.64641,-6.99685,0.0],[111.65026,-6.9883,0.0],[111.6496,-6.98645,0.0],[111.65545,-6.9811,0.0],[111.66579,-6.95941,0.0],[111.67044,-6.95679,0.0],[111.6802,-6.9543,0.0],[111.6818,-6.95201,0.0],[111.68234,-6.94753,0.0],[111.68805,-6.94231,0.0],[111.68828,-6.94003,0.0],[111.68679,-6.93968,0.0],[111.68677,-6.93612,0.0],[111.68567,-6.9353,0.0],[111.68695,-6.92779,0.0],[111.69335,-6.92917,0.0],[111.71328,-6.92823,0.0],[111.71705,-6.925,0.0],[111.72902,-6.90844,0.0],[111.73319,-6.90443,0.0],[111.74458,-6.8979,0.0],[111.75095,-6.89852,0.0],[111.75553,-6.90404,0.0],[111.76042,-6.90698,0.0],[111.76431,-6.91218,0.0],[111.76824,-6.91361,0.0],[111.7733,-6.91994,0.0],[111.77048,-6.92598,0.0],[111.77171,-6.93056,0.0],[111.77113,-6.93397,0.0],[111.77475,-6.94164,0.0],[111.77321,-6.95255,0.0],[111.7528,-6.94639,0.0],[111.75,-6.94764,0.0],[111.74952,-6.95617,0.0],[111.74342,-6.96658,0.0],[111.73661,-6.96388,0.0],[111.73265,-6.97154,0.0],[111.73805,-6.97481,0.0],[111.73876,-6.97972,0.0],[111.73271,-6.99354,0.0],[111.72767,-6.9944,0.0],[111.7255,-6.99669,0.0],[111.71943,-6.99409,0.0],[111.71696,-6.99489,0.0],[111.71285,-6.99363,0.0],[111.70797,-7.00105,0.0],[111.69849,-6.9981,0.0]]]}},{"type":"Feature","properties":{"kecamatan":"Kerek","kab_kota":"Tuban"},"geometry":{"type":"Polygon","coordinates":[[[111.89714,-6.92505,0.0],[111.89598,-6.92985,0.0],[111.88743,-6.93523,0.0],[111.87817,-6.93841,0.0],[111.87241,-6.93675,0.0],[111.86439,-6.93779,0.0],[111.86105,-6.93616,0.0],[111.85829,-6.93915,0.0],[111.85649,-6.94425,0.0],[111.84894,-6.94538,0.0],[111.83993,-6.94222,0.0],[111.81948,-6.93189,0.0],[111.80838,-6.93156,0.0],[111.80398,-6.92913,0.0],[111.79796,-6.9314,0.0],[111.79099,-6.93001,0.0],[111.77369,-6.92027,0.0],[111.76824,-6.91361,0.0],[111.76431,-6.91218,0.0],[111.75958,-6.90638,0.0],[111.77232,-6.89291,0.0],[111.77461,-6.88658,0.0],[111.78188,-6.89004,0.0],[111.7866,-6.88993,0.0],[111.78924,-6.8885,0.0],[111.79073,-6.87524,0.0],[111.79347,-6.87384,0.0],[111.79526,-6.87461,0.0],[111.80743,-6.86619,0.0],[111.81609,-6.8528,0.0],[111.81751,-6.84651,0.0],[111.82239,-6.84243,0.0],[111.84286,-6.84212,0.0],[111.84779,-6.839,0.0],[111.85222,-6.83065,0.0],[111.85649,-6.82895,0.0],[111.8624,-6.83213,0.0],[111.87264,-6.83442,0.0],[111.8749,-6.82963,0.0],[111.88145,-6.827,0.0],[111.88493,-6.824,0.0],[111.89161,-6.82403,0.0],[111.89129,-6.82189,0.0],[111.90426,-6.8429,0.0],[111.90965,-6.85511,0.0],[111.91084,-6.86105,0.0],[111.9181,-6.86172,0.0],[111.91765,-6.8703,0.0],[111.91266,-6.875,0.0],[111.91004,-6.88163,0.0],[111.91667,-6.88567,0.0],[111.93216,-6.8886,0.0],[111.93002,-6.89462,0.0],[111.93197,-6.89877,0.0],[111.92869,-6.91347,0.0],[111.93069,-6.91729,0.0],[111.93209,-6.93204,0.0],[111.92918,-6.92549,0.0],[111.9257,-6.92399,0.0],[111.91936,-6.91796,0.0],[111.91737,-6.91866,0.0],[111.91662,-6.91705,0.0],[111.9119,-6.91809,0.0],[111.90868,-6.91581,0.0],[111.90192,-6.91672,0.0],[111.8956,-6.91502,0.0],[111.89714,-6.92505,0.0]]]}},{"type":"Feature","properties":{"kecamatan":"Parengan","kab_kota":"Tuban"},"geometry":{"type":"Polygon","coordinates":[[[111.83708,-7.10441,0.0],[111.83186,-7.10367,0.0],[111.82424,-7.10043,0.0],[111.81854,-7.0881,0.0],[111.81401,-7.08629,0.0],[111.80184,-7.08371,0.0],[111.79709,-7.08618,0.0],[111.79333,-7.08197,0.0],[111.78854,-7.0835,0.0],[111.77349,-7.08271,0.0],[111.77607,-7.07884,0.0],[111.78445,-7.07911,0.0],[111.78473,-7.07618,0.0],[111.78581,-7.07587,0.0],[111.78352,-7.07205,0.0],[111.78497,-7.06908,0.0],[111.78654,-7.06954,0.0],[111.78723,-7.06154,0.0],[111.79022,-7.05829,0.0],[111.79019,-7.0561,0.0],[111.78882,-7.05498,0.0],[111.78729,-7.05425,0.0],[111.78605,-7.05514,0.0],[111.78768,-7.05152,0.0],[111.77937,-7.0474,0.0],[111.78091,-7.04434,0.0],[111.78267,-7.04477,0.0],[111.78347,-7.0413,0.0],[111.78535,-7.04023,0.0],[111.78312,-7.03935,0.0],[111.783,-7.03648,0.0],[111.78604,-7.03397,0.0],[111.78739,-7.0298,0.0],[111.7893,-7.02922,0.0],[111.79083,-7.02595,0.0],[111.79683,-7.02703,0.0],[111.80214,-7.02224,0.0],[111.80567,-7.02142,0.0],[111.82175,-7.02974,0.0],[111.83001,-7.02694,0.0],[111.83128,-7.02355,0.0],[111.83906,-7.02798,0.0],[111.84893,-7.02701,0.0],[111.86222,-7.01877,0.0],[111.86549,-7.01402,0.0],[111.86706,-7.00199,0.0],[111.86567,-6.99733,0.0],[111.86641,-6.99449,0.0],[111.86217,-6.98866,0.0],[111.86241,-6.98555,0.0],[111.86988,-6.98251,0.0],[111.8734,-6.97702,0.0],[111.87885,-6.98266,0.0],[111.88959,-6.98456,0.0],[111.89241,-6.98338,0.0],[111.89374,-6.98653,0.0],[111.89224,-6.98972,0.0],[111.89358,-6.991,0.0],[111.88933,-6.9967,0.0],[111.89185,-7.0039,0.0],[111.89969,-7.01423,0.0],[111.92202,-7.03471,0.0],[111.91791,-7.03655,0.0],[111.91512,-7.03612,0.0],[111.91315,-7.03788,0.0],[111.91291,-7.04067,0.0],[111.91039,-7.04183,0.0],[111.90268,-7.04198,0.0],[111.89422,-7.04562,0.0],[111.89207,-7.04925,0.0],[111.89184,-7.05721,0.0],[111.89072,-7.05913,0.0],[111.89201,-7.06473,0.0],[111.88968,-7.06798,0.0],[111.89154,-7.07114,0.0],[111.89384,-7.07231,0.0],[111.89277,-7.07561,0.0],[111.89688,-7.0754,0.0],[111.90126,-7.07692,0.0],[111.89952,-7.07998,0.0],[111.90252,-7.08323,0.0],[111.904,-7.09341,0.0],[111.90284,-7.10571,0.0],[111.90045,-7.1152,0.0],[111.89699,-7.11527,0.0],[111.89638,-7.12235,0.0],[111.89309,-7.12507,0.0],[111.88831,-7.12213,0.0],[111.88371,-7.12212,0.0],[111.88402,-7.12483,0.0],[111.88205,-7.12809,0.0],[111.88268,-7.13043,0.0],[111.87907,-7.13248,0.0],[111.87674,-7.13114,0.0],[111.87782,-7.1333,0.0],[111.87118,-7.13005,0.0],[111.86713,-7.12626,0.0],[111.86665,-7.12705,0.0],[111.86856,-7.12863,0.0],[111.86669,-7.12917,0.0],[111.86452,-7.1241,0.0],[111.8635,-7.12824,0.0],[111.86174,-7.12957,0.0],[111.8597,-7.12582,0.0],[111.86016,-7.12388,0.0],[111.85823,-7.12347,0.0],[111.85665,-7.12592,0.0],[111.85473,-7.12176,0.0],[111.85657,-7.11512,0.0],[111.85391,-7.1152,0.0],[111.83708,-7.10441,0.0]]]}},{"type":"Feature","properties":{"kecamatan":"Tambakboyo","kab_kota":"Tuban"},"geometry":{"type":"MultiPolygon","coordinates":[[[[111.79128,-6.87496,0.0],[111.78924,-6.8885,0.0],[111.7866,-6.88993,0.0],[111.78188,-6.89004,0.0],[111.77461,-6.88658,0.0],[111.77232,-6.89291,0.0],[111.75958,-6.90638,0.0],[111.75553,-6.90404,0.0],[111.75095,-6.89852,0.0],[111.74458,-6.8979,0.0],[111.74726,-6.8953,0.0],[111.74787,-6.89205,0.0],[111.74532,-6.875,0.0],[111.74072,-6.8688,0.0],[111.73628,-6.87099,0.0],[111.73598,-6.86993,0.0],[111.73627,-6.86833,0.0],[111.73782,-6.86843,0.0],[111.73901,-6.86663,0.0],[111.74085,-6.86739,0.0],[111.74163,-6.86563,0.0],[111.74334,-6.8655,0.0],[111.74334,-6.86303,0.0],[111.75,-6.8615,0.0],[111.75332,-6.85639,0.0],[111.75596,-6.85598,0.0],[111.76009,-6.85801,0.0],[111.76216,-6.85491,0.0],[111.76429,-6.85438,0.0],[111.76693,-6.84568,0.0],[111.77122,-6.83979,0.0],[111.782,-6.83588,0.0],[111.7879,-6.83641,0.0],[111.79055,-6.83785,0.0],[111.79174,-6.8367,0.0],[111.7913,-6.83471,0.0],[111.79345,-6.83412,0.0],[111.79352,-6.83261,0.0],[111.7962,-6.83283,0.0],[111.79847,-6.83122,0.0],[111.80401,-6.82,0.0],[111.80565,-6.82147,0.0],[111.81107,-6.82262,0.0],[111.81165,-6.82106,0.0],[111.81322,-6.82134,0.0],[111.81245,-6.81919,0.0],[111.81483,-6.81877,0.0],[111.81475,-6.81661,0.0],[111.81643,-6.81598,0.0],[111.81845,-6.81827,0.0],[111.81772,-6.81621,0.0],[111.82129,-6.81515,0.0],[111.82018,-6.81224,0.0],[111.81657,-6.80967,0.0],[111.81916,-6.80306,0.0],[111.82269,-6.80312,0.0],[111.82269,-6.79837,0.0],[111.8375,-6.80097,0.0],[111.85835,-6.79972,0.0],[111.87975,-6.79543,0.0],[111.89308,-6.79031,0.0],[111.89493,-6.79531,0.0],[111.89233,-6.79521,0.0],[111.88975,-6.80574,0.0],[111.89161,-6.82403,0.0],[111.88493,-6.824,0.0],[111.88145,-6.827,0.0],[111.87813,-6.82751,0.0],[111.8749,-6.82963,0.0],[111.87264,-6.83442,0.0],[111.8624,-6.83213,0.0],[111.85649,-6.82895,0.0],[111.85222,-6.83065,0.0],[111.84779,-6.839,0.0],[111.84286,-6.84212,0.0],[111.82239,-6.84243,0.0],[111.81751,-6.84651,0.0],[111.81609,-6.8528,0.0],[111.80743,-6.86619,0.0],[111.79526,-6.87461,0.0],[111.79347,-6.87384,0.0],[111.79128,-6.87496,0.0]]],[[[111.8935,-6.797,0.0],[111.89332,-6.79571,0.0],[111.89373,-6.7957,0.0],[111.8935,-6.797,0.0]]]]}},{"type":"Feature","properties":{"kecamatan":"Singgahan","kab_kota":"Tuban"},"geometry":{"type":"Polygon","coordinates":[[[111.77607,-7.03086,0.0],[111.77466,-7.03245,0.0],[111.75211,-7.02568,0.0],[111.75375,-7.02024,0.0],[111.75903,-7.02189,0.0],[111.76165,-7.01986,0.0],[111.75841,-7.01848,0.0],[111.75884,-7.01757,0.0],[111.75392,-7.01636,0.0],[111.75469,-7.01364,0.0],[111.75336,-7.01324,0.0],[111.75357,-7.01116,0.0],[111.75083,-7.01067,0.0],[111.75238,-7.00435,0.0],[111.75675,-7.0012,0.0],[111.74403,-6.99089,0.0],[111.73551,-6.98754,0.0],[111.73876,-6.97972,0.0],[111.73844,-6.97646,0.0],[111.73776,-6.97456,0.0],[111.73265,-6.97154,0.0],[111.73661,-6.96388,0.0],[111.74342,-6.96658,0.0],[111.74952,-6.95617,0.0],[111.75,-6.94764,0.0],[111.7528,-6.94639,0.0],[111.77321,-6.95255,0.0],[111.77475,-6.94164,0.0],[111.77113,-6.93397,0.0],[111.77171,-6.93056,0.0],[111.77048,-6.92598,0.0],[111.7733,-6.91994,0.0],[111.78788,-6.92824,0.0],[111.79051,-6.93333,0.0],[111.79756,-6.94031,0.0],[111.8004,-6.95328,0.0],[111.80195,-6.95703,0.0],[111.80547,-6.96036,0.0],[111.80594,-6.96767,0.0],[111.81528,-6.97739,0.0],[111.81423,-6.98409,0.0],[111.81034,-6.99255,0.0],[111.81004,-6.99748,0.0],[111.82349,-7.01617,0.0],[111.83128,-7.02355,0.0],[111.83001,-7.02694,0.0],[111.82211,-7.02977,0.0],[111.81483,-7.02687,0.0],[111.80754,-7.02208,0.0],[111.80262,-7.022,0.0],[111.79683,-7.02703,0.0],[111.79083,-7.02595,0.0],[111.7893,-7.02922,0.0],[111.78753,-7.02957,0.0],[111.78469,-7.03571,0.0],[111.77965,-7.03396,0.0],[111.7787,-7.03056,0.0],[111.77607,-7.03086,0.0]],[[111.76256,-7.0179,0.0],[111.76308,-7.01761,0.0],[111.76298,-7.0173,0.0],[111.76256,-7.0179,0.0]],[[111.76334,-7.01678,0.0],[111.76319,-7.01639,0.0],[111.76271,-7.01659,0.0],[111.76334,-7.01678,0.0]],[[111.76271,-7.01659,0.0],[111.76267,-7.01624,0.0],[111.76237,-7.01653,0.0],[111.76271,-7.01659,0.0]],[[111.76267,-7.01624,0.0],[111.76275,-7.01574,0.0],[111.76251,-7.01567,0.0],[111.76267,-7.01624,0.0]]]}},{"type":"Feature","properties":{"kecamatan":"Soko","kab_kota":"Tuban"},"geometry":{"type":"Polygon","coordinates":[[[111.94442,-7.15199,0.0],[111.93919,-7.15795,0.0],[111.93563,-7.15994,0.0],[111.93261,-7.15995,0.0],[111.93027,-7.15651,0.0],[111.93243,-7.14144,0.0],[111.93096,-7.13314,0.0],[111.92585,-7.13174,0.0],[111.92068,-7.13207,0.0],[111.91008,-7.13813,0.0],[111.89921,-7.13633,0.0],[111.8988,-7.1332,0.0],[111.90142,-7.13269,0.0],[111.90167,-7.13033,0.0],[111.89309,-7.12507,0.0],[111.89638,-7.12235,0.0],[111.89699,-7.11527,0.0],[111.90019,-7.11549,0.0],[111.90121,-7.11325,0.0],[111.90401,-7.09346,0.0],[111.90252,-7.08323,0.0],[111.89952,-7.07998,0.0],[111.90126,-7.07692,0.0],[111.89688,-7.0754,0.0],[111.89277,-7.07561,0.0],[111.89384,-7.07231,0.0],[111.89154,-7.07114,0.0],[111.88968,-7.06798,0.0],[111.89201,-7.06473,0.0],[111.89072,-7.05913,0.0],[111.89184,-7.05721,0.0],[111.89207,-7.04925,0.0],[111.89402,-7.04574,0.0],[111.90193,-7.04219,0.0],[111.90996,-7.0419,0.0],[111.91291,-7.04067,0.0],[111.91315,-7.03788,0.0],[111.91512,-7.03612,0.0],[111.91791,-7.03655,0.0],[111.92504,-7.03385,0.0],[111.93067,-7.02867,0.0],[111.92958,-7.03088,0.0],[111.93291,-7.03616,0.0],[111.9316,-7.04139,0.0],[111.9333,-7.04449,0.0],[111.93142,-7.04989,0.0],[111.93368,-7.05036,0.0],[111.93663,-7.04733,0.0],[111.94758,-7.0508,0.0],[111.94774,-7.04995,0.0],[111.95119,-7.05083,0.0],[111.95584,-7.04969,0.0],[111.966,-7.05737,0.0],[111.96537,-7.06494,0.0],[111.96777,-7.06909,0.0],[111.96918,-7.07665,0.0],[111.9675,-7.08033,0.0],[111.9657,-7.08003,0.0],[111.96528,-7.08216,0.0],[111.96371,-7.08272,0.0],[111.96399,-7.09031,0.0],[111.97246,-7.09472,0.0],[111.97707,-7.0941,0.0],[111.97462,-7.10697,0.0],[111.97922,-7.10705,0.0],[111.97758,-7.11206,0.0],[111.98831,-7.11839,0.0],[111.99405,-7.11852,0.0],[111.9944,-7.12119,0.0],[111.99283,-7.12973,0.0],[111.98477,-7.1426,0.0],[111.98302,-7.15295,0.0],[111.98483,-7.16093,0.0],[111.98283,-7.16438,0.0],[111.97961,-7.16483,0.0],[111.97784,-7.16263,0.0],[111.98002,-7.15097,0.0],[111.97667,-7.14373,0.0],[111.97008,-7.13781,0.0],[111.96346,-7.13714,0.0],[111.95644,-7.13248,0.0],[111.95272,-7.13182,0.0],[111.9504,-7.13416,0.0],[111.94442,-7.15199,0.0]]]}},{"type":"Feature","properties":{"kecamatan":"Jenu","kab_kota":"Tuban"},"geometry":{"type":"Polygon","coordinates":[[[111.91988,-6.82425,0.0],[111.92196,-6.82788,0.0],[111.92068,-6.83034,0.0],[111.90881,-6.83435,0.0],[111.90218,-6.83883,0.0],[111.89129,-6.82189,0.0],[111.88975,-6.80574,0.0],[111.89233,-6.79521,0.0],[111.89493,-6.79531,0.0],[111.89308,-6.79031,0.0],[111.89909,-6.78781,0.0],[111.90247,-6.78788,0.0],[111.91744,-6.78159,0.0],[111.92772,-6.7763,0.0],[111.93638,-6.76889,0.0],[111.94438,-6.76458,0.0],[111.94532,-6.76545,0.0],[111.94658,-6.76365,0.0],[111.95664,-6.76371,0.0],[111.96063,-6.76234,0.0],[111.96081,-6.76067,0.0],[111.95382,-6.76035,0.0],[111.96093,-6.76052,0.0],[111.97472,-6.76834,0.0],[111.98012,-6.77315,0.0],[111.98522,-6.78551,0.0],[111.9848,-6.78973,0.0],[111.98737,-6.79646,0.0],[111.99467,-6.80367,0.0],[111.99961,-6.79897,0.0],[111.99456,-6.8044,0.0],[111.99778,-6.80682,0.0],[112.00302,-6.80102,0.0],[112.00346,-6.79776,0.0],[112.00318,-6.80096,0.0],[111.99801,-6.80742,0.0],[112.00132,-6.81327,0.0],[112.00695,-6.81865,0.0],[112.00791,-6.82093,0.0],[112.00657,-6.82286,0.0],[112.01047,-6.83455,0.0],[112.02647,-6.85795,0.0],[112.0295,-6.85632,0.0],[112.02864,-6.85771,0.0],[112.03058,-6.85873,0.0],[112.02871,-6.86046,0.0],[112.03174,-6.86484,0.0],[112.04709,-6.88171,0.0],[112.04754,-6.88421,0.0],[112.04901,-6.88554,0.0],[112.0508,-6.88518,0.0],[112.04939,-6.88696,0.0],[112.04761,-6.88617,0.0],[112.04203,-6.88206,0.0],[112.03913,-6.87754,0.0],[112.03454,-6.87392,0.0],[112.03186,-6.87767,0.0],[112.02791,-6.87403,0.0],[112.02485,-6.87553,0.0],[112.0189,-6.87359,0.0],[112.02117,-6.8685,0.0],[112.01712,-6.86645,0.0],[112.01207,-6.86986,0.0],[112.01006,-6.86853,0.0],[112.01108,-6.86474,0.0],[112.0094,-6.86462,0.0],[112.0094,-6.86288,0.0],[112.00734,-6.86146,0.0],[112.00538,-6.86729,0.0],[112.00261,-6.86628,0.0],[112.00339,-6.86352,0.0],[112.00133,-6.86288,0.0],[112.0019,-6.86096,0.0],[111.99376,-6.85904,0.0],[111.99601,-6.8547,0.0],[111.99377,-6.85299,0.0],[111.98192,-6.85195,0.0],[111.979,-6.84923,0.0],[111.97708,-6.84966,0.0],[111.97635,-6.85166,0.0],[111.97482,-6.85064,0.0],[111.97247,-6.85145,0.0],[111.97041,-6.85084,0.0],[111.97091,-6.84826,0.0],[111.96737,-6.84911,0.0],[111.96388,-6.8469,0.0],[111.96168,-6.84926,0.0],[111.96114,-6.84626,0.0],[111.96001,-6.84745,0.0],[111.95775,-6.84661,0.0],[111.96338,-6.8454,0.0],[111.96145,-6.84025,0.0],[111.96197,-6.82609,0.0],[111.96032,-6.82344,0.0],[111.9569,-6.82149,0.0],[111.94476,-6.81736,0.0],[111.93538,-6.81637,0.0],[111.93,-6.81791,0.0],[111.92714,-6.82076,0.0],[111.92457,-6.81991,0.0],[111.92449,-6.82162,0.0],[111.92159,-6.82146,0.0],[111.91988,-6.82425,0.0]],[[111.8935,-6.797,0.0],[111.89332,-6.79571,0.0],[111.89341,-6.797,0.0],[111.8935,-6.797,0.0]]]}},{"type":"Feature","properties":{"kecamatan":"Montong","kab_kota":"Tuban"},"geometry":{"type":"Polygon","coordinates":[[[111.86271,-7.01832,0.0],[111.84754,-7.02743,0.0],[111.83617,-7.02715,0.0],[111.82565,-7.01859,0.0],[111.81649,-7.00694,0.0],[111.81002,-6.99726,0.0],[111.81034,-6.99255,0.0],[111.81423,-6.98409,0.0],[111.81528,-6.97739,0.0],[111.80625,-6.96825,0.0],[111.80547,-6.96036,0.0],[111.80195,-6.95703,0.0],[111.8004,-6.95328,0.0],[111.79802,-6.94115,0.0],[111.79051,-6.93333,0.0],[111.78813,-6.92853,0.0],[111.79726,-6.93141,0.0],[111.80337,-6.9291,0.0],[111.80838,-6.93156,0.0],[111.81948,-6.93189,0.0],[111.83993,-6.94222,0.0],[111.85123,-6.94536,0.0],[111.85649,-6.94425,0.0],[111.85829,-6.93915,0.0],[111.8608,-6.93623,0.0],[111.86439,-6.93779,0.0],[111.87241,-6.93675,0.0],[111.87875,-6.93838,0.0],[111.89219,-6.93286,0.0],[111.89598,-6.92985,0.0],[111.89731,-6.9269,0.0],[111.8956,-6.91502,0.0],[111.90192,-6.91672,0.0],[111.90868,-6.91581,0.0],[111.91144,-6.91804,0.0],[111.9156,-6.91696,0.0],[111.91737,-6.91866,0.0],[111.91936,-6.91796,0.0],[111.9257,-6.92399,0.0],[111.92918,-6.92549,0.0],[111.9315,-6.93247,0.0],[111.93835,-6.93593,0.0],[111.94386,-6.93707,0.0],[111.94903,-6.9363,0.0],[111.95064,-6.93715,0.0],[111.94949,-6.94048,0.0],[111.95569,-6.94066,0.0],[111.9617,-6.93893,0.0],[111.96631,-6.94191,0.0],[111.96596,-6.94849,0.0],[111.96729,-6.95103,0.0],[111.96195,-6.95452,0.0],[111.95744,-6.95978,0.0],[111.95702,-6.98168,0.0],[111.95566,-6.98371,0.0],[111.95314,-6.98451,0.0],[111.95121,-6.98873,0.0],[111.94753,-6.98989,0.0],[111.94285,-6.99464,0.0],[111.94559,-6.99737,0.0],[111.95228,-6.9972,0.0],[111.95296,-7.0034,0.0],[111.95679,-7.01107,0.0],[111.95631,-7.01561,0.0],[111.93924,-7.01888,0.0],[111.93689,-7.02254,0.0],[111.93051,-7.0273,0.0],[111.92912,-7.03051,0.0],[111.92527,-7.03373,0.0],[111.92202,-7.03471,0.0],[111.89969,-7.01423,0.0],[111.89185,-7.0039,0.0],[111.88933,-6.9967,0.0],[111.89358,-6.991,0.0],[111.89224,-6.98972,0.0],[111.89374,-6.98653,0.0],[111.89241,-6.98338,0.0],[111.88959,-6.98456,0.0],[111.87885,-6.98266,0.0],[111.8734,-6.97702,0.0],[111.86988,-6.98251,0.0],[111.86241,-6.98555,0.0],[111.86217,-6.98866,0.0],[111.86641,-6.99449,0.0],[111.86567,-6.99733,0.0],[111.86706,-7.00199,0.0],[111.86568,-7.01324,0.0],[111.86271,-7.01832,0.0]],[[111.94535,-6.94003,0.0],[111.94748,-6.93931,0.0],[111.94536,-6.93956,0.0],[111.94535,-6.94003,0.0]]]}},{"type":"Feature","properties":{"kecamatan":"Semanding","kab_kota":"Tuban"},"geometry":{"type":"Polygon","coordinates":[[[112.04149,-6.98319,0.0],[112.03887,-6.98517,0.0],[112.0339,-6.98628,0.0],[112.02637,-6.98493,0.0],[112.02223,-6.98105,0.0],[112.0131,-6.96687,0.0],[112.00554,-6.96353,0.0],[112.00313,-6.9633,0.0],[111.99732,-6.96616,0.0],[111.99144,-6.97418,0.0],[111.99056,-6.97386,0.0],[111.98809,-6.96952,0.0],[111.98192,-6.96841,0.0],[111.97618,-6.96359,0.0],[111.9724,-6.96339,0.0],[111.97109,-6.95746,0.0],[111.96586,-6.95282,0.0],[111.96733,-6.95085,0.0],[111.96596,-6.94849,0.0],[111.96631,-6.94191,0.0],[111.97235,-6.9395,0.0],[111.97493,-6.94158,0.0],[111.98089,-6.93665,0.0],[111.9837,-6.93612,0.0],[111.986,-6.93304,0.0],[111.99167,-6.93364,0.0],[111.9991,-6.92099,0.0],[112.00086,-6.91524,0.0],[112.00005,-6.91337,0.0],[112.00206,-6.90878,0.0],[112.00521,-6.91037,0.0],[112.00677,-6.90961,0.0],[112.00714,-6.91103,0.0],[112.01123,-6.91124,0.0],[112.01142,-6.91392,0.0],[112.01602,-6.91771,0.0],[112.01946,-6.9139,0.0],[112.02628,-6.9151,0.0],[112.03241,-6.91193,0.0],[112.03698,-6.90056,0.0],[112.05374,-6.90664,0.0],[112.05856,-6.90684,0.0],[112.05999,-6.90374,0.0],[112.06727,-6.90588,0.0],[112.06961,-6.90115,0.0],[112.07115,-6.90016,0.0],[112.0735,-6.90115,0.0],[112.07444,-6.8984,0.0],[112.07724,-6.90091,0.0],[112.07941,-6.9011,0.0],[112.08198,-6.90848,0.0],[112.08859,-6.91371,0.0],[112.09138,-6.91872,0.0],[112.09465,-6.92748,0.0],[112.09267,-6.93355,0.0],[112.10171,-6.93691,0.0],[112.11003,-6.93724,0.0],[112.1265,-6.94324,0.0],[112.12519,-6.95194,0.0],[112.12903,-6.95291,0.0],[112.12746,-6.96206,0.0],[112.13035,-6.96824,0.0],[112.13365,-6.9709,0.0],[112.13441,-6.978,0.0],[112.13918,-6.98272,0.0],[112.08959,-6.98337,0.0],[112.08792,-6.99106,0.0],[112.08579,-6.9929,0.0],[112.0875,-6.99593,0.0],[112.09167,-6.99634,0.0],[112.09502,-6.9994,0.0],[112.09513,-7.00127,0.0],[112.09279,-7.00306,0.0],[112.09267,-7.00662,0.0],[112.09068,-7.00993,0.0],[112.08395,-7.01539,0.0],[112.08118,-7.02379,0.0],[112.07888,-7.02658,0.0],[112.07727,-7.02399,0.0],[112.07156,-7.02501,0.0],[112.07172,-7.02038,0.0],[112.06594,-7.01659,0.0],[112.05601,-7.01694,0.0],[112.05681,-7.01905,0.0],[112.05392,-7.02044,0.0],[112.04464,-7.01921,0.0],[112.04066,-7.02013,0.0],[112.04101,-7.0162,0.0],[112.04434,-7.01117,0.0],[112.04895,-7.00804,0.0],[112.04747,-6.99886,0.0],[112.04823,-6.99702,0.0],[112.05473,-6.98774,0.0],[112.05964,-6.98384,0.0],[112.05215,-6.98276,0.0],[112.04149,-6.98319,0.0]]]}},{"type":"Feature","properties":{"kecamatan":"Tuban","kab_kota":"Tuban"},"geometry":{"type":"MultiPolygon","coordinates":[[[[112.05999,-6.90374,0.0],[112.05856,-6.90684,0.0],[112.05374,-6.90664,0.0],[112.03698,-6.90056,0.0],[112.03241,-6.91193,0.0],[112.02628,-6.9151,0.0],[112.01946,-6.9139,0.0],[112.01602,-6.91771,0.0],[112.01142,-6.91392,0.0],[112.01123,-6.91124,0.0],[112.00714,-6.91103,0.0],[112.00677,-6.90961,0.0],[112.00521,-6.91037,0.0],[112.00426,-6.90932,0.0],[112.00631,-6.90467,0.0],[112.00517,-6.90415,0.0],[112.00563,-6.90166,0.0],[112.00731,-6.90126,0.0],[112.00633,-6.89771,0.0],[112.00731,-6.89917,0.0],[112.00822,-6.897,0.0],[112.00265,-6.89608,0.0],[112.00228,-6.89384,0.0],[112.00001,-6.89356,0.0],[112.00112,-6.89062,0.0],[112.00241,-6.8908,0.0],[112.00319,-6.88698,0.0],[112.00188,-6.88672,0.0],[112.00215,-6.88422,0.0],[112.00588,-6.88419,0.0],[112.00705,-6.88282,0.0],[112.01083,-6.88363,0.0],[112.01071,-6.88569,0.0],[112.01268,-6.88664,0.0],[112.01471,-6.88703,0.0],[112.01506,-6.88546,0.0],[112.01889,-6.88649,0.0],[112.02232,-6.8748,0.0],[112.02518,-6.8755,0.0],[112.02791,-6.87403,0.0],[112.03186,-6.87767,0.0],[112.03454,-6.87392,0.0],[112.03913,-6.87754,0.0],[112.04203,-6.88206,0.0],[112.04761,-6.88617,0.0],[112.04939,-6.88696,0.0],[112.0508,-6.88518,0.0],[112.06487,-6.89257,0.0],[112.06743,-6.88847,0.0],[112.0669,-6.89301,0.0],[112.07211,-6.89478,0.0],[112.07776,-6.89422,0.0],[112.08132,-6.89595,0.0],[112.08104,-6.89699,0.0],[112.07919,-6.89689,0.0],[112.07941,-6.9011,0.0],[112.07724,-6.90091,0.0],[112.07441,-6.8984,0.0],[112.0735,-6.90115,0.0],[112.07115,-6.90016,0.0],[112.06961,-6.90115,0.0],[112.06727,-6.90588,0.0],[112.05999,-6.90374,0.0]]],[[[112.0501,-6.88454,0.0],[112.04901,-6.88554,0.0],[112.04687,-6.88307,0.0],[112.0475,-6.88227,0.0],[112.0501,-6.88454,0.0]]]]}},{"type":"Feature","properties":{"kecamatan":"Merakurak","kab_kota":"Tuban"},"geometry":{"type":"MultiPolygon","coordinates":[[[[111.94701,-6.94034,0.0],[111.94535,-6.94003,0.0],[111.94536,-6.93956,0.0],[111.94748,-6.93931,0.0],[111.94701,-6.94034,0.0]]],[[[111.93223,-6.92919,0.0],[111.92869,-6.91347,0.0],[111.93197,-6.89877,0.0],[111.93002,-6.89462,0.0],[111.93216,-6.8886,0.0],[111.91667,-6.88567,0.0],[111.91004,-6.88163,0.0],[111.91266,-6.875,0.0],[111.91765,-6.8703,0.0],[111.9181,-6.86172,0.0],[111.91084,-6.86105,0.0],[111.90965,-6.85511,0.0],[111.90218,-6.83883,0.0],[111.90881,-6.83435,0.0],[111.92068,-6.83034,0.0],[111.92191,-6.82753,0.0],[111.9198,-6.82421,0.0],[111.92159,-6.82146,0.0],[111.92424,-6.8218,0.0],[111.92457,-6.81991,0.0],[111.92728,-6.82071,0.0],[111.93,-6.81791,0.0],[111.93546,-6.81637,0.0],[111.94476,-6.81736,0.0],[111.9569,-6.82149,0.0],[111.96032,-6.82344,0.0],[111.96197,-6.82609,0.0],[111.96145,-6.84025,0.0],[111.96338,-6.8454,0.0],[111.95775,-6.84661,0.0],[111.96001,-6.84745,0.0],[111.96114,-6.84626,0.0],[111.96168,-6.84926,0.0],[111.96388,-6.8469,0.0],[111.96737,-6.84911,0.0],[111.97091,-6.84826,0.0],[111.97041,-6.85084,0.0],[111.97247,-6.85145,0.0],[111.97482,-6.85064,0.0],[111.97635,-6.85166,0.0],[111.97708,-6.84966,0.0],[111.979,-6.84923,0.0],[111.98192,-6.85195,0.0],[111.99326,-6.85281,0.0],[111.99601,-6.8547,0.0],[111.99376,-6.85904,0.0],[112.0019,-6.86096,0.0],[112.00133,-6.86288,0.0],[112.00339,-6.86352,0.0],[112.00261,-6.86628,0.0],[112.00538,-6.86729,0.0],[112.00734,-6.86146,0.0],[112.0094,-6.86288,0.0],[112.0094,-6.86462,0.0],[112.01108,-6.86474,0.0],[112.01006,-6.86853,0.0],[112.01207,-6.86986,0.0],[112.01712,-6.86645,0.0],[112.02117,-6.8685,0.0],[112.0189,-6.87359,0.0],[112.02232,-6.8748,0.0],[112.01889,-6.88649,0.0],[112.01506,-6.88546,0.0],[112.01471,-6.88703,0.0],[112.01268,-6.88664,0.0],[112.01071,-6.88569,0.0],[112.01083,-6.88363,0.0],[112.00705,-6.88282,0.0],[112.00588,-6.88419,0.0],[112.00215,-6.88422,0.0],[112.00188,-6.88672,0.0],[112.00319,-6.88698,0.0],[112.00241,-6.8908,0.0],[112.00112,-6.89062,0.0],[112.00001,-6.89356,0.0],[112.00228,-6.89384,0.0],[112.00265,-6.89608,0.0],[112.00785,-6.89614,0.0],[112.00822,-6.897,0.0],[112.00731,-6.89917,0.0],[112.00633,-6.89771,0.0],[112.00731,-6.90126,0.0],[112.00563,-6.90166,0.0],[112.00517,-6.90415,0.0],[112.00631,-6.90467,0.0],[112.00421,-6.90911,0.0],[112.00159,-6.90904,0.0],[111.9991,-6.92099,0.0],[111.9916,-6.93368,0.0],[111.986,-6.93304,0.0],[111.9837,-6.93612,0.0],[111.98089,-6.93665,0.0],[111.97475,-6.94163,0.0],[111.97235,-6.9395,0.0],[111.96613,-6.94191,0.0],[111.9617,-6.93893,0.0],[111.95569,-6.94066,0.0],[111.94949,-6.94048,0.0],[111.95064,-6.93715,0.0],[111.94903,-6.9363,0.0],[111.94145,-6.93675,0.0],[111.9315,-6.93247,0.0],[111.93223,-6.92919,0.0]]]]}},{"type":"Feature","properties":{"kecamatan":"Rengel","kab_kota":"Tuban"},"geometry":{"type":"Polygon","coordinates":[[[112.01115,-7.12747,0.0],[112.01009,-7.13085,0.0],[112.00756,-7.13151,0.0],[111.99897,-7.12498,0.0],[111.99748,-7.12129,0.0],[111.99972,-7.11741,0.0],[111.99854,-7.11425,0.0],[111.99507,-7.11445,0.0],[111.994,-7.11869,0.0],[111.99231,-7.11927,0.0],[111.98831,-7.11839,0.0],[111.97837,-7.1128,0.0],[111.97758,-7.11206,0.0],[111.97922,-7.10705,0.0],[111.97462,-7.10697,0.0],[111.97707,-7.0941,0.0],[111.97246,-7.09472,0.0],[111.96399,-7.09031,0.0],[111.96371,-7.08272,0.0],[111.96528,-7.08216,0.0],[111.9657,-7.08003,0.0],[111.9675,-7.08033,0.0],[111.96918,-7.07665,0.0],[111.96777,-7.06909,0.0],[111.96537,-7.06494,0.0],[111.9652,-7.05658,0.0],[111.96942,-7.04848,0.0],[111.9702,-7.03866,0.0],[111.97663,-7.03842,0.0],[111.9793,-7.03648,0.0],[111.98138,-7.03653,0.0],[111.99326,-7.04279,0.0],[111.99979,-7.03681,0.0],[112.00565,-7.04056,0.0],[112.00864,-7.03969,0.0],[112.01383,-7.04047,0.0],[112.01694,-7.04263,0.0],[112.02021,-7.03507,0.0],[112.02333,-7.03386,0.0],[112.02689,-7.03405,0.0],[112.03742,-7.03802,0.0],[112.04296,-7.03567,0.0],[112.04249,-7.03418,0.0],[112.04393,-7.03534,0.0],[112.0554,-7.03493,0.0],[112.05582,-7.0536,0.0],[112.05997,-7.05342,0.0],[112.05924,-7.05938,0.0],[112.06547,-7.05988,0.0],[112.06581,-7.05725,0.0],[112.06929,-7.05767,0.0],[112.07077,-7.05885,0.0],[112.07135,-7.0625,0.0],[112.07557,-7.0607,0.0],[112.07532,-7.0633,0.0],[112.07719,-7.06749,0.0],[112.06578,-7.07233,0.0],[112.05471,-7.0728,0.0],[112.05131,-7.0772,0.0],[112.04809,-7.07627,0.0],[112.04131,-7.08174,0.0],[112.03952,-7.07931,0.0],[112.0449,-7.07569,0.0],[112.04529,-7.07199,0.0],[112.04429,-7.07123,0.0],[112.0417,-7.07034,0.0],[112.03872,-7.07135,0.0],[112.03527,-7.0772,0.0],[112.03132,-7.07905,0.0],[112.02971,-7.07755,0.0],[112.02868,-7.07213,0.0],[112.02511,-7.06854,0.0],[112.02126,-7.06761,0.0],[112.0166,-7.06869,0.0],[112.0154,-7.07439,0.0],[112.02026,-7.08283,0.0],[112.02041,-7.08736,0.0],[112.01785,-7.09096,0.0],[112.01296,-7.09373,0.0],[112.0063,-7.09343,0.0],[112.00628,-7.09581,0.0],[112.01265,-7.09894,0.0],[112.01443,-7.10216,0.0],[112.00552,-7.1054,0.0],[112.00323,-7.10925,0.0],[112.01115,-7.12747,0.0]]]}},{"type":"Feature","properties":{"kecamatan":"Widang","kab_kota":"Tuban"},"geometry":{"type":"Polygon","coordinates":[[[112.16436,-7.0994,0.0],[112.16238,-7.10783,0.0],[112.15926,-7.11039,0.0],[112.15642,-7.11048,0.0],[112.14623,-7.10673,0.0],[112.15134,-7.10353,0.0],[112.1512,-7.10077,0.0],[112.147,-7.10151,0.0],[112.14429,-7.10628,0.0],[112.13363,-7.09802,0.0],[112.13065,-7.097,0.0],[112.12972,-7.09381,0.0],[112.13055,-7.09226,0.0],[112.13799,-7.08934,0.0],[112.13774,-7.08752,0.0],[112.14011,-7.0855,0.0],[112.14355,-7.08572,0.0],[112.14309,-7.07946,0.0],[112.14499,-7.0751,0.0],[112.14693,-7.07511,0.0],[112.14808,-7.06871,0.0],[112.15042,-7.06596,0.0],[112.14958,-7.06375,0.0],[112.15142,-7.06411,0.0],[112.15134,-7.06005,0.0],[112.15552,-7.05945,0.0],[112.1571,-7.05755,0.0],[112.15259,-7.0489,0.0],[112.14633,-7.04136,0.0],[112.1437,-7.01619,0.0],[112.12097,-6.99255,0.0],[112.11783,-6.98768,0.0],[112.12025,-6.98325,0.0],[112.14321,-6.98258,0.0],[112.14584,-6.9799,0.0],[112.15493,-6.98147,0.0],[112.15504,-6.98238,0.0],[112.16585,-6.9831,0.0],[112.17544,-6.9793,0.0],[112.17456,-6.97684,0.0],[112.17761,-6.97454,0.0],[112.17569,-6.97348,0.0],[112.17628,-6.97128,0.0],[112.18347,-6.97328,0.0],[112.19243,-6.97356,0.0],[112.19708,-6.97066,0.0],[112.20593,-6.96898,0.0],[112.21304,-6.97913,0.0],[112.20957,-6.97967,0.0],[112.21088,-6.98561,0.0],[112.20975,-6.9967,0.0],[112.21398,-6.99924,0.0],[112.21164,-7.0018,0.0],[112.21187,-7.0047,0.0],[112.21457,-7.00944,0.0],[112.21079,-7.02057,0.0],[112.20409,-7.02589,0.0],[112.20333,-7.02942,0.0],[112.20735,-7.03413,0.0],[112.22246,-7.03734,0.0],[112.22088,-7.03928,0.0],[112.21719,-7.04055,0.0],[112.21576,-7.04294,0.0],[112.21526,-7.05472,0.0],[112.2188,-7.06592,0.0],[112.2182,-7.07079,0.0],[112.21661,-7.07484,0.0],[112.20832,-7.07368,0.0],[112.20365,-7.07448,0.0],[112.18983,-7.08438,0.0],[112.18814,-7.08317,0.0],[112.18385,-7.08346,0.0],[112.18493,-7.07632,0.0],[112.18338,-7.07462,0.0],[112.17932,-7.0751,0.0],[112.17446,-7.08619,0.0],[112.17699,-7.08842,0.0],[112.18218,-7.08778,0.0],[112.18387,-7.08872,0.0],[112.1795,-7.0959,0.0],[112.17604,-7.09933,0.0],[112.16865,-7.09741,0.0],[112.16436,-7.0994,0.0]]]}},{"type":"Feature","properties":{"kecamatan":"Plumpang","kab_kota":"Tuban"},"geometry":{"type":"Polygon","coordinates":[[[112.10876,-7.08702,0.0],[112.10014,-7.08842,0.0],[112.08563,-7.08557,0.0],[112.08406,-7.08228,0.0],[112.08345,-7.06637,0.0],[112.08088,-7.0658,0.0],[112.07719,-7.06749,0.0],[112.07532,-7.0633,0.0],[112.07557,-7.0607,0.0],[112.07135,-7.0625,0.0],[112.07077,-7.05885,0.0],[112.06875,-7.05748,0.0],[112.06581,-7.05725,0.0],[112.06547,-7.05988,0.0],[112.05924,-7.05938,0.0],[112.05997,-7.05342,0.0],[112.05582,-7.0536,0.0],[112.0554,-7.03493,0.0],[112.06375,-7.03244,0.0],[112.06256,-7.02763,0.0],[112.05587,-7.0172,0.0],[112.06594,-7.01659,0.0],[112.07172,-7.02038,0.0],[112.07156,-7.02501,0.0],[112.07727,-7.02399,0.0],[112.07941,-7.02641,0.0],[112.08395,-7.01539,0.0],[112.09068,-7.00993,0.0],[112.09267,-7.00662,0.0],[112.09279,-7.00306,0.0],[112.09513,-7.00127,0.0],[112.09502,-6.9994,0.0],[112.09167,-6.99634,0.0],[112.0875,-6.99593,0.0],[112.08579,-6.9929,0.0],[112.08792,-6.99106,0.0],[112.08959,-6.98337,0.0],[112.11154,-6.98248,0.0],[112.11478,-6.98357,0.0],[112.12025,-6.98325,0.0],[112.11775,-6.98809,0.0],[112.11943,-6.99059,0.0],[112.14382,-7.01642,0.0],[112.14633,-7.04136,0.0],[112.15259,-7.0489,0.0],[112.1571,-7.05755,0.0],[112.15552,-7.05945,0.0],[112.15134,-7.06005,0.0],[112.15142,-7.06411,0.0],[112.14958,-7.06375,0.0],[112.15042,-7.06596,0.0],[112.14808,-7.06871,0.0],[112.14693,-7.07511,0.0],[112.14499,-7.0751,0.0],[112.14309,-7.07946,0.0],[112.14355,-7.08572,0.0],[112.14011,-7.0855,0.0],[112.13774,-7.08752,0.0],[112.13799,-7.08934,0.0],[112.12973,-7.0931,0.0],[112.13065,-7.097,0.0],[112.12712,-7.09953,0.0],[112.12754,-7.10583,0.0],[112.12618,-7.10775,0.0],[112.12325,-7.10837,0.0],[112.12086,-7.10658,0.0],[112.11742,-7.09758,0.0],[112.11853,-7.09529,0.0],[112.124,-7.09224,0.0],[112.12457,-7.08944,0.0],[112.12161,-7.08838,0.0],[112.11524,-7.08953,0.0],[112.10876,-7.08702,0.0]]]}},{"type":"Feature","properties":{"kecamatan":"Palang","kab_kota":"Tuban"},"geometry":{"type":"Polygon","coordinates":[[[112.12887,-6.95286,0.0],[112.12519,-6.95194,0.0],[112.1265,-6.94324,0.0],[112.11003,-6.93724,0.0],[112.10171,-6.93691,0.0],[112.09267,-6.93355,0.0],[112.09465,-6.92748,0.0],[112.09256,-6.92113,0.0],[112.08859,-6.91371,0.0],[112.08152,-6.90779,0.0],[112.07919,-6.89689,0.0],[112.08104,-6.89699,0.0],[112.08153,-6.89545,0.0],[112.08398,-6.89658,0.0],[112.08748,-6.89401,0.0],[112.10307,-6.89642,0.0],[112.10537,-6.89494,0.0],[112.11704,-6.90018,0.0],[112.11806,-6.89905,0.0],[112.11777,-6.90013,0.0],[112.12338,-6.90259,0.0],[112.12997,-6.90246,0.0],[112.13047,-6.90218,0.0],[112.13059,-6.90117,0.0],[112.13086,-6.90083,0.0],[112.13187,-6.90216,0.0],[112.14274,-6.90112,0.0],[112.14255,-6.89677,0.0],[112.14312,-6.89534,0.0],[112.14358,-6.89501,0.0],[112.14262,-6.89678,0.0],[112.14353,-6.90093,0.0],[112.14608,-6.89996,0.0],[112.14608,-6.89793,0.0],[112.14417,-6.89588,0.0],[112.14629,-6.89795,0.0],[112.1483,-6.89718,0.0],[112.14949,-6.89808,0.0],[112.15122,-6.89673,0.0],[112.15364,-6.89826,0.0],[112.15387,-6.89711,0.0],[112.15672,-6.89787,0.0],[112.15807,-6.89649,0.0],[112.15716,-6.89795,0.0],[112.1578,-6.89739,0.0],[112.15799,-6.89854,0.0],[112.15891,-6.89716,0.0],[112.16,-6.89886,0.0],[112.16694,-6.89875,0.0],[112.16879,-6.89728,0.0],[112.16842,-6.89412,0.0],[112.16904,-6.89298,0.0],[112.16896,-6.89737,0.0],[112.17044,-6.89731,0.0],[112.1697,-6.89291,0.0],[112.17214,-6.90272,0.0],[112.17535,-6.90214,0.0],[112.17898,-6.90508,0.0],[112.18084,-6.91059,0.0],[112.17968,-6.91206,0.0],[112.18036,-6.91315,0.0],[112.18324,-6.91206,0.0],[112.18278,-6.91407,0.0],[112.18375,-6.91489,0.0],[112.1868,-6.91179,0.0],[112.1895,-6.91193,0.0],[112.19377,-6.91448,0.0],[112.19496,-6.91264,0.0],[112.19882,-6.91283,0.0],[112.203,-6.9183,0.0],[112.20239,-6.94478,0.0],[112.20593,-6.96898,0.0],[112.19708,-6.97066,0.0],[112.19243,-6.97356,0.0],[112.18347,-6.97328,0.0],[112.17628,-6.97128,0.0],[112.17569,-6.97348,0.0],[112.17761,-6.97454,0.0],[112.17456,-6.97684,0.0],[112.17544,-6.9793,0.0],[112.16585,-6.9831,0.0],[112.15504,-6.98238,0.0],[112.15493,-6.98147,0.0],[112.14584,-6.9799,0.0],[112.14468,-6.98218,0.0],[112.13918,-6.98272,0.0],[112.13441,-6.978,0.0],[112.13365,-6.9709,0.0],[112.13035,-6.96824,0.0],[112.12746,-6.96206,0.0],[112.12887,-6.95286,0.0]]]}},{"type":"Feature","properties":{"kecamatan":"Grabagan","kab_kota":"Tuban"},"geometry":{"type":"Polygon","coordinates":[[[111.95584,-7.04969,0.0],[111.94538,-7.05051,0.0],[111.93673,-7.04733,0.0],[111.93368,-7.05036,0.0],[111.93142,-7.04989,0.0],[111.9333,-7.04449,0.0],[111.9316,-7.04139,0.0],[111.93291,-7.03616,0.0],[111.92957,-7.03075,0.0],[111.93051,-7.0273,0.0],[111.93689,-7.02254,0.0],[111.93924,-7.01888,0.0],[111.95631,-7.01561,0.0],[111.95679,-7.01107,0.0],[111.95296,-7.0034,0.0],[111.95228,-6.9972,0.0],[111.94559,-6.99737,0.0],[111.94285,-6.99464,0.0],[111.94753,-6.98989,0.0],[111.95121,-6.98873,0.0],[111.95314,-6.98451,0.0],[111.95695,-6.98183,0.0],[111.95647,-6.97628,0.0],[111.95805,-6.96603,0.0],[111.95721,-6.9609,0.0],[111.96195,-6.95452,0.0],[111.96586,-6.95282,0.0],[111.97109,-6.95746,0.0],[111.9724,-6.96339,0.0],[111.97618,-6.96359,0.0],[111.98192,-6.96841,0.0],[111.98809,-6.96952,0.0],[111.99144,-6.97418,0.0],[111.99435,-6.9693,0.0],[111.99923,-6.96502,0.0],[112.00407,-6.96327,0.0],[112.01015,-6.96512,0.0],[112.01435,-6.96826,0.0],[112.02223,-6.98105,0.0],[112.02875,-6.986,0.0],[112.03673,-6.98586,0.0],[112.04178,-6.9829,0.0],[112.05964,-6.98384,0.0],[112.05473,-6.98774,0.0],[112.04823,-6.99702,0.0],[112.04747,-6.99886,0.0],[112.04895,-7.00804,0.0],[112.04434,-7.01117,0.0],[112.04101,-7.0162,0.0],[112.04062,-7.01975,0.0],[112.05392,-7.02044,0.0],[112.05681,-7.01905,0.0],[112.06256,-7.02763,0.0],[112.06355,-7.03259,0.0],[112.05106,-7.03526,0.0],[112.04393,-7.03534,0.0],[112.04249,-7.03418,0.0],[112.04296,-7.03567,0.0],[112.03742,-7.03802,0.0],[112.02689,-7.03405,0.0],[112.02333,-7.03386,0.0],[112.02021,-7.03507,0.0],[112.01694,-7.04263,0.0],[112.01383,-7.04047,0.0],[112.00864,-7.03969,0.0],[112.00565,-7.04056,0.0],[111.99979,-7.03681,0.0],[111.99274,-7.04278,0.0],[111.98332,-7.03697,0.0],[111.97969,-7.03639,0.0],[111.97663,-7.03842,0.0],[111.9702,-7.03866,0.0],[111.96942,-7.04848,0.0],[111.9652,-7.05658,0.0],[111.95584,-7.04969,0.0]]]}}]}