{"type":"FeatureCollection","features":[{"type":"Feature","properties":{"kecamatan":"Slahung","kab_kota":"Ponorogo"},"geometry":{"type":"Polygon","coordinates":[[[111.43562,-8.05462,0.0],[111.43902,-8.05851,0.0],[111.43145,-8.0622,0.0],[111.42089,-8.07396,0.0],[111.41843,-8.0741,0.0],[111.41552,-8.07648,0.0],[111.41024,-8.08423,0.0],[111.40718,-8.08408,0.0],[111.40698,-8.08269,0.0],[111.40504,-8.084,0.0],[111.39619,-8.08117,0.0],[111.39357,-8.08233,0.0],[111.39073,-8.07913,0.0],[111.38477,-8.08045,0.0],[111.38385,-8.07891,0.0],[111.37719,-8.07704,0.0],[111.37321,-8.07427,0.0],[111.37202,-8.07243,0.0],[111.37235,-8.06806,0.0],[111.37128,-8.06749,0.0],[111.36289,-8.06817,0.0],[111.36148,-8.06602,0.0],[111.35724,-8.06838,0.0],[111.351,-8.06877,0.0],[111.34636,-8.06633,0.0],[111.34908,-8.06417,0.0],[111.34906,-8.05985,0.0],[111.35042,-8.05871,0.0],[111.34922,-8.05625,0.0],[111.35044,-8.05642,0.0],[111.35297,-8.05355,0.0],[111.35377,-8.0492,0.0],[111.35754,-8.04701,0.0],[111.3647,-8.03445,0.0],[111.36706,-8.03303,0.0],[111.36637,-8.0303,0.0],[111.36452,-8.02892,0.0],[111.36179,-8.02964,0.0],[111.35825,-8.02591,0.0],[111.35991,-8.02159,0.0],[111.35989,-8.0145,0.0],[111.35427,-8.01055,0.0],[111.35136,-8.01224,0.0],[111.34949,-8.01167,0.0],[111.34808,-8.00756,0.0],[111.34384,-8.00639,0.0],[111.34989,-7.99517,0.0],[111.35008,-7.99058,0.0],[111.36154,-7.99293,0.0],[111.36595,-7.99051,0.0],[111.37659,-7.98932,0.0],[111.38092,-7.9841,0.0],[111.38358,-7.9838,0.0],[111.38503,-7.98195,0.0],[111.39333,-7.97992,0.0],[111.39415,-7.97839,0.0],[111.39756,-7.9781,0.0],[111.4042,-7.97416,0.0],[111.40552,-7.97461,0.0],[111.40737,-7.97243,0.0],[111.41065,-7.97234,0.0],[111.412,-7.96833,0.0],[111.41397,-7.96756,0.0],[111.41417,-7.96849,0.0],[111.41522,-7.96784,0.0],[111.41521,-7.96911,0.0],[111.41165,-7.97052,0.0],[111.41225,-7.97208,0.0],[111.41349,-7.97203,0.0],[111.41289,-7.97436,0.0],[111.41698,-7.97558,0.0],[111.4163,-7.97773,0.0],[111.41429,-7.97693,0.0],[111.41278,-7.97922,0.0],[111.41521,-7.97924,0.0],[111.41612,-7.98067,0.0],[111.41893,-7.97302,0.0],[111.42008,-7.97295,0.0],[111.41991,-7.96994,0.0],[111.42233,-7.96725,0.0],[111.422,-7.96137,0.0],[111.42352,-7.96146,0.0],[111.42368,-7.96259,0.0],[111.42327,-7.9713,0.0],[111.42533,-7.97402,0.0],[111.42549,-7.97784,0.0],[111.42667,-7.97793,0.0],[111.42767,-7.97586,0.0],[111.4263,-7.97563,0.0],[111.4269,-7.97272,0.0],[111.42974,-7.9736,0.0],[111.4294,-7.97053,0.0],[111.43339,-7.97266,0.0],[111.43396,-7.97129,0.0],[111.4384,-7.9703,0.0],[111.43789,-7.96734,0.0],[111.44006,-7.96561,0.0],[111.44534,-7.96518,0.0],[111.44567,-7.96257,0.0],[111.44926,-7.96231,0.0],[111.44843,-7.97204,0.0],[111.44596,-7.9748,0.0],[111.44898,-7.97663,0.0],[111.44866,-7.98012,0.0],[111.4477,-7.98007,0.0],[111.44693,-7.98259,0.0],[111.44362,-7.98221,0.0],[111.44209,-7.98425,0.0],[111.44323,-7.98472,0.0],[111.44274,-7.98782,0.0],[111.44145,-7.98812,0.0],[111.44009,-7.99141,0.0],[111.44222,-7.99171,0.0],[111.44259,-7.99782,0.0],[111.44137,-7.99971,0.0],[111.4388,-7.99937,0.0],[111.43922,-8.00109,0.0],[111.43734,-8.0014,0.0],[111.43846,-8.00329,0.0],[111.44093,-8.00288,0.0],[111.441,-8.00593,0.0],[111.43857,-8.00583,0.0],[111.43564,-8.00766,0.0],[111.43547,-8.01582,0.0],[111.43285,-8.01789,0.0],[111.43318,-8.02125,0.0],[111.43142,-8.02365,0.0],[111.43004,-8.02966,0.0],[111.43333,-8.03185,0.0],[111.43475,-8.03676,0.0],[111.43747,-8.03791,0.0],[111.43347,-8.04913,0.0],[111.43562,-8.05462,0.0]]]}},{"type":"Feature","properties":{"kecamatan":"Ngrayun","kab_kota":"Ponorogo"},"geometry":{"type":"Polygon","coordinates":[[[111.43783,-8.16323,0.0],[111.43399,-8.16896,0.0],[111.4314,-8.17038,0.0],[111.42711,-8.17095,0.0],[111.42266,-8.16943,0.0],[111.4212,-8.17165,0.0],[111.41748,-8.16881,0.0],[111.41567,-8.17184,0.0],[111.41109,-8.17097,0.0],[111.40555,-8.17265,0.0],[111.398,-8.1667,0.0],[111.39797,-8.16464,0.0],[111.3956,-8.16486,0.0],[111.3947,-8.16323,0.0],[111.39352,-8.16343,0.0],[111.39324,-8.15948,0.0],[111.38946,-8.15862,0.0],[111.38468,-8.15999,0.0],[111.38299,-8.16108,0.0],[111.38203,-8.16424,0.0],[111.38035,-8.16327,0.0],[111.37768,-8.15975,0.0],[111.37896,-8.1577,0.0],[111.37595,-8.15537,0.0],[111.37676,-8.15451,0.0],[111.38001,-8.15513,0.0],[111.38046,-8.1536,0.0],[111.37839,-8.15104,0.0],[111.38139,-8.14848,0.0],[111.37965,-8.14834,0.0],[111.38075,-8.14562,0.0],[111.3791,-8.14453,0.0],[111.38077,-8.14381,0.0],[111.37874,-8.14108,0.0],[111.37998,-8.14029,0.0],[111.37989,-8.13651,0.0],[111.37822,-8.13538,0.0],[111.37627,-8.13609,0.0],[111.3743,-8.13272,0.0],[111.37185,-8.13284,0.0],[111.37059,-8.13082,0.0],[111.36879,-8.13086,0.0],[111.36799,-8.12571,0.0],[111.36915,-8.12627,0.0],[111.37001,-8.12425,0.0],[111.36851,-8.12153,0.0],[111.36248,-8.12122,0.0],[111.36086,-8.11883,0.0],[111.35881,-8.12015,0.0],[111.35717,-8.11923,0.0],[111.35587,-8.12073,0.0],[111.35511,-8.11616,0.0],[111.35283,-8.11683,0.0],[111.34721,-8.11416,0.0],[111.3464,-8.10857,0.0],[111.34772,-8.10723,0.0],[111.35584,-8.10442,0.0],[111.35977,-8.10622,0.0],[111.36248,-8.09962,0.0],[111.36159,-8.09498,0.0],[111.35805,-8.0916,0.0],[111.35946,-8.0881,0.0],[111.35441,-8.08891,0.0],[111.35449,-8.08487,0.0],[111.35176,-8.08628,0.0],[111.34886,-8.08416,0.0],[111.35434,-8.08099,0.0],[111.3545,-8.07903,0.0],[111.35313,-8.07714,0.0],[111.34889,-8.07662,0.0],[111.34636,-8.06633,0.0],[111.351,-8.06877,0.0],[111.35724,-8.06838,0.0],[111.36148,-8.06602,0.0],[111.36289,-8.06817,0.0],[111.37128,-8.06749,0.0],[111.37235,-8.06806,0.0],[111.37202,-8.07243,0.0],[111.37321,-8.07427,0.0],[111.37719,-8.07704,0.0],[111.38385,-8.07891,0.0],[111.38477,-8.08045,0.0],[111.39073,-8.07913,0.0],[111.39357,-8.08233,0.0],[111.39619,-8.08117,0.0],[111.40504,-8.084,0.0],[111.40698,-8.08269,0.0],[111.40718,-8.08408,0.0],[111.41024,-8.08423,0.0],[111.41552,-8.07648,0.0],[111.41843,-8.0741,0.0],[111.42089,-8.07396,0.0],[111.43145,-8.0622,0.0],[111.44014,-8.05759,0.0],[111.45317,-8.05914,0.0],[111.45469,-8.06341,0.0],[111.45687,-8.06428,0.0],[111.47366,-8.06355,0.0],[111.47391,-8.06184,0.0],[111.47691,-8.05966,0.0],[111.48159,-8.05934,0.0],[111.48275,-8.05609,0.0],[111.49237,-8.05385,0.0],[111.49458,-8.05033,0.0],[111.49862,-8.0482,0.0],[111.50924,-8.0508,0.0],[111.51226,-8.04729,0.0],[111.5181,-8.04569,0.0],[111.51947,-8.04657,0.0],[111.52045,-8.05276,0.0],[111.5244,-8.05367,0.0],[111.52735,-8.05769,0.0],[111.5338,-8.05935,0.0],[111.53367,-8.0627,0.0],[111.53509,-8.06237,0.0],[111.53739,-8.06467,0.0],[111.54117,-8.06386,0.0],[111.54322,-8.0656,0.0],[111.54135,-8.07036,0.0],[111.53468,-8.07329,0.0],[111.52954,-8.07714,0.0],[111.52687,-8.08106,0.0],[111.5279,-8.08899,0.0],[111.5257,-8.09238,0.0],[111.52894,-8.10219,0.0],[111.52787,-8.10736,0.0],[111.5258,-8.10726,0.0],[111.52455,-8.10942,0.0],[111.52108,-8.11075,0.0],[111.51959,-8.10886,0.0],[111.51621,-8.10973,0.0],[111.50732,-8.10637,0.0],[111.50408,-8.11126,0.0],[111.50051,-8.11124,0.0],[111.4996,-8.11268,0.0],[111.48688,-8.10815,0.0],[111.48328,-8.10846,0.0],[111.48236,-8.11406,0.0],[111.48012,-8.11511,0.0],[111.47943,-8.11723,0.0],[111.48158,-8.1223,0.0],[111.4834,-8.12318,0.0],[111.48304,-8.12589,0.0],[111.47952,-8.12809,0.0],[111.48118,-8.13282,0.0],[111.4808,-8.13601,0.0],[111.47597,-8.14605,0.0],[111.47377,-8.15314,0.0],[111.47456,-8.15758,0.0],[111.47316,-8.15814,0.0],[111.47371,-8.1648,0.0],[111.47867,-8.16576,0.0],[111.47741,-8.17313,0.0],[111.46495,-8.17552,0.0],[111.45856,-8.16878,0.0],[111.45523,-8.16751,0.0],[111.45042,-8.16873,0.0],[111.44898,-8.16657,0.0],[111.43956,-8.16564,0.0],[111.43783,-8.16323,0.0]]]}},{"type":"Feature","properties":{"kecamatan":"Sawoo","kab_kota":"Ponorogo"},"geometry":{"type":"Polygon","coordinates":[[[111.57486,-8.03957,0.0],[111.57327,-8.04795,0.0],[111.56851,-8.04892,0.0],[111.56486,-8.04799,0.0],[111.56308,-8.04968,0.0],[111.56098,-8.04889,0.0],[111.55664,-8.05,0.0],[111.55424,-8.04893,0.0],[111.55061,-8.04391,0.0],[111.54553,-8.0413,0.0],[111.54318,-8.04081,0.0],[111.53878,-8.0425,0.0],[111.54085,-8.03893,0.0],[111.53986,-8.0366,0.0],[111.53854,-8.03685,0.0],[111.53964,-8.03241,0.0],[111.53726,-8.02686,0.0],[111.53712,-8.02265,0.0],[111.53996,-8.00702,0.0],[111.53477,-8.00409,0.0],[111.53198,-7.97973,0.0],[111.52943,-7.97961,0.0],[111.52953,-7.97087,0.0],[111.52307,-7.97103,0.0],[111.52291,-7.96807,0.0],[111.52158,-7.96831,0.0],[111.52127,-7.96611,0.0],[111.51877,-7.96601,0.0],[111.5188,-7.96352,0.0],[111.527,-7.96378,0.0],[111.53077,-7.96489,0.0],[111.53082,-7.9664,0.0],[111.53596,-7.96686,0.0],[111.53608,-7.96894,0.0],[111.53835,-7.97107,0.0],[111.5411,-7.97045,0.0],[111.54164,-7.96388,0.0],[111.54461,-7.96268,0.0],[111.54556,-7.96388,0.0],[111.54525,-7.96147,0.0],[111.5476,-7.96174,0.0],[111.54772,-7.96043,0.0],[111.53899,-7.95959,0.0],[111.53816,-7.95476,0.0],[111.53185,-7.9571,0.0],[111.53126,-7.95195,0.0],[111.53222,-7.95073,0.0],[111.53042,-7.94932,0.0],[111.52929,-7.94394,0.0],[111.53379,-7.94327,0.0],[111.53246,-7.93954,0.0],[111.53451,-7.93694,0.0],[111.53625,-7.93758,0.0],[111.54288,-7.93379,0.0],[111.54446,-7.93427,0.0],[111.548,-7.93186,0.0],[111.55071,-7.93175,0.0],[111.55218,-7.92617,0.0],[111.55563,-7.92715,0.0],[111.55902,-7.92495,0.0],[111.56105,-7.92572,0.0],[111.56639,-7.92351,0.0],[111.56812,-7.9244,0.0],[111.57175,-7.9184,0.0],[111.57245,-7.92184,0.0],[111.58067,-7.93001,0.0],[111.59245,-7.93163,0.0],[111.59246,-7.93689,0.0],[111.59512,-7.93331,0.0],[111.59822,-7.93293,0.0],[111.60008,-7.93313,0.0],[111.60032,-7.93452,0.0],[111.60337,-7.93374,0.0],[111.6059,-7.93599,0.0],[111.6065,-7.93463,0.0],[111.60822,-7.93609,0.0],[111.61069,-7.93571,0.0],[111.61132,-7.93728,0.0],[111.61267,-7.9351,0.0],[111.61521,-7.93719,0.0],[111.61753,-7.93659,0.0],[111.62258,-7.93864,0.0],[111.62563,-7.94125,0.0],[111.62599,-7.94287,0.0],[111.62419,-7.94502,0.0],[111.62615,-7.94971,0.0],[111.62589,-7.95521,0.0],[111.62823,-7.95861,0.0],[111.6326,-7.95814,0.0],[111.63581,-7.95587,0.0],[111.6389,-7.95696,0.0],[111.63881,-7.95861,0.0],[111.64131,-7.96081,0.0],[111.64831,-7.96014,0.0],[111.65902,-7.96777,0.0],[111.66262,-7.96713,0.0],[111.6635,-7.96813,0.0],[111.66163,-7.97129,0.0],[111.66223,-7.97414,0.0],[111.66083,-7.97553,0.0],[111.65641,-7.97579,0.0],[111.65369,-7.98162,0.0],[111.65367,-7.98644,0.0],[111.65686,-7.98998,0.0],[111.65558,-7.99081,0.0],[111.65631,-7.99635,0.0],[111.65435,-8.00108,0.0],[111.65574,-8.00436,0.0],[111.65565,-8.01131,0.0],[111.65319,-8.02058,0.0],[111.65064,-8.02214,0.0],[111.64816,-8.0209,0.0],[111.64686,-8.01546,0.0],[111.64847,-8.00743,0.0],[111.64771,-8.00378,0.0],[111.64544,-8.00319,0.0],[111.64429,-8.00485,0.0],[111.64145,-8.00535,0.0],[111.63611,-8.00215,0.0],[111.63254,-8.00479,0.0],[111.63108,-8.00754,0.0],[111.62592,-8.01092,0.0],[111.62318,-8.0065,0.0],[111.61177,-8.01167,0.0],[111.60637,-8.01607,0.0],[111.60778,-8.01816,0.0],[111.60627,-8.01935,0.0],[111.59713,-8.01871,0.0],[111.59625,-8.01754,0.0],[111.59046,-8.01938,0.0],[111.58668,-8.02361,0.0],[111.58273,-8.02572,0.0],[111.57679,-8.03858,0.0],[111.57486,-8.03957,0.0]]]}},{"type":"Feature","properties":{"kecamatan":"Sooko","kab_kota":"Ponorogo"},"geometry":{"type":"Polygon","coordinates":[[[111.65572,-7.94072,0.0],[111.64713,-7.9538,0.0],[111.64831,-7.96014,0.0],[111.64131,-7.96081,0.0],[111.63881,-7.95861,0.0],[111.6389,-7.95696,0.0],[111.63581,-7.95587,0.0],[111.6326,-7.95814,0.0],[111.62823,-7.95861,0.0],[111.62589,-7.95521,0.0],[111.62615,-7.94971,0.0],[111.62419,-7.94502,0.0],[111.62599,-7.94287,0.0],[111.62531,-7.94068,0.0],[111.61753,-7.93659,0.0],[111.61444,-7.93685,0.0],[111.61267,-7.9351,0.0],[111.61132,-7.93728,0.0],[111.61084,-7.93578,0.0],[111.60822,-7.93609,0.0],[111.6065,-7.93463,0.0],[111.60599,-7.93595,0.0],[111.60476,-7.93571,0.0],[111.60337,-7.93374,0.0],[111.60032,-7.93452,0.0],[111.60026,-7.92601,0.0],[111.60394,-7.92568,0.0],[111.60352,-7.92315,0.0],[111.60641,-7.92246,0.0],[111.60766,-7.91932,0.0],[111.61616,-7.91707,0.0],[111.61752,-7.91151,0.0],[111.6197,-7.91149,0.0],[111.62254,-7.90718,0.0],[111.6266,-7.90486,0.0],[111.62745,-7.90617,0.0],[111.63109,-7.9038,0.0],[111.62973,-7.90146,0.0],[111.63112,-7.90051,0.0],[111.63425,-7.9007,0.0],[111.63745,-7.89778,0.0],[111.64684,-7.8986,0.0],[111.64646,-7.89661,0.0],[111.648,-7.89472,0.0],[111.65133,-7.89316,0.0],[111.65261,-7.8942,0.0],[111.65413,-7.89172,0.0],[111.65625,-7.89243,0.0],[111.65868,-7.89036,0.0],[111.66205,-7.89087,0.0],[111.66284,-7.88902,0.0],[111.66489,-7.88825,0.0],[111.66465,-7.88657,0.0],[111.66605,-7.88724,0.0],[111.66623,-7.88495,0.0],[111.66853,-7.88327,0.0],[111.67569,-7.88582,0.0],[111.67416,-7.88941,0.0],[111.67602,-7.89039,0.0],[111.68477,-7.88856,0.0],[111.68799,-7.8901,0.0],[111.69614,-7.88822,0.0],[111.69686,-7.89139,0.0],[111.701,-7.89644,0.0],[111.69914,-7.89959,0.0],[111.70497,-7.90201,0.0],[111.70545,-7.90422,0.0],[111.70675,-7.9043,0.0],[111.70671,-7.90646,0.0],[111.70121,-7.91543,0.0],[111.69426,-7.91813,0.0],[111.69236,-7.92159,0.0],[111.69306,-7.92652,0.0],[111.69025,-7.93052,0.0],[111.67768,-7.94036,0.0],[111.66783,-7.94459,0.0],[111.6634,-7.94326,0.0],[111.65928,-7.94514,0.0],[111.65572,-7.94072,0.0]]]}},{"type":"Feature","properties":{"kecamatan":"Bungkal","kab_kota":"Ponorogo"},"geometry":{"type":"Polygon","coordinates":[[[111.47845,-8.05924,0.0],[111.47391,-8.06184,0.0],[111.47366,-8.06355,0.0],[111.45687,-8.06428,0.0],[111.45469,-8.06341,0.0],[111.45317,-8.05914,0.0],[111.44227,-8.05741,0.0],[111.43902,-8.05851,0.0],[111.43413,-8.05263,0.0],[111.43347,-8.04913,0.0],[111.43747,-8.03791,0.0],[111.43475,-8.03676,0.0],[111.43333,-8.03185,0.0],[111.43004,-8.02966,0.0],[111.43142,-8.02365,0.0],[111.43318,-8.02125,0.0],[111.43285,-8.01789,0.0],[111.43547,-8.01582,0.0],[111.43564,-8.00766,0.0],[111.43857,-8.00583,0.0],[111.441,-8.00593,0.0],[111.44093,-8.00288,0.0],[111.43846,-8.00329,0.0],[111.43734,-8.0014,0.0],[111.43922,-8.00109,0.0],[111.4388,-7.99937,0.0],[111.44137,-7.99971,0.0],[111.44259,-7.99782,0.0],[111.44222,-7.99171,0.0],[111.44009,-7.99141,0.0],[111.44145,-7.98812,0.0],[111.44274,-7.98782,0.0],[111.44323,-7.98472,0.0],[111.44206,-7.98456,0.0],[111.44209,-7.98425,0.0],[111.44362,-7.98221,0.0],[111.44693,-7.98259,0.0],[111.4477,-7.98007,0.0],[111.44866,-7.98012,0.0],[111.44898,-7.97663,0.0],[111.44598,-7.97457,0.0],[111.44784,-7.97386,0.0],[111.44939,-7.96124,0.0],[111.45122,-7.96139,0.0],[111.45158,-7.95946,0.0],[111.45228,-7.962,0.0],[111.45102,-7.96499,0.0],[111.45325,-7.96565,0.0],[111.45267,-7.9682,0.0],[111.45369,-7.96925,0.0],[111.45492,-7.96939,0.0],[111.45585,-7.96542,0.0],[111.45704,-7.9654,0.0],[111.45846,-7.96576,0.0],[111.45853,-7.96777,0.0],[111.46327,-7.96842,0.0],[111.46311,-7.96759,0.0],[111.46482,-7.96893,0.0],[111.46864,-7.96847,0.0],[111.46963,-7.96671,0.0],[111.47629,-7.96729,0.0],[111.47599,-7.97083,0.0],[111.48283,-7.97224,0.0],[111.4839,-7.9697,0.0],[111.48449,-7.97187,0.0],[111.48938,-7.97232,0.0],[111.48914,-7.97598,0.0],[111.4877,-7.97567,0.0],[111.48777,-7.97879,0.0],[111.48537,-7.97864,0.0],[111.48519,-7.98211,0.0],[111.48994,-7.98315,0.0],[111.48839,-7.99421,0.0],[111.49157,-7.99634,0.0],[111.49375,-8.00131,0.0],[111.49424,-8.00827,0.0],[111.49161,-8.01299,0.0],[111.49498,-8.02188,0.0],[111.49152,-8.02608,0.0],[111.49246,-8.02561,0.0],[111.49174,-8.02917,0.0],[111.49323,-8.02828,0.0],[111.49349,-8.03066,0.0],[111.4903,-8.04179,0.0],[111.48983,-8.04841,0.0],[111.49087,-8.05169,0.0],[111.49376,-8.05212,0.0],[111.49037,-8.0546,0.0],[111.48275,-8.05609,0.0],[111.48159,-8.05934,0.0],[111.47845,-8.05924,0.0]]]}},{"type":"Feature","properties":{"kecamatan":"Sambit","kab_kota":"Ponorogo"},"geometry":{"type":"Polygon","coordinates":[[[111.53726,-8.02686,0.0],[111.53964,-8.03241,0.0],[111.53854,-8.03685,0.0],[111.53986,-8.0366,0.0],[111.54085,-8.03893,0.0],[111.53878,-8.0425,0.0],[111.54318,-8.04081,0.0],[111.54702,-8.04184,0.0],[111.55061,-8.04391,0.0],[111.55424,-8.04893,0.0],[111.55738,-8.04978,0.0],[111.55649,-8.05378,0.0],[111.55422,-8.05597,0.0],[111.55061,-8.05655,0.0],[111.54449,-8.05472,0.0],[111.54284,-8.05694,0.0],[111.53881,-8.05688,0.0],[111.5353,-8.0597,0.0],[111.53523,-8.06208,0.0],[111.53391,-8.06279,0.0],[111.5338,-8.05935,0.0],[111.52735,-8.05769,0.0],[111.5244,-8.05367,0.0],[111.52045,-8.05276,0.0],[111.5188,-8.04574,0.0],[111.51226,-8.04729,0.0],[111.50924,-8.0508,0.0],[111.49955,-8.04801,0.0],[111.49366,-8.05182,0.0],[111.49048,-8.05105,0.0],[111.4903,-8.04179,0.0],[111.49349,-8.03066,0.0],[111.49323,-8.02828,0.0],[111.49174,-8.02917,0.0],[111.49246,-8.02561,0.0],[111.49152,-8.02608,0.0],[111.49498,-8.02188,0.0],[111.49161,-8.01299,0.0],[111.49424,-8.00827,0.0],[111.49375,-8.00131,0.0],[111.49157,-7.99634,0.0],[111.48839,-7.99421,0.0],[111.48994,-7.98315,0.0],[111.48519,-7.98211,0.0],[111.48537,-7.97864,0.0],[111.48777,-7.97879,0.0],[111.4877,-7.97567,0.0],[111.48914,-7.97598,0.0],[111.48938,-7.97232,0.0],[111.48449,-7.97187,0.0],[111.4839,-7.9697,0.0],[111.48288,-7.97222,0.0],[111.47927,-7.97192,0.0],[111.47975,-7.96752,0.0],[111.48216,-7.96738,0.0],[111.48231,-7.96447,0.0],[111.48633,-7.96339,0.0],[111.48711,-7.95438,0.0],[111.49059,-7.95501,0.0],[111.4905,-7.95162,0.0],[111.4924,-7.95209,0.0],[111.49435,-7.94585,0.0],[111.49859,-7.94805,0.0],[111.49964,-7.95037,0.0],[111.50408,-7.95187,0.0],[111.50822,-7.95752,0.0],[111.51152,-7.95832,0.0],[111.51355,-7.95535,0.0],[111.51321,-7.95292,0.0],[111.51098,-7.95209,0.0],[111.51235,-7.94736,0.0],[111.51993,-7.94821,0.0],[111.52031,-7.95002,0.0],[111.52136,-7.94971,0.0],[111.52034,-7.94528,0.0],[111.51923,-7.94533,0.0],[111.51851,-7.94272,0.0],[111.51702,-7.94263,0.0],[111.5161,-7.93834,0.0],[111.51885,-7.93794,0.0],[111.51944,-7.94026,0.0],[111.52193,-7.93939,0.0],[111.52402,-7.94021,0.0],[111.52513,-7.93918,0.0],[111.52565,-7.94137,0.0],[111.52798,-7.9411,0.0],[111.52867,-7.94323,0.0],[111.53279,-7.94012,0.0],[111.53379,-7.94327,0.0],[111.52929,-7.94394,0.0],[111.53042,-7.94932,0.0],[111.53222,-7.95073,0.0],[111.53126,-7.95195,0.0],[111.53185,-7.9571,0.0],[111.53816,-7.95476,0.0],[111.53899,-7.95959,0.0],[111.54772,-7.96043,0.0],[111.5476,-7.96174,0.0],[111.54525,-7.96147,0.0],[111.54556,-7.96388,0.0],[111.54461,-7.96268,0.0],[111.54193,-7.96349,0.0],[111.54073,-7.96545,0.0],[111.5411,-7.97045,0.0],[111.53846,-7.97107,0.0],[111.53608,-7.96894,0.0],[111.53596,-7.96686,0.0],[111.53082,-7.9664,0.0],[111.53077,-7.96489,0.0],[111.527,-7.96378,0.0],[111.5188,-7.96352,0.0],[111.51877,-7.96601,0.0],[111.52127,-7.96611,0.0],[111.52158,-7.96831,0.0],[111.52291,-7.96807,0.0],[111.52307,-7.97103,0.0],[111.52953,-7.97087,0.0],[111.52943,-7.97961,0.0],[111.53198,-7.97973,0.0],[111.53477,-8.00409,0.0],[111.53897,-8.00556,0.0],[111.54001,-8.0072,0.0],[111.53766,-8.01618,0.0],[111.53726,-8.02686,0.0]]]}},{"type":"Feature","properties":{"kecamatan":"Jetis","kab_kota":"Ponorogo"},"geometry":{"type":"Polygon","coordinates":[[[111.48234,-7.96714,0.0],[111.47975,-7.96752,0.0],[111.47894,-7.97107,0.0],[111.47599,-7.97083,0.0],[111.47629,-7.96729,0.0],[111.46963,-7.96671,0.0],[111.46864,-7.96847,0.0],[111.46361,-7.96872,0.0],[111.46088,-7.96514,0.0],[111.46039,-7.95966,0.0],[111.45895,-7.95718,0.0],[111.46702,-7.95848,0.0],[111.46816,-7.95553,0.0],[111.46174,-7.95429,0.0],[111.46144,-7.95114,0.0],[111.45612,-7.94885,0.0],[111.45739,-7.94466,0.0],[111.45408,-7.94446,0.0],[111.45347,-7.94672,0.0],[111.45059,-7.94625,0.0],[111.45175,-7.94351,0.0],[111.4515,-7.93789,0.0],[111.44975,-7.93677,0.0],[111.45116,-7.93532,0.0],[111.45115,-7.93207,0.0],[111.454,-7.92838,0.0],[111.46008,-7.93045,0.0],[111.4614,-7.92843,0.0],[111.45998,-7.92806,0.0],[111.45943,-7.92375,0.0],[111.45458,-7.92374,0.0],[111.45418,-7.92235,0.0],[111.46359,-7.92199,0.0],[111.46372,-7.92077,0.0],[111.46545,-7.92054,0.0],[111.46555,-7.91633,0.0],[111.45674,-7.91527,0.0],[111.45606,-7.91676,0.0],[111.45463,-7.91159,0.0],[111.46579,-7.91331,0.0],[111.46518,-7.91133,0.0],[111.46379,-7.9113,0.0],[111.46381,-7.90904,0.0],[111.46568,-7.9069,0.0],[111.46676,-7.90728,0.0],[111.46716,-7.90561,0.0],[111.4691,-7.90645,0.0],[111.47052,-7.91045,0.0],[111.46859,-7.91689,0.0],[111.46981,-7.91831,0.0],[111.47164,-7.91796,0.0],[111.47177,-7.9192,0.0],[111.47428,-7.91935,0.0],[111.47237,-7.92138,0.0],[111.47305,-7.9233,0.0],[111.4757,-7.9232,0.0],[111.47505,-7.92626,0.0],[111.47752,-7.92552,0.0],[111.47674,-7.92749,0.0],[111.48023,-7.9297,0.0],[111.48327,-7.92858,0.0],[111.48411,-7.92584,0.0],[111.48577,-7.92665,0.0],[111.48554,-7.92794,0.0],[111.48846,-7.93145,0.0],[111.4957,-7.93078,0.0],[111.49855,-7.92916,0.0],[111.49995,-7.93125,0.0],[111.5047,-7.93174,0.0],[111.50405,-7.93849,0.0],[111.51017,-7.93939,0.0],[111.51078,-7.94226,0.0],[111.513,-7.94258,0.0],[111.51295,-7.94364,0.0],[111.51851,-7.94272,0.0],[111.52134,-7.94956,0.0],[111.52031,-7.95002,0.0],[111.51993,-7.94821,0.0],[111.51235,-7.94736,0.0],[111.51098,-7.95209,0.0],[111.51321,-7.95292,0.0],[111.51353,-7.9555,0.0],[111.51124,-7.95832,0.0],[111.50822,-7.95752,0.0],[111.50408,-7.95187,0.0],[111.49964,-7.95037,0.0],[111.49859,-7.94805,0.0],[111.49435,-7.94585,0.0],[111.4924,-7.95209,0.0],[111.4905,-7.95162,0.0],[111.49059,-7.95501,0.0],[111.48711,-7.95438,0.0],[111.48633,-7.96339,0.0],[111.48231,-7.96447,0.0],[111.48234,-7.96714,0.0]]]}},{"type":"Feature","properties":{"kecamatan":"Pulung","kab_kota":"Ponorogo"},"geometry":{"type":"Polygon","coordinates":[[[111.6266,-7.90486,0.0],[111.6197,-7.91149,0.0],[111.61752,-7.91151,0.0],[111.61616,-7.91707,0.0],[111.60766,-7.91932,0.0],[111.60641,-7.92246,0.0],[111.60352,-7.92315,0.0],[111.60394,-7.92568,0.0],[111.60026,-7.92601,0.0],[111.60007,-7.93313,0.0],[111.59512,-7.93331,0.0],[111.59298,-7.93687,0.0],[111.59245,-7.93163,0.0],[111.58067,-7.93001,0.0],[111.57285,-7.92236,0.0],[111.57154,-7.91925,0.0],[111.57267,-7.91514,0.0],[111.56897,-7.91727,0.0],[111.56814,-7.91578,0.0],[111.56534,-7.9153,0.0],[111.56624,-7.9103,0.0],[111.56314,-7.90984,0.0],[111.56063,-7.91193,0.0],[111.55708,-7.91266,0.0],[111.55696,-7.90595,0.0],[111.55222,-7.90175,0.0],[111.55869,-7.89814,0.0],[111.55872,-7.8955,0.0],[111.55988,-7.89454,0.0],[111.55572,-7.88957,0.0],[111.58319,-7.88359,0.0],[111.58007,-7.88153,0.0],[111.57525,-7.88128,0.0],[111.57205,-7.87717,0.0],[111.56689,-7.87817,0.0],[111.56329,-7.87433,0.0],[111.55617,-7.8727,0.0],[111.5561,-7.86961,0.0],[111.56078,-7.86782,0.0],[111.5614,-7.8652,0.0],[111.57366,-7.86378,0.0],[111.57193,-7.86096,0.0],[111.57393,-7.85989,0.0],[111.57593,-7.8552,0.0],[111.57422,-7.85445,0.0],[111.57494,-7.85286,0.0],[111.57314,-7.84856,0.0],[111.56891,-7.84684,0.0],[111.57004,-7.84549,0.0],[111.56892,-7.84418,0.0],[111.57252,-7.84587,0.0],[111.5781,-7.84565,0.0],[111.5855,-7.85076,0.0],[111.58893,-7.84455,0.0],[111.58592,-7.84098,0.0],[111.59567,-7.83834,0.0],[111.59906,-7.83197,0.0],[111.6014,-7.83004,0.0],[111.60231,-7.82529,0.0],[111.60397,-7.82348,0.0],[111.60567,-7.8225,0.0],[111.60741,-7.82533,0.0],[111.61296,-7.82555,0.0],[111.6206,-7.82114,0.0],[111.62533,-7.82006,0.0],[111.62937,-7.81992,0.0],[111.62894,-7.82173,0.0],[111.63332,-7.8246,0.0],[111.63231,-7.828,0.0],[111.63459,-7.83091,0.0],[111.64387,-7.83305,0.0],[111.65666,-7.83182,0.0],[111.66467,-7.83761,0.0],[111.67951,-7.8364,0.0],[111.68242,-7.83424,0.0],[111.68797,-7.83279,0.0],[111.69241,-7.82193,0.0],[111.68869,-7.81182,0.0],[111.69718,-7.80536,0.0],[111.70478,-7.80806,0.0],[111.70882,-7.80728,0.0],[111.71682,-7.8114,0.0],[111.7218,-7.81045,0.0],[111.72462,-7.80575,0.0],[111.72844,-7.80555,0.0],[111.73248,-7.80111,0.0],[111.73599,-7.80244,0.0],[111.75054,-7.7991,0.0],[111.75574,-7.80335,0.0],[111.76011,-7.81311,0.0],[111.75683,-7.82056,0.0],[111.75352,-7.82215,0.0],[111.75057,-7.82559,0.0],[111.74502,-7.82744,0.0],[111.73859,-7.82573,0.0],[111.73013,-7.82555,0.0],[111.71926,-7.82721,0.0],[111.71489,-7.83163,0.0],[111.71422,-7.83939,0.0],[111.70986,-7.84,0.0],[111.70909,-7.84305,0.0],[111.70558,-7.84624,0.0],[111.69907,-7.84798,0.0],[111.68615,-7.86222,0.0],[111.68846,-7.86444,0.0],[111.69125,-7.8648,0.0],[111.69081,-7.86672,0.0],[111.69224,-7.86768,0.0],[111.69131,-7.8704,0.0],[111.69222,-7.87043,0.0],[111.69104,-7.87359,0.0],[111.68265,-7.87726,0.0],[111.67833,-7.88225,0.0],[111.67634,-7.88092,0.0],[111.67292,-7.88345,0.0],[111.66849,-7.88329,0.0],[111.66623,-7.88495,0.0],[111.66605,-7.88724,0.0],[111.66465,-7.88657,0.0],[111.66489,-7.88825,0.0],[111.66284,-7.88902,0.0],[111.66205,-7.89087,0.0],[111.65868,-7.89036,0.0],[111.65625,-7.89243,0.0],[111.65413,-7.89172,0.0],[111.65261,-7.8942,0.0],[111.65133,-7.89316,0.0],[111.6481,-7.89465,0.0],[111.64646,-7.89661,0.0],[111.64684,-7.8986,0.0],[111.63728,-7.89782,0.0],[111.63425,-7.9007,0.0],[111.62973,-7.90146,0.0],[111.63109,-7.9038,0.0],[111.62752,-7.90614,0.0],[111.6266,-7.90486,0.0]]]}},{"type":"Feature","properties":{"kecamatan":"Mlarak","kab_kota":"Ponorogo"},"geometry":{"type":"Polygon","coordinates":[[[111.5161,-7.93834,0.0],[111.517,-7.94295,0.0],[111.51295,-7.94364,0.0],[111.513,-7.94258,0.0],[111.51078,-7.94226,0.0],[111.51017,-7.93939,0.0],[111.50405,-7.93849,0.0],[111.5047,-7.93174,0.0],[111.49995,-7.93125,0.0],[111.49855,-7.92916,0.0],[111.4957,-7.93078,0.0],[111.48846,-7.93145,0.0],[111.48554,-7.92794,0.0],[111.48577,-7.92665,0.0],[111.48411,-7.92584,0.0],[111.48305,-7.92876,0.0],[111.47977,-7.92943,0.0],[111.47899,-7.92824,0.0],[111.48282,-7.91714,0.0],[111.4774,-7.91732,0.0],[111.47671,-7.91471,0.0],[111.47321,-7.91429,0.0],[111.47205,-7.91292,0.0],[111.47222,-7.90752,0.0],[111.4747,-7.9077,0.0],[111.47496,-7.90928,0.0],[111.48461,-7.90983,0.0],[111.48427,-7.9125,0.0],[111.4931,-7.91402,0.0],[111.4935,-7.90711,0.0],[111.4925,-7.9071,0.0],[111.49226,-7.90888,0.0],[111.48553,-7.90828,0.0],[111.48708,-7.9029,0.0],[111.49296,-7.90345,0.0],[111.49273,-7.90444,0.0],[111.49455,-7.90398,0.0],[111.49484,-7.90521,0.0],[111.50516,-7.90579,0.0],[111.5132,-7.90491,0.0],[111.51337,-7.90308,0.0],[111.51626,-7.90299,0.0],[111.51892,-7.90544,0.0],[111.52649,-7.90642,0.0],[111.53519,-7.90393,0.0],[111.53436,-7.90223,0.0],[111.53655,-7.89834,0.0],[111.54478,-7.89584,0.0],[111.55077,-7.89604,0.0],[111.55061,-7.8939,0.0],[111.55421,-7.89202,0.0],[111.55892,-7.89263,0.0],[111.55988,-7.89454,0.0],[111.55872,-7.8955,0.0],[111.55869,-7.89814,0.0],[111.55225,-7.90187,0.0],[111.55696,-7.90595,0.0],[111.55708,-7.91266,0.0],[111.56441,-7.90993,0.0],[111.56661,-7.9111,0.0],[111.56649,-7.91324,0.0],[111.56482,-7.91375,0.0],[111.56649,-7.91608,0.0],[111.56814,-7.91578,0.0],[111.56897,-7.91727,0.0],[111.57267,-7.91514,0.0],[111.57216,-7.91889,0.0],[111.57082,-7.91877,0.0],[111.57095,-7.92101,0.0],[111.56812,-7.9244,0.0],[111.56639,-7.92351,0.0],[111.56105,-7.92572,0.0],[111.55902,-7.92495,0.0],[111.55563,-7.92715,0.0],[111.55218,-7.92617,0.0],[111.55071,-7.93175,0.0],[111.548,-7.93186,0.0],[111.54446,-7.93427,0.0],[111.54288,-7.93379,0.0],[111.53625,-7.93758,0.0],[111.53451,-7.93694,0.0],[111.53272,-7.94036,0.0],[111.52872,-7.94322,0.0],[111.52798,-7.9411,0.0],[111.52565,-7.94137,0.0],[111.52513,-7.93918,0.0],[111.52402,-7.94021,0.0],[111.52193,-7.93939,0.0],[111.51944,-7.94026,0.0],[111.51885,-7.93794,0.0],[111.51765,-7.93809,0.0],[111.5161,-7.93834,0.0]]]}},{"type":"Feature","properties":{"kecamatan":"Kauman","kab_kota":"Ponorogo"},"geometry":{"type":"MultiPolygon","coordinates":[[[[111.39175,-7.91118,0.0],[111.39016,-7.91588,0.0],[111.38881,-7.9157,0.0],[111.39016,-7.91137,0.0],[111.39175,-7.91118,0.0]]],[[[111.41296,-7.91067,0.0],[111.40889,-7.90999,0.0],[111.40885,-7.91156,0.0],[111.40272,-7.91028,0.0],[111.40078,-7.90598,0.0],[111.38731,-7.90563,0.0],[111.38939,-7.89754,0.0],[111.3932,-7.89773,0.0],[111.39325,-7.89347,0.0],[111.39453,-7.89263,0.0],[111.39377,-7.88985,0.0],[111.39234,-7.88909,0.0],[111.39214,-7.88499,0.0],[111.39651,-7.88588,0.0],[111.39748,-7.87876,0.0],[111.38877,-7.87959,0.0],[111.38873,-7.87686,0.0],[111.38688,-7.87657,0.0],[111.3872,-7.87391,0.0],[111.389,-7.87396,0.0],[111.389,-7.87176,0.0],[111.38864,-7.87066,0.0],[111.3862,-7.87049,0.0],[111.38641,-7.8663,0.0],[111.384,-7.86688,0.0],[111.38335,-7.86522,0.0],[111.37943,-7.86462,0.0],[111.37953,-7.86352,0.0],[111.37986,-7.86108,0.0],[111.39001,-7.86012,0.0],[111.38857,-7.85851,0.0],[111.38959,-7.8513,0.0],[111.39124,-7.85036,0.0],[111.39029,-7.8478,0.0],[111.39396,-7.84581,0.0],[111.40757,-7.84722,0.0],[111.40671,-7.85286,0.0],[111.40807,-7.85471,0.0],[111.40641,-7.85672,0.0],[111.40867,-7.85714,0.0],[111.41029,-7.85604,0.0],[111.41003,-7.85871,0.0],[111.41944,-7.85935,0.0],[111.41982,-7.85651,0.0],[111.42566,-7.85691,0.0],[111.42558,-7.85862,0.0],[111.4276,-7.85984,0.0],[111.42697,-7.86583,0.0],[111.41955,-7.86612,0.0],[111.41947,-7.86826,0.0],[111.42596,-7.8694,0.0],[111.42588,-7.87104,0.0],[111.4239,-7.87148,0.0],[111.42393,-7.87418,0.0],[111.42577,-7.87428,0.0],[111.42555,-7.88176,0.0],[111.43384,-7.87987,0.0],[111.43428,-7.88768,0.0],[111.43289,-7.88761,0.0],[111.43126,-7.89616,0.0],[111.43292,-7.89644,0.0],[111.4334,-7.89454,0.0],[111.43765,-7.89617,0.0],[111.43861,-7.89286,0.0],[111.44259,-7.8942,0.0],[111.44313,-7.89119,0.0],[111.44789,-7.8907,0.0],[111.44838,-7.88936,0.0],[111.45332,-7.88707,0.0],[111.45643,-7.89068,0.0],[111.454,-7.89273,0.0],[111.45391,-7.89506,0.0],[111.45505,-7.896,0.0],[111.45375,-7.897,0.0],[111.45454,-7.90636,0.0],[111.44895,-7.90596,0.0],[111.44735,-7.9073,0.0],[111.44743,-7.9113,0.0],[111.44526,-7.91217,0.0],[111.44544,-7.91771,0.0],[111.43871,-7.91625,0.0],[111.44051,-7.90949,0.0],[111.43653,-7.90768,0.0],[111.43108,-7.91152,0.0],[111.42757,-7.91193,0.0],[111.4227,-7.92004,0.0],[111.41871,-7.92089,0.0],[111.41353,-7.91852,0.0],[111.41518,-7.91692,0.0],[111.41553,-7.91336,0.0],[111.41297,-7.91296,0.0],[111.41296,-7.91067,0.0]]]]}},{"type":"Feature","properties":{"kecamatan":"Badegan","kab_kota":"Ponorogo"},"geometry":{"type":"Polygon","coordinates":[[[111.32256,-7.92989,0.0],[111.32162,-7.93214,0.0],[111.31919,-7.93294,0.0],[111.31641,-7.93653,0.0],[111.31387,-7.93499,0.0],[111.30918,-7.93536,0.0],[111.29866,-7.94062,0.0],[111.28668,-7.93909,0.0],[111.28628,-7.92078,0.0],[111.27996,-7.91865,0.0],[111.27924,-7.91531,0.0],[111.28238,-7.90807,0.0],[111.28616,-7.90502,0.0],[111.28521,-7.90209,0.0],[111.28848,-7.89191,0.0],[111.29716,-7.87693,0.0],[111.29486,-7.87369,0.0],[111.29296,-7.86515,0.0],[111.2962,-7.85825,0.0],[111.30019,-7.85778,0.0],[111.30603,-7.8546,0.0],[111.31177,-7.85493,0.0],[111.31439,-7.85216,0.0],[111.3248,-7.85862,0.0],[111.32843,-7.86475,0.0],[111.33726,-7.86843,0.0],[111.33555,-7.87248,0.0],[111.33674,-7.87355,0.0],[111.35589,-7.87576,0.0],[111.35867,-7.87596,0.0],[111.35878,-7.87481,0.0],[111.35675,-7.87485,0.0],[111.35764,-7.87064,0.0],[111.36185,-7.87095,0.0],[111.36327,-7.86646,0.0],[111.36833,-7.8645,0.0],[111.36809,-7.86732,0.0],[111.36982,-7.86723,0.0],[111.36911,-7.87256,0.0],[111.37099,-7.87182,0.0],[111.37133,-7.8776,0.0],[111.37363,-7.88087,0.0],[111.36693,-7.89229,0.0],[111.36311,-7.89464,0.0],[111.36256,-7.89922,0.0],[111.35801,-7.90273,0.0],[111.35808,-7.90391,0.0],[111.35522,-7.9046,0.0],[111.35111,-7.91497,0.0],[111.3333,-7.92272,0.0],[111.32256,-7.92989,0.0]],[[111.35579,-7.87663,0.0],[111.35089,-7.87654,0.0],[111.34699,-7.87883,0.0],[111.34694,-7.88832,0.0],[111.35295,-7.88727,0.0],[111.35252,-7.88099,0.0],[111.35571,-7.88223,0.0],[111.35589,-7.88068,0.0],[111.35579,-7.87663,0.0]]]}},{"type":"Feature","properties":{"kecamatan":"Siman","kab_kota":"Ponorogo"},"geometry":{"type":"MultiPolygon","coordinates":[[[[111.48282,-7.91714,0.0],[111.47899,-7.92824,0.0],[111.47674,-7.92749,0.0],[111.47752,-7.92552,0.0],[111.47473,-7.92592,0.0],[111.47565,-7.92315,0.0],[111.47279,-7.92296,0.0],[111.47253,-7.9205,0.0],[111.47428,-7.91935,0.0],[111.47177,-7.9192,0.0],[111.47164,-7.91796,0.0],[111.46981,-7.91831,0.0],[111.46866,-7.91703,0.0],[111.47053,-7.91056,0.0],[111.46845,-7.90588,0.0],[111.46716,-7.90561,0.0],[111.46676,-7.90728,0.0],[111.46402,-7.90804,0.0],[111.46379,-7.9113,0.0],[111.46518,-7.91133,0.0],[111.46579,-7.91331,0.0],[111.45473,-7.9115,0.0],[111.45622,-7.90669,0.0],[111.45437,-7.90582,0.0],[111.45375,-7.89706,0.0],[111.46184,-7.89793,0.0],[111.46151,-7.88724,0.0],[111.47368,-7.88733,0.0],[111.47896,-7.88384,0.0],[111.48225,-7.88468,0.0],[111.47918,-7.88679,0.0],[111.47921,-7.88891,0.0],[111.48061,-7.88997,0.0],[111.4849,-7.88824,0.0],[111.48497,-7.89,0.0],[111.48786,-7.89042,0.0],[111.48665,-7.8737,0.0],[111.4885,-7.87228,0.0],[111.49672,-7.8732,0.0],[111.49717,-7.8705,0.0],[111.49713,-7.86959,0.0],[111.49369,-7.86951,0.0],[111.49266,-7.86698,0.0],[111.49019,-7.86873,0.0],[111.49002,-7.8674,0.0],[111.48556,-7.86674,0.0],[111.48623,-7.85795,0.0],[111.48873,-7.85789,0.0],[111.48849,-7.8565,0.0],[111.49314,-7.85581,0.0],[111.49315,-7.86017,0.0],[111.49805,-7.85861,0.0],[111.50442,-7.86009,0.0],[111.50592,-7.86087,0.0],[111.50662,-7.86377,0.0],[111.50801,-7.86374,0.0],[111.50828,-7.86039,0.0],[111.51079,-7.86097,0.0],[111.51092,-7.86348,0.0],[111.51298,-7.86405,0.0],[111.51892,-7.86268,0.0],[111.52575,-7.86305,0.0],[111.527,-7.86548,0.0],[111.52608,-7.86561,0.0],[111.5263,-7.86885,0.0],[111.53023,-7.86798,0.0],[111.53079,-7.86883,0.0],[111.53521,-7.86717,0.0],[111.54103,-7.86992,0.0],[111.55074,-7.87035,0.0],[111.55505,-7.87309,0.0],[111.56329,-7.87433,0.0],[111.56689,-7.87817,0.0],[111.57205,-7.87717,0.0],[111.57525,-7.88128,0.0],[111.58007,-7.88153,0.0],[111.58319,-7.88359,0.0],[111.55645,-7.88918,0.0],[111.55572,-7.88957,0.0],[111.55719,-7.89218,0.0],[111.55421,-7.89202,0.0],[111.55061,-7.8939,0.0],[111.55077,-7.89604,0.0],[111.54478,-7.89584,0.0],[111.53655,-7.89834,0.0],[111.53436,-7.90223,0.0],[111.53519,-7.90393,0.0],[111.53205,-7.90547,0.0],[111.52622,-7.90644,0.0],[111.51892,-7.90544,0.0],[111.51626,-7.90299,0.0],[111.51337,-7.90308,0.0],[111.5132,-7.90491,0.0],[111.49997,-7.90573,0.0],[111.48708,-7.9029,0.0],[111.48553,-7.90828,0.0],[111.49226,-7.90888,0.0],[111.4925,-7.9071,0.0],[111.4935,-7.90711,0.0],[111.4931,-7.91402,0.0],[111.48427,-7.9125,0.0],[111.48461,-7.90983,0.0],[111.47496,-7.90928,0.0],[111.4747,-7.9077,0.0],[111.47222,-7.90752,0.0],[111.47205,-7.91292,0.0],[111.47321,-7.91429,0.0],[111.47671,-7.91471,0.0],[111.4774,-7.91732,0.0],[111.48282,-7.91714,0.0]]],[[[111.45674,-7.91527,0.0],[111.46555,-7.91633,0.0],[111.46545,-7.92054,0.0],[111.46372,-7.92077,0.0],[111.46359,-7.92199,0.0],[111.45462,-7.92175,0.0],[111.45674,-7.91527,0.0]]]]}},{"type":"Feature","properties":{"kecamatan":"Balong","kab_kota":"Ponorogo"},"geometry":{"type":"Polygon","coordinates":[[[111.43789,-7.96734,0.0],[111.4384,-7.9703,0.0],[111.43396,-7.97129,0.0],[111.43339,-7.97266,0.0],[111.4294,-7.97053,0.0],[111.42974,-7.9736,0.0],[111.4269,-7.97272,0.0],[111.4263,-7.97563,0.0],[111.42767,-7.97586,0.0],[111.42667,-7.97793,0.0],[111.42549,-7.97784,0.0],[111.42533,-7.97402,0.0],[111.42327,-7.9713,0.0],[111.42414,-7.96863,0.0],[111.42352,-7.96146,0.0],[111.422,-7.96137,0.0],[111.42233,-7.96725,0.0],[111.41991,-7.96994,0.0],[111.42008,-7.97295,0.0],[111.41893,-7.97302,0.0],[111.41612,-7.98067,0.0],[111.41521,-7.97924,0.0],[111.41278,-7.97922,0.0],[111.41429,-7.97693,0.0],[111.4163,-7.97773,0.0],[111.41698,-7.97558,0.0],[111.41289,-7.97436,0.0],[111.41349,-7.97203,0.0],[111.41225,-7.97208,0.0],[111.41165,-7.97052,0.0],[111.41521,-7.96911,0.0],[111.41522,-7.96784,0.0],[111.41417,-7.96849,0.0],[111.41397,-7.96756,0.0],[111.412,-7.96833,0.0],[111.41065,-7.97234,0.0],[111.40737,-7.97243,0.0],[111.40552,-7.97461,0.0],[111.4042,-7.97416,0.0],[111.39756,-7.9781,0.0],[111.39415,-7.97839,0.0],[111.39333,-7.97992,0.0],[111.38503,-7.98195,0.0],[111.38358,-7.9838,0.0],[111.38092,-7.9841,0.0],[111.37659,-7.98932,0.0],[111.36595,-7.99051,0.0],[111.36154,-7.99293,0.0],[111.35008,-7.99058,0.0],[111.34841,-7.98621,0.0],[111.34934,-7.97897,0.0],[111.34586,-7.97568,0.0],[111.33997,-7.97537,0.0],[111.33931,-7.97232,0.0],[111.33219,-7.96803,0.0],[111.32732,-7.96782,0.0],[111.3254,-7.96066,0.0],[111.32653,-7.95527,0.0],[111.35338,-7.94878,0.0],[111.36018,-7.94909,0.0],[111.3621,-7.95148,0.0],[111.36236,-7.95469,0.0],[111.3762,-7.95171,0.0],[111.38162,-7.95241,0.0],[111.38486,-7.95419,0.0],[111.38519,-7.95288,0.0],[111.39213,-7.95407,0.0],[111.39333,-7.95061,0.0],[111.38818,-7.94595,0.0],[111.38283,-7.93737,0.0],[111.39588,-7.94,0.0],[111.39601,-7.9443,0.0],[111.39471,-7.94544,0.0],[111.4023,-7.94655,0.0],[111.401,-7.95156,0.0],[111.40189,-7.95206,0.0],[111.41314,-7.95055,0.0],[111.41754,-7.95164,0.0],[111.4197,-7.94711,0.0],[111.42169,-7.9469,0.0],[111.42155,-7.93871,0.0],[111.42252,-7.93789,0.0],[111.42194,-7.93668,0.0],[111.41709,-7.93586,0.0],[111.41746,-7.93334,0.0],[111.41545,-7.93135,0.0],[111.41579,-7.92969,0.0],[111.41684,-7.92984,0.0],[111.41871,-7.92089,0.0],[111.4227,-7.92004,0.0],[111.42757,-7.91193,0.0],[111.43108,-7.91152,0.0],[111.43653,-7.90768,0.0],[111.44051,-7.90949,0.0],[111.43871,-7.91625,0.0],[111.44544,-7.91771,0.0],[111.44526,-7.91217,0.0],[111.44743,-7.9113,0.0],[111.44735,-7.9073,0.0],[111.44895,-7.90596,0.0],[111.45585,-7.90639,0.0],[111.45599,-7.91005,0.0],[111.45461,-7.91167,0.0],[111.45603,-7.91768,0.0],[111.45418,-7.92288,0.0],[111.45943,-7.92375,0.0],[111.45998,-7.92806,0.0],[111.4614,-7.92843,0.0],[111.46008,-7.93045,0.0],[111.454,-7.92838,0.0],[111.45115,-7.93207,0.0],[111.45116,-7.93532,0.0],[111.44975,-7.93677,0.0],[111.4515,-7.93789,0.0],[111.45175,-7.94351,0.0],[111.45059,-7.94625,0.0],[111.45347,-7.94672,0.0],[111.45408,-7.94446,0.0],[111.45739,-7.94466,0.0],[111.45612,-7.94885,0.0],[111.46144,-7.95114,0.0],[111.46174,-7.95429,0.0],[111.46816,-7.95553,0.0],[111.46702,-7.95848,0.0],[111.45895,-7.95718,0.0],[111.46039,-7.95966,0.0],[111.46088,-7.96514,0.0],[111.46327,-7.96842,0.0],[111.45853,-7.96777,0.0],[111.45846,-7.96576,0.0],[111.45585,-7.96542,0.0],[111.45492,-7.96939,0.0],[111.45369,-7.96925,0.0],[111.45267,-7.9682,0.0],[111.45325,-7.96565,0.0],[111.45102,-7.96499,0.0],[111.45228,-7.962,0.0],[111.45158,-7.95946,0.0],[111.45122,-7.96139,0.0],[111.44567,-7.96257,0.0],[111.44534,-7.96518,0.0],[111.44006,-7.96561,0.0],[111.43789,-7.96734,0.0]]]}},{"type":"Feature","properties":{"kecamatan":"Babadan","kab_kota":"Ponorogo"},"geometry":{"type":"MultiPolygon","coordinates":[[[[111.48132,-7.85252,0.0],[111.47302,-7.85294,0.0],[111.47195,-7.85142,0.0],[111.47591,-7.84676,0.0],[111.47424,-7.84683,0.0],[111.47409,-7.8443,0.0],[111.47761,-7.84467,0.0],[111.47985,-7.84205,0.0],[111.47953,-7.84023,0.0],[111.4837,-7.84124,0.0],[111.48415,-7.83696,0.0],[111.48238,-7.83696,0.0],[111.47945,-7.83979,0.0],[111.47555,-7.84009,0.0],[111.47212,-7.83867,0.0],[111.47168,-7.83959,0.0],[111.46846,-7.83933,0.0],[111.46527,-7.83778,0.0],[111.46523,-7.83658,0.0],[111.46395,-7.83773,0.0],[111.44851,-7.83811,0.0],[111.45284,-7.83887,0.0],[111.44963,-7.83999,0.0],[111.45017,-7.84199,0.0],[111.44532,-7.83715,0.0],[111.44688,-7.83553,0.0],[111.44791,-7.82935,0.0],[111.44651,-7.82458,0.0],[111.44716,-7.81022,0.0],[111.4446,-7.80538,0.0],[111.4467,-7.8019,0.0],[111.44535,-7.79394,0.0],[111.44669,-7.79153,0.0],[111.44956,-7.78999,0.0],[111.44836,-7.78627,0.0],[111.4508,-7.78141,0.0],[111.45575,-7.78384,0.0],[111.45805,-7.77784,0.0],[111.46153,-7.77768,0.0],[111.46178,-7.77925,0.0],[111.46686,-7.77702,0.0],[111.47157,-7.77797,0.0],[111.4726,-7.7795,0.0],[111.47428,-7.77941,0.0],[111.47579,-7.78322,0.0],[111.47879,-7.78387,0.0],[111.47988,-7.78539,0.0],[111.48723,-7.7874,0.0],[111.48907,-7.78904,0.0],[111.49466,-7.78928,0.0],[111.49672,-7.79387,0.0],[111.5055,-7.79677,0.0],[111.50598,-7.80112,0.0],[111.50871,-7.80094,0.0],[111.50913,-7.8045,0.0],[111.50703,-7.80781,0.0],[111.50743,-7.81014,0.0],[111.50905,-7.81042,0.0],[111.50852,-7.81448,0.0],[111.51069,-7.81469,0.0],[111.50869,-7.82476,0.0],[111.51563,-7.82552,0.0],[111.51447,-7.82777,0.0],[111.5081,-7.82773,0.0],[111.50835,-7.82642,0.0],[111.50675,-7.82672,0.0],[111.50493,-7.82962,0.0],[111.49878,-7.83058,0.0],[111.49858,-7.83211,0.0],[111.49597,-7.83281,0.0],[111.49468,-7.83112,0.0],[111.49407,-7.83688,0.0],[111.50384,-7.83724,0.0],[111.50639,-7.83535,0.0],[111.50603,-7.83683,0.0],[111.51129,-7.8362,0.0],[111.51142,-7.84049,0.0],[111.51071,-7.83934,0.0],[111.5055,-7.83919,0.0],[111.50415,-7.84257,0.0],[111.5012,-7.84103,0.0],[111.50051,-7.85239,0.0],[111.49825,-7.85267,0.0],[111.4982,-7.84881,0.0],[111.4956,-7.84861,0.0],[111.49468,-7.85263,0.0],[111.49565,-7.85559,0.0],[111.48849,-7.8565,0.0],[111.48873,-7.85789,0.0],[111.48623,-7.85795,0.0],[111.48507,-7.86767,0.0],[111.48373,-7.86664,0.0],[111.48033,-7.86732,0.0],[111.48069,-7.86307,0.0],[111.47885,-7.86321,0.0],[111.4786,-7.86125,0.0],[111.47763,-7.86137,0.0],[111.47739,-7.86037,0.0],[111.48286,-7.85705,0.0],[111.48132,-7.85252,0.0]],[[111.48726,-7.82726,0.0],[111.48806,-7.83123,0.0],[111.4967,-7.83049,0.0],[111.49793,-7.82907,0.0],[111.4974,-7.82615,0.0],[111.49385,-7.82647,0.0],[111.49379,-7.82735,0.0],[111.48726,-7.82726,0.0]]],[[[111.51172,-7.8425,0.0],[111.50877,-7.84397,0.0],[111.50819,-7.84558,0.0],[111.50308,-7.84426,0.0],[111.50763,-7.841,0.0],[111.50898,-7.84213,0.0],[111.51194,-7.84056,0.0],[111.51172,-7.8425,0.0]]]]}},{"type":"Feature","properties":{"kecamatan":"Ponorogo","kab_kota":"Ponorogo"},"geometry":{"type":"MultiPolygon","coordinates":[[[[111.46184,-7.89793,0.0],[111.45375,-7.89706,0.0],[111.45505,-7.896,0.0],[111.45391,-7.89506,0.0],[111.45403,-7.89263,0.0],[111.45493,-7.89097,0.0],[111.45569,-7.89192,0.0],[111.45647,-7.89092,0.0],[111.45348,-7.8871,0.0],[111.44838,-7.88936,0.0],[111.44789,-7.8907,0.0],[111.4457,-7.89037,0.0],[111.4445,-7.88865,0.0],[111.44186,-7.88965,0.0],[111.44325,-7.87302,0.0],[111.44452,-7.87148,0.0],[111.44848,-7.87137,0.0],[111.44659,-7.86805,0.0],[111.44838,-7.86645,0.0],[111.44728,-7.86037,0.0],[111.44924,-7.85557,0.0],[111.44775,-7.85285,0.0],[111.45169,-7.85319,0.0],[111.4538,-7.85156,0.0],[111.45199,-7.84938,0.0],[111.45254,-7.84677,0.0],[111.44906,-7.84238,0.0],[111.45033,-7.84193,0.0],[111.44963,-7.83999,0.0],[111.45284,-7.83887,0.0],[111.44851,-7.83811,0.0],[111.46395,-7.83773,0.0],[111.46523,-7.83658,0.0],[111.46527,-7.83778,0.0],[111.46846,-7.83933,0.0],[111.47168,-7.83959,0.0],[111.47212,-7.83867,0.0],[111.47555,-7.84009,0.0],[111.47945,-7.83979,0.0],[111.48238,-7.83696,0.0],[111.48415,-7.83696,0.0],[111.4837,-7.84124,0.0],[111.47953,-7.84023,0.0],[111.47985,-7.84205,0.0],[111.47761,-7.84467,0.0],[111.47409,-7.8443,0.0],[111.47424,-7.84683,0.0],[111.47591,-7.84676,0.0],[111.47195,-7.85142,0.0],[111.47302,-7.85294,0.0],[111.48136,-7.85253,0.0],[111.48286,-7.85705,0.0],[111.47739,-7.86037,0.0],[111.47885,-7.86321,0.0],[111.48069,-7.86307,0.0],[111.48033,-7.86732,0.0],[111.48818,-7.86664,0.0],[111.49019,-7.86873,0.0],[111.49266,-7.86698,0.0],[111.49393,-7.86966,0.0],[111.49713,-7.86959,0.0],[111.49672,-7.8732,0.0],[111.4885,-7.87228,0.0],[111.48665,-7.8737,0.0],[111.48786,-7.89042,0.0],[111.48497,-7.89,0.0],[111.4849,-7.88824,0.0],[111.48061,-7.88997,0.0],[111.47921,-7.88891,0.0],[111.47918,-7.88679,0.0],[111.48225,-7.88468,0.0],[111.47917,-7.88384,0.0],[111.47368,-7.88733,0.0],[111.46151,-7.88724,0.0],[111.46184,-7.89793,0.0]]],[[[111.4974,-7.82615,0.0],[111.4967,-7.83049,0.0],[111.48728,-7.83105,0.0],[111.48726,-7.82726,0.0],[111.49379,-7.82735,0.0],[111.49385,-7.82647,0.0],[111.4974,-7.82615,0.0]]]]}},{"type":"Feature","properties":{"kecamatan":"Sampung","kab_kota":"Ponorogo"},"geometry":{"type":"Polygon","coordinates":[[[111.35867,-7.87596,0.0],[111.33555,-7.87251,0.0],[111.33726,-7.86843,0.0],[111.3271,-7.86368,0.0],[111.3268,-7.86085,0.0],[111.3248,-7.85862,0.0],[111.31439,-7.85216,0.0],[111.31115,-7.84132,0.0],[111.30274,-7.83758,0.0],[111.30324,-7.83332,0.0],[111.30134,-7.83072,0.0],[111.30565,-7.82315,0.0],[111.30159,-7.81988,0.0],[111.29669,-7.8048,0.0],[111.2971,-7.80162,0.0],[111.28932,-7.79545,0.0],[111.2887,-7.79348,0.0],[111.2934,-7.79311,0.0],[111.29467,-7.79432,0.0],[111.29579,-7.7931,0.0],[111.29782,-7.79314,0.0],[111.2979,-7.79422,0.0],[111.30012,-7.79331,0.0],[111.30047,-7.79569,0.0],[111.30222,-7.7956,0.0],[111.3016,-7.79668,0.0],[111.30768,-7.79771,0.0],[111.31472,-7.79217,0.0],[111.3211,-7.79755,0.0],[111.32763,-7.80041,0.0],[111.32986,-7.79999,0.0],[111.33074,-7.7955,0.0],[111.33701,-7.79475,0.0],[111.33971,-7.78622,0.0],[111.34196,-7.78368,0.0],[111.35663,-7.78336,0.0],[111.36216,-7.78492,0.0],[111.36599,-7.78311,0.0],[111.37754,-7.78268,0.0],[111.37935,-7.78134,0.0],[111.38445,-7.78319,0.0],[111.38917,-7.78139,0.0],[111.39068,-7.78219,0.0],[111.39466,-7.78081,0.0],[111.39895,-7.78117,0.0],[111.40651,-7.8031,0.0],[111.40433,-7.80259,0.0],[111.40011,-7.80615,0.0],[111.39682,-7.80498,0.0],[111.3949,-7.81477,0.0],[111.39432,-7.81579,0.0],[111.39355,-7.81501,0.0],[111.39151,-7.8193,0.0],[111.38062,-7.82017,0.0],[111.38528,-7.8297,0.0],[111.38578,-7.84311,0.0],[111.38741,-7.84444,0.0],[111.38693,-7.8469,0.0],[111.38958,-7.85119,0.0],[111.38857,-7.85864,0.0],[111.39012,-7.85994,0.0],[111.38227,-7.86114,0.0],[111.3814,-7.85987,0.0],[111.3824,-7.85476,0.0],[111.37868,-7.85433,0.0],[111.37752,-7.86083,0.0],[111.37156,-7.86031,0.0],[111.36788,-7.86502,0.0],[111.36327,-7.86646,0.0],[111.36185,-7.87095,0.0],[111.35733,-7.87095,0.0],[111.35675,-7.87485,0.0],[111.35878,-7.87481,0.0],[111.35867,-7.87596,0.0]]]}},{"type":"Feature","properties":{"kecamatan":"Sukorejo","kab_kota":"Ponorogo"},"geometry":{"type":"Polygon","coordinates":[[[111.43126,-7.89616,0.0],[111.43289,-7.88761,0.0],[111.43428,-7.88768,0.0],[111.43384,-7.87987,0.0],[111.42555,-7.88176,0.0],[111.42577,-7.87428,0.0],[111.42393,-7.87418,0.0],[111.4239,-7.87148,0.0],[111.42588,-7.87104,0.0],[111.42596,-7.8694,0.0],[111.41947,-7.86826,0.0],[111.41955,-7.86612,0.0],[111.42697,-7.86583,0.0],[111.4276,-7.85984,0.0],[111.42558,-7.85862,0.0],[111.42566,-7.85691,0.0],[111.41982,-7.85651,0.0],[111.41944,-7.85935,0.0],[111.41003,-7.85871,0.0],[111.41029,-7.85604,0.0],[111.40867,-7.85714,0.0],[111.40641,-7.85672,0.0],[111.40807,-7.85471,0.0],[111.40671,-7.85286,0.0],[111.40757,-7.84722,0.0],[111.39396,-7.84581,0.0],[111.39029,-7.8478,0.0],[111.39124,-7.85036,0.0],[111.3898,-7.85135,0.0],[111.38693,-7.8469,0.0],[111.38741,-7.84444,0.0],[111.38578,-7.84311,0.0],[111.38543,-7.83036,0.0],[111.38062,-7.82017,0.0],[111.39151,-7.8193,0.0],[111.39355,-7.81501,0.0],[111.39432,-7.81579,0.0],[111.3949,-7.81477,0.0],[111.39682,-7.80498,0.0],[111.40011,-7.80615,0.0],[111.40433,-7.80259,0.0],[111.40651,-7.8031,0.0],[111.3986,-7.78102,0.0],[111.40099,-7.77806,0.0],[111.40759,-7.77751,0.0],[111.4093,-7.77958,0.0],[111.41322,-7.77585,0.0],[111.41705,-7.77801,0.0],[111.42257,-7.77671,0.0],[111.42424,-7.77794,0.0],[111.43104,-7.77771,0.0],[111.43343,-7.77986,0.0],[111.43643,-7.77882,0.0],[111.43909,-7.77978,0.0],[111.44186,-7.77831,0.0],[111.44393,-7.78053,0.0],[111.44512,-7.77962,0.0],[111.44636,-7.78079,0.0],[111.44655,-7.77955,0.0],[111.44991,-7.77852,0.0],[111.4508,-7.78141,0.0],[111.44836,-7.78627,0.0],[111.44956,-7.78999,0.0],[111.44669,-7.79153,0.0],[111.44535,-7.79394,0.0],[111.4467,-7.8019,0.0],[111.4446,-7.80538,0.0],[111.44716,-7.81022,0.0],[111.44651,-7.82458,0.0],[111.44791,-7.82935,0.0],[111.44688,-7.83553,0.0],[111.44529,-7.83696,0.0],[111.45254,-7.84677,0.0],[111.45199,-7.84938,0.0],[111.45377,-7.85173,0.0],[111.45169,-7.85319,0.0],[111.44775,-7.85285,0.0],[111.44924,-7.85557,0.0],[111.44728,-7.86037,0.0],[111.44838,-7.86645,0.0],[111.44659,-7.86805,0.0],[111.44848,-7.87137,0.0],[111.44452,-7.87148,0.0],[111.44325,-7.87302,0.0],[111.44186,-7.88965,0.0],[111.4445,-7.88865,0.0],[111.44599,-7.89,0.0],[111.44313,-7.89119,0.0],[111.44259,-7.8942,0.0],[111.43851,-7.8929,0.0],[111.43765,-7.89617,0.0],[111.4334,-7.89454,0.0],[111.43292,-7.89644,0.0],[111.43126,-7.89616,0.0]]]}},{"type":"Feature","properties":{"kecamatan":"Jenangan","kab_kota":"Ponorogo"},"geometry":{"type":"Polygon","coordinates":[[[111.57393,-7.85989,0.0],[111.57193,-7.86096,0.0],[111.57313,-7.86424,0.0],[111.56938,-7.86355,0.0],[111.5614,-7.8652,0.0],[111.56078,-7.86782,0.0],[111.5561,-7.86961,0.0],[111.55684,-7.8714,0.0],[111.55533,-7.8731,0.0],[111.55074,-7.87035,0.0],[111.54103,-7.86992,0.0],[111.53521,-7.86717,0.0],[111.53079,-7.86883,0.0],[111.53023,-7.86798,0.0],[111.5263,-7.86885,0.0],[111.52608,-7.86561,0.0],[111.52699,-7.86541,0.0],[111.52533,-7.86295,0.0],[111.51892,-7.86268,0.0],[111.51298,-7.86405,0.0],[111.51092,-7.86348,0.0],[111.51079,-7.86097,0.0],[111.50828,-7.86039,0.0],[111.50801,-7.86374,0.0],[111.50677,-7.86379,0.0],[111.50578,-7.86073,0.0],[111.49941,-7.85869,0.0],[111.49315,-7.86017,0.0],[111.49314,-7.85581,0.0],[111.49565,-7.85559,0.0],[111.49468,-7.85263,0.0],[111.4956,-7.84861,0.0],[111.4982,-7.84881,0.0],[111.49825,-7.85267,0.0],[111.50051,-7.85239,0.0],[111.5012,-7.84103,0.0],[111.50415,-7.84257,0.0],[111.5055,-7.83919,0.0],[111.51071,-7.83934,0.0],[111.51142,-7.84049,0.0],[111.51129,-7.8362,0.0],[111.50603,-7.83683,0.0],[111.50639,-7.83535,0.0],[111.50384,-7.83724,0.0],[111.49414,-7.83698,0.0],[111.49468,-7.83112,0.0],[111.49597,-7.83281,0.0],[111.49858,-7.83211,0.0],[111.49878,-7.83058,0.0],[111.50493,-7.82962,0.0],[111.50675,-7.82672,0.0],[111.50835,-7.82642,0.0],[111.5081,-7.82773,0.0],[111.51447,-7.82777,0.0],[111.51563,-7.82552,0.0],[111.50869,-7.82476,0.0],[111.51069,-7.81469,0.0],[111.50852,-7.81448,0.0],[111.50905,-7.81042,0.0],[111.50743,-7.81014,0.0],[111.50703,-7.80781,0.0],[111.50913,-7.8045,0.0],[111.50871,-7.80094,0.0],[111.50598,-7.80112,0.0],[111.5061,-7.79741,0.0],[111.50868,-7.79945,0.0],[111.51207,-7.79857,0.0],[111.51681,-7.80042,0.0],[111.51962,-7.79913,0.0],[111.52399,-7.79948,0.0],[111.52447,-7.80171,0.0],[111.5293,-7.80331,0.0],[111.53646,-7.80356,0.0],[111.53736,-7.80268,0.0],[111.53936,-7.80401,0.0],[111.54745,-7.80347,0.0],[111.54979,-7.80441,0.0],[111.55421,-7.79919,0.0],[111.55541,-7.80036,0.0],[111.55784,-7.80002,0.0],[111.55768,-7.80165,0.0],[111.56284,-7.80132,0.0],[111.56469,-7.8025,0.0],[111.5662,-7.80151,0.0],[111.57001,-7.80209,0.0],[111.57317,-7.80042,0.0],[111.57593,-7.80092,0.0],[111.58199,-7.79757,0.0],[111.59039,-7.79677,0.0],[111.59492,-7.80086,0.0],[111.59867,-7.80232,0.0],[111.60113,-7.80596,0.0],[111.59746,-7.81005,0.0],[111.59102,-7.81116,0.0],[111.58978,-7.81297,0.0],[111.58685,-7.81177,0.0],[111.58136,-7.81291,0.0],[111.58027,-7.81132,0.0],[111.57696,-7.81295,0.0],[111.57602,-7.81671,0.0],[111.58226,-7.81584,0.0],[111.58386,-7.81778,0.0],[111.58365,-7.81967,0.0],[111.59989,-7.81433,0.0],[111.60442,-7.81769,0.0],[111.60567,-7.8225,0.0],[111.60231,-7.82529,0.0],[111.6014,-7.83004,0.0],[111.59906,-7.83197,0.0],[111.59567,-7.83834,0.0],[111.58592,-7.84098,0.0],[111.58893,-7.84455,0.0],[111.5855,-7.85076,0.0],[111.5781,-7.84565,0.0],[111.57252,-7.84587,0.0],[111.56892,-7.84418,0.0],[111.57004,-7.84549,0.0],[111.56891,-7.84684,0.0],[111.57314,-7.84856,0.0],[111.57494,-7.85286,0.0],[111.57422,-7.85445,0.0],[111.57593,-7.8552,0.0],[111.57393,-7.85989,0.0]],[[111.50763,-7.841,0.0],[111.50309,-7.84428,0.0],[111.50692,-7.84443,0.0],[111.50819,-7.84558,0.0],[111.51229,-7.84094,0.0],[111.50898,-7.84213,0.0],[111.50763,-7.841,0.0]]]}},{"type":"Feature","properties":{"kecamatan":"Ngebel","kab_kota":"Ponorogo"},"geometry":{"type":"Polygon","coordinates":[[[111.69029,-7.80984,0.0],[111.68864,-7.81271,0.0],[111.69241,-7.82193,0.0],[111.68767,-7.83315,0.0],[111.68242,-7.83424,0.0],[111.67951,-7.8364,0.0],[111.66467,-7.83761,0.0],[111.65666,-7.83182,0.0],[111.64387,-7.83305,0.0],[111.63459,-7.83091,0.0],[111.63231,-7.828,0.0],[111.63332,-7.8246,0.0],[111.62894,-7.82173,0.0],[111.62937,-7.81992,0.0],[111.6206,-7.82114,0.0],[111.61296,-7.82555,0.0],[111.60869,-7.82578,0.0],[111.60582,-7.82321,0.0],[111.60442,-7.81769,0.0],[111.59989,-7.81433,0.0],[111.59708,-7.81452,0.0],[111.59093,-7.81806,0.0],[111.58804,-7.81744,0.0],[111.58508,-7.81969,0.0],[111.58365,-7.81967,0.0],[111.58386,-7.81778,0.0],[111.58226,-7.81584,0.0],[111.57602,-7.81671,0.0],[111.57696,-7.81295,0.0],[111.57932,-7.81166,0.0],[111.58054,-7.81142,0.0],[111.58136,-7.81291,0.0],[111.58685,-7.81177,0.0],[111.58978,-7.81297,0.0],[111.59102,-7.81116,0.0],[111.59511,-7.81103,0.0],[111.6003,-7.80755,0.0],[111.60113,-7.80596,0.0],[111.60029,-7.80399,0.0],[111.59492,-7.80086,0.0],[111.59149,-7.79701,0.0],[111.58566,-7.79678,0.0],[111.59205,-7.79302,0.0],[111.59261,-7.79059,0.0],[111.59595,-7.78942,0.0],[111.59553,-7.78518,0.0],[111.5975,-7.78478,0.0],[111.59868,-7.78249,0.0],[111.59886,-7.777,0.0],[111.6004,-7.77713,0.0],[111.60337,-7.78095,0.0],[111.60834,-7.78238,0.0],[111.61164,-7.7819,0.0],[111.61224,-7.77971,0.0],[111.61945,-7.78024,0.0],[111.62463,-7.77668,0.0],[111.6272,-7.77715,0.0],[111.62852,-7.77552,0.0],[111.63535,-7.77381,0.0],[111.63777,-7.77453,0.0],[111.64024,-7.77159,0.0],[111.64674,-7.77326,0.0],[111.65127,-7.7724,0.0],[111.65528,-7.77071,0.0],[111.65947,-7.76655,0.0],[111.66324,-7.76862,0.0],[111.66761,-7.76755,0.0],[111.67439,-7.77317,0.0],[111.67773,-7.77408,0.0],[111.67552,-7.77875,0.0],[111.67597,-7.78373,0.0],[111.67906,-7.78377,0.0],[111.68307,-7.78751,0.0],[111.68838,-7.78568,0.0],[111.69263,-7.79738,0.0],[111.69528,-7.80038,0.0],[111.6938,-7.80533,0.0],[111.69718,-7.80536,0.0],[111.69029,-7.80984,0.0]]]}},{"type":"Feature","properties":{"kecamatan":"Pudak","kab_kota":"Ponorogo"},"geometry":{"type":"Polygon","coordinates":[[[111.77168,-7.87241,0.0],[111.77097,-7.87679,0.0],[111.77169,-7.87904,0.0],[111.76961,-7.87893,0.0],[111.77065,-7.88053,0.0],[111.7692,-7.88173,0.0],[111.77106,-7.88285,0.0],[111.77113,-7.88679,0.0],[111.76945,-7.8866,0.0],[111.76411,-7.89052,0.0],[111.76117,-7.8904,0.0],[111.75874,-7.89478,0.0],[111.7561,-7.89319,0.0],[111.75605,-7.89613,0.0],[111.7578,-7.8965,0.0],[111.75608,-7.8987,0.0],[111.76067,-7.90096,0.0],[111.75792,-7.90207,0.0],[111.75858,-7.90598,0.0],[111.75704,-7.90607,0.0],[111.75529,-7.90829,0.0],[111.75289,-7.90347,0.0],[111.75436,-7.90266,0.0],[111.75341,-7.89999,0.0],[111.75491,-7.89742,0.0],[111.75227,-7.89752,0.0],[111.75159,-7.89628,0.0],[111.75356,-7.89364,0.0],[111.75218,-7.88772,0.0],[111.75298,-7.88456,0.0],[111.74818,-7.88001,0.0],[111.74094,-7.87916,0.0],[111.73704,-7.88108,0.0],[111.7372,-7.88291,0.0],[111.73392,-7.88684,0.0],[111.7305,-7.88831,0.0],[111.72946,-7.8867,0.0],[111.72651,-7.89044,0.0],[111.72183,-7.89068,0.0],[111.72096,-7.8923,0.0],[111.71327,-7.89549,0.0],[111.70985,-7.89473,0.0],[111.707,-7.8974,0.0],[111.701,-7.89644,0.0],[111.69543,-7.88792,0.0],[111.68799,-7.8901,0.0],[111.68477,-7.88856,0.0],[111.67602,-7.89039,0.0],[111.67416,-7.88941,0.0],[111.67569,-7.88582,0.0],[111.66987,-7.88373,0.0],[111.67292,-7.88345,0.0],[111.67634,-7.88092,0.0],[111.67833,-7.88225,0.0],[111.68265,-7.87726,0.0],[111.69176,-7.87289,0.0],[111.69224,-7.86768,0.0],[111.69081,-7.86672,0.0],[111.69125,-7.8648,0.0],[111.68846,-7.86444,0.0],[111.68615,-7.86222,0.0],[111.69907,-7.84798,0.0],[111.70558,-7.84624,0.0],[111.70909,-7.84305,0.0],[111.70986,-7.84,0.0],[111.71422,-7.83939,0.0],[111.71489,-7.83163,0.0],[111.71926,-7.82721,0.0],[111.73013,-7.82555,0.0],[111.73859,-7.82573,0.0],[111.74502,-7.82744,0.0],[111.75057,-7.82559,0.0],[111.75352,-7.82215,0.0],[111.75683,-7.82056,0.0],[111.76011,-7.81367,0.0],[111.76542,-7.81547,0.0],[111.7671,-7.82323,0.0],[111.76883,-7.82411,0.0],[111.77295,-7.82033,0.0],[111.77499,-7.82128,0.0],[111.77666,-7.8202,0.0],[111.78475,-7.82978,0.0],[111.78579,-7.83275,0.0],[111.78526,-7.83587,0.0],[111.78078,-7.83902,0.0],[111.77778,-7.84625,0.0],[111.77308,-7.85118,0.0],[111.7714,-7.85596,0.0],[111.77314,-7.86005,0.0],[111.77683,-7.86194,0.0],[111.77722,-7.86432,0.0],[111.77862,-7.86432,0.0],[111.77329,-7.8721,0.0],[111.77168,-7.87241,0.0]]]}},{"type":"Feature","properties":{"kecamatan":"Jambon","kab_kota":"Ponorogo"},"geometry":{"type":"MultiPolygon","coordinates":[[[[111.38283,-7.93737,0.0],[111.38818,-7.94595,0.0],[111.39333,-7.95061,0.0],[111.39213,-7.95407,0.0],[111.38519,-7.95288,0.0],[111.38486,-7.95419,0.0],[111.38162,-7.95241,0.0],[111.3762,-7.95171,0.0],[111.36236,-7.95469,0.0],[111.3616,-7.95047,0.0],[111.35703,-7.94842,0.0],[111.32653,-7.95527,0.0],[111.32264,-7.94981,0.0],[111.32271,-7.94556,0.0],[111.31763,-7.94122,0.0],[111.31647,-7.93767,0.0],[111.31913,-7.933,0.0],[111.32145,-7.93228,0.0],[111.32272,-7.92971,0.0],[111.32858,-7.92543,0.0],[111.35127,-7.91482,0.0],[111.35522,-7.9046,0.0],[111.35808,-7.90391,0.0],[111.35801,-7.90273,0.0],[111.36256,-7.89922,0.0],[111.36327,-7.89439,0.0],[111.36427,-7.89485,0.0],[111.36693,-7.89229,0.0],[111.37294,-7.8835,0.0],[111.37187,-7.88328,0.0],[111.37361,-7.88056,0.0],[111.37254,-7.88066,0.0],[111.37232,-7.87778,0.0],[111.37133,-7.8776,0.0],[111.37099,-7.87182,0.0],[111.36911,-7.87256,0.0],[111.36982,-7.86723,0.0],[111.36809,-7.86732,0.0],[111.36845,-7.8632,0.0],[111.37251,-7.86004,0.0],[111.37752,-7.86083,0.0],[111.37954,-7.85423,0.0],[111.3824,-7.85485,0.0],[111.3814,-7.85987,0.0],[111.38227,-7.86114,0.0],[111.37982,-7.8611,0.0],[111.37943,-7.86462,0.0],[111.38335,-7.86522,0.0],[111.384,-7.86688,0.0],[111.38641,-7.8663,0.0],[111.3862,-7.87049,0.0],[111.38864,-7.87066,0.0],[111.389,-7.87176,0.0],[111.389,-7.87396,0.0],[111.3872,-7.87391,0.0],[111.38688,-7.87657,0.0],[111.38873,-7.87686,0.0],[111.38877,-7.87959,0.0],[111.39748,-7.87876,0.0],[111.39651,-7.88588,0.0],[111.39214,-7.88499,0.0],[111.39234,-7.88909,0.0],[111.39377,-7.88985,0.0],[111.39453,-7.89263,0.0],[111.39325,-7.89347,0.0],[111.3932,-7.89773,0.0],[111.38939,-7.89754,0.0],[111.38731,-7.90563,0.0],[111.40078,-7.90598,0.0],[111.40272,-7.91028,0.0],[111.40885,-7.91156,0.0],[111.40889,-7.90999,0.0],[111.41307,-7.91066,0.0],[111.41297,-7.91296,0.0],[111.41553,-7.91336,0.0],[111.41518,-7.91692,0.0],[111.41353,-7.91852,0.0],[111.41871,-7.92089,0.0],[111.4155,-7.93155,0.0],[111.41746,-7.93334,0.0],[111.41709,-7.93586,0.0],[111.42194,-7.93668,0.0],[111.42252,-7.93789,0.0],[111.42155,-7.93871,0.0],[111.42169,-7.9469,0.0],[111.4197,-7.94711,0.0],[111.41754,-7.95164,0.0],[111.41314,-7.95055,0.0],[111.40993,-7.95174,0.0],[111.40359,-7.95135,0.0],[111.40336,-7.95226,0.0],[111.401,-7.95156,0.0],[111.4023,-7.94655,0.0],[111.39471,-7.94544,0.0],[111.39601,-7.9443,0.0],[111.39588,-7.94,0.0],[111.38283,-7.93737,0.0]],[[111.39054,-7.91131,0.0],[111.38881,-7.9157,0.0],[111.38979,-7.91612,0.0],[111.39175,-7.91118,0.0],[111.39054,-7.91131,0.0]]],[[[111.35252,-7.88098,0.0],[111.35295,-7.88727,0.0],[111.34694,-7.88832,0.0],[111.34699,-7.87883,0.0],[111.35089,-7.87654,0.0],[111.35555,-7.87646,0.0],[111.35571,-7.88223,0.0],[111.35252,-7.88098,0.0]]]]}}]}