{"type":"FeatureCollection","features":[{"type":"Feature","properties":{"kecamatan":"Ngambon","kab_kota":"Bojonegoro"},"geometry":{"type":"Polygon","coordinates":[[[111.73029,-7.30134,0.0],[111.73526,-7.29759,0.0],[111.73565,-7.30062,0.0],[111.73853,-7.29876,0.0],[111.74,-7.29979,0.0],[111.73892,-7.30961,0.0],[111.74122,-7.31153,0.0],[111.73916,-7.31336,0.0],[111.74019,-7.31418,0.0],[111.74286,-7.31206,0.0],[111.7445,-7.31368,0.0],[111.74366,-7.31525,0.0],[111.74653,-7.31456,0.0],[111.74803,-7.31667,0.0],[111.74449,-7.3192,0.0],[111.74426,-7.32262,0.0],[111.74735,-7.31918,0.0],[111.74719,-7.32142,0.0],[111.74925,-7.32143,0.0],[111.747,-7.32692,0.0],[111.74395,-7.3278,0.0],[111.74606,-7.32874,0.0],[111.74558,-7.3316,0.0],[111.74761,-7.33412,0.0],[111.75027,-7.33277,0.0],[111.75042,-7.33553,0.0],[111.75223,-7.3349,0.0],[111.75126,-7.33717,0.0],[111.75375,-7.33787,0.0],[111.75413,-7.34133,0.0],[111.75616,-7.34061,0.0],[111.75545,-7.34199,0.0],[111.75675,-7.34299,0.0],[111.75541,-7.34417,0.0],[111.75866,-7.34436,0.0],[111.7584,-7.34626,0.0],[111.75983,-7.34809,0.0],[111.75833,-7.34883,0.0],[111.75,-7.34667,0.0],[111.74426,-7.3475,0.0],[111.74123,-7.35029,0.0],[111.73987,-7.35006,0.0],[111.73957,-7.35151,0.0],[111.73845,-7.35145,0.0],[111.73863,-7.35346,0.0],[111.73727,-7.35312,0.0],[111.73648,-7.35485,0.0],[111.72987,-7.3517,0.0],[111.71391,-7.36907,0.0],[111.70953,-7.37129,0.0],[111.70276,-7.37227,0.0],[111.69691,-7.3688,0.0],[111.69234,-7.36032,0.0],[111.68786,-7.3596,0.0],[111.68264,-7.35657,0.0],[111.67891,-7.34703,0.0],[111.67179,-7.3445,0.0],[111.68327,-7.33827,0.0],[111.69541,-7.33584,0.0],[111.69435,-7.33353,0.0],[111.69607,-7.33277,0.0],[111.69546,-7.32906,0.0],[111.69891,-7.32702,0.0],[111.69765,-7.31604,0.0],[111.69972,-7.31309,0.0],[111.69834,-7.30375,0.0],[111.69607,-7.301,0.0],[111.70113,-7.29297,0.0],[111.70022,-7.28928,0.0],[111.70514,-7.28771,0.0],[111.70628,-7.2839,0.0],[111.71146,-7.28103,0.0],[111.71778,-7.28138,0.0],[111.72213,-7.27992,0.0],[111.72337,-7.28186,0.0],[111.72619,-7.27895,0.0],[111.72843,-7.27939,0.0],[111.72883,-7.28105,0.0],[111.72681,-7.28195,0.0],[111.72869,-7.28642,0.0],[111.72703,-7.28772,0.0],[111.72741,-7.2893,0.0],[111.72561,-7.2897,0.0],[111.72714,-7.29265,0.0],[111.72478,-7.29235,0.0],[111.72421,-7.29352,0.0],[111.72595,-7.29398,0.0],[111.72661,-7.29343,0.0],[111.72537,-7.29333,0.0],[111.72733,-7.29278,0.0],[111.72621,-7.29531,0.0],[111.72756,-7.29989,0.0],[111.73029,-7.30134,0.0]]]}},{"type":"Feature","properties":{"kecamatan":"Ngasem","kab_kota":"Bojonegoro"},"geometry":{"type":"Polygon","coordinates":[[[111.78696,-7.32626,0.0],[111.77845,-7.33209,0.0],[111.77721,-7.33693,0.0],[111.77587,-7.33662,0.0],[111.77608,-7.3393,0.0],[111.77806,-7.33926,0.0],[111.77757,-7.34049,0.0],[111.78056,-7.33887,0.0],[111.78328,-7.34243,0.0],[111.78148,-7.34223,0.0],[111.78201,-7.34448,0.0],[111.78062,-7.34372,0.0],[111.77897,-7.34469,0.0],[111.77988,-7.3493,0.0],[111.77658,-7.35107,0.0],[111.77736,-7.35162,0.0],[111.7765,-7.35297,0.0],[111.77862,-7.35277,0.0],[111.77888,-7.35397,0.0],[111.77637,-7.35639,0.0],[111.77831,-7.3564,0.0],[111.77776,-7.35827,0.0],[111.77401,-7.36074,0.0],[111.7718,-7.3589,0.0],[111.76513,-7.35889,0.0],[111.76372,-7.35586,0.0],[111.76027,-7.35522,0.0],[111.75895,-7.35704,0.0],[111.7588,-7.35506,0.0],[111.75658,-7.35795,0.0],[111.75625,-7.35596,0.0],[111.75725,-7.35544,0.0],[111.75637,-7.35458,0.0],[111.75829,-7.35276,0.0],[111.75647,-7.35303,0.0],[111.75567,-7.35186,0.0],[111.75752,-7.35139,0.0],[111.75769,-7.34928,0.0],[111.75983,-7.34809,0.0],[111.7584,-7.34626,0.0],[111.75866,-7.34436,0.0],[111.75549,-7.34433,0.0],[111.75675,-7.34299,0.0],[111.75545,-7.34199,0.0],[111.75616,-7.34061,0.0],[111.75403,-7.3412,0.0],[111.75375,-7.33787,0.0],[111.75114,-7.33685,0.0],[111.75223,-7.3349,0.0],[111.75042,-7.33553,0.0],[111.75027,-7.33277,0.0],[111.74761,-7.33412,0.0],[111.74558,-7.3316,0.0],[111.74606,-7.32874,0.0],[111.74395,-7.3278,0.0],[111.747,-7.32692,0.0],[111.74714,-7.32484,0.0],[111.74892,-7.32327,0.0],[111.74917,-7.32129,0.0],[111.74705,-7.32113,0.0],[111.74757,-7.31919,0.0],[111.74492,-7.32273,0.0],[111.7439,-7.32212,0.0],[111.74502,-7.31848,0.0],[111.74803,-7.31667,0.0],[111.74653,-7.31456,0.0],[111.74366,-7.31525,0.0],[111.7445,-7.31368,0.0],[111.74286,-7.31206,0.0],[111.74019,-7.31418,0.0],[111.73916,-7.31336,0.0],[111.74122,-7.31153,0.0],[111.73892,-7.30961,0.0],[111.73902,-7.30186,0.0],[111.74016,-7.3001,0.0],[111.73931,-7.29907,0.0],[111.73569,-7.30064,0.0],[111.73528,-7.29759,0.0],[111.73051,-7.30127,0.0],[111.72764,-7.30007,0.0],[111.72621,-7.29531,0.0],[111.72759,-7.29319,0.0],[111.72421,-7.29352,0.0],[111.72478,-7.29235,0.0],[111.72714,-7.29265,0.0],[111.72562,-7.28964,0.0],[111.72741,-7.2893,0.0],[111.72703,-7.28772,0.0],[111.72871,-7.28634,0.0],[111.72681,-7.28195,0.0],[111.72883,-7.28105,0.0],[111.72874,-7.27978,0.0],[111.72476,-7.27855,0.0],[111.72606,-7.27318,0.0],[111.72449,-7.27156,0.0],[111.72135,-7.27169,0.0],[111.72105,-7.27034,0.0],[111.72336,-7.27086,0.0],[111.72361,-7.26933,0.0],[111.72151,-7.26885,0.0],[111.72014,-7.2702,0.0],[111.72016,-7.26857,0.0],[111.71863,-7.26849,0.0],[111.71869,-7.26482,0.0],[111.71682,-7.26464,0.0],[111.71704,-7.26113,0.0],[111.71548,-7.26081,0.0],[111.71765,-7.25884,0.0],[111.71437,-7.25767,0.0],[111.71376,-7.25979,0.0],[111.71079,-7.2612,0.0],[111.71231,-7.2571,0.0],[111.70857,-7.25459,0.0],[111.71057,-7.25263,0.0],[111.71024,-7.25074,0.0],[111.70854,-7.25029,0.0],[111.70959,-7.2484,0.0],[111.70865,-7.24348,0.0],[111.71165,-7.24304,0.0],[111.71111,-7.2409,0.0],[111.70787,-7.24196,0.0],[111.70848,-7.23957,0.0],[111.71032,-7.23919,0.0],[111.70781,-7.2387,0.0],[111.70634,-7.23513,0.0],[111.71115,-7.23467,0.0],[111.7081,-7.23267,0.0],[111.71023,-7.23203,0.0],[111.70844,-7.22988,0.0],[111.71102,-7.23017,0.0],[111.71216,-7.22866,0.0],[111.71508,-7.22815,0.0],[111.71283,-7.22583,0.0],[111.71305,-7.21442,0.0],[111.7175,-7.21281,0.0],[111.72014,-7.21436,0.0],[111.72151,-7.21292,0.0],[111.72426,-7.21281,0.0],[111.72799,-7.21634,0.0],[111.73845,-7.21963,0.0],[111.73988,-7.21675,0.0],[111.73979,-7.21356,0.0],[111.74223,-7.20847,0.0],[111.74056,-7.20175,0.0],[111.74252,-7.19732,0.0],[111.73703,-7.18952,0.0],[111.73793,-7.18137,0.0],[111.73694,-7.17894,0.0],[111.73801,-7.17779,0.0],[111.73604,-7.17394,0.0],[111.73611,-7.16808,0.0],[111.73852,-7.15551,0.0],[111.75163,-7.15895,0.0],[111.75314,-7.15767,0.0],[111.75609,-7.15794,0.0],[111.75576,-7.16184,0.0],[111.7586,-7.16233,0.0],[111.75866,-7.16042,0.0],[111.75977,-7.1606,0.0],[111.77183,-7.16581,0.0],[111.77392,-7.15976,0.0],[111.7733,-7.15647,0.0],[111.77622,-7.15741,0.0],[111.77927,-7.16117,0.0],[111.78778,-7.16056,0.0],[111.78842,-7.15664,0.0],[111.79237,-7.15827,0.0],[111.79186,-7.1599,0.0],[111.79667,-7.15995,0.0],[111.79718,-7.16598,0.0],[111.7949,-7.16706,0.0],[111.79559,-7.16838,0.0],[111.79245,-7.17087,0.0],[111.79232,-7.1759,0.0],[111.79065,-7.17761,0.0],[111.79045,-7.18469,0.0],[111.78855,-7.18524,0.0],[111.78848,-7.18728,0.0],[111.78993,-7.18773,0.0],[111.78837,-7.18933,0.0],[111.7903,-7.19216,0.0],[111.79985,-7.19858,0.0],[111.80754,-7.19956,0.0],[111.80473,-7.20507,0.0],[111.79901,-7.20723,0.0],[111.79914,-7.21315,0.0],[111.79122,-7.23805,0.0],[111.79713,-7.25,0.0],[111.79704,-7.25495,0.0],[111.79892,-7.26045,0.0],[111.80428,-7.26601,0.0],[111.80402,-7.26763,0.0],[111.80318,-7.27096,0.0],[111.79953,-7.27526,0.0],[111.79732,-7.28193,0.0],[111.79559,-7.30187,0.0],[111.79054,-7.3025,0.0],[111.78932,-7.3063,0.0],[111.78696,-7.32626,0.0]]]}},{"type":"Feature","properties":{"kecamatan":"Ngraho","kab_kota":"Bojonegoro"},"geometry":{"type":"Polygon","coordinates":[[[111.51243,-7.27266,0.0],[111.50874,-7.27551,0.0],[111.50851,-7.28125,0.0],[111.51054,-7.28389,0.0],[111.50911,-7.28424,0.0],[111.50802,-7.29236,0.0],[111.5094,-7.29488,0.0],[111.51432,-7.29598,0.0],[111.5147,-7.29874,0.0],[111.51088,-7.30355,0.0],[111.51046,-7.30947,0.0],[111.50463,-7.30932,0.0],[111.50149,-7.30739,0.0],[111.49762,-7.3072,0.0],[111.49637,-7.30361,0.0],[111.49709,-7.30086,0.0],[111.49178,-7.29958,0.0],[111.48933,-7.2975,0.0],[111.48331,-7.29711,0.0],[111.4802,-7.29194,0.0],[111.48053,-7.2897,0.0],[111.47855,-7.28585,0.0],[111.47617,-7.28351,0.0],[111.48016,-7.27807,0.0],[111.48025,-7.27278,0.0],[111.47827,-7.26949,0.0],[111.46904,-7.26219,0.0],[111.4747,-7.25326,0.0],[111.47725,-7.2519,0.0],[111.48638,-7.2603,0.0],[111.49029,-7.26043,0.0],[111.49053,-7.25714,0.0],[111.48666,-7.2536,0.0],[111.48574,-7.25115,0.0],[111.48573,-7.24643,0.0],[111.48784,-7.24293,0.0],[111.49034,-7.24303,0.0],[111.50049,-7.2488,0.0],[111.50275,-7.24826,0.0],[111.51378,-7.23861,0.0],[111.52244,-7.23704,0.0],[111.52801,-7.22714,0.0],[111.52986,-7.22634,0.0],[111.54164,-7.22751,0.0],[111.54305,-7.2241,0.0],[111.53715,-7.21866,0.0],[111.53667,-7.21592,0.0],[111.54304,-7.21381,0.0],[111.54875,-7.20557,0.0],[111.55445,-7.20187,0.0],[111.55565,-7.20172,0.0],[111.56074,-7.20687,0.0],[111.5643,-7.20751,0.0],[111.56682,-7.2065,0.0],[111.57389,-7.20839,0.0],[111.58231,-7.21315,0.0],[111.59005,-7.21479,0.0],[111.60551,-7.21351,0.0],[111.60944,-7.21404,0.0],[111.6118,-7.21654,0.0],[111.60965,-7.21968,0.0],[111.59992,-7.22025,0.0],[111.60076,-7.22575,0.0],[111.59778,-7.22684,0.0],[111.5946,-7.23005,0.0],[111.59235,-7.23028,0.0],[111.59137,-7.22899,0.0],[111.59072,-7.2301,0.0],[111.58927,-7.22856,0.0],[111.58918,-7.2306,0.0],[111.59135,-7.23187,0.0],[111.59153,-7.23782,0.0],[111.58907,-7.24394,0.0],[111.58953,-7.25048,0.0],[111.59279,-7.25218,0.0],[111.59353,-7.25477,0.0],[111.5893,-7.26235,0.0],[111.583,-7.26697,0.0],[111.57534,-7.26541,0.0],[111.57541,-7.26337,0.0],[111.57187,-7.26183,0.0],[111.56961,-7.26277,0.0],[111.5677,-7.26664,0.0],[111.56558,-7.26798,0.0],[111.56734,-7.27141,0.0],[111.56454,-7.27792,0.0],[111.56613,-7.28138,0.0],[111.57147,-7.28662,0.0],[111.57161,-7.28906,0.0],[111.56793,-7.29136,0.0],[111.56482,-7.30255,0.0],[111.5599,-7.30409,0.0],[111.55935,-7.30532,0.0],[111.55663,-7.30503,0.0],[111.55545,-7.30815,0.0],[111.55292,-7.30922,0.0],[111.54672,-7.30709,0.0],[111.53934,-7.30738,0.0],[111.53401,-7.3013,0.0],[111.53627,-7.29791,0.0],[111.53878,-7.29704,0.0],[111.53734,-7.29414,0.0],[111.53868,-7.29298,0.0],[111.53906,-7.28661,0.0],[111.53764,-7.28459,0.0],[111.54179,-7.27758,0.0],[111.54169,-7.27505,0.0],[111.53862,-7.27267,0.0],[111.53598,-7.26795,0.0],[111.52897,-7.26674,0.0],[111.5266,-7.26453,0.0],[111.52046,-7.26307,0.0],[111.51673,-7.26718,0.0],[111.51364,-7.26579,0.0],[111.51414,-7.26718,0.0],[111.51236,-7.26765,0.0],[111.51391,-7.27012,0.0],[111.51197,-7.26982,0.0],[111.51243,-7.27266,0.0]]]}},{"type":"Feature","properties":{"kecamatan":"Tambakrejo","kab_kota":"Bojonegoro"},"geometry":{"type":"Polygon","coordinates":[[[111.63094,-7.35937,0.0],[111.62288,-7.36704,0.0],[111.62049,-7.36822,0.0],[111.61617,-7.36798,0.0],[111.61201,-7.37086,0.0],[111.60597,-7.36434,0.0],[111.59699,-7.35924,0.0],[111.59273,-7.35911,0.0],[111.59167,-7.35707,0.0],[111.58349,-7.35293,0.0],[111.58002,-7.35463,0.0],[111.57491,-7.34856,0.0],[111.56947,-7.35436,0.0],[111.56714,-7.35531,0.0],[111.56647,-7.35995,0.0],[111.56284,-7.35755,0.0],[111.56081,-7.35996,0.0],[111.55467,-7.35889,0.0],[111.55487,-7.35581,0.0],[111.55722,-7.35241,0.0],[111.55592,-7.35176,0.0],[111.5568,-7.35102,0.0],[111.55476,-7.3487,0.0],[111.55194,-7.34015,0.0],[111.55526,-7.33173,0.0],[111.55159,-7.32928,0.0],[111.55115,-7.32628,0.0],[111.55316,-7.32633,0.0],[111.55287,-7.32063,0.0],[111.55474,-7.32026,0.0],[111.55547,-7.31796,0.0],[111.55292,-7.30922,0.0],[111.55566,-7.30796,0.0],[111.55663,-7.30503,0.0],[111.55935,-7.30532,0.0],[111.5599,-7.30409,0.0],[111.56482,-7.30255,0.0],[111.56793,-7.29136,0.0],[111.57161,-7.28906,0.0],[111.57147,-7.28662,0.0],[111.56613,-7.28138,0.0],[111.56454,-7.27792,0.0],[111.56734,-7.27141,0.0],[111.56558,-7.26798,0.0],[111.5677,-7.26664,0.0],[111.56961,-7.26277,0.0],[111.57187,-7.26183,0.0],[111.57541,-7.26337,0.0],[111.57534,-7.26541,0.0],[111.583,-7.26697,0.0],[111.5893,-7.26235,0.0],[111.59353,-7.25477,0.0],[111.59279,-7.25218,0.0],[111.58953,-7.25048,0.0],[111.58907,-7.24394,0.0],[111.59153,-7.23782,0.0],[111.59135,-7.23187,0.0],[111.58918,-7.2306,0.0],[111.58927,-7.22856,0.0],[111.59057,-7.23004,0.0],[111.59145,-7.22899,0.0],[111.5935,-7.23039,0.0],[111.60076,-7.22575,0.0],[111.59992,-7.22025,0.0],[111.60965,-7.21968,0.0],[111.6118,-7.21654,0.0],[111.61612,-7.21518,0.0],[111.62073,-7.21673,0.0],[111.62092,-7.2127,0.0],[111.62376,-7.21254,0.0],[111.62351,-7.2106,0.0],[111.62959,-7.21501,0.0],[111.62919,-7.22054,0.0],[111.63095,-7.22512,0.0],[111.63275,-7.22564,0.0],[111.63145,-7.22664,0.0],[111.632,-7.23131,0.0],[111.631,-7.23307,0.0],[111.63248,-7.23572,0.0],[111.63871,-7.23659,0.0],[111.64048,-7.24613,0.0],[111.64292,-7.24737,0.0],[111.64893,-7.24556,0.0],[111.65425,-7.24224,0.0],[111.66518,-7.24606,0.0],[111.66781,-7.24874,0.0],[111.66723,-7.25293,0.0],[111.67136,-7.25994,0.0],[111.67043,-7.26341,0.0],[111.67105,-7.26552,0.0],[111.67335,-7.26654,0.0],[111.67279,-7.26926,0.0],[111.67701,-7.26899,0.0],[111.68742,-7.26535,0.0],[111.68615,-7.2582,0.0],[111.68757,-7.25397,0.0],[111.69127,-7.25072,0.0],[111.69077,-7.24951,0.0],[111.69255,-7.24789,0.0],[111.70754,-7.24755,0.0],[111.70949,-7.24801,0.0],[111.70857,-7.2504,0.0],[111.71017,-7.25066,0.0],[111.71055,-7.25222,0.0],[111.70863,-7.25474,0.0],[111.71157,-7.25573,0.0],[111.71234,-7.25721,0.0],[111.71069,-7.26114,0.0],[111.71376,-7.25979,0.0],[111.71437,-7.25767,0.0],[111.71765,-7.25884,0.0],[111.71548,-7.26081,0.0],[111.71704,-7.26113,0.0],[111.71682,-7.26464,0.0],[111.71869,-7.26482,0.0],[111.71863,-7.26849,0.0],[111.72016,-7.26857,0.0],[111.72014,-7.2702,0.0],[111.72151,-7.26885,0.0],[111.72361,-7.26933,0.0],[111.72336,-7.27086,0.0],[111.72105,-7.27034,0.0],[111.72135,-7.27169,0.0],[111.72454,-7.27157,0.0],[111.72608,-7.27325,0.0],[111.72475,-7.27845,0.0],[111.72619,-7.27895,0.0],[111.72473,-7.28133,0.0],[111.72316,-7.28186,0.0],[111.72213,-7.27992,0.0],[111.71778,-7.28138,0.0],[111.71146,-7.28103,0.0],[111.70628,-7.2839,0.0],[111.70498,-7.28784,0.0],[111.70022,-7.28928,0.0],[111.70113,-7.29297,0.0],[111.69607,-7.301,0.0],[111.69834,-7.30375,0.0],[111.69972,-7.31309,0.0],[111.69765,-7.31604,0.0],[111.69891,-7.32702,0.0],[111.69546,-7.32906,0.0],[111.69607,-7.33277,0.0],[111.69435,-7.33353,0.0],[111.69541,-7.33584,0.0],[111.68327,-7.33827,0.0],[111.654,-7.35412,0.0],[111.63912,-7.35845,0.0],[111.63094,-7.35937,0.0]]]}},{"type":"Feature","properties":{"kecamatan":"Sugihwaras","kab_kota":"Bojonegoro"},"geometry":{"type":"Polygon","coordinates":[[[111.96256,-7.37007,0.0],[111.96013,-7.36844,0.0],[111.957,-7.36184,0.0],[111.95786,-7.36134,0.0],[111.95715,-7.35968,0.0],[111.95283,-7.3593,0.0],[111.95053,-7.357,0.0],[111.94916,-7.35788,0.0],[111.94652,-7.35289,0.0],[111.9441,-7.3533,0.0],[111.94189,-7.35569,0.0],[111.94153,-7.35391,0.0],[111.93765,-7.35414,0.0],[111.9359,-7.35155,0.0],[111.93736,-7.35104,0.0],[111.93703,-7.3501,0.0],[111.93583,-7.34971,0.0],[111.93822,-7.34799,0.0],[111.93764,-7.34603,0.0],[111.93149,-7.34708,0.0],[111.93337,-7.34394,0.0],[111.93238,-7.34221,0.0],[111.93362,-7.33937,0.0],[111.92944,-7.33315,0.0],[111.93182,-7.33351,0.0],[111.93373,-7.33547,0.0],[111.93729,-7.33268,0.0],[111.94459,-7.33013,0.0],[111.94416,-7.32828,0.0],[111.94307,-7.3265,0.0],[111.93836,-7.32455,0.0],[111.93369,-7.31681,0.0],[111.92626,-7.31344,0.0],[111.92474,-7.30949,0.0],[111.92267,-7.30801,0.0],[111.92315,-7.3056,0.0],[111.92087,-7.3067,0.0],[111.91923,-7.3061,0.0],[111.92071,-7.30398,0.0],[111.92018,-7.30252,0.0],[111.91876,-7.30358,0.0],[111.91865,-7.30107,0.0],[111.91964,-7.30055,0.0],[111.91563,-7.29853,0.0],[111.91619,-7.29607,0.0],[111.91366,-7.296,0.0],[111.91756,-7.28893,0.0],[111.92488,-7.2883,0.0],[111.92547,-7.27949,0.0],[111.92821,-7.27875,0.0],[111.92943,-7.27583,0.0],[111.93158,-7.27642,0.0],[111.9325,-7.27949,0.0],[111.93139,-7.27983,0.0],[111.9349,-7.28389,0.0],[111.93776,-7.28443,0.0],[111.94616,-7.27493,0.0],[111.94964,-7.27566,0.0],[111.95449,-7.27456,0.0],[111.95515,-7.26937,0.0],[111.95366,-7.26901,0.0],[111.95443,-7.26097,0.0],[111.96112,-7.26245,0.0],[111.96143,-7.26157,0.0],[111.969,-7.26453,0.0],[111.9719,-7.27746,0.0],[111.97774,-7.27947,0.0],[111.98311,-7.27956,0.0],[111.98535,-7.28169,0.0],[111.98269,-7.28557,0.0],[111.98324,-7.28878,0.0],[111.98629,-7.28885,0.0],[111.9874,-7.29166,0.0],[111.98652,-7.29333,0.0],[111.9885,-7.29498,0.0],[111.99293,-7.29371,0.0],[111.99298,-7.29552,0.0],[111.99169,-7.29585,0.0],[111.99286,-7.29875,0.0],[111.99133,-7.30165,0.0],[111.99313,-7.30258,0.0],[111.99065,-7.30435,0.0],[111.99135,-7.30533,0.0],[111.98969,-7.30821,0.0],[111.99098,-7.31247,0.0],[111.99604,-7.31471,0.0],[111.99511,-7.31773,0.0],[111.99258,-7.31993,0.0],[111.99399,-7.3216,0.0],[111.99619,-7.32182,0.0],[111.99609,-7.32357,0.0],[111.99754,-7.32432,0.0],[111.99688,-7.3269,0.0],[111.99854,-7.32817,0.0],[111.99542,-7.33078,0.0],[111.99444,-7.33423,0.0],[111.99649,-7.33697,0.0],[111.99577,-7.34085,0.0],[112.00183,-7.34282,0.0],[112.00435,-7.35428,0.0],[112.00726,-7.35697,0.0],[112.00545,-7.36564,0.0],[112.00857,-7.38004,0.0],[112.00555,-7.38837,0.0],[112.00935,-7.39474,0.0],[112.00645,-7.40434,0.0],[111.99867,-7.40338,0.0],[111.98372,-7.40742,0.0],[111.98093,-7.39971,0.0],[111.97295,-7.39169,0.0],[111.97238,-7.38894,0.0],[111.96856,-7.38492,0.0],[111.96753,-7.38169,0.0],[111.96322,-7.37799,0.0],[111.96197,-7.37275,0.0],[111.96256,-7.37007,0.0]]]}},{"type":"Feature","properties":{"kecamatan":"Kedungadem","kab_kota":"Bojonegoro"},"geometry":{"type":"Polygon","coordinates":[[[112.08947,-7.36581,0.0],[112.08933,-7.36849,0.0],[112.08601,-7.36938,0.0],[112.08527,-7.3727,0.0],[112.08663,-7.37412,0.0],[112.08488,-7.37849,0.0],[112.08015,-7.38398,0.0],[112.07561,-7.38395,0.0],[112.0754,-7.38792,0.0],[112.07128,-7.39135,0.0],[112.06929,-7.39702,0.0],[112.06437,-7.39544,0.0],[112.05697,-7.396,0.0],[112.05193,-7.39402,0.0],[112.0463,-7.39378,0.0],[112.04787,-7.39961,0.0],[112.03518,-7.40184,0.0],[112.03172,-7.39977,0.0],[112.02979,-7.40018,0.0],[112.02817,-7.39707,0.0],[112.02419,-7.39559,0.0],[112.02024,-7.39991,0.0],[112.01965,-7.40983,0.0],[112.01643,-7.40715,0.0],[112.00645,-7.40434,0.0],[112.00935,-7.39474,0.0],[112.00555,-7.38837,0.0],[112.00857,-7.38004,0.0],[112.00545,-7.36564,0.0],[112.00726,-7.35697,0.0],[112.00435,-7.35428,0.0],[112.00183,-7.34282,0.0],[111.99577,-7.34085,0.0],[111.99649,-7.33697,0.0],[111.99444,-7.33423,0.0],[111.99542,-7.33078,0.0],[111.99854,-7.32817,0.0],[111.99688,-7.3269,0.0],[111.99754,-7.32432,0.0],[111.99609,-7.32357,0.0],[111.99619,-7.32182,0.0],[111.99399,-7.3216,0.0],[111.99258,-7.31993,0.0],[111.99511,-7.31773,0.0],[111.99604,-7.31471,0.0],[111.99098,-7.31247,0.0],[111.98969,-7.30821,0.0],[111.99135,-7.30533,0.0],[111.99065,-7.30435,0.0],[111.99313,-7.30258,0.0],[111.99133,-7.30165,0.0],[111.99286,-7.29875,0.0],[111.99169,-7.29585,0.0],[111.99298,-7.29552,0.0],[111.99293,-7.29371,0.0],[111.9885,-7.29498,0.0],[111.98652,-7.29333,0.0],[111.9874,-7.29166,0.0],[111.98629,-7.28885,0.0],[111.98304,-7.28816,0.0],[111.98269,-7.28557,0.0],[111.98534,-7.28157,0.0],[111.98236,-7.27957,0.0],[111.98098,-7.27685,0.0],[111.98023,-7.25915,0.0],[111.98137,-7.25634,0.0],[111.98014,-7.25375,0.0],[111.97902,-7.25382,0.0],[111.98069,-7.25254,0.0],[111.97786,-7.25283,0.0],[111.97946,-7.25119,0.0],[111.97743,-7.25098,0.0],[111.97731,-7.24818,0.0],[111.98008,-7.2449,0.0],[111.98278,-7.24519,0.0],[111.98233,-7.24123,0.0],[111.98401,-7.241,0.0],[111.98578,-7.24272,0.0],[111.98993,-7.23656,0.0],[111.99174,-7.23861,0.0],[111.99276,-7.23742,0.0],[112.00393,-7.23948,0.0],[112.00404,-7.24565,0.0],[112.0059,-7.24673,0.0],[112.00487,-7.2475,0.0],[112.00661,-7.24899,0.0],[112.0046,-7.25048,0.0],[112.00434,-7.25331,0.0],[112.00642,-7.25432,0.0],[112.00729,-7.25284,0.0],[112.00869,-7.25332,0.0],[112.0079,-7.25521,0.0],[112.01402,-7.2579,0.0],[112.01351,-7.26146,0.0],[112.01781,-7.26274,0.0],[112.01823,-7.26502,0.0],[112.022,-7.26516,0.0],[112.0219,-7.26648,0.0],[112.02528,-7.26644,0.0],[112.02736,-7.25956,0.0],[112.03449,-7.25521,0.0],[112.03216,-7.25019,0.0],[112.03228,-7.24711,0.0],[112.03338,-7.2463,0.0],[112.03172,-7.24163,0.0],[112.03765,-7.24301,0.0],[112.04094,-7.246,0.0],[112.04321,-7.246,0.0],[112.04852,-7.24929,0.0],[112.05385,-7.2499,0.0],[112.05626,-7.25197,0.0],[112.0584,-7.24825,0.0],[112.06151,-7.24859,0.0],[112.06171,-7.25174,0.0],[112.05996,-7.25626,0.0],[112.06353,-7.25738,0.0],[112.06333,-7.26224,0.0],[112.06706,-7.26313,0.0],[112.06831,-7.26516,0.0],[112.07044,-7.26489,0.0],[112.0821,-7.26951,0.0],[112.08301,-7.27154,0.0],[112.0806,-7.2744,0.0],[112.08143,-7.27647,0.0],[112.07936,-7.27945,0.0],[112.0794,-7.28266,0.0],[112.08618,-7.28354,0.0],[112.089,-7.28597,0.0],[112.08684,-7.28885,0.0],[112.08545,-7.28792,0.0],[112.08521,-7.28943,0.0],[112.08741,-7.29047,0.0],[112.08715,-7.2927,0.0],[112.08862,-7.29335,0.0],[112.09002,-7.29808,0.0],[112.08727,-7.30294,0.0],[112.09003,-7.304,0.0],[112.08833,-7.30664,0.0],[112.08581,-7.30782,0.0],[112.08406,-7.3057,0.0],[112.07973,-7.31343,0.0],[112.07713,-7.31329,0.0],[112.07832,-7.32418,0.0],[112.07484,-7.32525,0.0],[112.07256,-7.33347,0.0],[112.07674,-7.33662,0.0],[112.07666,-7.3409,0.0],[112.07983,-7.34679,0.0],[112.085,-7.35029,0.0],[112.0861,-7.35441,0.0],[112.08479,-7.35434,0.0],[112.08446,-7.35663,0.0],[112.089,-7.35847,0.0],[112.08936,-7.36153,0.0],[112.08791,-7.36337,0.0],[112.08947,-7.36581,0.0]]]}},{"type":"Feature","properties":{"kecamatan":"Bubulan","kab_kota":"Bojonegoro"},"geometry":{"type":"Polygon","coordinates":[[[111.81964,-7.36569,0.0],[111.81901,-7.37108,0.0],[111.817,-7.37353,0.0],[111.806,-7.36186,0.0],[111.78591,-7.35342,0.0],[111.78487,-7.35456,0.0],[111.78477,-7.35247,0.0],[111.78188,-7.35188,0.0],[111.78352,-7.34549,0.0],[111.7814,-7.34243,0.0],[111.78316,-7.34272,0.0],[111.78267,-7.34084,0.0],[111.78096,-7.34037,0.0],[111.78056,-7.33887,0.0],[111.7789,-7.33887,0.0],[111.77825,-7.34065,0.0],[111.77764,-7.33872,0.0],[111.77604,-7.33918,0.0],[111.77589,-7.33655,0.0],[111.77725,-7.33687,0.0],[111.77845,-7.33209,0.0],[111.78696,-7.32626,0.0],[111.78932,-7.3063,0.0],[111.79054,-7.3025,0.0],[111.79559,-7.30187,0.0],[111.79732,-7.28193,0.0],[111.79953,-7.27526,0.0],[111.80318,-7.27096,0.0],[111.80346,-7.26838,0.0],[111.80638,-7.27012,0.0],[111.80915,-7.27504,0.0],[111.81424,-7.27986,0.0],[111.82013,-7.28398,0.0],[111.82368,-7.28368,0.0],[111.83229,-7.28629,0.0],[111.84184,-7.28603,0.0],[111.8466,-7.28941,0.0],[111.85191,-7.28802,0.0],[111.8559,-7.29009,0.0],[111.8633,-7.2899,0.0],[111.86834,-7.29183,0.0],[111.87094,-7.29385,0.0],[111.87066,-7.29876,0.0],[111.88063,-7.31243,0.0],[111.88073,-7.31535,0.0],[111.8781,-7.31592,0.0],[111.88368,-7.31876,0.0],[111.88379,-7.32084,0.0],[111.88478,-7.31884,0.0],[111.88719,-7.31947,0.0],[111.89106,-7.31759,0.0],[111.89425,-7.3195,0.0],[111.8946,-7.32144,0.0],[111.89341,-7.32952,0.0],[111.88067,-7.32852,0.0],[111.87803,-7.32732,0.0],[111.87549,-7.32932,0.0],[111.87258,-7.32846,0.0],[111.86799,-7.33159,0.0],[111.86533,-7.33946,0.0],[111.8624,-7.34191,0.0],[111.8619,-7.3469,0.0],[111.86306,-7.35476,0.0],[111.87052,-7.36236,0.0],[111.86942,-7.36348,0.0],[111.86699,-7.36393,0.0],[111.86203,-7.36148,0.0],[111.85889,-7.36177,0.0],[111.85706,-7.36337,0.0],[111.86097,-7.36392,0.0],[111.86055,-7.3656,0.0],[111.85288,-7.36593,0.0],[111.83903,-7.36279,0.0],[111.83181,-7.3637,0.0],[111.82433,-7.36273,0.0],[111.82259,-7.36211,0.0],[111.82188,-7.35981,0.0],[111.8224,-7.35564,0.0],[111.82123,-7.35133,0.0],[111.81456,-7.35395,0.0],[111.81964,-7.36569,0.0]]]}},{"type":"Feature","properties":{"kecamatan":"Dander","kab_kota":"Bojonegoro"},"geometry":{"type":"Polygon","coordinates":[[[111.80915,-7.27504,0.0],[111.80638,-7.27012,0.0],[111.80364,-7.26836,0.0],[111.80428,-7.26601,0.0],[111.79932,-7.26129,0.0],[111.79704,-7.25495,0.0],[111.79713,-7.25,0.0],[111.79127,-7.23883,0.0],[111.79914,-7.21315,0.0],[111.79901,-7.20723,0.0],[111.80473,-7.20507,0.0],[111.80766,-7.19832,0.0],[111.80947,-7.19806,0.0],[111.81136,-7.19382,0.0],[111.81723,-7.19064,0.0],[111.81828,-7.18782,0.0],[111.82085,-7.1862,0.0],[111.82015,-7.18291,0.0],[111.82162,-7.17792,0.0],[111.81827,-7.17634,0.0],[111.81901,-7.17468,0.0],[111.82171,-7.17402,0.0],[111.82056,-7.17167,0.0],[111.82175,-7.17027,0.0],[111.83517,-7.16835,0.0],[111.83557,-7.16576,0.0],[111.84268,-7.15431,0.0],[111.84674,-7.15504,0.0],[111.85163,-7.15172,0.0],[111.85429,-7.14038,0.0],[111.85657,-7.13965,0.0],[111.85786,-7.14136,0.0],[111.85866,-7.15098,0.0],[111.85832,-7.1643,0.0],[111.85394,-7.16858,0.0],[111.8543,-7.17097,0.0],[111.86576,-7.17539,0.0],[111.86632,-7.17699,0.0],[111.8693,-7.17802,0.0],[111.86919,-7.18436,0.0],[111.87162,-7.18484,0.0],[111.86808,-7.20106,0.0],[111.87281,-7.20327,0.0],[111.87236,-7.20509,0.0],[111.87373,-7.2056,0.0],[111.87187,-7.22768,0.0],[111.8694,-7.22879,0.0],[111.86843,-7.23557,0.0],[111.87084,-7.23644,0.0],[111.87242,-7.2351,0.0],[111.87697,-7.23507,0.0],[111.88797,-7.23966,0.0],[111.89747,-7.24,0.0],[111.89893,-7.24126,0.0],[111.89951,-7.25117,0.0],[111.89385,-7.2731,0.0],[111.88862,-7.28167,0.0],[111.8861,-7.28157,0.0],[111.88259,-7.29535,0.0],[111.87821,-7.29578,0.0],[111.87438,-7.30118,0.0],[111.87925,-7.31011,0.0],[111.87066,-7.29876,0.0],[111.87094,-7.29385,0.0],[111.8657,-7.29043,0.0],[111.8559,-7.29009,0.0],[111.85191,-7.28802,0.0],[111.84725,-7.28954,0.0],[111.84184,-7.28603,0.0],[111.83229,-7.28629,0.0],[111.82368,-7.28368,0.0],[111.82013,-7.28398,0.0],[111.80915,-7.27504,0.0]]]}},{"type":"Feature","properties":{"kecamatan":"Kepohbaru","kab_kota":"Bojonegoro"},"geometry":{"type":"MultiPolygon","coordinates":[[[[112.08712,-7.23005,0.0],[112.08913,-7.23065,0.0],[112.08833,-7.23768,0.0],[112.08947,-7.23888,0.0],[112.08898,-7.23976,0.0],[112.08764,-7.23897,0.0],[112.08734,-7.24171,0.0],[112.08498,-7.24236,0.0],[112.08701,-7.2424,0.0],[112.08709,-7.24434,0.0],[112.08562,-7.24458,0.0],[112.08686,-7.24514,0.0],[112.08691,-7.24715,0.0],[112.08539,-7.24744,0.0],[112.08535,-7.24916,0.0],[112.08385,-7.25,0.0],[112.08642,-7.25063,0.0],[112.08809,-7.25298,0.0],[112.08385,-7.25499,0.0],[112.08533,-7.25741,0.0],[112.08434,-7.25958,0.0],[112.08523,-7.26234,0.0],[112.08693,-7.26225,0.0],[112.08757,-7.26703,0.0],[112.09218,-7.26669,0.0],[112.09442,-7.26932,0.0],[112.09194,-7.27208,0.0],[112.09318,-7.27309,0.0],[112.09133,-7.27434,0.0],[112.09164,-7.27739,0.0],[112.0901,-7.27828,0.0],[112.09116,-7.28222,0.0],[112.0849,-7.28358,0.0],[112.0794,-7.28266,0.0],[112.07936,-7.27945,0.0],[112.08143,-7.27647,0.0],[112.0806,-7.2744,0.0],[112.08301,-7.27154,0.0],[112.08229,-7.26977,0.0],[112.07147,-7.26589,0.0],[112.06991,-7.26219,0.0],[112.06755,-7.25096,0.0],[112.06808,-7.24567,0.0],[112.071,-7.23882,0.0],[112.07046,-7.23753,0.0],[112.06566,-7.23618,0.0],[112.06489,-7.22905,0.0],[112.06654,-7.22574,0.0],[112.06616,-7.22197,0.0],[112.06945,-7.20866,0.0],[112.06838,-7.20771,0.0],[112.06902,-7.20478,0.0],[112.06684,-7.20412,0.0],[112.06574,-7.20225,0.0],[112.06625,-7.1906,0.0],[112.06048,-7.189,0.0],[112.05805,-7.18347,0.0],[112.05517,-7.18322,0.0],[112.05196,-7.18404,0.0],[112.05061,-7.18593,0.0],[112.04944,-7.18543,0.0],[112.05113,-7.18252,0.0],[112.05175,-7.17481,0.0],[112.05325,-7.17498,0.0],[112.05367,-7.1735,0.0],[112.05183,-7.17282,0.0],[112.05249,-7.16518,0.0],[112.05061,-7.16015,0.0],[112.05616,-7.15698,0.0],[112.05675,-7.15954,0.0],[112.05978,-7.16014,0.0],[112.05837,-7.16453,0.0],[112.05929,-7.16628,0.0],[112.06116,-7.16792,0.0],[112.06337,-7.16796,0.0],[112.06667,-7.15792,0.0],[112.06673,-7.15385,0.0],[112.07438,-7.15381,0.0],[112.08524,-7.14517,0.0],[112.0896,-7.14621,0.0],[112.09439,-7.14926,0.0],[112.09511,-7.14744,0.0],[112.09871,-7.14786,0.0],[112.09938,-7.1469,0.0],[112.09804,-7.15,0.0],[112.09957,-7.15118,0.0],[112.09911,-7.15498,0.0],[112.10132,-7.15488,0.0],[112.10486,-7.1412,0.0],[112.10783,-7.1347,0.0],[112.11339,-7.13095,0.0],[112.12032,-7.13168,0.0],[112.11914,-7.13345,0.0],[112.1205,-7.13468,0.0],[112.12229,-7.13402,0.0],[112.12217,-7.13577,0.0],[112.12569,-7.13607,0.0],[112.12546,-7.13791,0.0],[112.12791,-7.13632,0.0],[112.12939,-7.13698,0.0],[112.12787,-7.14626,0.0],[112.13068,-7.14756,0.0],[112.13165,-7.1455,0.0],[112.14549,-7.15119,0.0],[112.14477,-7.15782,0.0],[112.13961,-7.15799,0.0],[112.1385,-7.162,0.0],[112.13997,-7.16275,0.0],[112.13663,-7.16486,0.0],[112.13406,-7.1757,0.0],[112.13296,-7.17534,0.0],[112.12997,-7.18368,0.0],[112.12637,-7.18338,0.0],[112.12417,-7.18579,0.0],[112.12464,-7.19037,0.0],[112.12224,-7.19141,0.0],[112.12337,-7.19296,0.0],[112.1219,-7.19744,0.0],[112.12023,-7.19873,0.0],[112.12125,-7.2027,0.0],[112.12028,-7.20252,0.0],[112.12065,-7.20426,0.0],[112.11919,-7.20431,0.0],[112.12112,-7.20563,0.0],[112.11708,-7.20693,0.0],[112.11687,-7.21006,0.0],[112.11845,-7.21213,0.0],[112.11376,-7.21311,0.0],[112.11302,-7.21707,0.0],[112.10961,-7.21893,0.0],[112.10934,-7.2225,0.0],[112.09658,-7.22839,0.0],[112.09447,-7.227,0.0],[112.09258,-7.22307,0.0],[112.09334,-7.22482,0.0],[112.09134,-7.22559,0.0],[112.0919,-7.22627,0.0],[112.09005,-7.22714,0.0],[112.08948,-7.22939,0.0],[112.08712,-7.23005,0.0]]],[[[112.09136,-7.13896,0.0],[112.09011,-7.13998,0.0],[112.09065,-7.13839,0.0],[112.09136,-7.13896,0.0]]]]}},{"type":"Feature","properties":{"kecamatan":"Baureno","kab_kota":"Bojonegoro"},"geometry":{"type":"Polygon","coordinates":[[[112.08378,-7.1458,0.0],[112.07226,-7.15453,0.0],[112.06673,-7.15385,0.0],[112.06425,-7.16722,0.0],[112.06228,-7.16806,0.0],[112.05887,-7.16564,0.0],[112.05978,-7.16014,0.0],[112.05675,-7.15954,0.0],[112.05616,-7.15698,0.0],[112.05055,-7.16018,0.0],[112.04847,-7.15559,0.0],[112.039,-7.15121,0.0],[112.03832,-7.14914,0.0],[112.04594,-7.14449,0.0],[112.04584,-7.13671,0.0],[112.05047,-7.13494,0.0],[112.05239,-7.13087,0.0],[112.05055,-7.125,0.0],[112.05301,-7.11318,0.0],[112.06132,-7.11327,0.0],[112.06307,-7.10397,0.0],[112.06772,-7.10007,0.0],[112.06892,-7.10051,0.0],[112.06952,-7.09779,0.0],[112.07105,-7.09695,0.0],[112.0728,-7.08959,0.0],[112.07119,-7.08934,0.0],[112.0717,-7.08531,0.0],[112.07683,-7.08306,0.0],[112.07781,-7.07739,0.0],[112.08022,-7.07573,0.0],[112.07856,-7.07145,0.0],[112.08022,-7.066,0.0],[112.08405,-7.06711,0.0],[112.08406,-7.08228,0.0],[112.08661,-7.08613,0.0],[112.10014,-7.08842,0.0],[112.10876,-7.08702,0.0],[112.11524,-7.08953,0.0],[112.12161,-7.08838,0.0],[112.12457,-7.08944,0.0],[112.124,-7.09224,0.0],[112.11853,-7.09529,0.0],[112.11742,-7.09758,0.0],[112.1195,-7.10457,0.0],[112.12186,-7.10768,0.0],[112.12488,-7.10834,0.0],[112.12715,-7.10681,0.0],[112.12712,-7.09953,0.0],[112.12934,-7.0972,0.0],[112.13129,-7.09702,0.0],[112.14429,-7.10628,0.0],[112.147,-7.10151,0.0],[112.15139,-7.10093,0.0],[112.15134,-7.10353,0.0],[112.14623,-7.10673,0.0],[112.1522,-7.10942,0.0],[112.15251,-7.11599,0.0],[112.15431,-7.11585,0.0],[112.1541,-7.11981,0.0],[112.15854,-7.11835,0.0],[112.15877,-7.11615,0.0],[112.16381,-7.11534,0.0],[112.16408,-7.11287,0.0],[112.16544,-7.11292,0.0],[112.16559,-7.1185,0.0],[112.16428,-7.11862,0.0],[112.16138,-7.12305,0.0],[112.16259,-7.13206,0.0],[112.16007,-7.1417,0.0],[112.15757,-7.14207,0.0],[112.15644,-7.14505,0.0],[112.1517,-7.14947,0.0],[112.15085,-7.15413,0.0],[112.15237,-7.15535,0.0],[112.15093,-7.15842,0.0],[112.14477,-7.15782,0.0],[112.14514,-7.15093,0.0],[112.13165,-7.1455,0.0],[112.13068,-7.14756,0.0],[112.12787,-7.14626,0.0],[112.12939,-7.13698,0.0],[112.12726,-7.13648,0.0],[112.12565,-7.13801,0.0],[112.12569,-7.13607,0.0],[112.12217,-7.13577,0.0],[112.12229,-7.13402,0.0],[112.1205,-7.13468,0.0],[112.11914,-7.13345,0.0],[112.12032,-7.13168,0.0],[112.1159,-7.13091,0.0],[112.11031,-7.13213,0.0],[112.10665,-7.13648,0.0],[112.10132,-7.15488,0.0],[112.09911,-7.15498,0.0],[112.09957,-7.15118,0.0],[112.09804,-7.15,0.0],[112.09938,-7.1469,0.0],[112.09871,-7.14786,0.0],[112.09511,-7.14744,0.0],[112.09439,-7.14926,0.0],[112.08598,-7.14517,0.0],[112.08378,-7.1458,0.0]],[[112.09023,-7.14047,0.0],[112.09136,-7.13896,0.0],[112.09065,-7.13839,0.0],[112.09023,-7.14047,0.0]]]}},{"type":"Feature","properties":{"kecamatan":"Kanor","kab_kota":"Bojonegoro"},"geometry":{"type":"Polygon","coordinates":[[[112.02782,-7.1627,0.0],[112.02458,-7.1657,0.0],[112.02379,-7.16866,0.0],[112.02043,-7.1679,0.0],[112.01847,-7.16874,0.0],[112.01524,-7.1668,0.0],[112.00924,-7.1675,0.0],[112.00478,-7.16472,0.0],[112.00584,-7.16203,0.0],[112.00321,-7.16119,0.0],[112.00229,-7.16468,0.0],[111.99623,-7.16364,0.0],[111.99293,-7.16101,0.0],[111.99261,-7.16231,0.0],[111.98985,-7.16268,0.0],[111.9893,-7.16383,0.0],[111.98723,-7.16269,0.0],[111.98797,-7.15868,0.0],[111.98473,-7.15875,0.0],[111.98314,-7.15539,0.0],[111.98587,-7.13933,0.0],[111.99366,-7.12776,0.0],[111.99399,-7.11605,0.0],[111.99507,-7.11445,0.0],[111.99779,-7.11395,0.0],[111.99955,-7.11574,0.0],[111.9995,-7.11816,0.0],[111.9975,-7.12066,0.0],[111.99897,-7.12498,0.0],[112.00654,-7.13128,0.0],[112.01056,-7.13027,0.0],[112.01095,-7.12515,0.0],[112.00512,-7.11539,0.0],[112.00323,-7.10925,0.0],[112.00552,-7.1054,0.0],[112.01443,-7.10216,0.0],[112.01265,-7.09894,0.0],[112.00628,-7.09581,0.0],[112.0063,-7.09343,0.0],[112.01296,-7.09373,0.0],[112.01899,-7.08996,0.0],[112.02069,-7.08649,0.0],[112.02026,-7.08283,0.0],[112.01572,-7.07561,0.0],[112.01566,-7.06991,0.0],[112.01891,-7.06781,0.0],[112.02511,-7.06854,0.0],[112.02826,-7.07146,0.0],[112.02971,-7.07755,0.0],[112.03187,-7.07908,0.0],[112.03527,-7.0772,0.0],[112.03872,-7.07135,0.0],[112.04282,-7.07054,0.0],[112.04529,-7.07199,0.0],[112.04533,-7.07453,0.0],[112.04465,-7.07605,0.0],[112.03984,-7.07854,0.0],[112.03947,-7.08035,0.0],[112.04131,-7.08174,0.0],[112.04809,-7.07627,0.0],[112.05131,-7.0772,0.0],[112.05471,-7.0728,0.0],[112.06578,-7.07233,0.0],[112.08022,-7.066,0.0],[112.07856,-7.07145,0.0],[112.08022,-7.07573,0.0],[112.07781,-7.07739,0.0],[112.07683,-7.08306,0.0],[112.0717,-7.08531,0.0],[112.07119,-7.08934,0.0],[112.0728,-7.08959,0.0],[112.07105,-7.09695,0.0],[112.06952,-7.09779,0.0],[112.06892,-7.10051,0.0],[112.06772,-7.10007,0.0],[112.06307,-7.10397,0.0],[112.06132,-7.11327,0.0],[112.05301,-7.11318,0.0],[112.05055,-7.125,0.0],[112.05239,-7.13087,0.0],[112.05047,-7.13494,0.0],[112.04584,-7.13671,0.0],[112.04594,-7.14449,0.0],[112.03832,-7.14914,0.0],[112.039,-7.15121,0.0],[112.04847,-7.15559,0.0],[112.05055,-7.16018,0.0],[112.04781,-7.16138,0.0],[112.04428,-7.16038,0.0],[112.04346,-7.16257,0.0],[112.03986,-7.16289,0.0],[112.03699,-7.15911,0.0],[112.03343,-7.16183,0.0],[112.02782,-7.1627,0.0]]]}},{"type":"Feature","properties":{"kecamatan":"Kapas","kab_kota":"Bojonegoro"},"geometry":{"type":"Polygon","coordinates":[[[111.90347,-7.22541,0.0],[111.90218,-7.23398,0.0],[111.89749,-7.24017,0.0],[111.88797,-7.23966,0.0],[111.87697,-7.23507,0.0],[111.87242,-7.2351,0.0],[111.87084,-7.23644,0.0],[111.86843,-7.23557,0.0],[111.8694,-7.22879,0.0],[111.87187,-7.22768,0.0],[111.87373,-7.2056,0.0],[111.87236,-7.20509,0.0],[111.87281,-7.20327,0.0],[111.86808,-7.20106,0.0],[111.86915,-7.19387,0.0],[111.87162,-7.18484,0.0],[111.87615,-7.18568,0.0],[111.87765,-7.18137,0.0],[111.8809,-7.18212,0.0],[111.88226,-7.17967,0.0],[111.89001,-7.17693,0.0],[111.89114,-7.17421,0.0],[111.89957,-7.16574,0.0],[111.89884,-7.16359,0.0],[111.89769,-7.1635,0.0],[111.89846,-7.16116,0.0],[111.90161,-7.16175,0.0],[111.90602,-7.15502,0.0],[111.90979,-7.15603,0.0],[111.91294,-7.15133,0.0],[111.9151,-7.1447,0.0],[111.91802,-7.1422,0.0],[111.91986,-7.14215,0.0],[111.92381,-7.14748,0.0],[111.92147,-7.14852,0.0],[111.91622,-7.15851,0.0],[111.91608,-7.15999,0.0],[111.91978,-7.16112,0.0],[111.91644,-7.16669,0.0],[111.91572,-7.17055,0.0],[111.91777,-7.17092,0.0],[111.91748,-7.17257,0.0],[111.9224,-7.16977,0.0],[111.9252,-7.15984,0.0],[111.92843,-7.15998,0.0],[111.92883,-7.16803,0.0],[111.93173,-7.16898,0.0],[111.93333,-7.16018,0.0],[111.94394,-7.15702,0.0],[111.94357,-7.1591,0.0],[111.93902,-7.15928,0.0],[111.94241,-7.1602,0.0],[111.9413,-7.16297,0.0],[111.93805,-7.16195,0.0],[111.93708,-7.16012,0.0],[111.93526,-7.1609,0.0],[111.94032,-7.16482,0.0],[111.94225,-7.16456,0.0],[111.94104,-7.16752,0.0],[111.93927,-7.16743,0.0],[111.93634,-7.16379,0.0],[111.93398,-7.16592,0.0],[111.93922,-7.16844,0.0],[111.93865,-7.17183,0.0],[111.93997,-7.17459,0.0],[111.93873,-7.17562,0.0],[111.94317,-7.17714,0.0],[111.94438,-7.1821,0.0],[111.94167,-7.18322,0.0],[111.9443,-7.18451,0.0],[111.94436,-7.18564,0.0],[111.94248,-7.18563,0.0],[111.9427,-7.18772,0.0],[111.94063,-7.18787,0.0],[111.94119,-7.18967,0.0],[111.9384,-7.1915,0.0],[111.93851,-7.1943,0.0],[111.94092,-7.19561,0.0],[111.93827,-7.19455,0.0],[111.93797,-7.1969,0.0],[111.93609,-7.19447,0.0],[111.93642,-7.19993,0.0],[111.93445,-7.20154,0.0],[111.93329,-7.20097,0.0],[111.93482,-7.203,0.0],[111.93212,-7.20327,0.0],[111.93165,-7.20716,0.0],[111.92944,-7.20679,0.0],[111.92886,-7.2046,0.0],[111.92877,-7.20624,0.0],[111.92754,-7.20594,0.0],[111.92729,-7.20697,0.0],[111.92492,-7.20493,0.0],[111.91992,-7.20554,0.0],[111.91832,-7.2035,0.0],[111.92022,-7.20309,0.0],[111.92075,-7.20065,0.0],[111.91915,-7.19962,0.0],[111.91603,-7.20205,0.0],[111.91823,-7.20644,0.0],[111.91562,-7.2128,0.0],[111.91213,-7.21391,0.0],[111.91227,-7.20861,0.0],[111.9061,-7.20554,0.0],[111.90448,-7.21521,0.0],[111.90586,-7.22059,0.0],[111.90347,-7.22541,0.0]]]}},{"type":"Feature","properties":{"kecamatan":"Bojonegoro","kab_kota":"Bojonegoro"},"geometry":{"type":"Polygon","coordinates":[[[111.88226,-7.17967,0.0],[111.88079,-7.18215,0.0],[111.87765,-7.18137,0.0],[111.87615,-7.18568,0.0],[111.86919,-7.18436,0.0],[111.8693,-7.17802,0.0],[111.86632,-7.17699,0.0],[111.86576,-7.17539,0.0],[111.8543,-7.17097,0.0],[111.85394,-7.16858,0.0],[111.85726,-7.1648,0.0],[111.86368,-7.16445,0.0],[111.86846,-7.16151,0.0],[111.87032,-7.1585,0.0],[111.87099,-7.15442,0.0],[111.86971,-7.14675,0.0],[111.86493,-7.13736,0.0],[111.86558,-7.13538,0.0],[111.86875,-7.13437,0.0],[111.875,-7.13652,0.0],[111.8797,-7.14469,0.0],[111.88167,-7.14601,0.0],[111.8863,-7.14409,0.0],[111.89189,-7.13581,0.0],[111.91008,-7.13813,0.0],[111.92068,-7.13207,0.0],[111.92723,-7.13194,0.0],[111.93145,-7.13363,0.0],[111.93243,-7.14144,0.0],[111.93027,-7.15651,0.0],[111.93333,-7.16018,0.0],[111.93173,-7.16898,0.0],[111.92883,-7.16803,0.0],[111.92843,-7.15998,0.0],[111.92586,-7.15961,0.0],[111.9224,-7.16977,0.0],[111.91748,-7.17257,0.0],[111.91777,-7.17092,0.0],[111.91572,-7.17055,0.0],[111.91644,-7.16669,0.0],[111.91978,-7.16112,0.0],[111.91608,-7.15999,0.0],[111.91622,-7.15851,0.0],[111.92147,-7.14852,0.0],[111.92381,-7.14748,0.0],[111.92136,-7.14288,0.0],[111.91802,-7.1422,0.0],[111.9151,-7.1447,0.0],[111.91294,-7.15133,0.0],[111.90979,-7.15603,0.0],[111.90602,-7.15502,0.0],[111.90161,-7.16175,0.0],[111.89846,-7.16116,0.0],[111.89769,-7.1635,0.0],[111.89966,-7.16545,0.0],[111.8982,-7.1679,0.0],[111.89489,-7.17006,0.0],[111.89001,-7.17693,0.0],[111.88226,-7.17967,0.0]]]}},{"type":"Feature","properties":{"kecamatan":"Sumberejo","kab_kota":"Bojonegoro"},"geometry":{"type":"Polygon","coordinates":[[[112.03172,-7.24163,0.0],[112.03338,-7.2463,0.0],[112.03228,-7.24711,0.0],[112.03216,-7.25019,0.0],[112.03449,-7.25521,0.0],[112.02736,-7.25956,0.0],[112.02528,-7.26644,0.0],[112.01823,-7.26502,0.0],[112.01781,-7.26274,0.0],[112.01327,-7.2612,0.0],[112.01402,-7.2579,0.0],[112.0079,-7.25521,0.0],[112.00869,-7.25332,0.0],[112.00729,-7.25284,0.0],[112.00642,-7.25432,0.0],[112.00434,-7.25331,0.0],[112.0046,-7.25048,0.0],[112.00661,-7.24899,0.0],[112.00487,-7.2475,0.0],[112.0059,-7.24673,0.0],[112.00404,-7.24565,0.0],[112.00393,-7.23948,0.0],[112.0027,-7.23921,0.0],[112.00539,-7.23472,0.0],[112.00355,-7.2277,0.0],[111.99846,-7.22702,0.0],[111.99631,-7.22179,0.0],[111.98906,-7.2186,0.0],[111.99171,-7.20781,0.0],[111.9843,-7.20533,0.0],[111.98492,-7.20236,0.0],[111.98229,-7.20055,0.0],[111.98404,-7.19962,0.0],[111.98386,-7.19833,0.0],[111.98664,-7.19871,0.0],[111.98572,-7.19777,0.0],[111.9863,-7.19345,0.0],[111.98314,-7.19195,0.0],[111.98498,-7.18466,0.0],[111.99427,-7.181,0.0],[111.99213,-7.17441,0.0],[111.98987,-7.17386,0.0],[111.98915,-7.1714,0.0],[111.98465,-7.17048,0.0],[111.98603,-7.16531,0.0],[111.98971,-7.16574,0.0],[111.9883,-7.16283,0.0],[111.98949,-7.16387,0.0],[111.99293,-7.16101,0.0],[111.99623,-7.16364,0.0],[112.00229,-7.16468,0.0],[112.00321,-7.16119,0.0],[112.00584,-7.16203,0.0],[112.00478,-7.16472,0.0],[112.00758,-7.16558,0.0],[112.00788,-7.16712,0.0],[112.01524,-7.1668,0.0],[112.01847,-7.16874,0.0],[112.02043,-7.1679,0.0],[112.02379,-7.16866,0.0],[112.02678,-7.16313,0.0],[112.03343,-7.16183,0.0],[112.03663,-7.15921,0.0],[112.03986,-7.16289,0.0],[112.04346,-7.16257,0.0],[112.04428,-7.16038,0.0],[112.04781,-7.16138,0.0],[112.05061,-7.16015,0.0],[112.05249,-7.16518,0.0],[112.05183,-7.17282,0.0],[112.05367,-7.1735,0.0],[112.05325,-7.17498,0.0],[112.05175,-7.17481,0.0],[112.05197,-7.17867,0.0],[112.04954,-7.18564,0.0],[112.05517,-7.18322,0.0],[112.05805,-7.18347,0.0],[112.06048,-7.189,0.0],[112.06628,-7.19068,0.0],[112.06574,-7.20225,0.0],[112.06684,-7.20412,0.0],[112.06902,-7.20478,0.0],[112.06838,-7.20771,0.0],[112.06945,-7.20866,0.0],[112.06616,-7.22197,0.0],[112.06654,-7.22574,0.0],[112.06506,-7.22763,0.0],[112.06519,-7.23438,0.0],[112.06566,-7.23618,0.0],[112.07046,-7.23753,0.0],[112.071,-7.23882,0.0],[112.06808,-7.24567,0.0],[112.06755,-7.25096,0.0],[112.07147,-7.26589,0.0],[112.06333,-7.26224,0.0],[112.06353,-7.25738,0.0],[112.05996,-7.25626,0.0],[112.06171,-7.25174,0.0],[112.06151,-7.24859,0.0],[112.0584,-7.24825,0.0],[112.05626,-7.25197,0.0],[112.05385,-7.2499,0.0],[112.04852,-7.24929,0.0],[112.04321,-7.246,0.0],[112.04094,-7.246,0.0],[112.03765,-7.24301,0.0],[112.03172,-7.24163,0.0]]]}},{"type":"Feature","properties":{"kecamatan":"Balen","kab_kota":"Bojonegoro"},"geometry":{"type":"Polygon","coordinates":[[[111.96455,-7.24312,0.0],[111.96568,-7.24345,0.0],[111.96392,-7.24865,0.0],[111.9554,-7.24558,0.0],[111.95582,-7.23919,0.0],[111.95249,-7.23728,0.0],[111.95302,-7.23365,0.0],[111.95055,-7.23311,0.0],[111.94999,-7.2364,0.0],[111.94714,-7.23603,0.0],[111.94686,-7.23721,0.0],[111.93802,-7.23596,0.0],[111.94187,-7.23281,0.0],[111.93868,-7.23295,0.0],[111.93872,-7.22987,0.0],[111.94361,-7.22899,0.0],[111.941,-7.22695,0.0],[111.94091,-7.22479,0.0],[111.9395,-7.22481,0.0],[111.94311,-7.22251,0.0],[111.9423,-7.21764,0.0],[111.94079,-7.2171,0.0],[111.93919,-7.22021,0.0],[111.93789,-7.21995,0.0],[111.93785,-7.2222,0.0],[111.93574,-7.22186,0.0],[111.93565,-7.22054,0.0],[111.93705,-7.22017,0.0],[111.93517,-7.21886,0.0],[111.93328,-7.22195,0.0],[111.93272,-7.21464,0.0],[111.9286,-7.21569,0.0],[111.92971,-7.2135,0.0],[111.9275,-7.21342,0.0],[111.92616,-7.21193,0.0],[111.92705,-7.21111,0.0],[111.9288,-7.21276,0.0],[111.92952,-7.21051,0.0],[111.93123,-7.21051,0.0],[111.92719,-7.20627,0.0],[111.92877,-7.20624,0.0],[111.92886,-7.2046,0.0],[111.92962,-7.20694,0.0],[111.9318,-7.20701,0.0],[111.93212,-7.20327,0.0],[111.93482,-7.203,0.0],[111.93329,-7.20097,0.0],[111.93445,-7.20154,0.0],[111.93642,-7.19993,0.0],[111.93609,-7.19447,0.0],[111.93797,-7.1969,0.0],[111.93827,-7.19455,0.0],[111.94092,-7.19561,0.0],[111.93851,-7.1943,0.0],[111.9384,-7.1915,0.0],[111.94119,-7.18967,0.0],[111.94063,-7.18787,0.0],[111.9427,-7.18772,0.0],[111.94248,-7.18563,0.0],[111.94434,-7.18569,0.0],[111.9443,-7.18451,0.0],[111.94167,-7.18322,0.0],[111.94438,-7.1821,0.0],[111.94317,-7.17714,0.0],[111.93873,-7.17562,0.0],[111.93997,-7.17459,0.0],[111.93865,-7.17183,0.0],[111.93922,-7.16844,0.0],[111.93399,-7.16585,0.0],[111.93689,-7.16391,0.0],[111.94024,-7.16777,0.0],[111.94246,-7.16564,0.0],[111.9421,-7.16441,0.0],[111.94032,-7.16482,0.0],[111.93526,-7.1609,0.0],[111.93708,-7.16012,0.0],[111.93805,-7.16195,0.0],[111.93985,-7.16173,0.0],[111.94092,-7.16301,0.0],[111.94232,-7.16177,0.0],[111.94241,-7.1602,0.0],[111.93902,-7.15928,0.0],[111.94382,-7.15878,0.0],[111.94394,-7.15702,0.0],[111.93965,-7.15762,0.0],[111.94489,-7.15104,0.0],[111.9504,-7.13416,0.0],[111.95354,-7.13173,0.0],[111.95848,-7.13332,0.0],[111.96346,-7.13714,0.0],[111.97008,-7.13781,0.0],[111.97667,-7.14373,0.0],[111.97997,-7.15012,0.0],[111.97767,-7.16156,0.0],[111.97882,-7.16432,0.0],[111.98185,-7.16486,0.0],[111.98433,-7.16301,0.0],[111.98469,-7.15995,0.0],[111.98314,-7.15539,0.0],[111.98473,-7.15875,0.0],[111.98797,-7.15868,0.0],[111.98723,-7.16269,0.0],[111.98971,-7.16574,0.0],[111.98603,-7.16531,0.0],[111.98465,-7.17048,0.0],[111.98915,-7.1714,0.0],[111.98987,-7.17386,0.0],[111.99213,-7.17441,0.0],[111.99427,-7.181,0.0],[111.98498,-7.18466,0.0],[111.98314,-7.19195,0.0],[111.9863,-7.19345,0.0],[111.98572,-7.19777,0.0],[111.98664,-7.19871,0.0],[111.98386,-7.19833,0.0],[111.98404,-7.19962,0.0],[111.98229,-7.20055,0.0],[111.98492,-7.20236,0.0],[111.9843,-7.20533,0.0],[111.99171,-7.20781,0.0],[111.98906,-7.2186,0.0],[111.99631,-7.22179,0.0],[111.99846,-7.22702,0.0],[112.00355,-7.2277,0.0],[112.00539,-7.23472,0.0],[112.0027,-7.23921,0.0],[111.99276,-7.23742,0.0],[111.99174,-7.23861,0.0],[111.98993,-7.23656,0.0],[111.98551,-7.24286,0.0],[111.98401,-7.241,0.0],[111.97779,-7.24168,0.0],[111.97692,-7.24023,0.0],[111.9743,-7.23973,0.0],[111.96956,-7.24224,0.0],[111.96531,-7.24098,0.0],[111.96455,-7.24312,0.0]]]}},{"type":"Feature","properties":{"kecamatan":"Purwosari","kab_kota":"Bojonegoro"},"geometry":{"type":"Polygon","coordinates":[[[111.66781,-7.24874,0.0],[111.66421,-7.24545,0.0],[111.65425,-7.24224,0.0],[111.64893,-7.24556,0.0],[111.64273,-7.24742,0.0],[111.64087,-7.24654,0.0],[111.6393,-7.24364,0.0],[111.63871,-7.23659,0.0],[111.63248,-7.23572,0.0],[111.631,-7.23307,0.0],[111.632,-7.23131,0.0],[111.63145,-7.22664,0.0],[111.63275,-7.22564,0.0],[111.63095,-7.22512,0.0],[111.62919,-7.22054,0.0],[111.62959,-7.21501,0.0],[111.62708,-7.21413,0.0],[111.62152,-7.2079,0.0],[111.62231,-7.20644,0.0],[111.61996,-7.20369,0.0],[111.61929,-7.19934,0.0],[111.62282,-7.19787,0.0],[111.62945,-7.19839,0.0],[111.63703,-7.19582,0.0],[111.64097,-7.19589,0.0],[111.65172,-7.20193,0.0],[111.65236,-7.19567,0.0],[111.65742,-7.19235,0.0],[111.65845,-7.18927,0.0],[111.65586,-7.17853,0.0],[111.65711,-7.17629,0.0],[111.65747,-7.17011,0.0],[111.65524,-7.16931,0.0],[111.6555,-7.16761,0.0],[111.66251,-7.16435,0.0],[111.66386,-7.16605,0.0],[111.6649,-7.16477,0.0],[111.66574,-7.16547,0.0],[111.66399,-7.16674,0.0],[111.66324,-7.17359,0.0],[111.66879,-7.17717,0.0],[111.66921,-7.17963,0.0],[111.67188,-7.18014,0.0],[111.67112,-7.18359,0.0],[111.67559,-7.18157,0.0],[111.67377,-7.18366,0.0],[111.67871,-7.18419,0.0],[111.67858,-7.18648,0.0],[111.68137,-7.18847,0.0],[111.68182,-7.19093,0.0],[111.6828,-7.18945,0.0],[111.68593,-7.18957,0.0],[111.6855,-7.19149,0.0],[111.68754,-7.19283,0.0],[111.68454,-7.19296,0.0],[111.68466,-7.19421,0.0],[111.68655,-7.1944,0.0],[111.68501,-7.19529,0.0],[111.68647,-7.19673,0.0],[111.68493,-7.19731,0.0],[111.68525,-7.19892,0.0],[111.68874,-7.19832,0.0],[111.68951,-7.19991,0.0],[111.68865,-7.2013,0.0],[111.69146,-7.20108,0.0],[111.69359,-7.20305,0.0],[111.69491,-7.20012,0.0],[111.69522,-7.20367,0.0],[111.69736,-7.20298,0.0],[111.69934,-7.20412,0.0],[111.69913,-7.2052,0.0],[111.69708,-7.20556,0.0],[111.69793,-7.20718,0.0],[111.69922,-7.20535,0.0],[111.69964,-7.2067,0.0],[111.69813,-7.20761,0.0],[111.70177,-7.20871,0.0],[111.70068,-7.21028,0.0],[111.70241,-7.21067,0.0],[111.70318,-7.2133,0.0],[111.70488,-7.21338,0.0],[111.70584,-7.21536,0.0],[111.70578,-7.21291,0.0],[111.71028,-7.21234,0.0],[111.70834,-7.21475,0.0],[111.70844,-7.21709,0.0],[111.70977,-7.2193,0.0],[111.71184,-7.21889,0.0],[111.71354,-7.22171,0.0],[111.71286,-7.22599,0.0],[111.71512,-7.22784,0.0],[111.71102,-7.23017,0.0],[111.70834,-7.22999,0.0],[111.71023,-7.23203,0.0],[111.7081,-7.23267,0.0],[111.71097,-7.23387,0.0],[111.71095,-7.23497,0.0],[111.70636,-7.23505,0.0],[111.70781,-7.2387,0.0],[111.71032,-7.23919,0.0],[111.70848,-7.23957,0.0],[111.70787,-7.24196,0.0],[111.71143,-7.24132,0.0],[111.71134,-7.24366,0.0],[111.70925,-7.2427,0.0],[111.70865,-7.24348,0.0],[111.70949,-7.24801,0.0],[111.702,-7.24725,0.0],[111.69172,-7.24842,0.0],[111.69127,-7.25072,0.0],[111.68702,-7.25535,0.0],[111.68617,-7.25996,0.0],[111.68742,-7.26535,0.0],[111.68571,-7.26623,0.0],[111.67279,-7.26926,0.0],[111.67335,-7.26654,0.0],[111.67105,-7.26552,0.0],[111.67043,-7.26341,0.0],[111.67136,-7.25994,0.0],[111.66723,-7.25293,0.0],[111.66781,-7.24874,0.0]]]}},{"type":"Feature","properties":{"kecamatan":"Padangan","kab_kota":"Bojonegoro"},"geometry":{"type":"Polygon","coordinates":[[[111.62282,-7.19787,0.0],[111.61929,-7.19934,0.0],[111.62376,-7.21254,0.0],[111.62092,-7.2127,0.0],[111.62073,-7.21673,0.0],[111.6166,-7.21516,0.0],[111.6118,-7.21654,0.0],[111.60944,-7.21404,0.0],[111.60551,-7.21351,0.0],[111.58981,-7.21477,0.0],[111.58231,-7.21315,0.0],[111.57612,-7.20921,0.0],[111.56682,-7.2065,0.0],[111.56928,-7.19878,0.0],[111.56837,-7.19577,0.0],[111.5639,-7.19051,0.0],[111.56763,-7.1862,0.0],[111.57591,-7.18822,0.0],[111.58722,-7.18556,0.0],[111.58376,-7.17676,0.0],[111.58415,-7.17071,0.0],[111.58779,-7.16398,0.0],[111.59881,-7.15494,0.0],[111.5979,-7.14843,0.0],[111.59866,-7.14534,0.0],[111.60142,-7.14483,0.0],[111.60877,-7.1472,0.0],[111.62024,-7.15509,0.0],[111.62265,-7.15539,0.0],[111.627,-7.15488,0.0],[111.63242,-7.14724,0.0],[111.63498,-7.14568,0.0],[111.63724,-7.14715,0.0],[111.63843,-7.15595,0.0],[111.64096,-7.16042,0.0],[111.64591,-7.1647,0.0],[111.65544,-7.16708,0.0],[111.65524,-7.16931,0.0],[111.65747,-7.17011,0.0],[111.65711,-7.17629,0.0],[111.65586,-7.17853,0.0],[111.65845,-7.18927,0.0],[111.65789,-7.19168,0.0],[111.65236,-7.19567,0.0],[111.65172,-7.20193,0.0],[111.64097,-7.19589,0.0],[111.63703,-7.19582,0.0],[111.62945,-7.19839,0.0],[111.62282,-7.19787,0.0]]]}},{"type":"Feature","properties":{"kecamatan":"Kalitidu","kab_kota":"Bojonegoro"},"geometry":{"type":"Polygon","coordinates":[[[111.7733,-7.15647,0.0],[111.77209,-7.16576,0.0],[111.75977,-7.1606,0.0],[111.75866,-7.16042,0.0],[111.7586,-7.16233,0.0],[111.75679,-7.16215,0.0],[111.75551,-7.16114,0.0],[111.75664,-7.15998,0.0],[111.75609,-7.15794,0.0],[111.75014,-7.15874,0.0],[111.73627,-7.15483,0.0],[111.73339,-7.14987,0.0],[111.72391,-7.14417,0.0],[111.7226,-7.14177,0.0],[111.72388,-7.13922,0.0],[111.72336,-7.13466,0.0],[111.72657,-7.13412,0.0],[111.72752,-7.13161,0.0],[111.72392,-7.12047,0.0],[111.72913,-7.1111,0.0],[111.73333,-7.11076,0.0],[111.7422,-7.1128,0.0],[111.74887,-7.11667,0.0],[111.75629,-7.12311,0.0],[111.76749,-7.12116,0.0],[111.77264,-7.12908,0.0],[111.77808,-7.12595,0.0],[111.78092,-7.119,0.0],[111.78049,-7.11724,0.0],[111.77816,-7.1159,0.0],[111.76767,-7.11358,0.0],[111.76757,-7.10928,0.0],[111.77329,-7.10539,0.0],[111.78939,-7.11083,0.0],[111.79921,-7.1161,0.0],[111.80402,-7.12072,0.0],[111.80779,-7.12871,0.0],[111.8123,-7.13087,0.0],[111.82145,-7.12964,0.0],[111.82456,-7.12704,0.0],[111.82505,-7.12149,0.0],[111.82038,-7.11625,0.0],[111.82235,-7.11251,0.0],[111.83357,-7.11984,0.0],[111.83382,-7.12287,0.0],[111.82905,-7.13053,0.0],[111.8288,-7.13476,0.0],[111.83105,-7.13878,0.0],[111.83221,-7.13797,0.0],[111.83346,-7.1413,0.0],[111.83892,-7.14607,0.0],[111.84268,-7.15431,0.0],[111.83557,-7.16576,0.0],[111.83517,-7.16835,0.0],[111.82809,-7.16875,0.0],[111.82612,-7.17024,0.0],[111.82241,-7.16959,0.0],[111.82056,-7.17167,0.0],[111.82171,-7.17402,0.0],[111.81901,-7.17468,0.0],[111.81827,-7.17634,0.0],[111.82162,-7.17792,0.0],[111.82015,-7.18291,0.0],[111.82085,-7.1862,0.0],[111.81828,-7.18782,0.0],[111.81723,-7.19064,0.0],[111.81136,-7.19382,0.0],[111.80754,-7.19956,0.0],[111.79985,-7.19858,0.0],[111.7903,-7.19216,0.0],[111.78837,-7.18933,0.0],[111.78993,-7.18773,0.0],[111.78848,-7.18728,0.0],[111.78855,-7.18524,0.0],[111.79045,-7.18469,0.0],[111.79065,-7.17761,0.0],[111.79232,-7.1759,0.0],[111.79245,-7.17087,0.0],[111.79559,-7.16838,0.0],[111.7949,-7.16706,0.0],[111.79718,-7.16598,0.0],[111.79667,-7.15995,0.0],[111.79186,-7.1599,0.0],[111.79237,-7.15827,0.0],[111.78842,-7.15664,0.0],[111.78778,-7.16056,0.0],[111.77889,-7.16108,0.0],[111.77622,-7.15741,0.0],[111.7733,-7.15647,0.0]]]}},{"type":"Feature","properties":{"kecamatan":"Malo","kab_kota":"Bojonegoro"},"geometry":{"type":"Polygon","coordinates":[[[111.66562,-7.16024,0.0],[111.65966,-7.16613,0.0],[111.65537,-7.16162,0.0],[111.65498,-7.15721,0.0],[111.65278,-7.15635,0.0],[111.65173,-7.15178,0.0],[111.65561,-7.15235,0.0],[111.6583,-7.14547,0.0],[111.65962,-7.14546,0.0],[111.6604,-7.14029,0.0],[111.66246,-7.14052,0.0],[111.66372,-7.13672,0.0],[111.66642,-7.13523,0.0],[111.6672,-7.12683,0.0],[111.67249,-7.12595,0.0],[111.6707,-7.1176,0.0],[111.67173,-7.11526,0.0],[111.67515,-7.11379,0.0],[111.67322,-7.108,0.0],[111.6713,-7.1065,0.0],[111.67134,-7.10327,0.0],[111.67397,-7.09888,0.0],[111.67982,-7.09322,0.0],[111.67926,-7.09141,0.0],[111.68148,-7.09081,0.0],[111.67991,-7.08913,0.0],[111.68518,-7.08416,0.0],[111.68446,-7.08193,0.0],[111.6882,-7.07677,0.0],[111.68937,-7.07019,0.0],[111.69221,-7.06851,0.0],[111.69288,-7.06506,0.0],[111.69556,-7.06995,0.0],[111.70015,-7.07093,0.0],[111.70222,-7.07517,0.0],[111.70916,-7.07674,0.0],[111.71185,-7.08095,0.0],[111.71426,-7.08119,0.0],[111.71785,-7.07814,0.0],[111.72575,-7.08388,0.0],[111.73046,-7.08266,0.0],[111.73624,-7.07783,0.0],[111.74362,-7.08012,0.0],[111.751,-7.08483,0.0],[111.75951,-7.08492,0.0],[111.76246,-7.08785,0.0],[111.76601,-7.08383,0.0],[111.76925,-7.0825,0.0],[111.78653,-7.08313,0.0],[111.78664,-7.087,0.0],[111.78257,-7.09495,0.0],[111.77782,-7.09924,0.0],[111.77692,-7.10526,0.0],[111.772,-7.10582,0.0],[111.76734,-7.10967,0.0],[111.76848,-7.1145,0.0],[111.77816,-7.1159,0.0],[111.78087,-7.11771,0.0],[111.78012,-7.12262,0.0],[111.77617,-7.12792,0.0],[111.77264,-7.12908,0.0],[111.77132,-7.12839,0.0],[111.76749,-7.12116,0.0],[111.75629,-7.12311,0.0],[111.74488,-7.11401,0.0],[111.73023,-7.11047,0.0],[111.72392,-7.12047,0.0],[111.72752,-7.13011,0.0],[111.72657,-7.13412,0.0],[111.71056,-7.13593,0.0],[111.696,-7.12954,0.0],[111.68406,-7.13355,0.0],[111.67631,-7.12979,0.0],[111.67532,-7.13217,0.0],[111.68663,-7.14135,0.0],[111.68846,-7.14608,0.0],[111.68801,-7.15179,0.0],[111.68649,-7.15343,0.0],[111.68348,-7.15343,0.0],[111.67578,-7.14986,0.0],[111.67173,-7.14957,0.0],[111.66562,-7.16024,0.0]]]}},{"type":"Feature","properties":{"kecamatan":"Temayang","kab_kota":"Bojonegoro"},"geometry":{"type":"Polygon","coordinates":[[[111.91856,-7.40701,0.0],[111.87935,-7.40853,0.0],[111.8767,-7.41156,0.0],[111.87426,-7.41138,0.0],[111.87496,-7.40962,0.0],[111.8737,-7.405,0.0],[111.87144,-7.40408,0.0],[111.87208,-7.40074,0.0],[111.8705,-7.39911,0.0],[111.87504,-7.39728,0.0],[111.8778,-7.39874,0.0],[111.87889,-7.39654,0.0],[111.87804,-7.39342,0.0],[111.87531,-7.39261,0.0],[111.87541,-7.39087,0.0],[111.87417,-7.39018,0.0],[111.87276,-7.38246,0.0],[111.87109,-7.38515,0.0],[111.86966,-7.38524,0.0],[111.87067,-7.38348,0.0],[111.86984,-7.38253,0.0],[111.87252,-7.38012,0.0],[111.86978,-7.3787,0.0],[111.87091,-7.37768,0.0],[111.87052,-7.36236,0.0],[111.86332,-7.35526,0.0],[111.8619,-7.3469,0.0],[111.8624,-7.34191,0.0],[111.86533,-7.33946,0.0],[111.86799,-7.33159,0.0],[111.87258,-7.32846,0.0],[111.87549,-7.32932,0.0],[111.87803,-7.32732,0.0],[111.88067,-7.32852,0.0],[111.89341,-7.32952,0.0],[111.89425,-7.3195,0.0],[111.89106,-7.31759,0.0],[111.88719,-7.31947,0.0],[111.88478,-7.31884,0.0],[111.88379,-7.32084,0.0],[111.88368,-7.31876,0.0],[111.8781,-7.31592,0.0],[111.88073,-7.31535,0.0],[111.8807,-7.31267,0.0],[111.87438,-7.30118,0.0],[111.87821,-7.29578,0.0],[111.88259,-7.29535,0.0],[111.8861,-7.28157,0.0],[111.88862,-7.28167,0.0],[111.89331,-7.27422,0.0],[111.91436,-7.28135,0.0],[111.91759,-7.2791,0.0],[111.92044,-7.27878,0.0],[111.92176,-7.2803,0.0],[111.92538,-7.27976,0.0],[111.92488,-7.2883,0.0],[111.91756,-7.28893,0.0],[111.91366,-7.296,0.0],[111.91619,-7.29607,0.0],[111.91563,-7.29853,0.0],[111.91964,-7.30055,0.0],[111.91865,-7.30107,0.0],[111.91876,-7.30358,0.0],[111.92018,-7.30252,0.0],[111.92071,-7.30398,0.0],[111.91923,-7.3061,0.0],[111.92319,-7.30564,0.0],[111.92267,-7.30801,0.0],[111.92474,-7.30949,0.0],[111.92626,-7.31344,0.0],[111.93369,-7.31681,0.0],[111.93836,-7.32455,0.0],[111.94307,-7.3265,0.0],[111.94459,-7.33013,0.0],[111.93729,-7.33268,0.0],[111.93373,-7.33547,0.0],[111.93182,-7.33351,0.0],[111.92944,-7.33315,0.0],[111.93362,-7.33937,0.0],[111.93238,-7.34221,0.0],[111.93337,-7.34394,0.0],[111.93149,-7.34708,0.0],[111.93764,-7.34603,0.0],[111.93822,-7.34799,0.0],[111.93583,-7.34971,0.0],[111.93703,-7.3501,0.0],[111.93736,-7.35104,0.0],[111.9359,-7.35155,0.0],[111.93765,-7.35414,0.0],[111.94153,-7.35391,0.0],[111.94189,-7.35569,0.0],[111.9441,-7.3533,0.0],[111.94652,-7.35289,0.0],[111.94916,-7.35788,0.0],[111.95053,-7.357,0.0],[111.95283,-7.3593,0.0],[111.95723,-7.35976,0.0],[111.957,-7.36184,0.0],[111.96013,-7.36844,0.0],[111.96257,-7.36997,0.0],[111.96195,-7.37251,0.0],[111.96322,-7.37799,0.0],[111.96753,-7.38169,0.0],[111.96856,-7.38492,0.0],[111.97238,-7.38894,0.0],[111.97295,-7.39169,0.0],[111.98093,-7.39971,0.0],[111.98372,-7.40742,0.0],[111.98199,-7.40637,0.0],[111.97843,-7.40681,0.0],[111.97719,-7.40469,0.0],[111.97126,-7.40498,0.0],[111.96783,-7.4085,0.0],[111.96342,-7.40893,0.0],[111.95802,-7.41332,0.0],[111.95071,-7.40741,0.0],[111.94598,-7.40586,0.0],[111.94318,-7.40631,0.0],[111.94238,-7.40732,0.0],[111.94321,-7.40907,0.0],[111.94154,-7.40924,0.0],[111.94243,-7.41096,0.0],[111.94645,-7.41124,0.0],[111.95769,-7.41828,0.0],[111.95992,-7.42281,0.0],[111.95798,-7.42445,0.0],[111.95977,-7.42642,0.0],[111.95963,-7.42812,0.0],[111.95465,-7.43227,0.0],[111.94807,-7.4339,0.0],[111.94218,-7.43917,0.0],[111.9373,-7.44052,0.0],[111.92296,-7.43549,0.0],[111.91653,-7.43445,0.0],[111.9161,-7.4317,0.0],[111.91817,-7.42829,0.0],[111.91502,-7.42486,0.0],[111.91666,-7.41988,0.0],[111.91944,-7.41733,0.0],[111.91791,-7.41222,0.0],[111.91856,-7.40701,0.0]]]}},{"type":"Feature","properties":{"kecamatan":"Margomulyo","kab_kota":"Bojonegoro"},"geometry":{"type":"Polygon","coordinates":[[[111.55463,-7.35897,0.0],[111.54996,-7.36119,0.0],[111.54887,-7.36629,0.0],[111.54511,-7.37015,0.0],[111.5426,-7.37081,0.0],[111.53814,-7.36919,0.0],[111.52785,-7.37219,0.0],[111.52354,-7.37151,0.0],[111.5194,-7.36612,0.0],[111.51354,-7.3629,0.0],[111.50517,-7.36178,0.0],[111.49696,-7.36445,0.0],[111.49629,-7.36118,0.0],[111.4883,-7.3602,0.0],[111.48515,-7.35818,0.0],[111.48242,-7.35931,0.0],[111.47721,-7.35847,0.0],[111.47752,-7.3595,0.0],[111.47572,-7.35964,0.0],[111.47392,-7.35744,0.0],[111.47209,-7.35741,0.0],[111.46653,-7.35994,0.0],[111.46721,-7.36186,0.0],[111.46583,-7.36127,0.0],[111.46411,-7.36332,0.0],[111.46369,-7.36225,0.0],[111.46258,-7.36302,0.0],[111.46093,-7.35486,0.0],[111.45689,-7.35184,0.0],[111.45026,-7.35498,0.0],[111.44694,-7.3607,0.0],[111.44371,-7.36015,0.0],[111.44177,-7.34997,0.0],[111.44553,-7.34513,0.0],[111.45239,-7.34298,0.0],[111.45903,-7.3464,0.0],[111.46274,-7.34553,0.0],[111.46271,-7.34334,0.0],[111.46082,-7.34111,0.0],[111.45016,-7.3403,0.0],[111.44616,-7.33705,0.0],[111.44929,-7.33064,0.0],[111.4574,-7.32456,0.0],[111.45764,-7.32156,0.0],[111.44767,-7.31354,0.0],[111.44095,-7.31556,0.0],[111.43284,-7.31492,0.0],[111.42576,-7.31257,0.0],[111.42351,-7.3088,0.0],[111.43054,-7.30389,0.0],[111.43443,-7.29948,0.0],[111.43756,-7.29289,0.0],[111.44193,-7.28959,0.0],[111.44228,-7.28367,0.0],[111.44439,-7.27865,0.0],[111.43887,-7.27353,0.0],[111.43851,-7.26889,0.0],[111.44167,-7.26733,0.0],[111.44366,-7.26799,0.0],[111.44808,-7.27595,0.0],[111.45143,-7.27413,0.0],[111.45161,-7.24813,0.0],[111.45644,-7.24966,0.0],[111.45533,-7.25718,0.0],[111.45778,-7.26065,0.0],[111.46346,-7.26293,0.0],[111.46904,-7.26219,0.0],[111.47906,-7.27041,0.0],[111.4807,-7.27425,0.0],[111.48022,-7.27786,0.0],[111.47617,-7.28351,0.0],[111.47855,-7.28585,0.0],[111.48053,-7.2897,0.0],[111.4802,-7.29194,0.0],[111.48353,-7.29737,0.0],[111.48933,-7.2975,0.0],[111.49178,-7.29958,0.0],[111.49709,-7.30086,0.0],[111.49637,-7.30361,0.0],[111.49762,-7.3072,0.0],[111.50149,-7.30739,0.0],[111.50463,-7.30932,0.0],[111.51046,-7.30947,0.0],[111.51088,-7.30355,0.0],[111.5147,-7.29874,0.0],[111.51432,-7.29598,0.0],[111.5094,-7.29488,0.0],[111.50802,-7.29236,0.0],[111.50911,-7.28424,0.0],[111.51054,-7.28389,0.0],[111.50851,-7.28125,0.0],[111.50874,-7.27551,0.0],[111.51248,-7.27259,0.0],[111.51227,-7.26941,0.0],[111.51387,-7.27028,0.0],[111.51236,-7.26765,0.0],[111.51414,-7.26718,0.0],[111.51364,-7.26579,0.0],[111.51673,-7.26718,0.0],[111.52046,-7.26307,0.0],[111.52261,-7.26314,0.0],[111.52689,-7.26467,0.0],[111.5283,-7.26652,0.0],[111.53598,-7.26795,0.0],[111.53862,-7.27267,0.0],[111.54169,-7.27505,0.0],[111.54179,-7.27758,0.0],[111.53764,-7.28459,0.0],[111.53906,-7.28661,0.0],[111.53868,-7.29298,0.0],[111.53734,-7.29414,0.0],[111.53878,-7.29704,0.0],[111.53364,-7.30047,0.0],[111.53866,-7.30713,0.0],[111.54672,-7.30709,0.0],[111.55352,-7.30951,0.0],[111.55544,-7.31777,0.0],[111.55474,-7.32026,0.0],[111.55287,-7.32063,0.0],[111.55316,-7.32633,0.0],[111.55115,-7.32628,0.0],[111.55159,-7.32928,0.0],[111.55523,-7.33157,0.0],[111.55197,-7.34102,0.0],[111.55476,-7.3487,0.0],[111.5568,-7.35102,0.0],[111.55592,-7.35176,0.0],[111.55722,-7.35241,0.0],[111.55487,-7.35581,0.0],[111.55463,-7.35897,0.0]]]}},{"type":"Feature","properties":{"kecamatan":"Kasiman","kab_kota":"Bojonegoro"},"geometry":{"type":"Polygon","coordinates":[[[111.65175,-7.15176,0.0],[111.65278,-7.15635,0.0],[111.65498,-7.15721,0.0],[111.65537,-7.16162,0.0],[111.65966,-7.16613,0.0],[111.6555,-7.16761,0.0],[111.64436,-7.16387,0.0],[111.63843,-7.15595,0.0],[111.63771,-7.14839,0.0],[111.63576,-7.14587,0.0],[111.63331,-7.14627,0.0],[111.62644,-7.15523,0.0],[111.62024,-7.15509,0.0],[111.60729,-7.14666,0.0],[111.60582,-7.14417,0.0],[111.60792,-7.1422,0.0],[111.61056,-7.14346,0.0],[111.60895,-7.13953,0.0],[111.61183,-7.1408,0.0],[111.61214,-7.13856,0.0],[111.60985,-7.1384,0.0],[111.61093,-7.1355,0.0],[111.60773,-7.13718,0.0],[111.60925,-7.13233,0.0],[111.6071,-7.13123,0.0],[111.60605,-7.12791,0.0],[111.60697,-7.12742,0.0],[111.60758,-7.12855,0.0],[111.60738,-7.12679,0.0],[111.61169,-7.12555,0.0],[111.6115,-7.12156,0.0],[111.61287,-7.12318,0.0],[111.61368,-7.12263,0.0],[111.61295,-7.1203,0.0],[111.61461,-7.11939,0.0],[111.61371,-7.11842,0.0],[111.61546,-7.11669,0.0],[111.61386,-7.11651,0.0],[111.61407,-7.11441,0.0],[111.61261,-7.11455,0.0],[111.61341,-7.11068,0.0],[111.62041,-7.11043,0.0],[111.622,-7.10843,0.0],[111.61815,-7.10681,0.0],[111.61647,-7.1044,0.0],[111.61648,-7.10176,0.0],[111.61487,-7.10119,0.0],[111.6139,-7.0988,0.0],[111.61693,-7.09768,0.0],[111.61496,-7.09617,0.0],[111.61415,-7.09198,0.0],[111.61514,-7.09081,0.0],[111.61331,-7.08929,0.0],[111.61413,-7.08796,0.0],[111.61299,-7.08726,0.0],[111.61446,-7.08491,0.0],[111.61256,-7.08397,0.0],[111.61306,-7.08194,0.0],[111.61638,-7.08231,0.0],[111.61437,-7.07892,0.0],[111.6158,-7.0762,0.0],[111.61912,-7.07346,0.0],[111.62132,-7.07405,0.0],[111.62129,-7.07559,0.0],[111.62506,-7.07637,0.0],[111.62736,-7.08181,0.0],[111.63046,-7.08073,0.0],[111.63023,-7.08283,0.0],[111.63249,-7.08251,0.0],[111.63113,-7.08345,0.0],[111.63179,-7.08532,0.0],[111.63771,-7.08866,0.0],[111.63908,-7.09103,0.0],[111.64216,-7.09129,0.0],[111.64339,-7.08533,0.0],[111.6507,-7.07913,0.0],[111.652,-7.07633,0.0],[111.65415,-7.07426,0.0],[111.65627,-7.07751,0.0],[111.65749,-7.07597,0.0],[111.65713,-7.06734,0.0],[111.6546,-7.06692,0.0],[111.65398,-7.06513,0.0],[111.65668,-7.06467,0.0],[111.6582,-7.06031,0.0],[111.66008,-7.05935,0.0],[111.66521,-7.06298,0.0],[111.66647,-7.06687,0.0],[111.66528,-7.07261,0.0],[111.66617,-7.0734,0.0],[111.66285,-7.07886,0.0],[111.66168,-7.08446,0.0],[111.66512,-7.08243,0.0],[111.66569,-7.08417,0.0],[111.66218,-7.0854,0.0],[111.66107,-7.08952,0.0],[111.66451,-7.08775,0.0],[111.66685,-7.08817,0.0],[111.6642,-7.08832,0.0],[111.66222,-7.0903,0.0],[111.66266,-7.09229,0.0],[111.66514,-7.09091,0.0],[111.66459,-7.09262,0.0],[111.66126,-7.09383,0.0],[111.66353,-7.09564,0.0],[111.66072,-7.09739,0.0],[111.66151,-7.10189,0.0],[111.66432,-7.0999,0.0],[111.66022,-7.10475,0.0],[111.66545,-7.10335,0.0],[111.66685,-7.10473,0.0],[111.66809,-7.10063,0.0],[111.67304,-7.09869,0.0],[111.67497,-7.09591,0.0],[111.67605,-7.09655,0.0],[111.67282,-7.10045,0.0],[111.67119,-7.10548,0.0],[111.67515,-7.11379,0.0],[111.67173,-7.11526,0.0],[111.6707,-7.1176,0.0],[111.67249,-7.12595,0.0],[111.66698,-7.12712,0.0],[111.66776,-7.12778,0.0],[111.66651,-7.12917,0.0],[111.66642,-7.13523,0.0],[111.66372,-7.13672,0.0],[111.66246,-7.14052,0.0],[111.6604,-7.14029,0.0],[111.65962,-7.14546,0.0],[111.6583,-7.14547,0.0],[111.65561,-7.15235,0.0],[111.65175,-7.15176,0.0]]]}},{"type":"Feature","properties":{"kecamatan":"Kedewan","kab_kota":"Bojonegoro"},"geometry":{"type":"Polygon","coordinates":[[[111.69384,-7.05413,0.0],[111.69121,-7.06209,0.0],[111.69275,-7.06726,0.0],[111.68937,-7.07019,0.0],[111.6882,-7.07677,0.0],[111.68431,-7.08239,0.0],[111.68518,-7.08416,0.0],[111.68064,-7.08795,0.0],[111.67989,-7.08922,0.0],[111.68148,-7.09081,0.0],[111.67926,-7.09141,0.0],[111.68031,-7.09217,0.0],[111.67795,-7.0954,0.0],[111.67605,-7.09655,0.0],[111.67497,-7.09591,0.0],[111.67304,-7.09869,0.0],[111.66809,-7.10063,0.0],[111.66685,-7.10473,0.0],[111.66545,-7.10335,0.0],[111.66148,-7.1052,0.0],[111.66016,-7.10453,0.0],[111.66432,-7.0999,0.0],[111.66151,-7.10189,0.0],[111.66072,-7.09739,0.0],[111.66353,-7.09564,0.0],[111.66126,-7.09383,0.0],[111.66459,-7.09262,0.0],[111.66514,-7.09091,0.0],[111.66266,-7.09229,0.0],[111.66222,-7.0903,0.0],[111.6642,-7.08832,0.0],[111.66685,-7.08817,0.0],[111.66451,-7.08775,0.0],[111.66107,-7.08952,0.0],[111.66218,-7.0854,0.0],[111.66569,-7.08417,0.0],[111.66512,-7.08243,0.0],[111.66168,-7.08446,0.0],[111.66285,-7.07886,0.0],[111.66617,-7.0734,0.0],[111.66528,-7.07261,0.0],[111.66647,-7.06801,0.0],[111.66531,-7.06309,0.0],[111.66223,-7.06052,0.0],[111.659,-7.05955,0.0],[111.65668,-7.06467,0.0],[111.65398,-7.06513,0.0],[111.6546,-7.06692,0.0],[111.65717,-7.06748,0.0],[111.65751,-7.07589,0.0],[111.65662,-7.07747,0.0],[111.65411,-7.07427,0.0],[111.6507,-7.07913,0.0],[111.64339,-7.08533,0.0],[111.64216,-7.09129,0.0],[111.63908,-7.09103,0.0],[111.63771,-7.08866,0.0],[111.63179,-7.08532,0.0],[111.63113,-7.08345,0.0],[111.63249,-7.08251,0.0],[111.63023,-7.08283,0.0],[111.63046,-7.08073,0.0],[111.62736,-7.08181,0.0],[111.62506,-7.07637,0.0],[111.62239,-7.0754,0.0],[111.62332,-7.07391,0.0],[111.62483,-7.07552,0.0],[111.62576,-7.07281,0.0],[111.62812,-7.07542,0.0],[111.62544,-7.07081,0.0],[111.62673,-7.07048,0.0],[111.62587,-7.06892,0.0],[111.62833,-7.06697,0.0],[111.6278,-7.06526,0.0],[111.6291,-7.06356,0.0],[111.62799,-7.06204,0.0],[111.6299,-7.05954,0.0],[111.62496,-7.0591,0.0],[111.6258,-7.05698,0.0],[111.62492,-7.05595,0.0],[111.62724,-7.0556,0.0],[111.62743,-7.05381,0.0],[111.62591,-7.05478,0.0],[111.62544,-7.0529,0.0],[111.62211,-7.05338,0.0],[111.6223,-7.05052,0.0],[111.61826,-7.05005,0.0],[111.61754,-7.04707,0.0],[111.6195,-7.04686,0.0],[111.61746,-7.04328,0.0],[111.61873,-7.04009,0.0],[111.61676,-7.04085,0.0],[111.61639,-7.03748,0.0],[111.61407,-7.03748,0.0],[111.61353,-7.03503,0.0],[111.61612,-7.03228,0.0],[111.61353,-7.02474,0.0],[111.6152,-7.02066,0.0],[111.61363,-7.01842,0.0],[111.61491,-7.0183,0.0],[111.61534,-7.01655,0.0],[111.61499,-7.01384,0.0],[111.61339,-7.01309,0.0],[111.61317,-7.01078,0.0],[111.61482,-7.00906,0.0],[111.61323,-7.0067,0.0],[111.61708,-6.99815,0.0],[111.61768,-6.99328,0.0],[111.62228,-6.99096,0.0],[111.62215,-6.98635,0.0],[111.62367,-6.98944,0.0],[111.62727,-6.99164,0.0],[111.62953,-6.99084,0.0],[111.6301,-6.99274,0.0],[111.63189,-6.99119,0.0],[111.63771,-6.99557,0.0],[111.64558,-6.99647,0.0],[111.6519,-7.00046,0.0],[111.65267,-7.00914,0.0],[111.6563,-7.01349,0.0],[111.65477,-7.02489,0.0],[111.6553,-7.03009,0.0],[111.65911,-7.03897,0.0],[111.6715,-7.04086,0.0],[111.67418,-7.04394,0.0],[111.67504,-7.04823,0.0],[111.68325,-7.05184,0.0],[111.69015,-7.05184,0.0],[111.69083,-7.05483,0.0],[111.69384,-7.05413,0.0]]]}},{"type":"Feature","properties":{"kecamatan":"Gondang","kab_kota":"Bojonegoro"},"geometry":{"type":"Polygon","coordinates":[[[111.82155,-7.43951,0.0],[111.81451,-7.45102,0.0],[111.80525,-7.45431,0.0],[111.80041,-7.4611,0.0],[111.788,-7.46459,0.0],[111.78833,-7.45842,0.0],[111.79418,-7.4518,0.0],[111.79831,-7.44084,0.0],[111.78529,-7.43461,0.0],[111.78184,-7.43446,0.0],[111.77455,-7.42732,0.0],[111.77355,-7.42769,0.0],[111.77365,-7.42265,0.0],[111.77079,-7.42119,0.0],[111.77265,-7.41921,0.0],[111.7729,-7.41627,0.0],[111.77538,-7.41545,0.0],[111.77449,-7.41211,0.0],[111.77604,-7.40828,0.0],[111.77353,-7.40778,0.0],[111.77508,-7.40625,0.0],[111.7739,-7.40478,0.0],[111.77241,-7.40522,0.0],[111.77318,-7.40177,0.0],[111.77025,-7.40073,0.0],[111.7706,-7.39785,0.0],[111.7685,-7.3972,0.0],[111.76702,-7.39469,0.0],[111.76592,-7.39572,0.0],[111.76398,-7.39522,0.0],[111.76492,-7.39425,0.0],[111.76266,-7.39027,0.0],[111.76371,-7.38955,0.0],[111.76382,-7.38407,0.0],[111.76184,-7.38283,0.0],[111.76255,-7.38045,0.0],[111.7606,-7.38106,0.0],[111.75969,-7.37803,0.0],[111.76156,-7.37426,0.0],[111.76075,-7.37038,0.0],[111.7622,-7.37062,0.0],[111.76264,-7.36946,0.0],[111.76157,-7.36972,0.0],[111.76121,-7.36733,0.0],[111.75975,-7.36712,0.0],[111.76317,-7.36662,0.0],[111.76259,-7.36423,0.0],[111.76101,-7.36463,0.0],[111.76177,-7.36082,0.0],[111.75927,-7.35869,0.0],[111.76003,-7.35528,0.0],[111.76388,-7.35597,0.0],[111.76536,-7.35895,0.0],[111.7718,-7.3589,0.0],[111.77411,-7.36075,0.0],[111.77552,-7.35896,0.0],[111.7768,-7.35929,0.0],[111.77835,-7.3565,0.0],[111.77641,-7.35626,0.0],[111.77888,-7.35397,0.0],[111.77862,-7.35277,0.0],[111.7765,-7.35297,0.0],[111.77736,-7.35162,0.0],[111.77658,-7.35107,0.0],[111.77982,-7.34945,0.0],[111.77884,-7.34487,0.0],[111.78062,-7.34372,0.0],[111.7826,-7.34372,0.0],[111.78243,-7.34527,0.0],[111.78352,-7.34549,0.0],[111.78188,-7.35188,0.0],[111.78477,-7.35247,0.0],[111.78487,-7.35456,0.0],[111.78591,-7.35342,0.0],[111.806,-7.36186,0.0],[111.817,-7.37353,0.0],[111.81901,-7.37108,0.0],[111.81964,-7.36569,0.0],[111.81456,-7.35395,0.0],[111.82123,-7.35133,0.0],[111.8224,-7.35564,0.0],[111.82188,-7.35981,0.0],[111.82259,-7.36211,0.0],[111.82433,-7.36273,0.0],[111.83181,-7.3637,0.0],[111.83903,-7.36279,0.0],[111.85288,-7.36593,0.0],[111.86055,-7.3656,0.0],[111.86097,-7.36392,0.0],[111.85706,-7.36337,0.0],[111.85889,-7.36177,0.0],[111.86203,-7.36148,0.0],[111.86699,-7.36393,0.0],[111.87038,-7.36265,0.0],[111.87091,-7.37768,0.0],[111.86978,-7.3787,0.0],[111.87252,-7.38012,0.0],[111.86984,-7.38253,0.0],[111.87067,-7.38348,0.0],[111.86966,-7.38524,0.0],[111.87109,-7.38515,0.0],[111.87276,-7.38246,0.0],[111.87417,-7.39018,0.0],[111.87541,-7.39087,0.0],[111.87531,-7.39261,0.0],[111.87804,-7.39342,0.0],[111.87889,-7.39654,0.0],[111.8778,-7.39874,0.0],[111.87504,-7.39728,0.0],[111.8705,-7.39911,0.0],[111.87208,-7.40074,0.0],[111.87144,-7.40408,0.0],[111.8737,-7.405,0.0],[111.87496,-7.40962,0.0],[111.87426,-7.41138,0.0],[111.8767,-7.41156,0.0],[111.87935,-7.40853,0.0],[111.91856,-7.40701,0.0],[111.91791,-7.41222,0.0],[111.91944,-7.41733,0.0],[111.91666,-7.41988,0.0],[111.91502,-7.42486,0.0],[111.91817,-7.42829,0.0],[111.9161,-7.4317,0.0],[111.91664,-7.43462,0.0],[111.90394,-7.4334,0.0],[111.89392,-7.43773,0.0],[111.88238,-7.43736,0.0],[111.87946,-7.44063,0.0],[111.87763,-7.44097,0.0],[111.86788,-7.4393,0.0],[111.86157,-7.43591,0.0],[111.84592,-7.43969,0.0],[111.82821,-7.44062,0.0],[111.82155,-7.43951,0.0]]]}},{"type":"Feature","properties":{"kecamatan":"Trucuk","kab_kota":"Bojonegoro"},"geometry":{"type":"Polygon","coordinates":[[[111.85448,-7.14002,0.0],[111.85276,-7.1495,0.0],[111.85106,-7.15246,0.0],[111.84674,-7.15504,0.0],[111.84301,-7.15447,0.0],[111.83892,-7.14607,0.0],[111.83346,-7.1413,0.0],[111.83221,-7.13797,0.0],[111.83105,-7.13878,0.0],[111.8288,-7.13476,0.0],[111.82905,-7.13053,0.0],[111.83414,-7.12121,0.0],[111.83124,-7.11759,0.0],[111.82235,-7.11251,0.0],[111.82038,-7.11625,0.0],[111.82505,-7.12149,0.0],[111.82456,-7.12704,0.0],[111.82145,-7.12964,0.0],[111.8123,-7.13087,0.0],[111.80779,-7.12871,0.0],[111.80402,-7.12072,0.0],[111.79921,-7.1161,0.0],[111.79073,-7.11141,0.0],[111.77491,-7.10543,0.0],[111.77692,-7.10526,0.0],[111.77782,-7.09924,0.0],[111.78409,-7.09227,0.0],[111.78664,-7.087,0.0],[111.78653,-7.08313,0.0],[111.79333,-7.08197,0.0],[111.79709,-7.08618,0.0],[111.80184,-7.08371,0.0],[111.81854,-7.0881,0.0],[111.82424,-7.10043,0.0],[111.83186,-7.10367,0.0],[111.83817,-7.10474,0.0],[111.85391,-7.1152,0.0],[111.85657,-7.11512,0.0],[111.85471,-7.12146,0.0],[111.85605,-7.12532,0.0],[111.85727,-7.12573,0.0],[111.85823,-7.12347,0.0],[111.86016,-7.12388,0.0],[111.8597,-7.12582,0.0],[111.86199,-7.1297,0.0],[111.86452,-7.1241,0.0],[111.86669,-7.12917,0.0],[111.86856,-7.12863,0.0],[111.86665,-7.12705,0.0],[111.86713,-7.12626,0.0],[111.87118,-7.13005,0.0],[111.87793,-7.13327,0.0],[111.87669,-7.13118,0.0],[111.879,-7.13248,0.0],[111.87959,-7.13137,0.0],[111.88172,-7.13146,0.0],[111.88141,-7.1304,0.0],[111.88289,-7.12964,0.0],[111.88208,-7.12796,0.0],[111.88402,-7.12483,0.0],[111.88368,-7.12217,0.0],[111.88635,-7.12173,0.0],[111.89171,-7.12372,0.0],[111.90167,-7.13033,0.0],[111.90142,-7.13269,0.0],[111.8988,-7.1332,0.0],[111.89904,-7.13662,0.0],[111.89131,-7.1361,0.0],[111.88725,-7.14314,0.0],[111.88167,-7.14601,0.0],[111.8797,-7.14469,0.0],[111.875,-7.13652,0.0],[111.86875,-7.13437,0.0],[111.86577,-7.1352,0.0],[111.86493,-7.13736,0.0],[111.86957,-7.1462,0.0],[111.87079,-7.15651,0.0],[111.86846,-7.16151,0.0],[111.86024,-7.16516,0.0],[111.85787,-7.16316,0.0],[111.85875,-7.15571,0.0],[111.85786,-7.14136,0.0],[111.85657,-7.13965,0.0],[111.85448,-7.14002,0.0]]]}},{"type":"Feature","properties":{"kecamatan":"Sukosewu","kab_kota":"Bojonegoro"},"geometry":{"type":"Polygon","coordinates":[[[111.92933,-7.27622,0.0],[111.9282,-7.27877,0.0],[111.92441,-7.28019,0.0],[111.91759,-7.2791,0.0],[111.91436,-7.28135,0.0],[111.89331,-7.27422,0.0],[111.89963,-7.25041,0.0],[111.89937,-7.24294,0.0],[111.89749,-7.24017,0.0],[111.90218,-7.23398,0.0],[111.90309,-7.22494,0.0],[111.90586,-7.22059,0.0],[111.90448,-7.21521,0.0],[111.9061,-7.20554,0.0],[111.91227,-7.20861,0.0],[111.91213,-7.21391,0.0],[111.91465,-7.21375,0.0],[111.91823,-7.20644,0.0],[111.91603,-7.20205,0.0],[111.91915,-7.19962,0.0],[111.92075,-7.20065,0.0],[111.92022,-7.20309,0.0],[111.91832,-7.2035,0.0],[111.91992,-7.20554,0.0],[111.92492,-7.20493,0.0],[111.92917,-7.20922,0.0],[111.9313,-7.20959,0.0],[111.92952,-7.21051,0.0],[111.9289,-7.21273,0.0],[111.92705,-7.21111,0.0],[111.92616,-7.21193,0.0],[111.9275,-7.21342,0.0],[111.92971,-7.2135,0.0],[111.9286,-7.21569,0.0],[111.93272,-7.21464,0.0],[111.9331,-7.22183,0.0],[111.93434,-7.22165,0.0],[111.93517,-7.21886,0.0],[111.93705,-7.22017,0.0],[111.93565,-7.22054,0.0],[111.93574,-7.22186,0.0],[111.93785,-7.2222,0.0],[111.93789,-7.21995,0.0],[111.93919,-7.22021,0.0],[111.94079,-7.2171,0.0],[111.9423,-7.21764,0.0],[111.94311,-7.22251,0.0],[111.9395,-7.22481,0.0],[111.94091,-7.22479,0.0],[111.941,-7.22695,0.0],[111.94361,-7.22899,0.0],[111.93872,-7.22987,0.0],[111.93868,-7.23295,0.0],[111.94187,-7.23281,0.0],[111.93802,-7.23596,0.0],[111.94686,-7.23721,0.0],[111.94714,-7.23603,0.0],[111.94999,-7.2364,0.0],[111.95055,-7.23311,0.0],[111.95302,-7.23365,0.0],[111.95249,-7.23728,0.0],[111.95582,-7.23919,0.0],[111.9554,-7.24558,0.0],[111.96392,-7.24865,0.0],[111.96559,-7.24398,0.0],[111.96417,-7.24303,0.0],[111.96531,-7.24098,0.0],[111.96956,-7.24224,0.0],[111.9743,-7.23973,0.0],[111.97692,-7.24023,0.0],[111.97779,-7.24168,0.0],[111.98233,-7.24123,0.0],[111.98278,-7.24519,0.0],[111.98008,-7.2449,0.0],[111.97731,-7.24818,0.0],[111.97743,-7.25098,0.0],[111.97946,-7.25119,0.0],[111.97796,-7.25303,0.0],[111.9808,-7.25268,0.0],[111.97902,-7.25382,0.0],[111.98014,-7.25375,0.0],[111.98137,-7.25634,0.0],[111.98023,-7.25915,0.0],[111.98127,-7.26869,0.0],[111.9801,-7.27162,0.0],[111.98236,-7.27957,0.0],[111.97231,-7.27794,0.0],[111.969,-7.26453,0.0],[111.96143,-7.26157,0.0],[111.96112,-7.26245,0.0],[111.95522,-7.26099,0.0],[111.954,-7.26219,0.0],[111.95366,-7.26901,0.0],[111.95515,-7.26937,0.0],[111.95449,-7.27456,0.0],[111.94964,-7.27566,0.0],[111.94616,-7.27493,0.0],[111.93776,-7.28443,0.0],[111.9349,-7.28389,0.0],[111.93139,-7.27983,0.0],[111.9325,-7.27949,0.0],[111.93158,-7.27642,0.0],[111.92933,-7.27622,0.0]]]}},{"type":"Feature","properties":{"kecamatan":"Sekar","kab_kota":"Bojonegoro"},"geometry":{"type":"Polygon","coordinates":[[[111.7729,-7.41627,0.0],[111.77077,-7.42148,0.0],[111.77365,-7.42265,0.0],[111.77367,-7.42786,0.0],[111.77455,-7.42732,0.0],[111.78169,-7.43438,0.0],[111.78529,-7.43461,0.0],[111.79171,-7.43852,0.0],[111.79488,-7.43853,0.0],[111.79814,-7.44048,0.0],[111.79854,-7.44195,0.0],[111.79418,-7.4518,0.0],[111.78833,-7.45842,0.0],[111.788,-7.46459,0.0],[111.77046,-7.46964,0.0],[111.76334,-7.46683,0.0],[111.74586,-7.45477,0.0],[111.73731,-7.4509,0.0],[111.72718,-7.44885,0.0],[111.71671,-7.44321,0.0],[111.71086,-7.43665,0.0],[111.68454,-7.41662,0.0],[111.65471,-7.39913,0.0],[111.63072,-7.38974,0.0],[111.62747,-7.38755,0.0],[111.62352,-7.38223,0.0],[111.61628,-7.3794,0.0],[111.61439,-7.3758,0.0],[111.61533,-7.37219,0.0],[111.61379,-7.36981,0.0],[111.61617,-7.36798,0.0],[111.62049,-7.36822,0.0],[111.62288,-7.36704,0.0],[111.63123,-7.35914,0.0],[111.63912,-7.35845,0.0],[111.654,-7.35412,0.0],[111.67179,-7.3445,0.0],[111.67891,-7.34703,0.0],[111.68264,-7.35657,0.0],[111.68786,-7.3596,0.0],[111.69234,-7.36032,0.0],[111.69691,-7.3688,0.0],[111.70364,-7.37242,0.0],[111.71391,-7.36907,0.0],[111.72987,-7.3517,0.0],[111.73648,-7.35485,0.0],[111.73727,-7.35312,0.0],[111.73863,-7.35346,0.0],[111.73845,-7.35145,0.0],[111.73957,-7.35151,0.0],[111.73987,-7.35006,0.0],[111.74123,-7.35029,0.0],[111.74426,-7.3475,0.0],[111.75,-7.34667,0.0],[111.75768,-7.34855,0.0],[111.75782,-7.351,0.0],[111.75567,-7.35186,0.0],[111.75647,-7.35303,0.0],[111.75829,-7.35276,0.0],[111.75637,-7.35458,0.0],[111.75725,-7.35544,0.0],[111.75645,-7.35762,0.0],[111.75725,-7.35797,0.0],[111.75874,-7.35508,0.0],[111.75872,-7.35691,0.0],[111.76005,-7.35596,0.0],[111.75927,-7.35869,0.0],[111.76188,-7.36109,0.0],[111.76101,-7.36463,0.0],[111.76259,-7.36423,0.0],[111.76317,-7.36645,0.0],[111.75975,-7.36712,0.0],[111.76121,-7.36733,0.0],[111.76157,-7.36972,0.0],[111.76264,-7.36946,0.0],[111.7622,-7.37062,0.0],[111.76075,-7.37038,0.0],[111.76156,-7.37426,0.0],[111.75969,-7.37803,0.0],[111.7606,-7.38106,0.0],[111.76255,-7.38045,0.0],[111.76184,-7.38283,0.0],[111.76382,-7.38407,0.0],[111.76371,-7.38955,0.0],[111.76266,-7.39027,0.0],[111.76492,-7.39425,0.0],[111.76398,-7.39522,0.0],[111.76592,-7.39572,0.0],[111.76702,-7.39469,0.0],[111.7685,-7.3972,0.0],[111.7706,-7.39785,0.0],[111.77025,-7.40073,0.0],[111.77318,-7.40177,0.0],[111.77241,-7.40522,0.0],[111.7739,-7.40478,0.0],[111.77508,-7.40625,0.0],[111.77353,-7.40778,0.0],[111.77604,-7.40828,0.0],[111.77449,-7.41211,0.0],[111.77538,-7.41545,0.0],[111.7729,-7.41627,0.0]]]}},{"type":"Feature","properties":{"kecamatan":"Gayam","kab_kota":"Bojonegoro"},"geometry":{"type":"Polygon","coordinates":[[[111.72136,-7.21312,0.0],[111.72014,-7.21436,0.0],[111.71773,-7.21279,0.0],[111.71305,-7.21442,0.0],[111.71304,-7.22119,0.0],[111.71164,-7.21863,0.0],[111.70977,-7.2193,0.0],[111.70834,-7.21475,0.0],[111.71002,-7.21207,0.0],[111.70578,-7.21291,0.0],[111.70584,-7.21536,0.0],[111.70488,-7.21338,0.0],[111.70318,-7.2133,0.0],[111.70241,-7.21067,0.0],[111.70068,-7.21028,0.0],[111.70177,-7.20871,0.0],[111.69813,-7.20761,0.0],[111.69964,-7.2067,0.0],[111.69922,-7.20535,0.0],[111.69793,-7.20718,0.0],[111.69708,-7.20556,0.0],[111.69913,-7.2052,0.0],[111.69934,-7.20412,0.0],[111.69736,-7.20298,0.0],[111.69522,-7.20367,0.0],[111.69491,-7.20012,0.0],[111.69359,-7.20305,0.0],[111.69146,-7.20108,0.0],[111.68865,-7.2013,0.0],[111.68951,-7.19991,0.0],[111.68874,-7.19832,0.0],[111.68525,-7.19892,0.0],[111.68493,-7.19731,0.0],[111.68647,-7.19673,0.0],[111.68501,-7.19529,0.0],[111.68655,-7.1944,0.0],[111.68466,-7.19421,0.0],[111.68454,-7.19296,0.0],[111.68754,-7.19283,0.0],[111.6855,-7.19149,0.0],[111.68593,-7.18957,0.0],[111.6828,-7.18945,0.0],[111.68182,-7.19093,0.0],[111.68137,-7.18847,0.0],[111.67858,-7.18648,0.0],[111.67871,-7.18419,0.0],[111.67377,-7.18366,0.0],[111.67559,-7.18157,0.0],[111.67132,-7.18379,0.0],[111.67188,-7.18014,0.0],[111.66921,-7.17963,0.0],[111.66879,-7.17717,0.0],[111.66324,-7.17359,0.0],[111.66399,-7.16674,0.0],[111.66574,-7.16547,0.0],[111.6649,-7.16477,0.0],[111.66386,-7.16605,0.0],[111.66173,-7.16432,0.0],[111.6678,-7.15763,0.0],[111.67123,-7.1499,0.0],[111.67578,-7.14986,0.0],[111.68348,-7.15343,0.0],[111.68649,-7.15343,0.0],[111.68801,-7.15179,0.0],[111.68846,-7.14608,0.0],[111.68663,-7.14135,0.0],[111.67532,-7.13217,0.0],[111.67631,-7.12979,0.0],[111.68275,-7.13343,0.0],[111.696,-7.12954,0.0],[111.71056,-7.13593,0.0],[111.72339,-7.13456,0.0],[111.72339,-7.14356,0.0],[111.73339,-7.14987,0.0],[111.73555,-7.15441,0.0],[111.73852,-7.15551,0.0],[111.73611,-7.16808,0.0],[111.73604,-7.17394,0.0],[111.73801,-7.17779,0.0],[111.73694,-7.17894,0.0],[111.73793,-7.18137,0.0],[111.73703,-7.18952,0.0],[111.74252,-7.19732,0.0],[111.74056,-7.20175,0.0],[111.74223,-7.20847,0.0],[111.73979,-7.21356,0.0],[111.73988,-7.21675,0.0],[111.73749,-7.21952,0.0],[111.73246,-7.21691,0.0],[111.72799,-7.21634,0.0],[111.72466,-7.21294,0.0],[111.72136,-7.21312,0.0]]]}}]}