{"type":"FeatureCollection","features":[{"type":"Feature","properties":{"kecamatan":"Kademangan","kab_kota":"Blitar"},"geometry":{"type":"MultiPolygon","coordinates":[[[[112.11825,-8.25335,0.0],[112.11756,-8.25293,0.0],[112.11764,-8.25268,0.0],[112.11825,-8.25335,0.0]]],[[[112.11773,-8.25148,0.0],[112.11809,-8.252,0.0],[112.11762,-8.25158,0.0],[112.11773,-8.25148,0.0]]],[[[112.12468,-8.2297,0.0],[112.11491,-8.22907,0.0],[112.11337,-8.2264,0.0],[112.10141,-8.22314,0.0],[112.08902,-8.22704,0.0],[112.08556,-8.23146,0.0],[112.0759,-8.22999,0.0],[112.0676,-8.22572,0.0],[112.06305,-8.22597,0.0],[112.06371,-8.22964,0.0],[112.06176,-8.23114,0.0],[112.05343,-8.22681,0.0],[112.04873,-8.22706,0.0],[112.04916,-8.22948,0.0],[112.04732,-8.23276,0.0],[112.02931,-8.22904,0.0],[112.02393,-8.22519,0.0],[112.02326,-8.22163,0.0],[112.02566,-8.21451,0.0],[112.02544,-8.20588,0.0],[112.02821,-8.19993,0.0],[112.02637,-8.19902,0.0],[112.0261,-8.19566,0.0],[112.02356,-8.1948,0.0],[112.02297,-8.19328,0.0],[112.02541,-8.18763,0.0],[112.02419,-8.18572,0.0],[112.0271,-8.1846,0.0],[112.0291,-8.18144,0.0],[112.02884,-8.16821,0.0],[112.03162,-8.16997,0.0],[112.03545,-8.16928,0.0],[112.03811,-8.17375,0.0],[112.05068,-8.17975,0.0],[112.05643,-8.17685,0.0],[112.06406,-8.17665,0.0],[112.06448,-8.18409,0.0],[112.06611,-8.18646,0.0],[112.07858,-8.18752,0.0],[112.08154,-8.18294,0.0],[112.08448,-8.18104,0.0],[112.08462,-8.1779,0.0],[112.08902,-8.17336,0.0],[112.09397,-8.17362,0.0],[112.09539,-8.17197,0.0],[112.09751,-8.16644,0.0],[112.10365,-8.15839,0.0],[112.115,-8.15871,0.0],[112.11654,-8.15761,0.0],[112.11767,-8.15278,0.0],[112.11732,-8.14362,0.0],[112.1201,-8.13448,0.0],[112.11947,-8.12864,0.0],[112.12201,-8.12529,0.0],[112.12429,-8.12891,0.0],[112.1292,-8.13148,0.0],[112.13476,-8.13249,0.0],[112.15004,-8.14277,0.0],[112.16858,-8.14419,0.0],[112.17485,-8.14303,0.0],[112.17723,-8.145,0.0],[112.1773,-8.14898,0.0],[112.17855,-8.15059,0.0],[112.18389,-8.14871,0.0],[112.19351,-8.15088,0.0],[112.1928,-8.15465,0.0],[112.19146,-8.15463,0.0],[112.19056,-8.15695,0.0],[112.19011,-8.16291,0.0],[112.19504,-8.17389,0.0],[112.19467,-8.17703,0.0],[112.18615,-8.17846,0.0],[112.18538,-8.18314,0.0],[112.18231,-8.18546,0.0],[112.17913,-8.18582,0.0],[112.17739,-8.18417,0.0],[112.17446,-8.18471,0.0],[112.17313,-8.18326,0.0],[112.17,-8.18447,0.0],[112.16943,-8.19187,0.0],[112.16716,-8.19518,0.0],[112.1655,-8.19537,0.0],[112.1653,-8.19862,0.0],[112.16315,-8.19742,0.0],[112.1574,-8.19952,0.0],[112.15,-8.20703,0.0],[112.14421,-8.21062,0.0],[112.13998,-8.21203,0.0],[112.13926,-8.21005,0.0],[112.13741,-8.21017,0.0],[112.13423,-8.21413,0.0],[112.12971,-8.21551,0.0],[112.12696,-8.22079,0.0],[112.1257,-8.22744,0.0],[112.12619,-8.22842,0.0],[112.12654,-8.23361,0.0],[112.12468,-8.2297,0.0]],[[112.12468,-8.2297,0.0],[112.1259,-8.22885,0.0],[112.1244,-8.2282,0.0],[112.12468,-8.2297,0.0]]]]}},{"type":"Feature","properties":{"kecamatan":"Bakung","kab_kota":"Blitar"},"geometry":{"type":"Polygon","coordinates":[[[112.07486,-8.31675,0.0],[112.06823,-8.31819,0.0],[112.06671,-8.31925,0.0],[112.06822,-8.32134,0.0],[112.06527,-8.32226,0.0],[112.06117,-8.31952,0.0],[112.05383,-8.31728,0.0],[112.03426,-8.31925,0.0],[112.02911,-8.31717,0.0],[112.02864,-8.31481,0.0],[112.02996,-8.31424,0.0],[112.02854,-8.31206,0.0],[112.03167,-8.31093,0.0],[112.03225,-8.30948,0.0],[112.0335,-8.3098,0.0],[112.03436,-8.30085,0.0],[112.03159,-8.29391,0.0],[112.02448,-8.28779,0.0],[112.02368,-8.2811,0.0],[112.02892,-8.27319,0.0],[112.03063,-8.26268,0.0],[112.02626,-8.25715,0.0],[112.02513,-8.24801,0.0],[112.02266,-8.24434,0.0],[112.02595,-8.23931,0.0],[112.02688,-8.23424,0.0],[112.02547,-8.22913,0.0],[112.02266,-8.22884,0.0],[112.02203,-8.22617,0.0],[112.02393,-8.22519,0.0],[112.02931,-8.22904,0.0],[112.04597,-8.2327,0.0],[112.04738,-8.23274,0.0],[112.04926,-8.22688,0.0],[112.05343,-8.22681,0.0],[112.06176,-8.23114,0.0],[112.06371,-8.22964,0.0],[112.06305,-8.22597,0.0],[112.06687,-8.22569,0.0],[112.07081,-8.22668,0.0],[112.07213,-8.2285,0.0],[112.0759,-8.22999,0.0],[112.08556,-8.23146,0.0],[112.08902,-8.22704,0.0],[112.10141,-8.22314,0.0],[112.11337,-8.2264,0.0],[112.11491,-8.22907,0.0],[112.12468,-8.2297,0.0],[112.12775,-8.24036,0.0],[112.1226,-8.24619,0.0],[112.11815,-8.24909,0.0],[112.11735,-8.25418,0.0],[112.12282,-8.25616,0.0],[112.12414,-8.2597,0.0],[112.12537,-8.25973,0.0],[112.12467,-8.26685,0.0],[112.11549,-8.26902,0.0],[112.11422,-8.27547,0.0],[112.11543,-8.27816,0.0],[112.11397,-8.27888,0.0],[112.11623,-8.2806,0.0],[112.11419,-8.28281,0.0],[112.11638,-8.28322,0.0],[112.1165,-8.2856,0.0],[112.11949,-8.28849,0.0],[112.11886,-8.29555,0.0],[112.12065,-8.29969,0.0],[112.122,-8.29811,0.0],[112.12371,-8.29944,0.0],[112.12242,-8.30173,0.0],[112.1242,-8.30287,0.0],[112.12089,-8.30407,0.0],[112.12512,-8.30721,0.0],[112.12385,-8.30919,0.0],[112.12566,-8.31132,0.0],[112.12519,-8.31298,0.0],[112.12272,-8.31517,0.0],[112.12027,-8.31447,0.0],[112.11868,-8.31617,0.0],[112.11501,-8.3164,0.0],[112.11218,-8.31535,0.0],[112.11148,-8.31289,0.0],[112.10987,-8.31241,0.0],[112.10806,-8.31675,0.0],[112.10632,-8.31777,0.0],[112.09854,-8.31826,0.0],[112.09629,-8.31624,0.0],[112.08997,-8.31482,0.0],[112.08293,-8.31802,0.0],[112.07681,-8.31787,0.0],[112.07486,-8.31675,0.0]]]}},{"type":"Feature","properties":{"kecamatan":"Udanawu","kab_kota":"Blitar"},"geometry":{"type":"Polygon","coordinates":[[[112.02304,-8.0334,0.0],[112.01877,-8.03309,0.0],[112.01734,-8.03018,0.0],[112.01741,-8.02885,0.0],[112.0218,-8.02878,0.0],[112.02141,-8.01787,0.0],[112.01542,-8.01818,0.0],[112.01439,-8.02342,0.0],[112.00576,-8.02446,0.0],[112.00321,-8.0242,0.0],[112.00297,-8.02212,0.0],[111.99786,-8.02137,0.0],[111.99817,-8.0192,0.0],[111.99688,-8.01899,0.0],[111.9964,-8.02185,0.0],[111.99463,-8.02171,0.0],[111.99316,-8.02442,0.0],[111.98965,-8.02393,0.0],[111.98934,-8.02476,0.0],[111.9784,-8.02155,0.0],[111.97742,-8.01961,0.0],[111.97331,-8.0178,0.0],[111.97331,-8.015,0.0],[111.97484,-8.01224,0.0],[111.97625,-8.01255,0.0],[111.97828,-8.00534,0.0],[111.97631,-8.00344,0.0],[111.97781,-7.99755,0.0],[111.98064,-7.99812,0.0],[111.98124,-7.99686,0.0],[111.99139,-7.99856,0.0],[111.99168,-7.99581,0.0],[112.01306,-7.99833,0.0],[112.01288,-8.0005,0.0],[112.01423,-8.00172,0.0],[112.03683,-7.99326,0.0],[112.04714,-7.99356,0.0],[112.05772,-7.99122,0.0],[112.06759,-7.99227,0.0],[112.06702,-7.99847,0.0],[112.06833,-7.99837,0.0],[112.0683,-7.99978,0.0],[112.07235,-7.99888,0.0],[112.07831,-8.00118,0.0],[112.07835,-7.99965,0.0],[112.08318,-7.99931,0.0],[112.0848,-7.99679,0.0],[112.08778,-7.99801,0.0],[112.08824,-8.00089,0.0],[112.08688,-8.00111,0.0],[112.08698,-8.00235,0.0],[112.0758,-8.00505,0.0],[112.07549,-8.00767,0.0],[112.08503,-8.00684,0.0],[112.08565,-8.0084,0.0],[112.08351,-8.00928,0.0],[112.08412,-8.0111,0.0],[112.08223,-8.01186,0.0],[112.08263,-8.0146,0.0],[112.07658,-8.01548,0.0],[112.07415,-8.02316,0.0],[112.066,-8.02871,0.0],[112.06199,-8.02876,0.0],[112.05996,-8.0301,0.0],[112.05512,-8.02947,0.0],[112.05427,-8.0357,0.0],[112.05527,-8.03804,0.0],[112.05374,-8.03817,0.0],[112.05354,-8.04114,0.0],[112.05035,-8.04092,0.0],[112.05023,-8.04259,0.0],[112.03757,-8.04255,0.0],[112.03724,-8.04397,0.0],[112.02863,-8.04456,0.0],[112.02811,-8.04571,0.0],[112.02562,-8.04391,0.0],[112.02517,-8.03688,0.0],[112.02304,-8.0334,0.0]]]}},{"type":"Feature","properties":{"kecamatan":"Srengat","kab_kota":"Blitar"},"geometry":{"type":"Polygon","coordinates":[[[112.08196,-8.11866,0.0],[112.07086,-8.11645,0.0],[112.06708,-8.11134,0.0],[112.04866,-8.10957,0.0],[112.03365,-8.09885,0.0],[112.02659,-8.09833,0.0],[112.03048,-8.07095,0.0],[112.03734,-8.07113,0.0],[112.0404,-8.06558,0.0],[112.04344,-8.06649,0.0],[112.0447,-8.06177,0.0],[112.0486,-8.05785,0.0],[112.03229,-8.05347,0.0],[112.03208,-8.05142,0.0],[112.03373,-8.05039,0.0],[112.03246,-8.04824,0.0],[112.03467,-8.04845,0.0],[112.03456,-8.04729,0.0],[112.03823,-8.04517,0.0],[112.03757,-8.04255,0.0],[112.05023,-8.04259,0.0],[112.05035,-8.04092,0.0],[112.06078,-8.04279,0.0],[112.06024,-8.05115,0.0],[112.06468,-8.05182,0.0],[112.06402,-8.05361,0.0],[112.06825,-8.05544,0.0],[112.0753,-8.05484,0.0],[112.08478,-8.04976,0.0],[112.08682,-8.05381,0.0],[112.08577,-8.0553,0.0],[112.09269,-8.05724,0.0],[112.09366,-8.06569,0.0],[112.09956,-8.06533,0.0],[112.1007,-8.06811,0.0],[112.09887,-8.07527,0.0],[112.09974,-8.07536,0.0],[112.09926,-8.07896,0.0],[112.10718,-8.07891,0.0],[112.10734,-8.0841,0.0],[112.10247,-8.08895,0.0],[112.11423,-8.0909,0.0],[112.11465,-8.08897,0.0],[112.11829,-8.08953,0.0],[112.11935,-8.0938,0.0],[112.117,-8.10068,0.0],[112.11771,-8.10364,0.0],[112.11131,-8.11347,0.0],[112.11021,-8.11854,0.0],[112.09578,-8.11091,0.0],[112.09328,-8.11063,0.0],[112.08552,-8.11371,0.0],[112.08196,-8.11866,0.0]]]}},{"type":"Feature","properties":{"kecamatan":"Wonotirto","kab_kota":"Blitar"},"geometry":{"type":"MultiPolygon","coordinates":[[[[112.15027,-8.32492,0.0],[112.15038,-8.32489,0.0],[112.15029,-8.32498,0.0],[112.15027,-8.32492,0.0]]],[[[112.15003,-8.32225,0.0],[112.14985,-8.32166,0.0],[112.15027,-8.3217,0.0],[112.15003,-8.32225,0.0]]],[[[112.18145,-8.32421,0.0],[112.18219,-8.32633,0.0],[112.17797,-8.32532,0.0],[112.17717,-8.32326,0.0],[112.17521,-8.32248,0.0],[112.1757,-8.32171,0.0],[112.17119,-8.32162,0.0],[112.17134,-8.32025,0.0],[112.17007,-8.32028,0.0],[112.16744,-8.3223,0.0],[112.16682,-8.32505,0.0],[112.16873,-8.32589,0.0],[112.16688,-8.32755,0.0],[112.16522,-8.32601,0.0],[112.16116,-8.32587,0.0],[112.15477,-8.32846,0.0],[112.15093,-8.32463,0.0],[112.15144,-8.32302,0.0],[112.1501,-8.32137,0.0],[112.14537,-8.31914,0.0],[112.14534,-8.31758,0.0],[112.14591,-8.31815,0.0],[112.14615,-8.31793,0.0],[112.14484,-8.31622,0.0],[112.1418,-8.31561,0.0],[112.14057,-8.31753,0.0],[112.14046,-8.31465,0.0],[112.13902,-8.31645,0.0],[112.14048,-8.31833,0.0],[112.1386,-8.31686,0.0],[112.13498,-8.31862,0.0],[112.13302,-8.32323,0.0],[112.13048,-8.32539,0.0],[112.1284,-8.32505,0.0],[112.12771,-8.32336,0.0],[112.12651,-8.32394,0.0],[112.12419,-8.32099,0.0],[112.12272,-8.31517,0.0],[112.12558,-8.3122,0.0],[112.12385,-8.30919,0.0],[112.12515,-8.30732,0.0],[112.12089,-8.30407,0.0],[112.1242,-8.30287,0.0],[112.12242,-8.30173,0.0],[112.12371,-8.29944,0.0],[112.122,-8.29811,0.0],[112.12065,-8.29969,0.0],[112.11886,-8.29555,0.0],[112.11949,-8.28849,0.0],[112.1165,-8.2856,0.0],[112.11638,-8.28322,0.0],[112.11419,-8.28281,0.0],[112.11623,-8.2806,0.0],[112.11397,-8.27888,0.0],[112.11543,-8.27816,0.0],[112.11422,-8.27547,0.0],[112.11549,-8.26902,0.0],[112.12467,-8.26685,0.0],[112.12537,-8.25973,0.0],[112.12414,-8.2597,0.0],[112.12282,-8.25616,0.0],[112.11735,-8.25418,0.0],[112.11815,-8.24909,0.0],[112.1226,-8.24619,0.0],[112.12775,-8.24036,0.0],[112.1257,-8.22744,0.0],[112.12745,-8.21937,0.0],[112.12971,-8.21551,0.0],[112.13423,-8.21413,0.0],[112.13728,-8.21024,0.0],[112.13926,-8.21005,0.0],[112.13998,-8.21203,0.0],[112.14374,-8.21086,0.0],[112.15,-8.20703,0.0],[112.15718,-8.19964,0.0],[112.16315,-8.19742,0.0],[112.16491,-8.19873,0.0],[112.16575,-8.19722,0.0],[112.17347,-8.19741,0.0],[112.17294,-8.19922,0.0],[112.17672,-8.20453,0.0],[112.17941,-8.2031,0.0],[112.18092,-8.20397,0.0],[112.18458,-8.20324,0.0],[112.18844,-8.20498,0.0],[112.19538,-8.20441,0.0],[112.20124,-8.20828,0.0],[112.20639,-8.20938,0.0],[112.21135,-8.20305,0.0],[112.21115,-8.2008,0.0],[112.2127,-8.19851,0.0],[112.21772,-8.20065,0.0],[112.22543,-8.20125,0.0],[112.22385,-8.20853,0.0],[112.2297,-8.21381,0.0],[112.22764,-8.21518,0.0],[112.2247,-8.22182,0.0],[112.22666,-8.22326,0.0],[112.22568,-8.23759,0.0],[112.23569,-8.24934,0.0],[112.22951,-8.26424,0.0],[112.23139,-8.26737,0.0],[112.23618,-8.26993,0.0],[112.23644,-8.2776,0.0],[112.23446,-8.28596,0.0],[112.23529,-8.28663,0.0],[112.23385,-8.2886,0.0],[112.23177,-8.2881,0.0],[112.23114,-8.29034,0.0],[112.22818,-8.29218,0.0],[112.22591,-8.29024,0.0],[112.22512,-8.29912,0.0],[112.2204,-8.29907,0.0],[112.22015,-8.30229,0.0],[112.21707,-8.3017,0.0],[112.21457,-8.30729,0.0],[112.21172,-8.30952,0.0],[112.21256,-8.31086,0.0],[112.21172,-8.31485,0.0],[112.21403,-8.31407,0.0],[112.21539,-8.31542,0.0],[112.21327,-8.32677,0.0],[112.21409,-8.32928,0.0],[112.21145,-8.32737,0.0],[112.21068,-8.32881,0.0],[112.20944,-8.32788,0.0],[112.20887,-8.32987,0.0],[112.20891,-8.32771,0.0],[112.2069,-8.32775,0.0],[112.20653,-8.32581,0.0],[112.20446,-8.32723,0.0],[112.20312,-8.32451,0.0],[112.20088,-8.3259,0.0],[112.20008,-8.32468,0.0],[112.19941,-8.32659,0.0],[112.19605,-8.32573,0.0],[112.19467,-8.32677,0.0],[112.19443,-8.32324,0.0],[112.19052,-8.32702,0.0],[112.19148,-8.32541,0.0],[112.18944,-8.32513,0.0],[112.18913,-8.32355,0.0],[112.18145,-8.32421,0.0]]],[[[112.1259,-8.22885,0.0],[112.12468,-8.2297,0.0],[112.1244,-8.2282,0.0],[112.1259,-8.22885,0.0]]],[[[112.20685,-8.32996,0.0],[112.20688,-8.32945,0.0],[112.20694,-8.33004,0.0],[112.20685,-8.32996,0.0]]],[[[112.20545,-8.32908,0.0],[112.20553,-8.32872,0.0],[112.20561,-8.32876,0.0],[112.20545,-8.32908,0.0]]],[[[112.18149,-8.3278,0.0],[112.18065,-8.3273,0.0],[112.18094,-8.32716,0.0],[112.18149,-8.3278,0.0]]],[[[112.20275,-8.3268,0.0],[112.20295,-8.32667,0.0],[112.20274,-8.32693,0.0],[112.20275,-8.3268,0.0]]],[[[112.18015,-8.32672,0.0],[112.17945,-8.3268,0.0],[112.17929,-8.32611,0.0],[112.18015,-8.32672,0.0]]],[[[112.18609,-8.3248,0.0],[112.18627,-8.32463,0.0],[112.18629,-8.32482,0.0],[112.18609,-8.3248,0.0]]]]}},{"type":"Feature","properties":{"kecamatan":"Nglegok","kab_kota":"Blitar"},"geometry":{"type":"Polygon","coordinates":[[[112.19095,-8.06354,0.0],[112.18891,-8.06592,0.0],[112.18729,-8.06545,0.0],[112.18898,-8.05811,0.0],[112.18628,-8.05608,0.0],[112.18217,-8.05733,0.0],[112.18107,-8.0609,0.0],[112.1735,-8.05788,0.0],[112.17363,-8.05667,0.0],[112.16921,-8.05644,0.0],[112.17184,-8.04778,0.0],[112.17006,-8.04664,0.0],[112.17026,-8.04328,0.0],[112.17339,-8.03969,0.0],[112.17197,-8.03913,0.0],[112.17161,-8.03712,0.0],[112.17404,-8.03024,0.0],[112.17142,-8.02993,0.0],[112.17302,-8.026,0.0],[112.17589,-8.02352,0.0],[112.17644,-8.02045,0.0],[112.17604,-8.01593,0.0],[112.17154,-8.01656,0.0],[112.17106,-8.0125,0.0],[112.17411,-8.00763,0.0],[112.1795,-8.00409,0.0],[112.17803,-7.99833,0.0],[112.17962,-7.9902,0.0],[112.17769,-7.98595,0.0],[112.17601,-7.98615,0.0],[112.17205,-7.98359,0.0],[112.17056,-7.97854,0.0],[112.17219,-7.97665,0.0],[112.16976,-7.97495,0.0],[112.18155,-7.97349,0.0],[112.19214,-7.97008,0.0],[112.19757,-7.96748,0.0],[112.20133,-7.96404,0.0],[112.20695,-7.96275,0.0],[112.21236,-7.96366,0.0],[112.22089,-7.96178,0.0],[112.22959,-7.95554,0.0],[112.23459,-7.95487,0.0],[112.2402,-7.95143,0.0],[112.24243,-7.94748,0.0],[112.25139,-7.94476,0.0],[112.25719,-7.94405,0.0],[112.25809,-7.94683,0.0],[112.25946,-7.94738,0.0],[112.26655,-7.94293,0.0],[112.27547,-7.94238,0.0],[112.28243,-7.939,0.0],[112.29293,-7.94038,0.0],[112.299,-7.93859,0.0],[112.30245,-7.943,0.0],[112.29864,-7.94923,0.0],[112.297,-7.95473,0.0],[112.29549,-7.95615,0.0],[112.28541,-7.95749,0.0],[112.27819,-7.96696,0.0],[112.27514,-7.96896,0.0],[112.27331,-7.96844,0.0],[112.27127,-7.97101,0.0],[112.26993,-7.97033,0.0],[112.26679,-7.97242,0.0],[112.26619,-7.97493,0.0],[112.26108,-7.97697,0.0],[112.2586,-7.98086,0.0],[112.25971,-7.9819,0.0],[112.25676,-7.98501,0.0],[112.25734,-7.98623,0.0],[112.25475,-7.98755,0.0],[112.25515,-7.98932,0.0],[112.25116,-7.99136,0.0],[112.24989,-7.99415,0.0],[112.24504,-7.99731,0.0],[112.2448,-7.99919,0.0],[112.24164,-8.00056,0.0],[112.24097,-8.00528,0.0],[112.2386,-8.00741,0.0],[112.24112,-8.008,0.0],[112.24048,-8.01388,0.0],[112.2348,-8.01853,0.0],[112.23479,-8.02215,0.0],[112.23128,-8.02431,0.0],[112.23154,-8.02747,0.0],[112.23015,-8.02715,0.0],[112.22705,-8.03616,0.0],[112.22411,-8.03753,0.0],[112.224,-8.04083,0.0],[112.22036,-8.04353,0.0],[112.22047,-8.04838,0.0],[112.21751,-8.05462,0.0],[112.21277,-8.05756,0.0],[112.2102,-8.06119,0.0],[112.20643,-8.0624,0.0],[112.19541,-8.07523,0.0],[112.19445,-8.07243,0.0],[112.1985,-8.06537,0.0],[112.19474,-8.06531,0.0],[112.19095,-8.06354,0.0]]]}},{"type":"Feature","properties":{"kecamatan":"Ponggok","kab_kota":"Blitar"},"geometry":{"type":"Polygon","coordinates":[[[112.1276,-8.06496,0.0],[112.12433,-8.06941,0.0],[112.12428,-8.07706,0.0],[112.11921,-8.08906,0.0],[112.11465,-8.08897,0.0],[112.11423,-8.0909,0.0],[112.10287,-8.08908,0.0],[112.10734,-8.0841,0.0],[112.10718,-8.07891,0.0],[112.09926,-8.07896,0.0],[112.09974,-8.07536,0.0],[112.09887,-8.07527,0.0],[112.1007,-8.06811,0.0],[112.09956,-8.06533,0.0],[112.09366,-8.06569,0.0],[112.09269,-8.05724,0.0],[112.08577,-8.0553,0.0],[112.08682,-8.05381,0.0],[112.08478,-8.04976,0.0],[112.0753,-8.05484,0.0],[112.06861,-8.05546,0.0],[112.06402,-8.05361,0.0],[112.06468,-8.05182,0.0],[112.06024,-8.05115,0.0],[112.06078,-8.04279,0.0],[112.05354,-8.04114,0.0],[112.05374,-8.03817,0.0],[112.05527,-8.03804,0.0],[112.05427,-8.0357,0.0],[112.05512,-8.02947,0.0],[112.05996,-8.0301,0.0],[112.06199,-8.02876,0.0],[112.06592,-8.02875,0.0],[112.07339,-8.024,0.0],[112.0766,-8.01793,0.0],[112.07658,-8.01548,0.0],[112.08263,-8.0146,0.0],[112.08223,-8.01186,0.0],[112.08412,-8.0111,0.0],[112.08351,-8.00928,0.0],[112.08565,-8.0084,0.0],[112.08503,-8.00684,0.0],[112.07549,-8.00767,0.0],[112.0758,-8.00505,0.0],[112.08629,-8.00259,0.0],[112.08824,-8.00089,0.0],[112.08646,-7.99684,0.0],[112.08402,-7.99721,0.0],[112.08318,-7.99931,0.0],[112.07835,-7.99965,0.0],[112.07831,-8.00118,0.0],[112.07235,-7.99888,0.0],[112.0683,-7.99978,0.0],[112.06833,-7.99837,0.0],[112.06702,-7.99847,0.0],[112.06759,-7.99227,0.0],[112.0741,-7.99015,0.0],[112.09059,-7.99161,0.0],[112.09629,-7.98908,0.0],[112.09826,-7.97684,0.0],[112.09625,-7.97001,0.0],[112.10955,-7.96946,0.0],[112.11636,-7.97256,0.0],[112.12818,-7.97415,0.0],[112.13343,-7.97604,0.0],[112.15036,-7.97571,0.0],[112.15024,-7.9772,0.0],[112.15738,-7.97725,0.0],[112.16976,-7.97495,0.0],[112.17219,-7.97665,0.0],[112.17056,-7.97854,0.0],[112.17205,-7.98359,0.0],[112.17601,-7.98615,0.0],[112.17769,-7.98595,0.0],[112.17962,-7.9902,0.0],[112.17803,-7.99833,0.0],[112.1795,-8.00409,0.0],[112.17411,-8.00763,0.0],[112.17106,-8.0125,0.0],[112.17154,-8.01656,0.0],[112.17608,-8.01611,0.0],[112.1763,-8.02248,0.0],[112.17221,-8.02719,0.0],[112.17142,-8.02993,0.0],[112.17404,-8.03024,0.0],[112.17161,-8.03712,0.0],[112.17197,-8.03913,0.0],[112.17339,-8.03969,0.0],[112.17089,-8.04084,0.0],[112.16754,-8.03898,0.0],[112.15617,-8.03877,0.0],[112.15152,-8.04504,0.0],[112.14361,-8.04924,0.0],[112.13885,-8.05577,0.0],[112.13493,-8.05777,0.0],[112.13358,-8.05994,0.0],[112.1278,-8.06219,0.0],[112.1276,-8.06496,0.0]]]}},{"type":"Feature","properties":{"kecamatan":"Sanankulon","kab_kota":"Blitar"},"geometry":{"type":"Polygon","coordinates":[[[112.14378,-8.11989,0.0],[112.15028,-8.12119,0.0],[112.15092,-8.12241,0.0],[112.14898,-8.12757,0.0],[112.15655,-8.12805,0.0],[112.15771,-8.12589,0.0],[112.15961,-8.12664,0.0],[112.15817,-8.13139,0.0],[112.15651,-8.13295,0.0],[112.15645,-8.13487,0.0],[112.16016,-8.13572,0.0],[112.15798,-8.14368,0.0],[112.14759,-8.14171,0.0],[112.13476,-8.13249,0.0],[112.1292,-8.13148,0.0],[112.12429,-8.12891,0.0],[112.12201,-8.12529,0.0],[112.11588,-8.12311,0.0],[112.1102,-8.11757,0.0],[112.11311,-8.10992,0.0],[112.1154,-8.10845,0.0],[112.11766,-8.1038,0.0],[112.117,-8.10068,0.0],[112.11935,-8.0938,0.0],[112.11829,-8.08953,0.0],[112.12056,-8.08704,0.0],[112.12428,-8.07706,0.0],[112.12433,-8.06941,0.0],[112.1276,-8.06496,0.0],[112.1278,-8.06219,0.0],[112.13358,-8.05994,0.0],[112.13493,-8.05777,0.0],[112.13885,-8.05577,0.0],[112.14361,-8.04924,0.0],[112.15152,-8.04504,0.0],[112.15617,-8.03877,0.0],[112.16817,-8.03907,0.0],[112.17247,-8.04114,0.0],[112.17026,-8.04328,0.0],[112.17006,-8.04664,0.0],[112.17184,-8.04778,0.0],[112.16921,-8.05644,0.0],[112.17387,-8.05685,0.0],[112.17136,-8.06007,0.0],[112.1723,-8.06034,0.0],[112.16925,-8.06726,0.0],[112.16842,-8.0734,0.0],[112.16695,-8.07383,0.0],[112.16641,-8.07614,0.0],[112.16505,-8.07619,0.0],[112.16269,-8.08356,0.0],[112.15706,-8.0862,0.0],[112.1576,-8.0832,0.0],[112.15142,-8.08254,0.0],[112.15159,-8.08152,0.0],[112.14754,-8.08011,0.0],[112.14704,-8.07692,0.0],[112.14427,-8.07668,0.0],[112.1335,-8.08363,0.0],[112.13366,-8.08725,0.0],[112.13206,-8.09108,0.0],[112.14023,-8.09617,0.0],[112.1394,-8.09883,0.0],[112.1416,-8.09994,0.0],[112.1401,-8.10096,0.0],[112.13989,-8.1031,0.0],[112.13833,-8.10297,0.0],[112.13702,-8.10691,0.0],[112.13584,-8.10674,0.0],[112.13594,-8.10904,0.0],[112.14087,-8.1112,0.0],[112.14252,-8.11039,0.0],[112.14364,-8.10756,0.0],[112.14504,-8.10802,0.0],[112.1439,-8.11134,0.0],[112.14756,-8.10947,0.0],[112.14737,-8.11098,0.0],[112.14605,-8.11089,0.0],[112.14566,-8.11378,0.0],[112.14335,-8.11357,0.0],[112.14222,-8.11778,0.0],[112.14412,-8.11831,0.0],[112.14378,-8.11989,0.0]]]}},{"type":"Feature","properties":{"kecamatan":"Wonodadi","kab_kota":"Blitar"},"geometry":{"type":"Polygon","coordinates":[[[112.008,-8.09755,0.0],[111.99687,-8.09211,0.0],[111.99408,-8.08747,0.0],[111.99284,-8.08093,0.0],[111.98817,-8.07643,0.0],[111.99183,-8.07115,0.0],[111.99331,-8.07117,0.0],[111.99319,-8.06695,0.0],[111.99397,-8.06792,0.0],[111.9941,-8.06656,0.0],[111.99575,-8.06654,0.0],[111.99622,-8.06265,0.0],[111.99514,-8.06242,0.0],[111.99386,-8.05772,0.0],[111.98721,-8.05272,0.0],[111.98705,-8.04985,0.0],[111.98203,-8.04839,0.0],[111.97752,-8.04382,0.0],[111.97248,-8.04361,0.0],[111.97363,-8.04027,0.0],[111.97093,-8.03692,0.0],[111.97077,-8.0311,0.0],[111.96941,-8.02991,0.0],[111.97042,-8.02732,0.0],[111.96878,-8.02644,0.0],[111.96763,-8.02136,0.0],[111.96608,-8.02173,0.0],[111.96507,-8.01986,0.0],[111.96402,-8.0154,0.0],[111.96203,-8.01393,0.0],[111.96248,-8.01198,0.0],[111.95652,-8.00893,0.0],[111.95805,-8.00596,0.0],[111.9557,-7.99808,0.0],[111.96172,-7.99861,0.0],[111.96389,-8.00717,0.0],[111.97441,-8.01063,0.0],[111.97331,-8.0178,0.0],[111.97742,-8.01961,0.0],[111.9784,-8.02155,0.0],[111.985,-8.02411,0.0],[111.99316,-8.02442,0.0],[111.99463,-8.02171,0.0],[111.9964,-8.02185,0.0],[111.99688,-8.01899,0.0],[111.99817,-8.0192,0.0],[111.99786,-8.02137,0.0],[111.99901,-8.02199,0.0],[112.00297,-8.02212,0.0],[112.00353,-8.02438,0.0],[112.01385,-8.02357,0.0],[112.01542,-8.01818,0.0],[112.02141,-8.01787,0.0],[112.0218,-8.02878,0.0],[112.01741,-8.02885,0.0],[112.01734,-8.03018,0.0],[112.01972,-8.03361,0.0],[112.02316,-8.03339,0.0],[112.02517,-8.03688,0.0],[112.02562,-8.04391,0.0],[112.02811,-8.04571,0.0],[112.02863,-8.04456,0.0],[112.03822,-8.04392,0.0],[112.03467,-8.04845,0.0],[112.03246,-8.04824,0.0],[112.03373,-8.05039,0.0],[112.03208,-8.05142,0.0],[112.03229,-8.05347,0.0],[112.0486,-8.05785,0.0],[112.0447,-8.06177,0.0],[112.04344,-8.06649,0.0],[112.0404,-8.06558,0.0],[112.03734,-8.07113,0.0],[112.03048,-8.07095,0.0],[112.02879,-8.0866,0.0],[112.02775,-8.08657,0.0],[112.02659,-8.09833,0.0],[112.02762,-8.09832,0.0],[112.02391,-8.09857,0.0],[112.01745,-8.09681,0.0],[112.008,-8.09755,0.0]]]}},{"type":"Feature","properties":{"kecamatan":"Gandusari","kab_kota":"Blitar"},"geometry":{"type":"Polygon","coordinates":[[[112.29195,-8.06784,0.0],[112.29157,-8.07256,0.0],[112.28895,-8.07324,0.0],[112.28903,-8.07493,0.0],[112.28656,-8.07484,0.0],[112.28626,-8.07602,0.0],[112.2837,-8.07555,0.0],[112.28454,-8.0721,0.0],[112.28089,-8.07174,0.0],[112.28093,-8.06672,0.0],[112.27749,-8.06355,0.0],[112.26154,-8.06228,0.0],[112.25918,-8.06078,0.0],[112.26097,-8.05453,0.0],[112.26067,-8.05288,0.0],[112.2594,-8.05262,0.0],[112.26622,-8.04166,0.0],[112.26847,-8.04217,0.0],[112.27076,-8.03747,0.0],[112.27366,-8.03566,0.0],[112.27679,-8.03059,0.0],[112.27963,-7.99564,0.0],[112.28097,-7.98736,0.0],[112.28237,-7.98543,0.0],[112.27962,-7.97658,0.0],[112.28185,-7.96955,0.0],[112.28688,-7.96264,0.0],[112.29772,-7.95981,0.0],[112.30481,-7.95498,0.0],[112.30911,-7.94881,0.0],[112.31214,-7.93723,0.0],[112.31596,-7.93142,0.0],[112.32028,-7.93292,0.0],[112.32148,-7.93522,0.0],[112.32648,-7.93819,0.0],[112.33013,-7.93861,0.0],[112.33756,-7.94413,0.0],[112.35558,-7.94541,0.0],[112.36337,-7.95109,0.0],[112.36417,-7.95383,0.0],[112.36268,-7.9562,0.0],[112.36524,-7.95536,0.0],[112.37051,-7.95722,0.0],[112.37474,-7.95484,0.0],[112.38336,-7.95292,0.0],[112.40721,-7.95026,0.0],[112.42045,-7.94243,0.0],[112.42827,-7.93337,0.0],[112.43323,-7.93017,0.0],[112.4338,-7.9344,0.0],[112.43272,-7.93784,0.0],[112.42538,-7.94526,0.0],[112.42203,-7.94688,0.0],[112.41792,-7.95397,0.0],[112.41413,-7.96646,0.0],[112.40763,-7.97487,0.0],[112.39961,-7.98007,0.0],[112.39679,-7.9842,0.0],[112.38703,-7.99162,0.0],[112.38497,-8.00028,0.0],[112.37793,-8.00353,0.0],[112.37851,-8.0045,0.0],[112.375,-8.00874,0.0],[112.36433,-8.00932,0.0],[112.35585,-8.01447,0.0],[112.35235,-8.01382,0.0],[112.35088,-8.02571,0.0],[112.3492,-8.02756,0.0],[112.34779,-8.03504,0.0],[112.34375,-8.03913,0.0],[112.34129,-8.03976,0.0],[112.34093,-8.04477,0.0],[112.3338,-8.04217,0.0],[112.33364,-8.04062,0.0],[112.3314,-8.04074,0.0],[112.33087,-8.04394,0.0],[112.32239,-8.05878,0.0],[112.31971,-8.06699,0.0],[112.31672,-8.06798,0.0],[112.31087,-8.06622,0.0],[112.30993,-8.06453,0.0],[112.31063,-8.06243,0.0],[112.30752,-8.05927,0.0],[112.30669,-8.06276,0.0],[112.30062,-8.06791,0.0],[112.29805,-8.06367,0.0],[112.29846,-8.06117,0.0],[112.29679,-8.06047,0.0],[112.29689,-8.0534,0.0],[112.29516,-8.05313,0.0],[112.29386,-8.0569,0.0],[112.29431,-8.06268,0.0],[112.29195,-8.06784,0.0]]]}},{"type":"Feature","properties":{"kecamatan":"Binangun","kab_kota":"Blitar"},"geometry":{"type":"Polygon","coordinates":[[[112.32692,-8.2497,0.0],[112.32592,-8.257,0.0],[112.32377,-8.25884,0.0],[112.31218,-8.26143,0.0],[112.30343,-8.25936,0.0],[112.30307,-8.24111,0.0],[112.30428,-8.23475,0.0],[112.30582,-8.23369,0.0],[112.30418,-8.22993,0.0],[112.30305,-8.22998,0.0],[112.30321,-8.22677,0.0],[112.30736,-8.21821,0.0],[112.30692,-8.21041,0.0],[112.30259,-8.20991,0.0],[112.29163,-8.20199,0.0],[112.29352,-8.19451,0.0],[112.29651,-8.18997,0.0],[112.29403,-8.19065,0.0],[112.28977,-8.18953,0.0],[112.28986,-8.18745,0.0],[112.28596,-8.18536,0.0],[112.27821,-8.18375,0.0],[112.27347,-8.18044,0.0],[112.27461,-8.17846,0.0],[112.28163,-8.17548,0.0],[112.29095,-8.1657,0.0],[112.29587,-8.16624,0.0],[112.29832,-8.16374,0.0],[112.29946,-8.16625,0.0],[112.302,-8.16665,0.0],[112.30378,-8.16957,0.0],[112.30554,-8.1687,0.0],[112.30616,-8.16614,0.0],[112.30936,-8.16622,0.0],[112.31102,-8.16818,0.0],[112.31393,-8.16583,0.0],[112.31407,-8.16945,0.0],[112.32053,-8.16924,0.0],[112.32226,-8.17218,0.0],[112.32664,-8.16805,0.0],[112.33852,-8.17284,0.0],[112.34086,-8.16984,0.0],[112.34122,-8.16689,0.0],[112.34682,-8.1658,0.0],[112.34745,-8.16213,0.0],[112.34889,-8.16134,0.0],[112.35,-8.16188,0.0],[112.34938,-8.1644,0.0],[112.35147,-8.16747,0.0],[112.35755,-8.16807,0.0],[112.36066,-8.17456,0.0],[112.36447,-8.17598,0.0],[112.36574,-8.17565,0.0],[112.36723,-8.17443,0.0],[112.36773,-8.17406,0.0],[112.36809,-8.17387,0.0],[112.36665,-8.17589,0.0],[112.36709,-8.18321,0.0],[112.37737,-8.18722,0.0],[112.38271,-8.19144,0.0],[112.38223,-8.1947,0.0],[112.38481,-8.19993,0.0],[112.38509,-8.20546,0.0],[112.38295,-8.20785,0.0],[112.3863,-8.21384,0.0],[112.38924,-8.21524,0.0],[112.38961,-8.22656,0.0],[112.38899,-8.23299,0.0],[112.38703,-8.23755,0.0],[112.38213,-8.23853,0.0],[112.37886,-8.23752,0.0],[112.37814,-8.24011,0.0],[112.38054,-8.24133,0.0],[112.38212,-8.24526,0.0],[112.38324,-8.26646,0.0],[112.38843,-8.28529,0.0],[112.38508,-8.28781,0.0],[112.38264,-8.29471,0.0],[112.38506,-8.28506,0.0],[112.38155,-8.26754,0.0],[112.38126,-8.24624,0.0],[112.37801,-8.2437,0.0],[112.37347,-8.24308,0.0],[112.37351,-8.23982,0.0],[112.37045,-8.23631,0.0],[112.3693,-8.23119,0.0],[112.36268,-8.23007,0.0],[112.3534,-8.23131,0.0],[112.35188,-8.23414,0.0],[112.35178,-8.2387,0.0],[112.34934,-8.23944,0.0],[112.34938,-8.24242,0.0],[112.34743,-8.24578,0.0],[112.34843,-8.25282,0.0],[112.34576,-8.25364,0.0],[112.34256,-8.2505,0.0],[112.34284,-8.24791,0.0],[112.34129,-8.24463,0.0],[112.33592,-8.24397,0.0],[112.33643,-8.2458,0.0],[112.33491,-8.24767,0.0],[112.33102,-8.24728,0.0],[112.32692,-8.2497,0.0]]]}},{"type":"Feature","properties":{"kecamatan":"Panggungrejo","kab_kota":"Blitar"},"geometry":{"type":"MultiPolygon","coordinates":[[[[112.23862,-8.3524,0.0],[112.23889,-8.35215,0.0],[112.23902,-8.35231,0.0],[112.23862,-8.3524,0.0]]],[[[112.24098,-8.35201,0.0],[112.2409,-8.35243,0.0],[112.24064,-8.35236,0.0],[112.24098,-8.35201,0.0]]],[[[112.23676,-8.35067,0.0],[112.23723,-8.3505,0.0],[112.23712,-8.35083,0.0],[112.23676,-8.35067,0.0]]],[[[112.23802,-8.35094,0.0],[112.23858,-8.34939,0.0],[112.23814,-8.35093,0.0],[112.23802,-8.35094,0.0]]],[[[112.24009,-8.34817,0.0],[112.24034,-8.35107,0.0],[112.23879,-8.35041,0.0],[112.24009,-8.34817,0.0]]],[[[112.23751,-8.34602,0.0],[112.23791,-8.34571,0.0],[112.23796,-8.34599,0.0],[112.23751,-8.34602,0.0]]],[[[112.22854,-8.34528,0.0],[112.22894,-8.34397,0.0],[112.22915,-8.34391,0.0],[112.22854,-8.34528,0.0]]],[[[112.22008,-8.34387,0.0],[112.22048,-8.34331,0.0],[112.22052,-8.34398,0.0],[112.22008,-8.34387,0.0]]],[[[112.22315,-8.34289,0.0],[112.22242,-8.3442,0.0],[112.22232,-8.34414,0.0],[112.22315,-8.34289,0.0]]],[[[112.21774,-8.3395,0.0],[112.21782,-8.33973,0.0],[112.21757,-8.33962,0.0],[112.21774,-8.3395,0.0]]],[[[112.22335,-8.33299,0.0],[112.21963,-8.32712,0.0],[112.21779,-8.3273,0.0],[112.21657,-8.32595,0.0],[112.21333,-8.32777,0.0],[112.21539,-8.31542,0.0],[112.21403,-8.31407,0.0],[112.21172,-8.31485,0.0],[112.21256,-8.31086,0.0],[112.21172,-8.30952,0.0],[112.21457,-8.30729,0.0],[112.21707,-8.3017,0.0],[112.22015,-8.30229,0.0],[112.2204,-8.29907,0.0],[112.22512,-8.29912,0.0],[112.22591,-8.29024,0.0],[112.22802,-8.29224,0.0],[112.23114,-8.29034,0.0],[112.23177,-8.2881,0.0],[112.23408,-8.28846,0.0],[112.23644,-8.2776,0.0],[112.23618,-8.26993,0.0],[112.23139,-8.26737,0.0],[112.2295,-8.2648,0.0],[112.23046,-8.25987,0.0],[112.23569,-8.24934,0.0],[112.22568,-8.23759,0.0],[112.22666,-8.22326,0.0],[112.2247,-8.22182,0.0],[112.22764,-8.21518,0.0],[112.2297,-8.21381,0.0],[112.22385,-8.20853,0.0],[112.22543,-8.20125,0.0],[112.22743,-8.19982,0.0],[112.24403,-8.20317,0.0],[112.24752,-8.20096,0.0],[112.24927,-8.20164,0.0],[112.25112,-8.20063,0.0],[112.254,-8.20192,0.0],[112.25356,-8.1991,0.0],[112.25503,-8.194,0.0],[112.2538,-8.19302,0.0],[112.2546,-8.19137,0.0],[112.25242,-8.19073,0.0],[112.25454,-8.1824,0.0],[112.25546,-8.18329,0.0],[112.25822,-8.18001,0.0],[112.26529,-8.17537,0.0],[112.27059,-8.17866,0.0],[112.27111,-8.18017,0.0],[112.2735,-8.17986,0.0],[112.27821,-8.18375,0.0],[112.28596,-8.18536,0.0],[112.28986,-8.18745,0.0],[112.28977,-8.18953,0.0],[112.29403,-8.19065,0.0],[112.29651,-8.18997,0.0],[112.29352,-8.19451,0.0],[112.29163,-8.20199,0.0],[112.30259,-8.20991,0.0],[112.30692,-8.21041,0.0],[112.30736,-8.21821,0.0],[112.30321,-8.22677,0.0],[112.30305,-8.22998,0.0],[112.30418,-8.22993,0.0],[112.30582,-8.23369,0.0],[112.30428,-8.23475,0.0],[112.30307,-8.24111,0.0],[112.30344,-8.25939,0.0],[112.30114,-8.26839,0.0],[112.29864,-8.26934,0.0],[112.29783,-8.27214,0.0],[112.29961,-8.27518,0.0],[112.29841,-8.28371,0.0],[112.30584,-8.28444,0.0],[112.30462,-8.29854,0.0],[112.30142,-8.30293,0.0],[112.29199,-8.30428,0.0],[112.29242,-8.31065,0.0],[112.28454,-8.31647,0.0],[112.28457,-8.32223,0.0],[112.28158,-8.32228,0.0],[112.28107,-8.32442,0.0],[112.27588,-8.32827,0.0],[112.2721,-8.34328,0.0],[112.26624,-8.34909,0.0],[112.26389,-8.3473,0.0],[112.26349,-8.35029,0.0],[112.2612,-8.34893,0.0],[112.26132,-8.34748,0.0],[112.25924,-8.34682,0.0],[112.25871,-8.3478,0.0],[112.25873,-8.3455,0.0],[112.2548,-8.34297,0.0],[112.24486,-8.34394,0.0],[112.24108,-8.34705,0.0],[112.23921,-8.34417,0.0],[112.23862,-8.34505,0.0],[112.23509,-8.34362,0.0],[112.23453,-8.3456,0.0],[112.23237,-8.34498,0.0],[112.23117,-8.3464,0.0],[112.22993,-8.34323,0.0],[112.22096,-8.34252,0.0],[112.21947,-8.34036,0.0],[112.21828,-8.34083,0.0],[112.21801,-8.34065,0.0],[112.21992,-8.33809,0.0],[112.21936,-8.33621,0.0],[112.22085,-8.33583,0.0],[112.2206,-8.33459,0.0],[112.22147,-8.33512,0.0],[112.22127,-8.33323,0.0],[112.22335,-8.33299,0.0]]],[[[112.24161,-8.35079,0.0],[112.24204,-8.35089,0.0],[112.24174,-8.35124,0.0],[112.24161,-8.35079,0.0]]],[[[112.24137,-8.35022,0.0],[112.24109,-8.35027,0.0],[112.24121,-8.35009,0.0],[112.24137,-8.35022,0.0]]],[[[112.24183,-8.34842,0.0],[112.2424,-8.34853,0.0],[112.24218,-8.34911,0.0],[112.24183,-8.34842,0.0]]]]}},{"type":"Feature","properties":{"kecamatan":"Talun","kab_kota":"Blitar"},"geometry":{"type":"Polygon","coordinates":[[[112.26686,-8.14671,0.0],[112.25186,-8.14179,0.0],[112.24526,-8.14164,0.0],[112.24243,-8.14522,0.0],[112.23612,-8.14756,0.0],[112.23519,-8.14437,0.0],[112.23394,-8.14382,0.0],[112.23642,-8.14217,0.0],[112.23765,-8.14307,0.0],[112.24122,-8.14,0.0],[112.24237,-8.13239,0.0],[112.24675,-8.12753,0.0],[112.24506,-8.12212,0.0],[112.24569,-8.12064,0.0],[112.24378,-8.11915,0.0],[112.2454,-8.11155,0.0],[112.24386,-8.10805,0.0],[112.24486,-8.07769,0.0],[112.25943,-8.05256,0.0],[112.26097,-8.05453,0.0],[112.25918,-8.06078,0.0],[112.26154,-8.06228,0.0],[112.27749,-8.06355,0.0],[112.28093,-8.06672,0.0],[112.28089,-8.07174,0.0],[112.28454,-8.0721,0.0],[112.2837,-8.07555,0.0],[112.28623,-8.07603,0.0],[112.28656,-8.07484,0.0],[112.28903,-8.07493,0.0],[112.28895,-8.07324,0.0],[112.29157,-8.07256,0.0],[112.29127,-8.06878,0.0],[112.29431,-8.06268,0.0],[112.29386,-8.0569,0.0],[112.295,-8.05324,0.0],[112.29689,-8.0534,0.0],[112.29679,-8.06047,0.0],[112.29846,-8.06117,0.0],[112.29805,-8.06367,0.0],[112.30062,-8.06791,0.0],[112.30669,-8.06276,0.0],[112.30752,-8.05927,0.0],[112.31063,-8.06243,0.0],[112.30993,-8.06453,0.0],[112.31087,-8.06622,0.0],[112.31843,-8.06769,0.0],[112.31084,-8.07999,0.0],[112.3105,-8.0882,0.0],[112.30896,-8.09135,0.0],[112.30967,-8.0938,0.0],[112.30543,-8.10065,0.0],[112.30583,-8.10344,0.0],[112.30369,-8.10736,0.0],[112.30451,-8.10859,0.0],[112.30122,-8.11904,0.0],[112.29564,-8.12908,0.0],[112.29202,-8.12708,0.0],[112.29159,-8.12135,0.0],[112.29283,-8.11959,0.0],[112.2919,-8.11823,0.0],[112.28717,-8.12062,0.0],[112.28729,-8.1223,0.0],[112.28566,-8.12399,0.0],[112.27944,-8.12458,0.0],[112.27864,-8.12651,0.0],[112.27658,-8.12697,0.0],[112.27544,-8.13003,0.0],[112.27526,-8.13171,0.0],[112.27754,-8.13394,0.0],[112.27685,-8.13512,0.0],[112.27517,-8.13498,0.0],[112.27535,-8.14005,0.0],[112.27125,-8.14164,0.0],[112.27148,-8.1428,0.0],[112.26686,-8.14671,0.0]]]}},{"type":"Feature","properties":{"kecamatan":"Kesamben","kab_kota":"Blitar"},"geometry":{"type":"Polygon","coordinates":[[[112.38967,-8.16221,0.0],[112.38327,-8.16902,0.0],[112.37873,-8.17062,0.0],[112.37325,-8.16972,0.0],[112.36447,-8.17598,0.0],[112.3602,-8.17417,0.0],[112.35984,-8.17132,0.0],[112.35755,-8.16807,0.0],[112.35147,-8.16747,0.0],[112.34938,-8.1644,0.0],[112.35,-8.16188,0.0],[112.34889,-8.16134,0.0],[112.34745,-8.16213,0.0],[112.34682,-8.1658,0.0],[112.34122,-8.16689,0.0],[112.34086,-8.16984,0.0],[112.33852,-8.17284,0.0],[112.33342,-8.17028,0.0],[112.32883,-8.16973,0.0],[112.32712,-8.16811,0.0],[112.32283,-8.17218,0.0],[112.32053,-8.16924,0.0],[112.31403,-8.16908,0.0],[112.31465,-8.16711,0.0],[112.31669,-8.16889,0.0],[112.31867,-8.16631,0.0],[112.32264,-8.1659,0.0],[112.32355,-8.16118,0.0],[112.32452,-8.16161,0.0],[112.32463,-8.15977,0.0],[112.32551,-8.16051,0.0],[112.32688,-8.15895,0.0],[112.32656,-8.15594,0.0],[112.32924,-8.15563,0.0],[112.33268,-8.14274,0.0],[112.33125,-8.14077,0.0],[112.32802,-8.13979,0.0],[112.32818,-8.13552,0.0],[112.33561,-8.13461,0.0],[112.34802,-8.13067,0.0],[112.35467,-8.13137,0.0],[112.35501,-8.13023,0.0],[112.35884,-8.12996,0.0],[112.35974,-8.12652,0.0],[112.36582,-8.12603,0.0],[112.37347,-8.11722,0.0],[112.37288,-8.11448,0.0],[112.37689,-8.10423,0.0],[112.37572,-8.10327,0.0],[112.37603,-8.09896,0.0],[112.37967,-8.09336,0.0],[112.3935,-8.09293,0.0],[112.39786,-8.08906,0.0],[112.39677,-8.08581,0.0],[112.39982,-8.0816,0.0],[112.40182,-8.08083,0.0],[112.40063,-8.08021,0.0],[112.40121,-8.07367,0.0],[112.40849,-8.05605,0.0],[112.41377,-8.0543,0.0],[112.41794,-8.0564,0.0],[112.42523,-8.05433,0.0],[112.43373,-8.05369,0.0],[112.43363,-8.05883,0.0],[112.4308,-8.06475,0.0],[112.4326,-8.06714,0.0],[112.42837,-8.07085,0.0],[112.42842,-8.07343,0.0],[112.42547,-8.07809,0.0],[112.42609,-8.0791,0.0],[112.42444,-8.07932,0.0],[112.42327,-8.08142,0.0],[112.42398,-8.08304,0.0],[112.42227,-8.08537,0.0],[112.4226,-8.08739,0.0],[112.42069,-8.08788,0.0],[112.42117,-8.09071,0.0],[112.41989,-8.09149,0.0],[112.41922,-8.0961,0.0],[112.41833,-8.09713,0.0],[112.41684,-8.09617,0.0],[112.41412,-8.09198,0.0],[112.41088,-8.09502,0.0],[112.40948,-8.10519,0.0],[112.40699,-8.10847,0.0],[112.40735,-8.11119,0.0],[112.40462,-8.11199,0.0],[112.40357,-8.11395,0.0],[112.40398,-8.11946,0.0],[112.39905,-8.12297,0.0],[112.39875,-8.12523,0.0],[112.39682,-8.125,0.0],[112.39387,-8.12819,0.0],[112.39523,-8.12872,0.0],[112.3937,-8.13083,0.0],[112.39477,-8.13314,0.0],[112.39278,-8.13389,0.0],[112.39387,-8.13472,0.0],[112.39322,-8.13697,0.0],[112.39758,-8.13554,0.0],[112.40196,-8.13754,0.0],[112.40484,-8.1369,0.0],[112.40603,-8.13778,0.0],[112.40601,-8.13962,0.0],[112.40434,-8.14083,0.0],[112.40424,-8.14504,0.0],[112.40227,-8.1464,0.0],[112.40595,-8.14903,0.0],[112.40851,-8.14915,0.0],[112.41246,-8.15877,0.0],[112.41602,-8.1587,0.0],[112.41711,-8.16048,0.0],[112.41602,-8.16602,0.0],[112.41478,-8.16594,0.0],[112.41151,-8.16017,0.0],[112.40306,-8.16322,0.0],[112.3992,-8.16293,0.0],[112.39583,-8.16482,0.0],[112.39297,-8.16167,0.0],[112.38967,-8.16221,0.0]]]}},{"type":"Feature","properties":{"kecamatan":"Wlingi","kab_kota":"Blitar"},"geometry":{"type":"Polygon","coordinates":[[[112.34041,-8.09678,0.0],[112.34313,-8.09982,0.0],[112.34249,-8.10063,0.0],[112.34088,-8.09985,0.0],[112.34284,-8.10234,0.0],[112.34008,-8.10213,0.0],[112.34222,-8.10327,0.0],[112.34166,-8.10623,0.0],[112.34268,-8.10788,0.0],[112.34083,-8.1086,0.0],[112.34193,-8.11056,0.0],[112.34007,-8.11422,0.0],[112.34363,-8.11405,0.0],[112.33986,-8.11671,0.0],[112.33716,-8.11617,0.0],[112.33446,-8.11736,0.0],[112.3298,-8.12708,0.0],[112.3263,-8.13076,0.0],[112.32016,-8.12858,0.0],[112.31994,-8.12728,0.0],[112.32213,-8.12477,0.0],[112.32136,-8.12309,0.0],[112.32257,-8.1153,0.0],[112.32702,-8.10724,0.0],[112.31972,-8.10657,0.0],[112.31779,-8.1108,0.0],[112.31183,-8.1114,0.0],[112.30934,-8.11111,0.0],[112.3101,-8.10831,0.0],[112.30819,-8.10701,0.0],[112.30607,-8.1065,0.0],[112.30361,-8.10794,0.0],[112.30583,-8.10344,0.0],[112.30543,-8.10065,0.0],[112.30967,-8.0938,0.0],[112.30897,-8.0913,0.0],[112.31047,-8.08833,0.0],[112.31055,-8.08116,0.0],[112.31191,-8.07731,0.0],[112.32053,-8.06587,0.0],[112.32239,-8.05878,0.0],[112.33087,-8.04394,0.0],[112.33129,-8.04086,0.0],[112.33339,-8.04052,0.0],[112.3338,-8.04217,0.0],[112.34093,-8.04477,0.0],[112.34129,-8.03976,0.0],[112.34375,-8.03913,0.0],[112.34779,-8.03504,0.0],[112.3492,-8.02756,0.0],[112.35088,-8.02571,0.0],[112.35235,-8.01382,0.0],[112.35585,-8.01447,0.0],[112.36433,-8.00932,0.0],[112.375,-8.00874,0.0],[112.37851,-8.0045,0.0],[112.37793,-8.00353,0.0],[112.38473,-8.00056,0.0],[112.38703,-7.99162,0.0],[112.39679,-7.9842,0.0],[112.39961,-7.98007,0.0],[112.40763,-7.97487,0.0],[112.41413,-7.96646,0.0],[112.41792,-7.95397,0.0],[112.42203,-7.94688,0.0],[112.42538,-7.94526,0.0],[112.43272,-7.93784,0.0],[112.4338,-7.9344,0.0],[112.43323,-7.93017,0.0],[112.44503,-7.93219,0.0],[112.45214,-7.92651,0.0],[112.45734,-7.9329,0.0],[112.46031,-7.93942,0.0],[112.46789,-7.94708,0.0],[112.46425,-7.95158,0.0],[112.46503,-7.9551,0.0],[112.45772,-7.96174,0.0],[112.43257,-7.97951,0.0],[112.42608,-7.98834,0.0],[112.42105,-7.99074,0.0],[112.41689,-7.99501,0.0],[112.40804,-8.0118,0.0],[112.3964,-8.02147,0.0],[112.39623,-8.02679,0.0],[112.39156,-8.03195,0.0],[112.38552,-8.03277,0.0],[112.38259,-8.03494,0.0],[112.37574,-8.03654,0.0],[112.37542,-8.04893,0.0],[112.37428,-8.05025,0.0],[112.36424,-8.05391,0.0],[112.35828,-8.05052,0.0],[112.34822,-8.05968,0.0],[112.34389,-8.06742,0.0],[112.3438,-8.07124,0.0],[112.34088,-8.06978,0.0],[112.34007,-8.07145,0.0],[112.33808,-8.07144,0.0],[112.33842,-8.07325,0.0],[112.33705,-8.07301,0.0],[112.3357,-8.07608,0.0],[112.34055,-8.08394,0.0],[112.34041,-8.09678,0.0]]]}},{"type":"Feature","properties":{"kecamatan":"Doko","kab_kota":"Blitar"},"geometry":{"type":"Polygon","coordinates":[[[112.37689,-8.10423,0.0],[112.37281,-8.11483,0.0],[112.36738,-8.11446,0.0],[112.3521,-8.11712,0.0],[112.34718,-8.12303,0.0],[112.34443,-8.12251,0.0],[112.34427,-8.12127,0.0],[112.34278,-8.123,0.0],[112.34177,-8.12126,0.0],[112.34314,-8.12058,0.0],[112.34123,-8.12031,0.0],[112.34094,-8.11908,0.0],[112.34211,-8.11891,0.0],[112.3424,-8.11657,0.0],[112.33986,-8.11672,0.0],[112.34367,-8.11396,0.0],[112.34007,-8.11422,0.0],[112.34193,-8.11056,0.0],[112.34083,-8.1086,0.0],[112.34268,-8.10788,0.0],[112.34166,-8.10623,0.0],[112.34222,-8.10327,0.0],[112.34008,-8.10213,0.0],[112.34284,-8.10234,0.0],[112.34088,-8.09985,0.0],[112.34249,-8.10063,0.0],[112.34313,-8.09982,0.0],[112.34102,-8.09866,0.0],[112.33979,-8.09563,0.0],[112.34073,-8.08474,0.0],[112.33824,-8.07894,0.0],[112.33568,-8.07686,0.0],[112.33705,-8.07301,0.0],[112.33842,-8.07325,0.0],[112.33808,-8.07144,0.0],[112.34007,-8.07145,0.0],[112.34088,-8.06978,0.0],[112.3438,-8.07124,0.0],[112.34389,-8.06742,0.0],[112.34822,-8.05968,0.0],[112.35744,-8.05094,0.0],[112.35878,-8.05036,0.0],[112.35982,-8.05215,0.0],[112.36526,-8.05389,0.0],[112.37428,-8.05025,0.0],[112.37542,-8.04893,0.0],[112.37574,-8.03654,0.0],[112.38259,-8.03494,0.0],[112.38552,-8.03277,0.0],[112.39156,-8.03195,0.0],[112.39623,-8.02679,0.0],[112.3964,-8.02147,0.0],[112.40804,-8.0118,0.0],[112.41689,-7.99501,0.0],[112.42105,-7.99074,0.0],[112.42608,-7.98834,0.0],[112.43257,-7.97951,0.0],[112.45772,-7.96174,0.0],[112.46503,-7.9551,0.0],[112.46588,-7.95665,0.0],[112.47095,-7.9575,0.0],[112.47268,-7.96151,0.0],[112.47707,-7.96407,0.0],[112.47799,-7.96609,0.0],[112.47691,-7.97511,0.0],[112.46843,-7.98706,0.0],[112.46571,-7.99525,0.0],[112.4571,-8.01044,0.0],[112.454,-8.02135,0.0],[112.44868,-8.03079,0.0],[112.44897,-8.03265,0.0],[112.44663,-8.03472,0.0],[112.44214,-8.04292,0.0],[112.43649,-8.0476,0.0],[112.43497,-8.05183,0.0],[112.43541,-8.06709,0.0],[112.43235,-8.06785,0.0],[112.43213,-8.06543,0.0],[112.43104,-8.06586,0.0],[112.4308,-8.06475,0.0],[112.43363,-8.05883,0.0],[112.43373,-8.05369,0.0],[112.42523,-8.05433,0.0],[112.41794,-8.0564,0.0],[112.41421,-8.05429,0.0],[112.40871,-8.05586,0.0],[112.40463,-8.06331,0.0],[112.40121,-8.07367,0.0],[112.40063,-8.08021,0.0],[112.40182,-8.08083,0.0],[112.39982,-8.0816,0.0],[112.39677,-8.08581,0.0],[112.39807,-8.08871,0.0],[112.3935,-8.09293,0.0],[112.37967,-8.09336,0.0],[112.37603,-8.09896,0.0],[112.37572,-8.10327,0.0],[112.37689,-8.10423,0.0]]]}},{"type":"Feature","properties":{"kecamatan":"Garum","kab_kota":"Blitar"},"geometry":{"type":"Polygon","coordinates":[[[112.24478,-8.08877,0.0],[112.24397,-8.0955,0.0],[112.21937,-8.09459,0.0],[112.21505,-8.09719,0.0],[112.20677,-8.09382,0.0],[112.20606,-8.09041,0.0],[112.20403,-8.08836,0.0],[112.2027,-8.08835,0.0],[112.20228,-8.09126,0.0],[112.20049,-8.09281,0.0],[112.19557,-8.0907,0.0],[112.19558,-8.08778,0.0],[112.19085,-8.08533,0.0],[112.19308,-8.08068,0.0],[112.19247,-8.07659,0.0],[112.19808,-8.07261,0.0],[112.20643,-8.0624,0.0],[112.2102,-8.06119,0.0],[112.21277,-8.05756,0.0],[112.21672,-8.05548,0.0],[112.21829,-8.05229,0.0],[112.21927,-8.05242,0.0],[112.22036,-8.04353,0.0],[112.224,-8.04083,0.0],[112.22411,-8.03753,0.0],[112.22705,-8.03616,0.0],[112.23015,-8.02715,0.0],[112.23154,-8.02747,0.0],[112.23128,-8.02431,0.0],[112.23479,-8.02215,0.0],[112.2348,-8.01853,0.0],[112.24048,-8.01388,0.0],[112.24112,-8.008,0.0],[112.2386,-8.00741,0.0],[112.24097,-8.00528,0.0],[112.24164,-8.00056,0.0],[112.2448,-7.99919,0.0],[112.24504,-7.99731,0.0],[112.24989,-7.99415,0.0],[112.25116,-7.99136,0.0],[112.25515,-7.98932,0.0],[112.25475,-7.98755,0.0],[112.25734,-7.98623,0.0],[112.25676,-7.98501,0.0],[112.25971,-7.9819,0.0],[112.2586,-7.98086,0.0],[112.26108,-7.97697,0.0],[112.26619,-7.97493,0.0],[112.26679,-7.97242,0.0],[112.26993,-7.97033,0.0],[112.27127,-7.97101,0.0],[112.27331,-7.96844,0.0],[112.27514,-7.96896,0.0],[112.27819,-7.96696,0.0],[112.28541,-7.95749,0.0],[112.29586,-7.95592,0.0],[112.30245,-7.943,0.0],[112.299,-7.93859,0.0],[112.30614,-7.93607,0.0],[112.30746,-7.93268,0.0],[112.30658,-7.9293,0.0],[112.30913,-7.93095,0.0],[112.31116,-7.92826,0.0],[112.31339,-7.92902,0.0],[112.31394,-7.93129,0.0],[112.31596,-7.93142,0.0],[112.31214,-7.93723,0.0],[112.31092,-7.94387,0.0],[112.30744,-7.95174,0.0],[112.3011,-7.9583,0.0],[112.28688,-7.96264,0.0],[112.28185,-7.96955,0.0],[112.27962,-7.97658,0.0],[112.28237,-7.98543,0.0],[112.28097,-7.98736,0.0],[112.27963,-7.99564,0.0],[112.27679,-8.03059,0.0],[112.27366,-8.03566,0.0],[112.27076,-8.03747,0.0],[112.26847,-8.04217,0.0],[112.26622,-8.04166,0.0],[112.24495,-8.0775,0.0],[112.2439,-8.08275,0.0],[112.24478,-8.08877,0.0]]]}},{"type":"Feature","properties":{"kecamatan":"Sutojayan","kab_kota":"Blitar"},"geometry":{"type":"Polygon","coordinates":[[[112.21144,-8.20037,0.0],[112.21135,-8.20305,0.0],[112.20639,-8.20938,0.0],[112.20124,-8.20828,0.0],[112.19538,-8.20441,0.0],[112.18844,-8.20498,0.0],[112.18458,-8.20324,0.0],[112.18092,-8.20397,0.0],[112.17941,-8.2031,0.0],[112.17672,-8.20453,0.0],[112.17294,-8.19922,0.0],[112.17347,-8.19741,0.0],[112.16533,-8.19732,0.0],[112.16561,-8.19521,0.0],[112.16716,-8.19518,0.0],[112.16943,-8.19187,0.0],[112.17,-8.18447,0.0],[112.17313,-8.18326,0.0],[112.17446,-8.18471,0.0],[112.17739,-8.18417,0.0],[112.17913,-8.18582,0.0],[112.18231,-8.18546,0.0],[112.18538,-8.18314,0.0],[112.18615,-8.17846,0.0],[112.19467,-8.17703,0.0],[112.19504,-8.17389,0.0],[112.19011,-8.16291,0.0],[112.19056,-8.15695,0.0],[112.19146,-8.15463,0.0],[112.1928,-8.15465,0.0],[112.19351,-8.15088,0.0],[112.19751,-8.15262,0.0],[112.20319,-8.15211,0.0],[112.21242,-8.15497,0.0],[112.2177,-8.15345,0.0],[112.22305,-8.14932,0.0],[112.22679,-8.15085,0.0],[112.22975,-8.15039,0.0],[112.23211,-8.14366,0.0],[112.23519,-8.14437,0.0],[112.23612,-8.14756,0.0],[112.23792,-8.14741,0.0],[112.24243,-8.14522,0.0],[112.24526,-8.14164,0.0],[112.25186,-8.14179,0.0],[112.26685,-8.14671,0.0],[112.26964,-8.15159,0.0],[112.27438,-8.14993,0.0],[112.27623,-8.15063,0.0],[112.28116,-8.15554,0.0],[112.28156,-8.15835,0.0],[112.28656,-8.16263,0.0],[112.28906,-8.16253,0.0],[112.28951,-8.1652,0.0],[112.29095,-8.1657,0.0],[112.28163,-8.17548,0.0],[112.27356,-8.17993,0.0],[112.27111,-8.18017,0.0],[112.27059,-8.17866,0.0],[112.26529,-8.17537,0.0],[112.25822,-8.18001,0.0],[112.25546,-8.18329,0.0],[112.25454,-8.1824,0.0],[112.25242,-8.19073,0.0],[112.2546,-8.19137,0.0],[112.2538,-8.19302,0.0],[112.25503,-8.194,0.0],[112.25356,-8.1991,0.0],[112.254,-8.20192,0.0],[112.25112,-8.20063,0.0],[112.24927,-8.20164,0.0],[112.24752,-8.20096,0.0],[112.24403,-8.20317,0.0],[112.22743,-8.19982,0.0],[112.22459,-8.20137,0.0],[112.21772,-8.20065,0.0],[112.21393,-8.19825,0.0],[112.21144,-8.20037,0.0]]]}},{"type":"Feature","properties":{"kecamatan":"Kanigoro","kab_kota":"Blitar"},"geometry":{"type":"Polygon","coordinates":[[[112.19867,-8.15276,0.0],[112.18389,-8.14871,0.0],[112.17855,-8.15059,0.0],[112.1773,-8.14898,0.0],[112.17723,-8.145,0.0],[112.17485,-8.14303,0.0],[112.16983,-8.14415,0.0],[112.15798,-8.14368,0.0],[112.16032,-8.13422,0.0],[112.16356,-8.13421,0.0],[112.16362,-8.13305,0.0],[112.16594,-8.13283,0.0],[112.16796,-8.13085,0.0],[112.17027,-8.12548,0.0],[112.16868,-8.12245,0.0],[112.17079,-8.11881,0.0],[112.17189,-8.11795,0.0],[112.1761,-8.12037,0.0],[112.17759,-8.115,0.0],[112.18045,-8.1123,0.0],[112.18085,-8.11026,0.0],[112.18294,-8.11035,0.0],[112.18453,-8.10471,0.0],[112.19047,-8.10293,0.0],[112.193,-8.0997,0.0],[112.19399,-8.10047,0.0],[112.19753,-8.09375,0.0],[112.20128,-8.09292,0.0],[112.20278,-8.08829,0.0],[112.20606,-8.09041,0.0],[112.20677,-8.09382,0.0],[112.21505,-8.09719,0.0],[112.21937,-8.09459,0.0],[112.24412,-8.09544,0.0],[112.24386,-8.10805,0.0],[112.2454,-8.11155,0.0],[112.24378,-8.11915,0.0],[112.24569,-8.12064,0.0],[112.24506,-8.12212,0.0],[112.24675,-8.12753,0.0],[112.24237,-8.13239,0.0],[112.2404,-8.14101,0.0],[112.23765,-8.14307,0.0],[112.23642,-8.14217,0.0],[112.23591,-8.14328,0.0],[112.23168,-8.14383,0.0],[112.22975,-8.15039,0.0],[112.22679,-8.15085,0.0],[112.22305,-8.14932,0.0],[112.2177,-8.15345,0.0],[112.21242,-8.15497,0.0],[112.20401,-8.15228,0.0],[112.19867,-8.15276,0.0]]]}},{"type":"Feature","properties":{"kecamatan":"Selopuro","kab_kota":"Blitar"},"geometry":{"type":"Polygon","coordinates":[[[112.31867,-8.16631,0.0],[112.31662,-8.16889,0.0],[112.31362,-8.16581,0.0],[112.31102,-8.16818,0.0],[112.30936,-8.16622,0.0],[112.30668,-8.16599,0.0],[112.30554,-8.1687,0.0],[112.30378,-8.16957,0.0],[112.302,-8.16665,0.0],[112.29946,-8.16625,0.0],[112.29832,-8.16374,0.0],[112.29587,-8.16624,0.0],[112.29018,-8.16561,0.0],[112.28906,-8.16253,0.0],[112.28656,-8.16263,0.0],[112.28156,-8.15835,0.0],[112.28116,-8.15554,0.0],[112.27623,-8.15063,0.0],[112.27438,-8.14993,0.0],[112.27079,-8.15171,0.0],[112.26863,-8.1509,0.0],[112.26719,-8.14601,0.0],[112.27148,-8.1428,0.0],[112.27125,-8.14164,0.0],[112.27535,-8.14005,0.0],[112.27517,-8.13498,0.0],[112.2775,-8.13422,0.0],[112.27516,-8.13145,0.0],[112.2767,-8.12682,0.0],[112.27864,-8.12651,0.0],[112.28007,-8.12426,0.0],[112.28249,-8.12495,0.0],[112.2836,-8.12369,0.0],[112.28566,-8.12399,0.0],[112.28729,-8.1223,0.0],[112.28717,-8.12062,0.0],[112.2915,-8.11813,0.0],[112.29283,-8.11959,0.0],[112.29159,-8.12135,0.0],[112.29202,-8.12708,0.0],[112.29564,-8.12908,0.0],[112.30297,-8.11466,0.0],[112.30269,-8.11233,0.0],[112.30451,-8.10859,0.0],[112.30411,-8.10835,0.0],[112.30367,-8.10803,0.0],[112.30367,-8.10803,0.0],[112.30607,-8.1065,0.0],[112.3101,-8.10831,0.0],[112.30934,-8.11111,0.0],[112.31179,-8.1114,0.0],[112.31779,-8.1108,0.0],[112.31972,-8.10657,0.0],[112.32702,-8.10724,0.0],[112.32257,-8.1153,0.0],[112.32136,-8.12309,0.0],[112.32213,-8.12477,0.0],[112.31994,-8.12728,0.0],[112.32016,-8.12858,0.0],[112.3263,-8.13076,0.0],[112.3298,-8.12708,0.0],[112.33325,-8.11869,0.0],[112.33633,-8.11634,0.0],[112.34235,-8.11651,0.0],[112.34211,-8.11891,0.0],[112.34094,-8.11908,0.0],[112.34123,-8.12031,0.0],[112.34314,-8.12058,0.0],[112.34191,-8.12188,0.0],[112.34308,-8.12299,0.0],[112.34427,-8.12127,0.0],[112.34443,-8.12251,0.0],[112.34718,-8.12303,0.0],[112.3521,-8.11712,0.0],[112.36738,-8.11446,0.0],[112.37281,-8.11483,0.0],[112.37347,-8.11722,0.0],[112.37081,-8.11911,0.0],[112.36982,-8.12213,0.0],[112.36763,-8.12297,0.0],[112.36582,-8.12603,0.0],[112.35974,-8.12652,0.0],[112.35867,-8.13006,0.0],[112.35169,-8.13176,0.0],[112.34802,-8.13067,0.0],[112.33561,-8.13461,0.0],[112.32818,-8.13552,0.0],[112.32802,-8.13979,0.0],[112.33125,-8.14077,0.0],[112.33268,-8.14274,0.0],[112.33076,-8.15129,0.0],[112.32924,-8.15563,0.0],[112.32656,-8.15594,0.0],[112.32688,-8.15895,0.0],[112.32551,-8.16051,0.0],[112.32463,-8.15977,0.0],[112.32452,-8.16161,0.0],[112.32355,-8.16118,0.0],[112.32287,-8.16563,0.0],[112.31867,-8.16631,0.0]]]}},{"type":"Feature","properties":{"kecamatan":"Wates","kab_kota":"Blitar"},"geometry":{"type":"MultiPolygon","coordinates":[[[[112.31853,-8.34318,0.0],[112.31883,-8.34388,0.0],[112.31812,-8.34359,0.0],[112.31853,-8.34318,0.0]]],[[[112.30589,-8.34292,0.0],[112.30753,-8.34119,0.0],[112.30879,-8.34185,0.0],[112.3072,-8.34294,0.0],[112.30589,-8.34292,0.0]]],[[[112.31099,-8.3405,0.0],[112.31054,-8.3405,0.0],[112.3104,-8.33992,0.0],[112.31099,-8.3405,0.0]]],[[[112.3032,-8.33904,0.0],[112.30262,-8.33909,0.0],[112.3035,-8.33882,0.0],[112.3032,-8.33904,0.0]]],[[[112.29349,-8.33353,0.0],[112.29312,-8.33367,0.0],[112.29303,-8.33337,0.0],[112.29349,-8.33353,0.0]]],[[[112.33383,-8.33296,0.0],[112.32794,-8.3316,0.0],[112.32063,-8.3331,0.0],[112.31795,-8.33611,0.0],[112.31847,-8.34173,0.0],[112.31649,-8.34156,0.0],[112.31629,-8.34252,0.0],[112.31201,-8.33912,0.0],[112.3082,-8.34043,0.0],[112.3088,-8.33671,0.0],[112.30522,-8.33474,0.0],[112.30216,-8.33646,0.0],[112.30042,-8.33605,0.0],[112.29627,-8.33123,0.0],[112.29402,-8.33284,0.0],[112.29161,-8.33151,0.0],[112.28596,-8.33193,0.0],[112.27987,-8.33756,0.0],[112.27935,-8.3366,0.0],[112.27626,-8.33851,0.0],[112.27362,-8.33769,0.0],[112.27572,-8.3285,0.0],[112.28107,-8.32442,0.0],[112.28158,-8.32228,0.0],[112.28457,-8.32223,0.0],[112.28454,-8.31647,0.0],[112.29242,-8.31065,0.0],[112.29199,-8.30428,0.0],[112.30142,-8.30293,0.0],[112.30462,-8.29854,0.0],[112.30584,-8.28444,0.0],[112.29841,-8.28371,0.0],[112.29961,-8.27518,0.0],[112.29783,-8.27214,0.0],[112.29864,-8.26934,0.0],[112.30114,-8.26839,0.0],[112.30345,-8.25936,0.0],[112.31285,-8.26139,0.0],[112.32534,-8.25815,0.0],[112.32673,-8.25463,0.0],[112.32655,-8.25003,0.0],[112.33102,-8.24728,0.0],[112.33491,-8.24767,0.0],[112.33643,-8.2458,0.0],[112.33592,-8.24397,0.0],[112.34129,-8.24463,0.0],[112.34284,-8.24791,0.0],[112.34256,-8.2505,0.0],[112.34576,-8.25364,0.0],[112.34843,-8.25282,0.0],[112.34743,-8.24578,0.0],[112.34938,-8.24242,0.0],[112.34934,-8.23944,0.0],[112.35178,-8.2387,0.0],[112.35188,-8.23414,0.0],[112.3534,-8.23131,0.0],[112.36268,-8.23007,0.0],[112.3693,-8.23119,0.0],[112.37045,-8.23631,0.0],[112.37351,-8.23982,0.0],[112.37347,-8.24308,0.0],[112.37801,-8.2437,0.0],[112.38126,-8.24624,0.0],[112.38155,-8.26754,0.0],[112.38506,-8.28506,0.0],[112.38262,-8.29479,0.0],[112.37779,-8.29951,0.0],[112.37786,-8.30479,0.0],[112.37636,-8.30872,0.0],[112.37064,-8.31257,0.0],[112.37015,-8.32352,0.0],[112.36424,-8.32839,0.0],[112.36323,-8.33145,0.0],[112.3642,-8.3325,0.0],[112.36222,-8.33779,0.0],[112.36307,-8.34048,0.0],[112.3599,-8.34841,0.0],[112.35269,-8.34837,0.0],[112.34884,-8.35145,0.0],[112.34639,-8.34978,0.0],[112.34715,-8.34747,0.0],[112.34995,-8.34604,0.0],[112.34821,-8.34168,0.0],[112.34696,-8.34107,0.0],[112.34307,-8.34345,0.0],[112.33707,-8.34228,0.0],[112.33834,-8.33968,0.0],[112.33383,-8.33296,0.0]]],[[[112.34823,-8.35225,0.0],[112.34811,-8.35193,0.0],[112.34831,-8.35222,0.0],[112.34823,-8.35225,0.0]]],[[[112.3459,-8.35058,0.0],[112.3459,-8.35019,0.0],[112.34607,-8.35055,0.0],[112.3459,-8.35058,0.0]]],[[[112.3459,-8.34989,0.0],[112.34596,-8.34972,0.0],[112.34624,-8.34993,0.0],[112.3459,-8.34989,0.0]]],[[[112.34692,-8.3471,0.0],[112.3472,-8.34692,0.0],[112.34727,-8.34701,0.0],[112.34692,-8.3471,0.0]]]]}},{"type":"Feature","properties":{"kecamatan":"Selorejo","kab_kota":"Blitar"},"geometry":{"type":"Polygon","coordinates":[[[112.43659,-8.15441,0.0],[112.42963,-8.15929,0.0],[112.42514,-8.15947,0.0],[112.42237,-8.15791,0.0],[112.41711,-8.16048,0.0],[112.41602,-8.1587,0.0],[112.41246,-8.15877,0.0],[112.40851,-8.14915,0.0],[112.40595,-8.14903,0.0],[112.40227,-8.1464,0.0],[112.40424,-8.14504,0.0],[112.40434,-8.14083,0.0],[112.40601,-8.13962,0.0],[112.40603,-8.13778,0.0],[112.40484,-8.1369,0.0],[112.40196,-8.13754,0.0],[112.39758,-8.13554,0.0],[112.39276,-8.13675,0.0],[112.39387,-8.13472,0.0],[112.39278,-8.13389,0.0],[112.39477,-8.13314,0.0],[112.3937,-8.13083,0.0],[112.39523,-8.12872,0.0],[112.3938,-8.12835,0.0],[112.39682,-8.125,0.0],[112.39875,-8.12523,0.0],[112.39905,-8.12297,0.0],[112.40398,-8.11946,0.0],[112.40357,-8.11395,0.0],[112.40462,-8.11199,0.0],[112.40735,-8.11119,0.0],[112.40699,-8.10847,0.0],[112.40948,-8.10519,0.0],[112.41088,-8.09502,0.0],[112.41412,-8.09198,0.0],[112.41846,-8.09711,0.0],[112.41989,-8.09149,0.0],[112.42117,-8.09071,0.0],[112.42069,-8.08788,0.0],[112.4226,-8.08739,0.0],[112.42227,-8.08537,0.0],[112.42398,-8.08304,0.0],[112.4231,-8.08184,0.0],[112.42424,-8.0795,0.0],[112.42609,-8.0791,0.0],[112.42547,-8.07809,0.0],[112.42842,-8.07343,0.0],[112.42837,-8.07085,0.0],[112.43217,-8.06763,0.0],[112.43541,-8.06709,0.0],[112.43497,-8.05183,0.0],[112.43649,-8.0476,0.0],[112.44214,-8.04292,0.0],[112.44663,-8.03472,0.0],[112.44897,-8.03265,0.0],[112.44868,-8.03079,0.0],[112.454,-8.02135,0.0],[112.4571,-8.01044,0.0],[112.46571,-7.99525,0.0],[112.46843,-7.98706,0.0],[112.47691,-7.97511,0.0],[112.47188,-7.98323,0.0],[112.46838,-7.99942,0.0],[112.47297,-8.00293,0.0],[112.4745,-8.0138,0.0],[112.4664,-8.0249,0.0],[112.46577,-8.03102,0.0],[112.46172,-8.03976,0.0],[112.45798,-8.04472,0.0],[112.45595,-8.04998,0.0],[112.45691,-8.0511,0.0],[112.45546,-8.05626,0.0],[112.45343,-8.05695,0.0],[112.45512,-8.0593,0.0],[112.45425,-8.06381,0.0],[112.45539,-8.06369,0.0],[112.4557,-8.06617,0.0],[112.45781,-8.06751,0.0],[112.45724,-8.07062,0.0],[112.45814,-8.07082,0.0],[112.45665,-8.07259,0.0],[112.45704,-8.07621,0.0],[112.45577,-8.07661,0.0],[112.45686,-8.07789,0.0],[112.45533,-8.07841,0.0],[112.45679,-8.08101,0.0],[112.4541,-8.08788,0.0],[112.45486,-8.09404,0.0],[112.45318,-8.09782,0.0],[112.45457,-8.09975,0.0],[112.45365,-8.10033,0.0],[112.45476,-8.102,0.0],[112.45427,-8.10671,0.0],[112.45595,-8.11001,0.0],[112.45759,-8.10954,0.0],[112.45785,-8.11388,0.0],[112.45916,-8.11494,0.0],[112.45794,-8.116,0.0],[112.45842,-8.11799,0.0],[112.45674,-8.12288,0.0],[112.45777,-8.12647,0.0],[112.45682,-8.12631,0.0],[112.45521,-8.13218,0.0],[112.45349,-8.13339,0.0],[112.45462,-8.14173,0.0],[112.45323,-8.14443,0.0],[112.44741,-8.14805,0.0],[112.44017,-8.14882,0.0],[112.43659,-8.15441,0.0]]]}}]}