{"type":"FeatureCollection","features":[{"type":"Feature","properties":{"kecamatan":"Munjungan","kab_kota":"Trenggalek"},"geometry":{"type":"MultiPolygon","coordinates":[[[[111.5149,-8.36974,0.0],[111.51273,-8.37108,0.0],[111.51142,-8.37153,0.0],[111.51328,-8.36888,0.0],[111.5149,-8.36974,0.0]]],[[[111.4872,-8.36422,0.0],[111.48722,-8.36469,0.0],[111.48714,-8.36469,0.0],[111.4872,-8.36422,0.0]]],[[[111.48335,-8.364,0.0],[111.48392,-8.36384,0.0],[111.48327,-8.36407,0.0],[111.48335,-8.364,0.0]]],[[[111.48733,-8.36075,0.0],[111.48766,-8.3633,0.0],[111.48642,-8.36462,0.0],[111.48378,-8.36206,0.0],[111.4853,-8.35941,0.0],[111.48473,-8.3579,0.0],[111.48733,-8.36075,0.0]]],[[[111.51647,-8.33541,0.0],[111.51665,-8.33557,0.0],[111.51642,-8.33558,0.0],[111.51647,-8.33541,0.0]]],[[[111.51668,-8.33462,0.0],[111.51693,-8.33479,0.0],[111.51673,-8.33486,0.0],[111.51668,-8.33462,0.0]]],[[[111.53518,-8.33274,0.0],[111.53537,-8.3325,0.0],[111.53539,-8.33289,0.0],[111.53518,-8.33274,0.0]]],[[[111.47683,-8.32991,0.0],[111.47719,-8.32934,0.0],[111.47735,-8.32967,0.0],[111.47683,-8.32991,0.0]]],[[[111.48146,-8.32769,0.0],[111.48083,-8.33004,0.0],[111.47786,-8.33122,0.0],[111.47918,-8.32793,0.0],[111.48146,-8.32769,0.0]]],[[[111.46203,-8.32907,0.0],[111.46255,-8.32909,0.0],[111.46203,-8.32931,0.0],[111.46203,-8.32907,0.0]]],[[[111.46346,-8.32786,0.0],[111.46247,-8.32848,0.0],[111.46227,-8.32837,0.0],[111.46346,-8.32786,0.0]]],[[[111.46349,-8.3275,0.0],[111.46327,-8.3277,0.0],[111.46324,-8.32754,0.0],[111.46349,-8.3275,0.0]]],[[[111.50886,-8.32717,0.0],[111.5092,-8.32695,0.0],[111.50893,-8.32723,0.0],[111.50886,-8.32717,0.0]]],[[[111.50769,-8.32665,0.0],[111.50786,-8.32683,0.0],[111.50776,-8.32685,0.0],[111.50769,-8.32665,0.0]]],[[[111.53774,-8.32522,0.0],[111.53749,-8.32457,0.0],[111.53799,-8.32491,0.0],[111.53774,-8.32522,0.0]]],[[[111.46319,-8.32347,0.0],[111.46346,-8.32304,0.0],[111.46373,-8.32304,0.0],[111.46319,-8.32347,0.0]]],[[[111.4682,-8.32063,0.0],[111.46783,-8.31999,0.0],[111.468,-8.31991,0.0],[111.4682,-8.32063,0.0]]],[[[111.48811,-8.31771,0.0],[111.48825,-8.31802,0.0],[111.48802,-8.31803,0.0],[111.48811,-8.31771,0.0]]],[[[111.53662,-8.31683,0.0],[111.53711,-8.31697,0.0],[111.53656,-8.31694,0.0],[111.53662,-8.31683,0.0]]],[[[111.48119,-8.3162,0.0],[111.48147,-8.31593,0.0],[111.48141,-8.3163,0.0],[111.48119,-8.3162,0.0]]],[[[111.53862,-8.31426,0.0],[111.5388,-8.31407,0.0],[111.53878,-8.31432,0.0],[111.53862,-8.31426,0.0]]],[[[111.51366,-8.33232,0.0],[111.51187,-8.33283,0.0],[111.5103,-8.32717,0.0],[111.50607,-8.3254,0.0],[111.50495,-8.32217,0.0],[111.49833,-8.32351,0.0],[111.49768,-8.32464,0.0],[111.49449,-8.3232,0.0],[111.49666,-8.31958,0.0],[111.49465,-8.3151,0.0],[111.48986,-8.31386,0.0],[111.4878,-8.31728,0.0],[111.48195,-8.31942,0.0],[111.48136,-8.31462,0.0],[111.48346,-8.30926,0.0],[111.47837,-8.30533,0.0],[111.47383,-8.30946,0.0],[111.47141,-8.31383,0.0],[111.46891,-8.31377,0.0],[111.46619,-8.31874,0.0],[111.46772,-8.31997,0.0],[111.46202,-8.32286,0.0],[111.46376,-8.31836,0.0],[111.46268,-8.31279,0.0],[111.47108,-8.29172,0.0],[111.47656,-8.29098,0.0],[111.48416,-8.27879,0.0],[111.49044,-8.27641,0.0],[111.49771,-8.2775,0.0],[111.5019,-8.27666,0.0],[111.50764,-8.27807,0.0],[111.51139,-8.27557,0.0],[111.51674,-8.27535,0.0],[111.52594,-8.27034,0.0],[111.53186,-8.26175,0.0],[111.53637,-8.25867,0.0],[111.54146,-8.25792,0.0],[111.54646,-8.26017,0.0],[111.55259,-8.25768,0.0],[111.56103,-8.25956,0.0],[111.56312,-8.25714,0.0],[111.56468,-8.25177,0.0],[111.56818,-8.24972,0.0],[111.57438,-8.24981,0.0],[111.57617,-8.24551,0.0],[111.58207,-8.24247,0.0],[111.5903,-8.24059,0.0],[111.58978,-8.24741,0.0],[111.59834,-8.24754,0.0],[111.60552,-8.24464,0.0],[111.6084,-8.24267,0.0],[111.61117,-8.23843,0.0],[111.61247,-8.23841,0.0],[111.61331,-8.24054,0.0],[111.61714,-8.24243,0.0],[111.62407,-8.25601,0.0],[111.63954,-8.26698,0.0],[111.64525,-8.26835,0.0],[111.65039,-8.28847,0.0],[111.65749,-8.29625,0.0],[111.65306,-8.30081,0.0],[111.64934,-8.30739,0.0],[111.6525,-8.32331,0.0],[111.64953,-8.32888,0.0],[111.64981,-8.33109,0.0],[111.65223,-8.33681,0.0],[111.65695,-8.34212,0.0],[111.67204,-8.34239,0.0],[111.67891,-8.34832,0.0],[111.68001,-8.3515,0.0],[111.67925,-8.35799,0.0],[111.68079,-8.37292,0.0],[111.6749,-8.37143,0.0],[111.6703,-8.36701,0.0],[111.67078,-8.36251,0.0],[111.66858,-8.36107,0.0],[111.66906,-8.35842,0.0],[111.66775,-8.35791,0.0],[111.66731,-8.3558,0.0],[111.66476,-8.35515,0.0],[111.66382,-8.35659,0.0],[111.66255,-8.35556,0.0],[111.66118,-8.35698,0.0],[111.65755,-8.35693,0.0],[111.65493,-8.36048,0.0],[111.65722,-8.36278,0.0],[111.65271,-8.36653,0.0],[111.65137,-8.36529,0.0],[111.65157,-8.36228,0.0],[111.6499,-8.36161,0.0],[111.65085,-8.35887,0.0],[111.64903,-8.35733,0.0],[111.6496,-8.35486,0.0],[111.64765,-8.35156,0.0],[111.64095,-8.35041,0.0],[111.63812,-8.34737,0.0],[111.63475,-8.34743,0.0],[111.63357,-8.3482,0.0],[111.63365,-8.35048,0.0],[111.63247,-8.3492,0.0],[111.63057,-8.35218,0.0],[111.62961,-8.35149,0.0],[111.62604,-8.35395,0.0],[111.62695,-8.35102,0.0],[111.62471,-8.34972,0.0],[111.62485,-8.34774,0.0],[111.62742,-8.34735,0.0],[111.62966,-8.34438,0.0],[111.63308,-8.34332,0.0],[111.63429,-8.34046,0.0],[111.63234,-8.33629,0.0],[111.62718,-8.33516,0.0],[111.62918,-8.33117,0.0],[111.6273,-8.32828,0.0],[111.62834,-8.3252,0.0],[111.62265,-8.32176,0.0],[111.62072,-8.32293,0.0],[111.61909,-8.32234,0.0],[111.61727,-8.31988,0.0],[111.61224,-8.32089,0.0],[111.61181,-8.32481,0.0],[111.60736,-8.32863,0.0],[111.60723,-8.33087,0.0],[111.61076,-8.33513,0.0],[111.60708,-8.33898,0.0],[111.60471,-8.33862,0.0],[111.60465,-8.33432,0.0],[111.60288,-8.33335,0.0],[111.60345,-8.33038,0.0],[111.60175,-8.32996,0.0],[111.60287,-8.32454,0.0],[111.59965,-8.32337,0.0],[111.59889,-8.32188,0.0],[111.59533,-8.32211,0.0],[111.59347,-8.32512,0.0],[111.59049,-8.32551,0.0],[111.58898,-8.3273,0.0],[111.58918,-8.32793,0.0],[111.5875,-8.32826,0.0],[111.58998,-8.33171,0.0],[111.58759,-8.33428,0.0],[111.57779,-8.32894,0.0],[111.57549,-8.33025,0.0],[111.57609,-8.33317,0.0],[111.57475,-8.33198,0.0],[111.57469,-8.33303,0.0],[111.57275,-8.33286,0.0],[111.57156,-8.3341,0.0],[111.57024,-8.33366,0.0],[111.5711,-8.33153,0.0],[111.56815,-8.32838,0.0],[111.56784,-8.32601,0.0],[111.57161,-8.32552,0.0],[111.57107,-8.32186,0.0],[111.57365,-8.31848,0.0],[111.57265,-8.31635,0.0],[111.56388,-8.30904,0.0],[111.5577,-8.30683,0.0],[111.55023,-8.30598,0.0],[111.54491,-8.30716,0.0],[111.54697,-8.31022,0.0],[111.546,-8.31331,0.0],[111.54463,-8.31246,0.0],[111.54276,-8.31384,0.0],[111.5377,-8.3136,0.0],[111.53636,-8.3152,0.0],[111.5371,-8.31648,0.0],[111.53377,-8.3149,0.0],[111.53136,-8.31764,0.0],[111.53063,-8.3221,0.0],[111.5367,-8.32477,0.0],[111.53781,-8.32716,0.0],[111.5328,-8.32952,0.0],[111.53368,-8.33285,0.0],[111.53242,-8.33282,0.0],[111.53321,-8.33181,0.0],[111.53228,-8.33207,0.0],[111.53203,-8.33073,0.0],[111.53034,-8.33193,0.0],[111.53055,-8.33017,0.0],[111.52939,-8.32978,0.0],[111.52797,-8.33174,0.0],[111.52257,-8.33121,0.0],[111.52138,-8.33269,0.0],[111.51955,-8.33171,0.0],[111.51737,-8.33378,0.0],[111.51366,-8.33232,0.0]]],[[[111.5684,-8.33854,0.0],[111.56856,-8.33881,0.0],[111.56836,-8.33856,0.0],[111.5684,-8.33854,0.0]]],[[[111.56343,-8.3383,0.0],[111.56255,-8.33847,0.0],[111.56346,-8.33824,0.0],[111.56343,-8.3383,0.0]]],[[[111.56776,-8.33823,0.0],[111.56819,-8.33814,0.0],[111.5678,-8.3385,0.0],[111.56776,-8.33823,0.0]]],[[[111.56893,-8.33809,0.0],[111.5695,-8.33804,0.0],[111.56895,-8.33821,0.0],[111.56893,-8.33809,0.0]]],[[[111.56825,-8.33756,0.0],[111.56841,-8.33747,0.0],[111.56843,-8.33752,0.0],[111.56825,-8.33756,0.0]]],[[[111.56923,-8.33725,0.0],[111.56936,-8.33755,0.0],[111.56914,-8.33752,0.0],[111.56923,-8.33725,0.0]]],[[[111.56338,-8.33704,0.0],[111.56328,-8.33729,0.0],[111.56321,-8.33712,0.0],[111.56338,-8.33704,0.0]]],[[[111.56914,-8.33675,0.0],[111.56946,-8.33682,0.0],[111.56907,-8.33692,0.0],[111.56914,-8.33675,0.0]]],[[[111.56982,-8.33625,0.0],[111.57017,-8.33651,0.0],[111.56983,-8.33645,0.0],[111.56982,-8.33625,0.0]]],[[[111.56991,-8.33583,0.0],[111.57038,-8.33553,0.0],[111.57019,-8.33602,0.0],[111.56991,-8.33583,0.0]]],[[[111.57007,-8.33485,0.0],[111.56783,-8.33639,0.0],[111.56732,-8.33584,0.0],[111.57007,-8.33485,0.0]]],[[[111.56947,-8.33449,0.0],[111.56951,-8.33473,0.0],[111.56934,-8.33468,0.0],[111.56947,-8.33449,0.0]]],[[[111.57057,-8.33426,0.0],[111.57069,-8.33437,0.0],[111.57051,-8.33434,0.0],[111.57057,-8.33426,0.0]]],[[[111.57191,-8.3341,0.0],[111.57222,-8.33421,0.0],[111.572,-8.33446,0.0],[111.57191,-8.3341,0.0]]],[[[111.57408,-8.33349,0.0],[111.5745,-8.33385,0.0],[111.57437,-8.33394,0.0],[111.57408,-8.33349,0.0]]],[[[111.58986,-8.33233,0.0],[111.59041,-8.33212,0.0],[111.59051,-8.33231,0.0],[111.58986,-8.33233,0.0]]],[[[111.57581,-8.33037,0.0],[111.57596,-8.33042,0.0],[111.57589,-8.33052,0.0],[111.57581,-8.33037,0.0]]],[[[111.5902,-8.32604,0.0],[111.59034,-8.32605,0.0],[111.59024,-8.32617,0.0],[111.5902,-8.32604,0.0]]],[[[111.54616,-8.31413,0.0],[111.54568,-8.31442,0.0],[111.54546,-8.31407,0.0],[111.54616,-8.31413,0.0]]],[[[111.54555,-8.31365,0.0],[111.54601,-8.3138,0.0],[111.54555,-8.3138,0.0],[111.54555,-8.31365,0.0]]],[[[111.54351,-8.31358,0.0],[111.54358,-8.31342,0.0],[111.54394,-8.31348,0.0],[111.54351,-8.31358,0.0]]],[[[111.64996,-8.37629,0.0],[111.65203,-8.38231,0.0],[111.65101,-8.38154,0.0],[111.65061,-8.38416,0.0],[111.64996,-8.37629,0.0]]],[[[111.66847,-8.37727,0.0],[111.66854,-8.37792,0.0],[111.6682,-8.37775,0.0],[111.66847,-8.37727,0.0]]],[[[111.65159,-8.37787,0.0],[111.65134,-8.37645,0.0],[111.65154,-8.37641,0.0],[111.65159,-8.37787,0.0]]],[[[111.66995,-8.36956,0.0],[111.66988,-8.36976,0.0],[111.66984,-8.36968,0.0],[111.66995,-8.36956,0.0]]],[[[111.6717,-8.36932,0.0],[111.67189,-8.36946,0.0],[111.67172,-8.36951,0.0],[111.6717,-8.36932,0.0]]],[[[111.66934,-8.36875,0.0],[111.66943,-8.36927,0.0],[111.66921,-8.36929,0.0],[111.66934,-8.36875,0.0]]],[[[111.65475,-8.3661,0.0],[111.65485,-8.36639,0.0],[111.65464,-8.36638,0.0],[111.65475,-8.3661,0.0]]],[[[111.66799,-8.35987,0.0],[111.66817,-8.3601,0.0],[111.66803,-8.3602,0.0],[111.66799,-8.35987,0.0]]],[[[111.65887,-8.35757,0.0],[111.65908,-8.35742,0.0],[111.65905,-8.35765,0.0],[111.65887,-8.35757,0.0]]],[[[111.65849,-8.35728,0.0],[111.65869,-8.35751,0.0],[111.65856,-8.35761,0.0],[111.65849,-8.35728,0.0]]],[[[111.63035,-8.35658,0.0],[111.63028,-8.35637,0.0],[111.63051,-8.35654,0.0],[111.63035,-8.35658,0.0]]],[[[111.62587,-8.3554,0.0],[111.62549,-8.3573,0.0],[111.62451,-8.35651,0.0],[111.62587,-8.3554,0.0]]],[[[111.63026,-8.35568,0.0],[111.63018,-8.35605,0.0],[111.63001,-8.35606,0.0],[111.63026,-8.35568,0.0]]],[[[111.63127,-8.35445,0.0],[111.63079,-8.35498,0.0],[111.62985,-8.35524,0.0],[111.63127,-8.35445,0.0]]],[[[111.62825,-8.35486,0.0],[111.62843,-8.35502,0.0],[111.62829,-8.35514,0.0],[111.62825,-8.35486,0.0]]],[[[111.62726,-8.35463,0.0],[111.62736,-8.35425,0.0],[111.62747,-8.35487,0.0],[111.62726,-8.35463,0.0]]],[[[111.6268,-8.35418,0.0],[111.62672,-8.35438,0.0],[111.62673,-8.35418,0.0],[111.6268,-8.35418,0.0]]],[[[111.62389,-8.34901,0.0],[111.62416,-8.34918,0.0],[111.62385,-8.34923,0.0],[111.62389,-8.34901,0.0]]],[[[111.62421,-8.34868,0.0],[111.62421,-8.34884,0.0],[111.624,-8.34878,0.0],[111.62421,-8.34868,0.0]]],[[[111.63093,-8.33629,0.0],[111.63078,-8.33651,0.0],[111.63067,-8.33643,0.0],[111.63093,-8.33629,0.0]]],[[[111.6016,-8.32871,0.0],[111.60184,-8.32828,0.0],[111.60199,-8.32836,0.0],[111.6016,-8.32871,0.0]]]]}},{"type":"Feature","properties":{"kecamatan":"Pule","kab_kota":"Trenggalek"},"geometry":{"type":"Polygon","coordinates":[[[111.54793,-8.15621,0.0],[111.54482,-8.17011,0.0],[111.52397,-8.17417,0.0],[111.51278,-8.18308,0.0],[111.51138,-8.18304,0.0],[111.51189,-8.18121,0.0],[111.50936,-8.18105,0.0],[111.50864,-8.17854,0.0],[111.50608,-8.17963,0.0],[111.50398,-8.18423,0.0],[111.50007,-8.1805,0.0],[111.49554,-8.17944,0.0],[111.4933,-8.17674,0.0],[111.49342,-8.17406,0.0],[111.49073,-8.17233,0.0],[111.48571,-8.17154,0.0],[111.4816,-8.16738,0.0],[111.47861,-8.1695,0.0],[111.47867,-8.16576,0.0],[111.47371,-8.1648,0.0],[111.47291,-8.16162,0.0],[111.47316,-8.15814,0.0],[111.47471,-8.15661,0.0],[111.47401,-8.15235,0.0],[111.47744,-8.14201,0.0],[111.4808,-8.13601,0.0],[111.48118,-8.13282,0.0],[111.47952,-8.12809,0.0],[111.48298,-8.12597,0.0],[111.48344,-8.12327,0.0],[111.48158,-8.1223,0.0],[111.47949,-8.11644,0.0],[111.48236,-8.11406,0.0],[111.48364,-8.10807,0.0],[111.49365,-8.1101,0.0],[111.4996,-8.11268,0.0],[111.50051,-8.11124,0.0],[111.50408,-8.11126,0.0],[111.50732,-8.10637,0.0],[111.51621,-8.10973,0.0],[111.51959,-8.10886,0.0],[111.52108,-8.11075,0.0],[111.52455,-8.10942,0.0],[111.5258,-8.10726,0.0],[111.52787,-8.10736,0.0],[111.52894,-8.10219,0.0],[111.5257,-8.09238,0.0],[111.5279,-8.08899,0.0],[111.52687,-8.08106,0.0],[111.52954,-8.07714,0.0],[111.53468,-8.07329,0.0],[111.54135,-8.07036,0.0],[111.54351,-8.0665,0.0],[111.54117,-8.06386,0.0],[111.53739,-8.06467,0.0],[111.53509,-8.06237,0.0],[111.5353,-8.0597,0.0],[111.53997,-8.05644,0.0],[111.54284,-8.05694,0.0],[111.54478,-8.05465,0.0],[111.55061,-8.05655,0.0],[111.55386,-8.05615,0.0],[111.55649,-8.05378,0.0],[111.55723,-8.04993,0.0],[111.56098,-8.04889,0.0],[111.5637,-8.04957,0.0],[111.56486,-8.04799,0.0],[111.56851,-8.04892,0.0],[111.57327,-8.04795,0.0],[111.57486,-8.03957,0.0],[111.58212,-8.04693,0.0],[111.59221,-8.05042,0.0],[111.59383,-8.05256,0.0],[111.59361,-8.05849,0.0],[111.59707,-8.06131,0.0],[111.59843,-8.06584,0.0],[111.59585,-8.06943,0.0],[111.59622,-8.07255,0.0],[111.59344,-8.07618,0.0],[111.59382,-8.08341,0.0],[111.59652,-8.08783,0.0],[111.59606,-8.09464,0.0],[111.59135,-8.09934,0.0],[111.58842,-8.09855,0.0],[111.58557,-8.10096,0.0],[111.58561,-8.10639,0.0],[111.58413,-8.1104,0.0],[111.5858,-8.12119,0.0],[111.58776,-8.12474,0.0],[111.5852,-8.12899,0.0],[111.58402,-8.12962,0.0],[111.58252,-8.12833,0.0],[111.5753,-8.13328,0.0],[111.57484,-8.13523,0.0],[111.57589,-8.13663,0.0],[111.57689,-8.13622,0.0],[111.57782,-8.13956,0.0],[111.57382,-8.13862,0.0],[111.56818,-8.13957,0.0],[111.56465,-8.14982,0.0],[111.55912,-8.15053,0.0],[111.55626,-8.15306,0.0],[111.54793,-8.15621,0.0]]]}},{"type":"Feature","properties":{"kecamatan":"Panggul","kab_kota":"Trenggalek"},"geometry":{"type":"MultiPolygon","coordinates":[[[[111.43733,-8.32349,0.0],[111.43793,-8.32328,0.0],[111.43733,-8.32371,0.0],[111.43733,-8.32349,0.0]]],[[[111.44253,-8.29569,0.0],[111.44521,-8.29778,0.0],[111.44264,-8.29694,0.0],[111.44253,-8.29569,0.0]]],[[[111.44176,-8.29593,0.0],[111.44145,-8.29535,0.0],[111.44195,-8.29569,0.0],[111.44176,-8.29593,0.0]]],[[[111.44409,-8.28932,0.0],[111.44363,-8.29009,0.0],[111.44339,-8.29008,0.0],[111.44409,-8.28932,0.0]]],[[[111.415,-8.27704,0.0],[111.41525,-8.27823,0.0],[111.4147,-8.27813,0.0],[111.415,-8.27704,0.0]]],[[[111.41595,-8.27717,0.0],[111.41555,-8.2773,0.0],[111.41561,-8.27688,0.0],[111.41595,-8.27717,0.0]]],[[[111.4157,-8.27407,0.0],[111.41589,-8.27395,0.0],[111.41585,-8.2741,0.0],[111.4157,-8.27407,0.0]]],[[[111.43556,-8.27263,0.0],[111.4357,-8.27256,0.0],[111.43566,-8.27264,0.0],[111.43556,-8.27263,0.0]]],[[[111.43879,-8.27089,0.0],[111.43732,-8.27078,0.0],[111.43705,-8.27237,0.0],[111.43649,-8.27148,0.0],[111.43864,-8.26948,0.0],[111.43879,-8.27089,0.0]]],[[[111.44112,-8.26938,0.0],[111.44143,-8.26899,0.0],[111.4412,-8.26939,0.0],[111.44112,-8.26938,0.0]]],[[[111.41962,-8.26215,0.0],[111.42,-8.26199,0.0],[111.42006,-8.26236,0.0],[111.41962,-8.26215,0.0]]],[[[111.4232,-8.26123,0.0],[111.4235,-8.2604,0.0],[111.42369,-8.26138,0.0],[111.4232,-8.26123,0.0]]],[[[111.42263,-8.25901,0.0],[111.42262,-8.25937,0.0],[111.42247,-8.25926,0.0],[111.42263,-8.25901,0.0]]],[[[111.44244,-8.26281,0.0],[111.43917,-8.26414,0.0],[111.43081,-8.25936,0.0],[111.42212,-8.25838,0.0],[111.42255,-8.26157,0.0],[111.42161,-8.26101,0.0],[111.42125,-8.26215,0.0],[111.42035,-8.26007,0.0],[111.41955,-8.26054,0.0],[111.41909,-8.26441,0.0],[111.41542,-8.26704,0.0],[111.41578,-8.27624,0.0],[111.41025,-8.27837,0.0],[111.40757,-8.27314,0.0],[111.40445,-8.27285,0.0],[111.40319,-8.2678,0.0],[111.40479,-8.26613,0.0],[111.40639,-8.25838,0.0],[111.40439,-8.25342,0.0],[111.4015,-8.25093,0.0],[111.39841,-8.24126,0.0],[111.39346,-8.23737,0.0],[111.39217,-8.23318,0.0],[111.39586,-8.22745,0.0],[111.39683,-8.22824,0.0],[111.40082,-8.22704,0.0],[111.40179,-8.22406,0.0],[111.40041,-8.22073,0.0],[111.40454,-8.2197,0.0],[111.40891,-8.21266,0.0],[111.40426,-8.20814,0.0],[111.4034,-8.19729,0.0],[111.41858,-8.19033,0.0],[111.42427,-8.19137,0.0],[111.42388,-8.18473,0.0],[111.42557,-8.18336,0.0],[111.42513,-8.17943,0.0],[111.42658,-8.17558,0.0],[111.42481,-8.17037,0.0],[111.43278,-8.16985,0.0],[111.43783,-8.16323,0.0],[111.43956,-8.16564,0.0],[111.44898,-8.16657,0.0],[111.45042,-8.16873,0.0],[111.45523,-8.16751,0.0],[111.45856,-8.16878,0.0],[111.46495,-8.17552,0.0],[111.4771,-8.17334,0.0],[111.47818,-8.1698,0.0],[111.4816,-8.16738,0.0],[111.48571,-8.17154,0.0],[111.49257,-8.17341,0.0],[111.49343,-8.17701,0.0],[111.49554,-8.17944,0.0],[111.50007,-8.1805,0.0],[111.504,-8.18423,0.0],[111.50381,-8.18959,0.0],[111.50547,-8.19498,0.0],[111.50254,-8.19602,0.0],[111.50599,-8.20402,0.0],[111.50511,-8.20583,0.0],[111.50996,-8.21134,0.0],[111.509,-8.21473,0.0],[111.4972,-8.22249,0.0],[111.49002,-8.22634,0.0],[111.48392,-8.22679,0.0],[111.48302,-8.23266,0.0],[111.48944,-8.23367,0.0],[111.48702,-8.23835,0.0],[111.49047,-8.23781,0.0],[111.49372,-8.24016,0.0],[111.49899,-8.24079,0.0],[111.5019,-8.24272,0.0],[111.50736,-8.2392,0.0],[111.51256,-8.24357,0.0],[111.51276,-8.24671,0.0],[111.51504,-8.24847,0.0],[111.50907,-8.2568,0.0],[111.51884,-8.27458,0.0],[111.51139,-8.27557,0.0],[111.50764,-8.27807,0.0],[111.5019,-8.27666,0.0],[111.49771,-8.2775,0.0],[111.49044,-8.27641,0.0],[111.48466,-8.27835,0.0],[111.47656,-8.29098,0.0],[111.47108,-8.29172,0.0],[111.46268,-8.31279,0.0],[111.46376,-8.31836,0.0],[111.46196,-8.32288,0.0],[111.46235,-8.31987,0.0],[111.46017,-8.31711,0.0],[111.45579,-8.31849,0.0],[111.45542,-8.32006,0.0],[111.45484,-8.31768,0.0],[111.45323,-8.31725,0.0],[111.45652,-8.31623,0.0],[111.45788,-8.3104,0.0],[111.44945,-8.3084,0.0],[111.4496,-8.30641,0.0],[111.44716,-8.30538,0.0],[111.44519,-8.30231,0.0],[111.44657,-8.2993,0.0],[111.44986,-8.29695,0.0],[111.44927,-8.2954,0.0],[111.44579,-8.29564,0.0],[111.4451,-8.29379,0.0],[111.44849,-8.29064,0.0],[111.45036,-8.29081,0.0],[111.4507,-8.28924,0.0],[111.45454,-8.28861,0.0],[111.45451,-8.28559,0.0],[111.45034,-8.28414,0.0],[111.4509,-8.28148,0.0],[111.45226,-8.27908,0.0],[111.45731,-8.27718,0.0],[111.45457,-8.27616,0.0],[111.45513,-8.27401,0.0],[111.45351,-8.27619,0.0],[111.44857,-8.26932,0.0],[111.44192,-8.26606,0.0],[111.44133,-8.26394,0.0],[111.44306,-8.26396,0.0],[111.44196,-8.26379,0.0],[111.44244,-8.26281,0.0]]],[[[111.456,-8.32093,0.0],[111.45626,-8.32142,0.0],[111.45615,-8.32157,0.0],[111.456,-8.32093,0.0]]],[[[111.45632,-8.31961,0.0],[111.45671,-8.31961,0.0],[111.45669,-8.31995,0.0],[111.45632,-8.31961,0.0]]],[[[111.45223,-8.31677,0.0],[111.45271,-8.31691,0.0],[111.45214,-8.31729,0.0],[111.45223,-8.31677,0.0]]],[[[111.44552,-8.30669,0.0],[111.44578,-8.30706,0.0],[111.44541,-8.30697,0.0],[111.44552,-8.30669,0.0]]]]}},{"type":"Feature","properties":{"kecamatan":"Karangan","kab_kota":"Trenggalek"},"geometry":{"type":"Polygon","coordinates":[[[111.68781,-8.11047,0.0],[111.68301,-8.11958,0.0],[111.67975,-8.12259,0.0],[111.67604,-8.12379,0.0],[111.67213,-8.11856,0.0],[111.67388,-8.11584,0.0],[111.67189,-8.11356,0.0],[111.66856,-8.11264,0.0],[111.66811,-8.10424,0.0],[111.66262,-8.10549,0.0],[111.65401,-8.11061,0.0],[111.64314,-8.10976,0.0],[111.6412,-8.10308,0.0],[111.64444,-8.10258,0.0],[111.64049,-8.09924,0.0],[111.64499,-8.0988,0.0],[111.64596,-8.09754,0.0],[111.64268,-8.09476,0.0],[111.63942,-8.09527,0.0],[111.63828,-8.09229,0.0],[111.629,-8.08968,0.0],[111.62845,-8.08465,0.0],[111.62663,-8.08256,0.0],[111.63574,-8.07616,0.0],[111.64009,-8.07544,0.0],[111.64631,-8.06946,0.0],[111.65036,-8.0678,0.0],[111.65097,-8.0654,0.0],[111.65574,-8.06233,0.0],[111.65648,-8.05746,0.0],[111.65737,-8.05771,0.0],[111.65782,-8.05605,0.0],[111.66801,-8.05722,0.0],[111.67019,-8.05265,0.0],[111.67308,-8.05185,0.0],[111.67392,-8.04789,0.0],[111.67605,-8.04832,0.0],[111.67491,-8.04595,0.0],[111.67641,-8.04197,0.0],[111.67614,-8.03759,0.0],[111.67374,-8.03657,0.0],[111.67258,-8.03727,0.0],[111.67262,-8.03539,0.0],[111.67422,-8.03361,0.0],[111.67461,-8.02867,0.0],[111.67878,-8.02671,0.0],[111.67969,-8.01913,0.0],[111.69092,-8.02942,0.0],[111.69216,-8.03388,0.0],[111.69184,-8.03895,0.0],[111.69706,-8.04659,0.0],[111.69282,-8.05078,0.0],[111.69153,-8.05683,0.0],[111.68872,-8.05705,0.0],[111.68844,-8.05972,0.0],[111.69037,-8.06062,0.0],[111.69073,-8.06265,0.0],[111.68745,-8.06539,0.0],[111.69022,-8.06616,0.0],[111.69051,-8.0645,0.0],[111.69301,-8.0653,0.0],[111.6939,-8.06364,0.0],[111.6945,-8.06475,0.0],[111.69902,-8.06443,0.0],[111.6979,-8.06534,0.0],[111.69793,-8.0688,0.0],[111.69502,-8.07014,0.0],[111.6931,-8.07384,0.0],[111.69684,-8.07417,0.0],[111.69854,-8.07627,0.0],[111.6978,-8.08591,0.0],[111.70229,-8.08791,0.0],[111.70841,-8.0979,0.0],[111.70465,-8.10125,0.0],[111.70153,-8.10173,0.0],[111.68781,-8.11047,0.0]]]}},{"type":"Feature","properties":{"kecamatan":"Kampak","kab_kota":"Trenggalek"},"geometry":{"type":"Polygon","coordinates":[[[111.63867,-8.26647,0.0],[111.62393,-8.25587,0.0],[111.62071,-8.25088,0.0],[111.61928,-8.24576,0.0],[111.61404,-8.2394,0.0],[111.61654,-8.22785,0.0],[111.61895,-8.22268,0.0],[111.61815,-8.21967,0.0],[111.62106,-8.21296,0.0],[111.61903,-8.20896,0.0],[111.62474,-8.19827,0.0],[111.62383,-8.19615,0.0],[111.62639,-8.19569,0.0],[111.62949,-8.19086,0.0],[111.63136,-8.19011,0.0],[111.62608,-8.17703,0.0],[111.62825,-8.17578,0.0],[111.62857,-8.17205,0.0],[111.63217,-8.16622,0.0],[111.63105,-8.16147,0.0],[111.63258,-8.15172,0.0],[111.63431,-8.14807,0.0],[111.63466,-8.14098,0.0],[111.63815,-8.13349,0.0],[111.63849,-8.13555,0.0],[111.64098,-8.13802,0.0],[111.64725,-8.1377,0.0],[111.64827,-8.13482,0.0],[111.65969,-8.13925,0.0],[111.66243,-8.13592,0.0],[111.66372,-8.13824,0.0],[111.66905,-8.14013,0.0],[111.67105,-8.14442,0.0],[111.66819,-8.14574,0.0],[111.66895,-8.15184,0.0],[111.66649,-8.15952,0.0],[111.67414,-8.16207,0.0],[111.67884,-8.15999,0.0],[111.6817,-8.16176,0.0],[111.68195,-8.16338,0.0],[111.68442,-8.16336,0.0],[111.68364,-8.16593,0.0],[111.68738,-8.16784,0.0],[111.68632,-8.16945,0.0],[111.68785,-8.17156,0.0],[111.69122,-8.17126,0.0],[111.69274,-8.17285,0.0],[111.69396,-8.17492,0.0],[111.69332,-8.17732,0.0],[111.69571,-8.18058,0.0],[111.69357,-8.18326,0.0],[111.69286,-8.18684,0.0],[111.68976,-8.18727,0.0],[111.68755,-8.20251,0.0],[111.68285,-8.20208,0.0],[111.67975,-8.20703,0.0],[111.67606,-8.20777,0.0],[111.67424,-8.21037,0.0],[111.6763,-8.21662,0.0],[111.67603,-8.21953,0.0],[111.67285,-8.22361,0.0],[111.67017,-8.23364,0.0],[111.67617,-8.23627,0.0],[111.66848,-8.2411,0.0],[111.66286,-8.24854,0.0],[111.66305,-8.25177,0.0],[111.6597,-8.25458,0.0],[111.65634,-8.2612,0.0],[111.65325,-8.26394,0.0],[111.64478,-8.26777,0.0],[111.63867,-8.26647,0.0]]]}},{"type":"Feature","properties":{"kecamatan":"Dongko","kab_kota":"Trenggalek"},"geometry":{"type":"Polygon","coordinates":[[[111.54146,-8.25792,0.0],[111.53186,-8.26175,0.0],[111.52594,-8.27034,0.0],[111.51884,-8.27458,0.0],[111.50907,-8.2568,0.0],[111.51504,-8.24847,0.0],[111.51276,-8.24671,0.0],[111.51256,-8.24357,0.0],[111.50736,-8.2392,0.0],[111.5019,-8.24272,0.0],[111.49899,-8.24079,0.0],[111.49372,-8.24016,0.0],[111.49047,-8.23781,0.0],[111.48702,-8.23835,0.0],[111.48944,-8.23367,0.0],[111.48302,-8.23266,0.0],[111.48392,-8.22679,0.0],[111.49002,-8.22634,0.0],[111.509,-8.21473,0.0],[111.50996,-8.21134,0.0],[111.50511,-8.20583,0.0],[111.50599,-8.20402,0.0],[111.50246,-8.19553,0.0],[111.50547,-8.19498,0.0],[111.50365,-8.18745,0.0],[111.50608,-8.17963,0.0],[111.50864,-8.17854,0.0],[111.50936,-8.18105,0.0],[111.51189,-8.18121,0.0],[111.51138,-8.18304,0.0],[111.51278,-8.18308,0.0],[111.52397,-8.17417,0.0],[111.54482,-8.17011,0.0],[111.54793,-8.15621,0.0],[111.55626,-8.15306,0.0],[111.55912,-8.15053,0.0],[111.56465,-8.14982,0.0],[111.56698,-8.14068,0.0],[111.56935,-8.13893,0.0],[111.57554,-8.13884,0.0],[111.57918,-8.14155,0.0],[111.58392,-8.14108,0.0],[111.58827,-8.14461,0.0],[111.59462,-8.15432,0.0],[111.5992,-8.15302,0.0],[111.60704,-8.15328,0.0],[111.6161,-8.14695,0.0],[111.61698,-8.14301,0.0],[111.62116,-8.141,0.0],[111.62591,-8.1365,0.0],[111.62833,-8.14189,0.0],[111.63174,-8.13993,0.0],[111.63533,-8.13974,0.0],[111.63105,-8.16147,0.0],[111.63217,-8.16622,0.0],[111.62857,-8.17205,0.0],[111.62825,-8.17578,0.0],[111.62608,-8.17703,0.0],[111.63136,-8.19011,0.0],[111.62949,-8.19086,0.0],[111.62639,-8.19569,0.0],[111.62383,-8.19615,0.0],[111.62474,-8.19827,0.0],[111.61903,-8.20896,0.0],[111.62106,-8.21296,0.0],[111.61815,-8.21967,0.0],[111.61895,-8.22268,0.0],[111.61454,-8.23508,0.0],[111.61442,-8.2409,0.0],[111.61135,-8.23836,0.0],[111.6084,-8.24267,0.0],[111.60497,-8.24491,0.0],[111.59834,-8.24754,0.0],[111.59026,-8.2477,0.0],[111.58923,-8.24665,0.0],[111.59054,-8.24092,0.0],[111.58887,-8.24057,0.0],[111.57639,-8.24532,0.0],[111.57438,-8.24981,0.0],[111.56622,-8.25064,0.0],[111.56103,-8.25956,0.0],[111.55259,-8.25768,0.0],[111.54646,-8.26017,0.0],[111.54146,-8.25792,0.0]]]}},{"type":"Feature","properties":{"kecamatan":"Tugu","kab_kota":"Trenggalek"},"geometry":{"type":"Polygon","coordinates":[[[111.64425,-8.07126,0.0],[111.64009,-8.07544,0.0],[111.63574,-8.07616,0.0],[111.62995,-8.08109,0.0],[111.62617,-8.082,0.0],[111.62562,-8.07886,0.0],[111.62172,-8.07635,0.0],[111.61892,-8.07606,0.0],[111.61382,-8.07298,0.0],[111.61018,-8.07336,0.0],[111.6086,-8.07075,0.0],[111.60662,-8.07142,0.0],[111.60154,-8.06856,0.0],[111.59981,-8.0655,0.0],[111.59798,-8.06716,0.0],[111.59707,-8.06131,0.0],[111.59361,-8.05849,0.0],[111.5942,-8.05392,0.0],[111.59221,-8.05042,0.0],[111.58258,-8.04722,0.0],[111.57486,-8.03957,0.0],[111.57679,-8.03858,0.0],[111.58273,-8.02572,0.0],[111.58668,-8.02361,0.0],[111.59046,-8.01938,0.0],[111.59625,-8.01754,0.0],[111.59713,-8.01871,0.0],[111.60627,-8.01935,0.0],[111.60778,-8.01816,0.0],[111.60637,-8.01607,0.0],[111.61177,-8.01167,0.0],[111.62318,-8.0065,0.0],[111.62592,-8.01092,0.0],[111.63108,-8.00754,0.0],[111.63254,-8.00479,0.0],[111.63611,-8.00215,0.0],[111.64145,-8.00535,0.0],[111.64429,-8.00485,0.0],[111.64544,-8.00319,0.0],[111.64771,-8.00378,0.0],[111.64847,-8.00743,0.0],[111.64686,-8.01546,0.0],[111.64816,-8.0209,0.0],[111.65064,-8.02214,0.0],[111.65319,-8.02058,0.0],[111.65565,-8.01131,0.0],[111.65574,-8.00436,0.0],[111.65435,-8.00108,0.0],[111.65631,-7.99635,0.0],[111.65558,-7.99081,0.0],[111.65686,-7.98998,0.0],[111.65367,-7.98644,0.0],[111.65369,-7.98162,0.0],[111.65641,-7.97579,0.0],[111.66083,-7.97553,0.0],[111.66223,-7.97414,0.0],[111.66163,-7.97129,0.0],[111.66294,-7.97202,0.0],[111.66584,-7.96878,0.0],[111.67116,-7.96756,0.0],[111.67365,-7.96947,0.0],[111.6726,-7.97133,0.0],[111.6776,-7.97191,0.0],[111.67649,-7.97659,0.0],[111.68215,-7.97741,0.0],[111.68371,-7.98453,0.0],[111.67594,-7.9937,0.0],[111.67719,-8.00487,0.0],[111.68119,-8.00845,0.0],[111.67926,-8.0134,0.0],[111.67897,-8.02614,0.0],[111.67461,-8.02867,0.0],[111.67422,-8.03361,0.0],[111.67262,-8.03539,0.0],[111.67258,-8.03727,0.0],[111.67374,-8.03657,0.0],[111.67614,-8.03759,0.0],[111.67641,-8.04197,0.0],[111.67491,-8.04595,0.0],[111.67605,-8.04832,0.0],[111.67392,-8.04789,0.0],[111.67308,-8.05185,0.0],[111.67019,-8.05265,0.0],[111.66801,-8.05722,0.0],[111.65782,-8.05605,0.0],[111.65737,-8.05771,0.0],[111.65648,-8.05746,0.0],[111.65574,-8.06233,0.0],[111.65097,-8.0654,0.0],[111.65036,-8.0678,0.0],[111.64425,-8.07126,0.0]]]}},{"type":"Feature","properties":{"kecamatan":"Watulimo","kab_kota":"Trenggalek"},"geometry":{"type":"MultiPolygon","coordinates":[[[[111.70868,-8.40657,0.0],[111.70878,-8.40657,0.0],[111.70875,-8.40664,0.0],[111.70868,-8.40657,0.0]]],[[[111.70749,-8.40002,0.0],[111.70765,-8.39975,0.0],[111.70757,-8.40012,0.0],[111.70749,-8.40002,0.0]]],[[[111.70715,-8.39818,0.0],[111.70677,-8.39844,0.0],[111.70671,-8.39802,0.0],[111.70715,-8.39818,0.0]]],[[[111.70922,-8.29583,0.0],[111.70656,-8.30287,0.0],[111.71062,-8.30475,0.0],[111.71392,-8.30905,0.0],[111.7157,-8.3154,0.0],[111.71319,-8.32237,0.0],[111.70283,-8.32229,0.0],[111.70074,-8.32462,0.0],[111.69539,-8.3218,0.0],[111.69031,-8.32797,0.0],[111.68843,-8.33532,0.0],[111.68966,-8.33748,0.0],[111.69316,-8.33779,0.0],[111.69388,-8.34174,0.0],[111.69795,-8.34495,0.0],[111.70367,-8.344,0.0],[111.70423,-8.34671,0.0],[111.70637,-8.34739,0.0],[111.70601,-8.3487,0.0],[111.70773,-8.35036,0.0],[111.71348,-8.35171,0.0],[111.71538,-8.35461,0.0],[111.715,-8.35807,0.0],[111.7174,-8.36205,0.0],[111.72405,-8.36868,0.0],[111.72097,-8.36893,0.0],[111.72029,-8.37093,0.0],[111.71905,-8.3702,0.0],[111.71425,-8.3723,0.0],[111.71002,-8.36698,0.0],[111.70765,-8.36955,0.0],[111.70542,-8.36691,0.0],[111.70371,-8.36707,0.0],[111.7039,-8.37364,0.0],[111.70078,-8.3773,0.0],[111.70193,-8.38315,0.0],[111.69901,-8.379,0.0],[111.69807,-8.37971,0.0],[111.69553,-8.37772,0.0],[111.69304,-8.37398,0.0],[111.69306,-8.37029,0.0],[111.68847,-8.36628,0.0],[111.68566,-8.36797,0.0],[111.6851,-8.37231,0.0],[111.68204,-8.3749,0.0],[111.68241,-8.37297,0.0],[111.68129,-8.37375,0.0],[111.68079,-8.37292,0.0],[111.67988,-8.36829,0.0],[111.67977,-8.3501,0.0],[111.6759,-8.34524,0.0],[111.67204,-8.34239,0.0],[111.65801,-8.34255,0.0],[111.65223,-8.33681,0.0],[111.64947,-8.3296,0.0],[111.6525,-8.32331,0.0],[111.64934,-8.30739,0.0],[111.65306,-8.30081,0.0],[111.65749,-8.29625,0.0],[111.65039,-8.28847,0.0],[111.64478,-8.26777,0.0],[111.65582,-8.26178,0.0],[111.6597,-8.25458,0.0],[111.66305,-8.25177,0.0],[111.66286,-8.24854,0.0],[111.66848,-8.2411,0.0],[111.67617,-8.23627,0.0],[111.67017,-8.23364,0.0],[111.67285,-8.22361,0.0],[111.67603,-8.21953,0.0],[111.6763,-8.21662,0.0],[111.67429,-8.21217,0.0],[111.67523,-8.20838,0.0],[111.67975,-8.20703,0.0],[111.68285,-8.20208,0.0],[111.68755,-8.20251,0.0],[111.68827,-8.19223,0.0],[111.68986,-8.18707,0.0],[111.69286,-8.18684,0.0],[111.69357,-8.18326,0.0],[111.69572,-8.18057,0.0],[111.69713,-8.18125,0.0],[111.70004,-8.17727,0.0],[111.70681,-8.17394,0.0],[111.70736,-8.16819,0.0],[111.71026,-8.16124,0.0],[111.70832,-8.15886,0.0],[111.71393,-8.15699,0.0],[111.71778,-8.1539,0.0],[111.71364,-8.14715,0.0],[111.72192,-8.14737,0.0],[111.72229,-8.15128,0.0],[111.72963,-8.15041,0.0],[111.72438,-8.15979,0.0],[111.72156,-8.16172,0.0],[111.72124,-8.1645,0.0],[111.71847,-8.16865,0.0],[111.72058,-8.17338,0.0],[111.71944,-8.17768,0.0],[111.71556,-8.18348,0.0],[111.71926,-8.18718,0.0],[111.71655,-8.19027,0.0],[111.72381,-8.19418,0.0],[111.72571,-8.19985,0.0],[111.72848,-8.2005,0.0],[111.73024,-8.20556,0.0],[111.73756,-8.20021,0.0],[111.74013,-8.20318,0.0],[111.73945,-8.20888,0.0],[111.7337,-8.21053,0.0],[111.73442,-8.21512,0.0],[111.73322,-8.2191,0.0],[111.73191,-8.21944,0.0],[111.73288,-8.22767,0.0],[111.73234,-8.2298,0.0],[111.73017,-8.22965,0.0],[111.729,-8.23127,0.0],[111.73229,-8.23649,0.0],[111.73077,-8.2399,0.0],[111.72738,-8.24086,0.0],[111.72726,-8.24215,0.0],[111.72942,-8.24612,0.0],[111.73137,-8.24724,0.0],[111.73396,-8.25313,0.0],[111.73627,-8.25368,0.0],[111.73979,-8.25204,0.0],[111.74378,-8.25271,0.0],[111.7453,-8.25609,0.0],[111.74791,-8.25788,0.0],[111.74572,-8.26441,0.0],[111.75079,-8.27348,0.0],[111.75041,-8.27698,0.0],[111.75143,-8.27805,0.0],[111.74984,-8.28318,0.0],[111.75,-8.28981,0.0],[111.75166,-8.28824,0.0],[111.75682,-8.28776,0.0],[111.75884,-8.2902,0.0],[111.76716,-8.28799,0.0],[111.77759,-8.28965,0.0],[111.77509,-8.29364,0.0],[111.77074,-8.29226,0.0],[111.76849,-8.2943,0.0],[111.76832,-8.29642,0.0],[111.77627,-8.30686,0.0],[111.77492,-8.30804,0.0],[111.77292,-8.30737,0.0],[111.76944,-8.30863,0.0],[111.7689,-8.3105,0.0],[111.77029,-8.31242,0.0],[111.76874,-8.31366,0.0],[111.76979,-8.31517,0.0],[111.76896,-8.31666,0.0],[111.77011,-8.31872,0.0],[111.77376,-8.31927,0.0],[111.77602,-8.32166,0.0],[111.77768,-8.32132,0.0],[111.78172,-8.32607,0.0],[111.77664,-8.32529,0.0],[111.77041,-8.32779,0.0],[111.76557,-8.33076,0.0],[111.76264,-8.33585,0.0],[111.76181,-8.33455,0.0],[111.76071,-8.33531,0.0],[111.75828,-8.33436,0.0],[111.75482,-8.33932,0.0],[111.7538,-8.33985,0.0],[111.75239,-8.33854,0.0],[111.74932,-8.34092,0.0],[111.74962,-8.33897,0.0],[111.74756,-8.33733,0.0],[111.74659,-8.33404,0.0],[111.73899,-8.33252,0.0],[111.7404,-8.3311,0.0],[111.74167,-8.32207,0.0],[111.74324,-8.32143,0.0],[111.74854,-8.31291,0.0],[111.74852,-8.30945,0.0],[111.74295,-8.30202,0.0],[111.74054,-8.30085,0.0],[111.73932,-8.30156,0.0],[111.7403,-8.29979,0.0],[111.7384,-8.29639,0.0],[111.73426,-8.29741,0.0],[111.73286,-8.29586,0.0],[111.73497,-8.29541,0.0],[111.73487,-8.29397,0.0],[111.73135,-8.29489,0.0],[111.73459,-8.2933,0.0],[111.73242,-8.2895,0.0],[111.73109,-8.28926,0.0],[111.73285,-8.29298,0.0],[111.73266,-8.29362,0.0],[111.73178,-8.29385,0.0],[111.73077,-8.28938,0.0],[111.72988,-8.28897,0.0],[111.72905,-8.28936,0.0],[111.72711,-8.28911,0.0],[111.73038,-8.28794,0.0],[111.7285,-8.28713,0.0],[111.72842,-8.28852,0.0],[111.72839,-8.28711,0.0],[111.72721,-8.28677,0.0],[111.7274,-8.28817,0.0],[111.72613,-8.28674,0.0],[111.72058,-8.28782,0.0],[111.71288,-8.29088,0.0],[111.70922,-8.29583,0.0]]],[[[111.7485,-8.38806,0.0],[111.74879,-8.38813,0.0],[111.74842,-8.38828,0.0],[111.7485,-8.38806,0.0]]],[[[111.71466,-8.37371,0.0],[111.71374,-8.37289,0.0],[111.71397,-8.37239,0.0],[111.71466,-8.37371,0.0]]],[[[111.725,-8.36996,0.0],[111.72664,-8.37083,0.0],[111.72544,-8.37143,0.0],[111.725,-8.36996,0.0]]],[[[111.7477,-8.34534,0.0],[111.74898,-8.34377,0.0],[111.74895,-8.3445,0.0],[111.7477,-8.34534,0.0]]],[[[111.75349,-8.34012,0.0],[111.75366,-8.34007,0.0],[111.75357,-8.34017,0.0],[111.75349,-8.34012,0.0]]],[[[111.7582,-8.33766,0.0],[111.75861,-8.33733,0.0],[111.75855,-8.33777,0.0],[111.7582,-8.33766,0.0]]],[[[111.73839,-8.32359,0.0],[111.73839,-8.32289,0.0],[111.73862,-8.32353,0.0],[111.73839,-8.32359,0.0]]],[[[111.74373,-8.30818,0.0],[111.74408,-8.30845,0.0],[111.74404,-8.30873,0.0],[111.74373,-8.30818,0.0]]],[[[111.73211,-8.29724,0.0],[111.73173,-8.29899,0.0],[111.73115,-8.29925,0.0],[111.73103,-8.29785,0.0],[111.73211,-8.29724,0.0]]]]}},{"type":"Feature","properties":{"kecamatan":"Bendungan","kab_kota":"Trenggalek"},"geometry":{"type":"Polygon","coordinates":[[[111.69546,-8.01315,0.0],[111.67954,-8.01792,0.0],[111.67926,-8.0134,0.0],[111.68119,-8.00845,0.0],[111.67719,-8.00487,0.0],[111.67594,-7.9937,0.0],[111.68371,-7.98453,0.0],[111.68215,-7.97741,0.0],[111.67649,-7.97659,0.0],[111.6776,-7.97191,0.0],[111.6726,-7.97133,0.0],[111.67365,-7.96947,0.0],[111.67116,-7.96756,0.0],[111.66584,-7.96878,0.0],[111.66236,-7.97202,0.0],[111.66163,-7.97129,0.0],[111.66343,-7.96758,0.0],[111.65902,-7.96777,0.0],[111.65237,-7.96389,0.0],[111.64837,-7.96037,0.0],[111.64713,-7.9538,0.0],[111.65557,-7.94075,0.0],[111.65928,-7.94514,0.0],[111.6634,-7.94326,0.0],[111.66783,-7.94459,0.0],[111.67768,-7.94036,0.0],[111.6813,-7.93663,0.0],[111.68851,-7.93273,0.0],[111.69306,-7.92652,0.0],[111.69236,-7.92159,0.0],[111.69426,-7.91813,0.0],[111.70121,-7.91543,0.0],[111.70671,-7.90646,0.0],[111.70675,-7.9043,0.0],[111.70545,-7.90422,0.0],[111.70497,-7.90201,0.0],[111.69914,-7.89959,0.0],[111.70125,-7.89622,0.0],[111.707,-7.8974,0.0],[111.70985,-7.89473,0.0],[111.71327,-7.89549,0.0],[111.72096,-7.8923,0.0],[111.72183,-7.89068,0.0],[111.7266,-7.8904,0.0],[111.72946,-7.8867,0.0],[111.7305,-7.88831,0.0],[111.73511,-7.88615,0.0],[111.73451,-7.88494,0.0],[111.7372,-7.88291,0.0],[111.73704,-7.88108,0.0],[111.74094,-7.87916,0.0],[111.74818,-7.88001,0.0],[111.75298,-7.88456,0.0],[111.75218,-7.88772,0.0],[111.75356,-7.89364,0.0],[111.75159,-7.89628,0.0],[111.75227,-7.89752,0.0],[111.75374,-7.89678,0.0],[111.75497,-7.89764,0.0],[111.75341,-7.89999,0.0],[111.75436,-7.90266,0.0],[111.75289,-7.90347,0.0],[111.75601,-7.90903,0.0],[111.75428,-7.90993,0.0],[111.75613,-7.91238,0.0],[111.75492,-7.91439,0.0],[111.75913,-7.91793,0.0],[111.75943,-7.9225,0.0],[111.76123,-7.9229,0.0],[111.75296,-7.92901,0.0],[111.74899,-7.92814,0.0],[111.74404,-7.93245,0.0],[111.74574,-7.93605,0.0],[111.74489,-7.9393,0.0],[111.74644,-7.94214,0.0],[111.74483,-7.9467,0.0],[111.7457,-7.94746,0.0],[111.74437,-7.9483,0.0],[111.7436,-7.95389,0.0],[111.73811,-7.95845,0.0],[111.74062,-7.96696,0.0],[111.74353,-7.97194,0.0],[111.7441,-7.98401,0.0],[111.73977,-7.98898,0.0],[111.74039,-7.99261,0.0],[111.73876,-7.994,0.0],[111.7402,-7.99663,0.0],[111.73831,-7.99839,0.0],[111.7327,-7.99904,0.0],[111.72981,-7.99166,0.0],[111.72749,-7.98946,0.0],[111.71988,-7.98482,0.0],[111.71668,-7.98536,0.0],[111.71541,-7.98615,0.0],[111.71211,-7.9961,0.0],[111.71053,-8.00493,0.0],[111.70745,-8.00952,0.0],[111.70073,-8.0119,0.0],[111.69558,-8.01065,0.0],[111.69546,-8.01315,0.0]]]}},{"type":"Feature","properties":{"kecamatan":"Durenan","kab_kota":"Trenggalek"},"geometry":{"type":"Polygon","coordinates":[[[111.8106,-8.13611,0.0],[111.79281,-8.13752,0.0],[111.79241,-8.13899,0.0],[111.77446,-8.13859,0.0],[111.77519,-8.13418,0.0],[111.7819,-8.13274,0.0],[111.7819,-8.12952,0.0],[111.77968,-8.12696,0.0],[111.78213,-8.12592,0.0],[111.78198,-8.11916,0.0],[111.78112,-8.11891,0.0],[111.7849,-8.1113,0.0],[111.78179,-8.1104,0.0],[111.78305,-8.10503,0.0],[111.77952,-8.10104,0.0],[111.77866,-8.09658,0.0],[111.77605,-8.09379,0.0],[111.77626,-8.08932,0.0],[111.77352,-8.08285,0.0],[111.77361,-8.0729,0.0],[111.77555,-8.06875,0.0],[111.77366,-8.06511,0.0],[111.77448,-8.06226,0.0],[111.77308,-8.05731,0.0],[111.77022,-8.05505,0.0],[111.76862,-8.04947,0.0],[111.7696,-8.04219,0.0],[111.77362,-8.03702,0.0],[111.78022,-8.03923,0.0],[111.78377,-8.0458,0.0],[111.78658,-8.04736,0.0],[111.78799,-8.05137,0.0],[111.78967,-8.05237,0.0],[111.79139,-8.05939,0.0],[111.7943,-8.06168,0.0],[111.79642,-8.06149,0.0],[111.79595,-8.06363,0.0],[111.79761,-8.06732,0.0],[111.79975,-8.06775,0.0],[111.8096,-8.07569,0.0],[111.80943,-8.07862,0.0],[111.81315,-8.08765,0.0],[111.81857,-8.08956,0.0],[111.82087,-8.08867,0.0],[111.82488,-8.08949,0.0],[111.82493,-8.09176,0.0],[111.83565,-8.09469,0.0],[111.83719,-8.09122,0.0],[111.83834,-8.0916,0.0],[111.83911,-8.0935,0.0],[111.84391,-8.09635,0.0],[111.8426,-8.10385,0.0],[111.84693,-8.10642,0.0],[111.84657,-8.11063,0.0],[111.84425,-8.11007,0.0],[111.8444,-8.11174,0.0],[111.84245,-8.11177,0.0],[111.84071,-8.11955,0.0],[111.83674,-8.12446,0.0],[111.83188,-8.12755,0.0],[111.83144,-8.12946,0.0],[111.82453,-8.13215,0.0],[111.82228,-8.1347,0.0],[111.8165,-8.13536,0.0],[111.81606,-8.13663,0.0],[111.8106,-8.13611,0.0]]]}},{"type":"Feature","properties":{"kecamatan":"Suruh","kab_kota":"Trenggalek"},"geometry":{"type":"Polygon","coordinates":[[[111.62629,-8.13661,0.0],[111.61698,-8.14301,0.0],[111.6161,-8.14695,0.0],[111.60704,-8.15328,0.0],[111.5992,-8.15302,0.0],[111.59462,-8.15432,0.0],[111.58732,-8.14369,0.0],[111.58316,-8.1407,0.0],[111.57891,-8.14141,0.0],[111.57689,-8.13622,0.0],[111.57589,-8.13663,0.0],[111.57484,-8.13523,0.0],[111.57541,-8.13312,0.0],[111.57976,-8.13116,0.0],[111.5822,-8.12849,0.0],[111.58402,-8.12962,0.0],[111.5852,-8.12899,0.0],[111.58776,-8.12474,0.0],[111.5858,-8.12119,0.0],[111.58413,-8.1104,0.0],[111.58561,-8.10639,0.0],[111.5855,-8.1012,0.0],[111.58803,-8.09866,0.0],[111.59135,-8.09934,0.0],[111.59591,-8.09517,0.0],[111.59652,-8.08783,0.0],[111.59382,-8.08341,0.0],[111.59344,-8.07618,0.0],[111.59622,-8.07255,0.0],[111.59585,-8.06943,0.0],[111.59981,-8.0655,0.0],[111.60154,-8.06856,0.0],[111.60662,-8.07142,0.0],[111.6086,-8.07075,0.0],[111.61018,-8.07336,0.0],[111.6142,-8.07309,0.0],[111.62487,-8.07822,0.0],[111.62585,-8.08169,0.0],[111.62845,-8.08465,0.0],[111.629,-8.08968,0.0],[111.63828,-8.09229,0.0],[111.63942,-8.09527,0.0],[111.64268,-8.09476,0.0],[111.64596,-8.09754,0.0],[111.64499,-8.0988,0.0],[111.64049,-8.09924,0.0],[111.64444,-8.10258,0.0],[111.6412,-8.10308,0.0],[111.64314,-8.10976,0.0],[111.65401,-8.11061,0.0],[111.66262,-8.10549,0.0],[111.66811,-8.10424,0.0],[111.66856,-8.11264,0.0],[111.67189,-8.11356,0.0],[111.67414,-8.11625,0.0],[111.67213,-8.11856,0.0],[111.67523,-8.12362,0.0],[111.67181,-8.12645,0.0],[111.67069,-8.12979,0.0],[111.66831,-8.13036,0.0],[111.66576,-8.13363,0.0],[111.66262,-8.13394,0.0],[111.66211,-8.13677,0.0],[111.65986,-8.1392,0.0],[111.64827,-8.13482,0.0],[111.64725,-8.1377,0.0],[111.64098,-8.13802,0.0],[111.63849,-8.13555,0.0],[111.63815,-8.13349,0.0],[111.63533,-8.13974,0.0],[111.63174,-8.13993,0.0],[111.62833,-8.14189,0.0],[111.62629,-8.13661,0.0]]]}},{"type":"Feature","properties":{"kecamatan":"Trenggalek","kab_kota":"Trenggalek"},"geometry":{"type":"Polygon","coordinates":[[[111.72301,-8.07578,0.0],[111.72334,-8.08601,0.0],[111.72217,-8.08959,0.0],[111.72061,-8.09054,0.0],[111.72195,-8.09088,0.0],[111.72351,-8.09467,0.0],[111.71976,-8.09711,0.0],[111.71165,-8.09776,0.0],[111.70841,-8.0979,0.0],[111.70229,-8.08791,0.0],[111.6978,-8.08591,0.0],[111.69854,-8.07627,0.0],[111.69684,-8.07417,0.0],[111.6931,-8.07384,0.0],[111.69502,-8.07014,0.0],[111.69793,-8.0688,0.0],[111.6979,-8.06534,0.0],[111.69902,-8.06443,0.0],[111.6945,-8.06475,0.0],[111.6939,-8.06364,0.0],[111.69301,-8.0653,0.0],[111.69051,-8.0645,0.0],[111.69022,-8.06616,0.0],[111.68745,-8.06539,0.0],[111.69073,-8.06265,0.0],[111.69037,-8.06062,0.0],[111.68844,-8.05972,0.0],[111.68872,-8.05705,0.0],[111.69153,-8.05683,0.0],[111.69282,-8.05078,0.0],[111.69706,-8.04659,0.0],[111.69184,-8.03895,0.0],[111.69216,-8.03388,0.0],[111.69092,-8.02942,0.0],[111.67954,-8.01792,0.0],[111.69517,-8.01389,0.0],[111.69558,-8.01065,0.0],[111.70073,-8.0119,0.0],[111.70745,-8.00952,0.0],[111.71053,-8.00493,0.0],[111.71211,-7.9961,0.0],[111.71541,-7.98615,0.0],[111.71668,-7.98536,0.0],[111.71988,-7.98482,0.0],[111.72749,-7.98946,0.0],[111.72981,-7.99166,0.0],[111.7327,-7.99904,0.0],[111.73831,-7.99839,0.0],[111.7402,-7.99663,0.0],[111.73876,-7.994,0.0],[111.74039,-7.99261,0.0],[111.73977,-7.98898,0.0],[111.7441,-7.98401,0.0],[111.7434,-7.9706,0.0],[111.74837,-7.96966,0.0],[111.75259,-7.97466,0.0],[111.75345,-7.97933,0.0],[111.75912,-7.98367,0.0],[111.76054,-7.98794,0.0],[111.76037,-7.99284,0.0],[111.75684,-7.99602,0.0],[111.75451,-8.00271,0.0],[111.75629,-8.02549,0.0],[111.75461,-8.03119,0.0],[111.75179,-8.03351,0.0],[111.7523,-8.03869,0.0],[111.74707,-8.04046,0.0],[111.74526,-8.04308,0.0],[111.74165,-8.04238,0.0],[111.74114,-8.04691,0.0],[111.73757,-8.0466,0.0],[111.73715,-8.05646,0.0],[111.73461,-8.05651,0.0],[111.73357,-8.06042,0.0],[111.7285,-8.06107,0.0],[111.72869,-8.06856,0.0],[111.72641,-8.06986,0.0],[111.72492,-8.07571,0.0],[111.72301,-8.07578,0.0]]]}},{"type":"Feature","properties":{"kecamatan":"Pogalan","kab_kota":"Trenggalek"},"geometry":{"type":"Polygon","coordinates":[[[111.77968,-8.12696,0.0],[111.7819,-8.12952,0.0],[111.7819,-8.13274,0.0],[111.77519,-8.13418,0.0],[111.77446,-8.13859,0.0],[111.75656,-8.14062,0.0],[111.75178,-8.14267,0.0],[111.74596,-8.139,0.0],[111.74807,-8.13357,0.0],[111.75092,-8.13211,0.0],[111.76396,-8.13238,0.0],[111.76453,-8.12962,0.0],[111.76554,-8.12983,0.0],[111.76718,-8.11792,0.0],[111.77061,-8.11756,0.0],[111.77053,-8.1151,0.0],[111.76532,-8.1108,0.0],[111.75962,-8.11035,0.0],[111.75918,-8.10878,0.0],[111.75263,-8.10731,0.0],[111.74986,-8.1052,0.0],[111.74928,-8.10103,0.0],[111.74605,-8.10087,0.0],[111.74399,-8.09679,0.0],[111.73994,-8.10246,0.0],[111.73615,-8.11132,0.0],[111.73113,-8.1104,0.0],[111.73127,-8.1086,0.0],[111.73357,-8.10732,0.0],[111.73299,-8.10626,0.0],[111.72817,-8.10624,0.0],[111.72469,-8.10859,0.0],[111.71877,-8.10991,0.0],[111.71835,-8.10633,0.0],[111.70841,-8.0979,0.0],[111.71976,-8.09711,0.0],[111.72351,-8.09467,0.0],[111.72195,-8.09088,0.0],[111.72061,-8.09054,0.0],[111.72217,-8.08959,0.0],[111.72348,-8.08535,0.0],[111.72234,-8.08411,0.0],[111.72301,-8.07578,0.0],[111.72492,-8.07571,0.0],[111.72641,-8.06986,0.0],[111.72869,-8.06856,0.0],[111.7285,-8.06107,0.0],[111.73357,-8.06042,0.0],[111.73461,-8.05651,0.0],[111.73715,-8.05646,0.0],[111.73757,-8.0466,0.0],[111.74114,-8.04691,0.0],[111.74165,-8.04238,0.0],[111.74526,-8.04308,0.0],[111.74707,-8.04046,0.0],[111.7519,-8.0391,0.0],[111.75179,-8.03351,0.0],[111.75461,-8.03119,0.0],[111.75884,-8.03186,0.0],[111.76865,-8.03731,0.0],[111.77362,-8.03702,0.0],[111.7696,-8.04219,0.0],[111.76862,-8.04947,0.0],[111.77022,-8.05505,0.0],[111.77308,-8.05731,0.0],[111.77448,-8.06226,0.0],[111.77366,-8.06511,0.0],[111.77555,-8.06875,0.0],[111.77361,-8.0729,0.0],[111.77352,-8.08285,0.0],[111.77626,-8.08932,0.0],[111.77574,-8.09303,0.0],[111.77866,-8.09658,0.0],[111.77952,-8.10104,0.0],[111.78305,-8.10503,0.0],[111.78179,-8.1104,0.0],[111.78484,-8.11086,0.0],[111.78112,-8.11891,0.0],[111.78239,-8.12244,0.0],[111.78213,-8.12592,0.0],[111.77968,-8.12696,0.0]]]}},{"type":"Feature","properties":{"kecamatan":"Gandusari","kab_kota":"Trenggalek"},"geometry":{"type":"Polygon","coordinates":[[[111.71026,-8.16124,0.0],[111.70523,-8.17559,0.0],[111.70004,-8.17727,0.0],[111.69677,-8.18118,0.0],[111.69332,-8.17732,0.0],[111.69395,-8.17486,0.0],[111.69158,-8.17148,0.0],[111.68682,-8.17066,0.0],[111.68738,-8.16784,0.0],[111.68364,-8.16593,0.0],[111.68442,-8.16336,0.0],[111.68195,-8.16338,0.0],[111.6817,-8.16176,0.0],[111.67884,-8.15999,0.0],[111.67414,-8.16207,0.0],[111.66649,-8.15952,0.0],[111.66895,-8.15184,0.0],[111.66819,-8.14574,0.0],[111.67105,-8.14442,0.0],[111.66905,-8.14013,0.0],[111.66372,-8.13824,0.0],[111.66262,-8.13394,0.0],[111.66576,-8.13363,0.0],[111.66831,-8.13036,0.0],[111.67069,-8.12979,0.0],[111.67378,-8.12404,0.0],[111.68079,-8.12182,0.0],[111.68629,-8.11445,0.0],[111.68781,-8.11047,0.0],[111.70153,-8.10173,0.0],[111.70465,-8.10125,0.0],[111.70841,-8.0979,0.0],[111.71835,-8.10633,0.0],[111.71877,-8.10991,0.0],[111.72469,-8.10859,0.0],[111.72817,-8.10624,0.0],[111.73299,-8.10626,0.0],[111.73357,-8.10732,0.0],[111.73127,-8.1086,0.0],[111.73113,-8.1104,0.0],[111.73615,-8.11132,0.0],[111.73994,-8.10246,0.0],[111.74399,-8.09679,0.0],[111.74605,-8.10087,0.0],[111.74928,-8.10103,0.0],[111.74986,-8.1052,0.0],[111.75263,-8.10731,0.0],[111.75918,-8.10878,0.0],[111.75962,-8.11035,0.0],[111.76532,-8.1108,0.0],[111.77053,-8.1151,0.0],[111.77061,-8.11756,0.0],[111.76718,-8.11792,0.0],[111.76554,-8.12983,0.0],[111.76453,-8.12962,0.0],[111.76396,-8.13238,0.0],[111.75092,-8.13211,0.0],[111.74807,-8.13357,0.0],[111.74608,-8.13902,0.0],[111.74235,-8.13869,0.0],[111.7362,-8.14273,0.0],[111.73361,-8.14221,0.0],[111.72963,-8.15041,0.0],[111.72229,-8.15128,0.0],[111.72192,-8.14737,0.0],[111.71364,-8.14715,0.0],[111.71778,-8.1539,0.0],[111.71393,-8.15699,0.0],[111.70832,-8.15886,0.0],[111.71026,-8.16124,0.0]]]}}]}