{"type":"FeatureCollection","features":[{"type":"Feature","properties":{"kecamatan":"Giri","kab_kota":"Banyuwangi"},"geometry":{"type":"Polygon","coordinates":[[[114.35828,-8.21135,0.0],[114.36208,-8.21224,0.0],[114.3617,-8.21441,0.0],[114.35915,-8.21711,0.0],[114.35897,-8.22028,0.0],[114.35347,-8.21934,0.0],[114.358,-8.22125,0.0],[114.35648,-8.22524,0.0],[114.35494,-8.22562,0.0],[114.35108,-8.22312,0.0],[114.35165,-8.21826,0.0],[114.34919,-8.21513,0.0],[114.35086,-8.21356,0.0],[114.34798,-8.21308,0.0],[114.34953,-8.20932,0.0],[114.3446,-8.20902,0.0],[114.34407,-8.21001,0.0],[114.3464,-8.21097,0.0],[114.34594,-8.21175,0.0],[114.33956,-8.21064,0.0],[114.33912,-8.21153,0.0],[114.33509,-8.20785,0.0],[114.3282,-8.20541,0.0],[114.32699,-8.2023,0.0],[114.32427,-8.20157,0.0],[114.32343,-8.19975,0.0],[114.31896,-8.19885,0.0],[114.31389,-8.19567,0.0],[114.31389,-8.19455,0.0],[114.30881,-8.19482,0.0],[114.30933,-8.19297,0.0],[114.30794,-8.18926,0.0],[114.309,-8.18747,0.0],[114.30645,-8.18343,0.0],[114.30818,-8.17753,0.0],[114.30456,-8.17601,0.0],[114.30282,-8.17667,0.0],[114.30043,-8.17368,0.0],[114.29554,-8.17205,0.0],[114.29342,-8.16968,0.0],[114.29359,-8.16737,0.0],[114.29094,-8.1647,0.0],[114.29158,-8.16368,0.0],[114.29514,-8.15944,0.0],[114.29743,-8.16037,0.0],[114.29912,-8.1631,0.0],[114.30159,-8.16354,0.0],[114.30375,-8.16934,0.0],[114.30604,-8.16903,0.0],[114.31065,-8.17299,0.0],[114.31366,-8.17281,0.0],[114.32362,-8.17916,0.0],[114.32401,-8.17805,0.0],[114.32617,-8.17872,0.0],[114.33006,-8.17472,0.0],[114.34644,-8.18145,0.0],[114.34693,-8.17929,0.0],[114.3564,-8.18224,0.0],[114.35986,-8.18578,0.0],[114.36011,-8.18909,0.0],[114.35802,-8.19391,0.0],[114.36105,-8.19428,0.0],[114.36041,-8.19612,0.0],[114.36233,-8.19659,0.0],[114.36158,-8.2018,0.0],[114.3634,-8.20425,0.0],[114.36133,-8.20527,0.0],[114.36115,-8.20679,0.0],[114.36483,-8.20795,0.0],[114.36435,-8.20945,0.0],[114.35982,-8.2083,0.0],[114.35828,-8.21135,0.0]]]}},{"type":"Feature","properties":{"kecamatan":"Wongsorejo","kab_kota":"Banyuwangi"},"geometry":{"type":"MultiPolygon","coordinates":[[[[114.42935,-8.0476,0.0],[114.43128,-8.05546,0.0],[114.43014,-8.06487,0.0],[114.4288,-8.06782,0.0],[114.42638,-8.06895,0.0],[114.41802,-8.07951,0.0],[114.41572,-8.09185,0.0],[114.41352,-8.08958,0.0],[114.41265,-8.08476,0.0],[114.41496,-8.07754,0.0],[114.41442,-8.07542,0.0],[114.40205,-8.06829,0.0],[114.39212,-8.06688,0.0],[114.38101,-8.06747,0.0],[114.37641,-8.06222,0.0],[114.36654,-8.06699,0.0],[114.36203,-8.06707,0.0],[114.34622,-8.06134,0.0],[114.34024,-8.06235,0.0],[114.32894,-8.06034,0.0],[114.32104,-8.06328,0.0],[114.31566,-8.06261,0.0],[114.31387,-8.06086,0.0],[114.31143,-8.06146,0.0],[114.30848,-8.05884,0.0],[114.30604,-8.05963,0.0],[114.29682,-8.05758,0.0],[114.2778,-8.05957,0.0],[114.26926,-8.05913,0.0],[114.26596,-8.0598,0.0],[114.26312,-8.06258,0.0],[114.26006,-8.05887,0.0],[114.25494,-8.05857,0.0],[114.24689,-8.05327,0.0],[114.24647,-8.04946,0.0],[114.24863,-8.04612,0.0],[114.24852,-8.04406,0.0],[114.23767,-8.03528,0.0],[114.23579,-8.03109,0.0],[114.23634,-8.02497,0.0],[114.2384,-8.01726,0.0],[114.24071,-8.01344,0.0],[114.23881,-8.01391,0.0],[114.23774,-8.01241,0.0],[114.23826,-8.00615,0.0],[114.23257,-7.99696,0.0],[114.22439,-7.98976,0.0],[114.22508,-7.98295,0.0],[114.22839,-7.97944,0.0],[114.23042,-7.97258,0.0],[114.23288,-7.9704,0.0],[114.23708,-7.96203,0.0],[114.24055,-7.96023,0.0],[114.24214,-7.95757,0.0],[114.24612,-7.95025,0.0],[114.24969,-7.93936,0.0],[114.25404,-7.93409,0.0],[114.25903,-7.93123,0.0],[114.26355,-7.92577,0.0],[114.27132,-7.91959,0.0],[114.27131,-7.91491,0.0],[114.27615,-7.91266,0.0],[114.27843,-7.90945,0.0],[114.27826,-7.90663,0.0],[114.28277,-7.90084,0.0],[114.28313,-7.89724,0.0],[114.28841,-7.89417,0.0],[114.29314,-7.88892,0.0],[114.29598,-7.88852,0.0],[114.29913,-7.88575,0.0],[114.30653,-7.88519,0.0],[114.31161,-7.88863,0.0],[114.3111,-7.88984,0.0],[114.31405,-7.89111,0.0],[114.31769,-7.89514,0.0],[114.32337,-7.89707,0.0],[114.32359,-7.89909,0.0],[114.33002,-7.90178,0.0],[114.33284,-7.90692,0.0],[114.33953,-7.90759,0.0],[114.34055,-7.90592,0.0],[114.34427,-7.90888,0.0],[114.34438,-7.91142,0.0],[114.348,-7.91083,0.0],[114.35158,-7.91365,0.0],[114.35743,-7.91284,0.0],[114.36176,-7.91448,0.0],[114.36529,-7.91821,0.0],[114.37265,-7.91866,0.0],[114.37336,-7.92029,0.0],[114.37848,-7.92097,0.0],[114.38095,-7.92314,0.0],[114.39028,-7.92692,0.0],[114.39653,-7.9268,0.0],[114.39883,-7.9285,0.0],[114.40099,-7.93275,0.0],[114.40648,-7.93732,0.0],[114.4113,-7.93847,0.0],[114.41289,-7.94014,0.0],[114.41418,-7.93951,0.0],[114.41362,-7.93726,0.0],[114.41448,-7.93808,0.0],[114.41975,-7.93441,0.0],[114.42403,-7.93549,0.0],[114.42269,-7.9611,0.0],[114.42515,-7.9704,0.0],[114.42568,-7.98374,0.0],[114.42962,-7.99024,0.0],[114.43013,-7.99637,0.0],[114.42581,-8.01474,0.0],[114.42733,-8.01743,0.0],[114.42701,-8.02016,0.0],[114.4312,-8.02503,0.0],[114.43411,-8.03102,0.0],[114.43378,-8.03615,0.0],[114.43113,-8.03949,0.0],[114.42935,-8.0476,0.0]]],[[[114.46144,-8.03784,0.0],[114.46024,-8.03631,0.0],[114.46252,-8.03697,0.0],[114.46144,-8.03784,0.0]]]]}},{"type":"Feature","properties":{"kecamatan":"Glagah","kab_kota":"Banyuwangi"},"geometry":{"type":"Polygon","coordinates":[[[114.34384,-8.22968,0.0],[114.33727,-8.2294,0.0],[114.33358,-8.23758,0.0],[114.32436,-8.23364,0.0],[114.32339,-8.23098,0.0],[114.32057,-8.23004,0.0],[114.31747,-8.22681,0.0],[114.31126,-8.2373,0.0],[114.30726,-8.24108,0.0],[114.30366,-8.2392,0.0],[114.30284,-8.24043,0.0],[114.30114,-8.23983,0.0],[114.29477,-8.23465,0.0],[114.29602,-8.23227,0.0],[114.29485,-8.23134,0.0],[114.29658,-8.23012,0.0],[114.29578,-8.22466,0.0],[114.29116,-8.22163,0.0],[114.29128,-8.21814,0.0],[114.28895,-8.21524,0.0],[114.28291,-8.2113,0.0],[114.27948,-8.20587,0.0],[114.27976,-8.20392,0.0],[114.27685,-8.19687,0.0],[114.28313,-8.19105,0.0],[114.28098,-8.18869,0.0],[114.27876,-8.18865,0.0],[114.27978,-8.18636,0.0],[114.27777,-8.18583,0.0],[114.27229,-8.1804,0.0],[114.27062,-8.18074,0.0],[114.26663,-8.17272,0.0],[114.26529,-8.16484,0.0],[114.25777,-8.15637,0.0],[114.26944,-8.14699,0.0],[114.26658,-8.1397,0.0],[114.26364,-8.13746,0.0],[114.26305,-8.13604,0.0],[114.26444,-8.13714,0.0],[114.2657,-8.13591,0.0],[114.26567,-8.13137,0.0],[114.26764,-8.12716,0.0],[114.27581,-8.13138,0.0],[114.281,-8.13619,0.0],[114.28595,-8.13879,0.0],[114.28645,-8.14289,0.0],[114.28025,-8.15014,0.0],[114.28196,-8.15386,0.0],[114.28567,-8.15757,0.0],[114.29134,-8.16122,0.0],[114.29234,-8.16279,0.0],[114.29094,-8.1647,0.0],[114.29359,-8.16737,0.0],[114.29342,-8.16968,0.0],[114.29554,-8.17205,0.0],[114.30043,-8.17368,0.0],[114.30282,-8.17667,0.0],[114.30456,-8.17601,0.0],[114.30814,-8.17747,0.0],[114.30645,-8.18343,0.0],[114.309,-8.18747,0.0],[114.30794,-8.18926,0.0],[114.30933,-8.19297,0.0],[114.30881,-8.19482,0.0],[114.31389,-8.19455,0.0],[114.31389,-8.19567,0.0],[114.31896,-8.19885,0.0],[114.32343,-8.19975,0.0],[114.32427,-8.20157,0.0],[114.32699,-8.2023,0.0],[114.3282,-8.20541,0.0],[114.33509,-8.20785,0.0],[114.33912,-8.21153,0.0],[114.33956,-8.21064,0.0],[114.34594,-8.21175,0.0],[114.3464,-8.21097,0.0],[114.34407,-8.21001,0.0],[114.3446,-8.20902,0.0],[114.34953,-8.20932,0.0],[114.34798,-8.21308,0.0],[114.35086,-8.21356,0.0],[114.34919,-8.21513,0.0],[114.35165,-8.21826,0.0],[114.35108,-8.22312,0.0],[114.3524,-8.22375,0.0],[114.34951,-8.22749,0.0],[114.3474,-8.2261,0.0],[114.34676,-8.23119,0.0],[114.34384,-8.22968,0.0]]]}},{"type":"Feature","properties":{"kecamatan":"Banyuwangi","kab_kota":"Banyuwangi"},"geometry":{"type":"MultiPolygon","coordinates":[[[[114.39042,-8.23302,0.0],[114.37265,-8.26469,0.0],[114.36992,-8.26524,0.0],[114.36891,-8.26477,0.0],[114.36933,-8.26297,0.0],[114.3658,-8.26169,0.0],[114.36672,-8.26012,0.0],[114.35972,-8.25676,0.0],[114.36009,-8.25564,0.0],[114.35723,-8.25283,0.0],[114.3581,-8.24921,0.0],[114.35334,-8.24399,0.0],[114.3526,-8.24351,0.0],[114.34962,-8.24657,0.0],[114.34671,-8.24665,0.0],[114.33785,-8.24264,0.0],[114.33571,-8.24064,0.0],[114.33689,-8.2385,0.0],[114.33358,-8.23758,0.0],[114.33727,-8.2294,0.0],[114.34136,-8.22885,0.0],[114.34676,-8.23119,0.0],[114.3474,-8.2261,0.0],[114.34951,-8.22749,0.0],[114.35226,-8.22373,0.0],[114.35494,-8.22562,0.0],[114.35648,-8.22524,0.0],[114.358,-8.22125,0.0],[114.35347,-8.21934,0.0],[114.35897,-8.22028,0.0],[114.35915,-8.21711,0.0],[114.36128,-8.21568,0.0],[114.36207,-8.21238,0.0],[114.35799,-8.21139,0.0],[114.35804,-8.21021,0.0],[114.35982,-8.2083,0.0],[114.36447,-8.20934,0.0],[114.36483,-8.20795,0.0],[114.36115,-8.20679,0.0],[114.3616,-8.20501,0.0],[114.36313,-8.20504,0.0],[114.36342,-8.20294,0.0],[114.36158,-8.2018,0.0],[114.36233,-8.19659,0.0],[114.36041,-8.19612,0.0],[114.36105,-8.19428,0.0],[114.35802,-8.19391,0.0],[114.36011,-8.18909,0.0],[114.35986,-8.18574,0.0],[114.35772,-8.18423,0.0],[114.36019,-8.18553,0.0],[114.36168,-8.18899,0.0],[114.36947,-8.19254,0.0],[114.3831,-8.1951,0.0],[114.38197,-8.19904,0.0],[114.3843,-8.19859,0.0],[114.38435,-8.19883,0.0],[114.38192,-8.19941,0.0],[114.38018,-8.20414,0.0],[114.38029,-8.20875,0.0],[114.38162,-8.20847,0.0],[114.38202,-8.21031,0.0],[114.38341,-8.21014,0.0],[114.38335,-8.20638,0.0],[114.38549,-8.20213,0.0],[114.38659,-8.20605,0.0],[114.38478,-8.20725,0.0],[114.38572,-8.21677,0.0],[114.38959,-8.22549,0.0],[114.39042,-8.23302,0.0]]],[[[114.38212,-8.20821,0.0],[114.38063,-8.20399,0.0],[114.38135,-8.20102,0.0],[114.38231,-8.19969,0.0],[114.38288,-8.20194,0.0],[114.38411,-8.20217,0.0],[114.3832,-8.20256,0.0],[114.38173,-8.201,0.0],[114.38206,-8.20321,0.0],[114.38388,-8.20327,0.0],[114.38212,-8.20821,0.0]]]]}},{"type":"Feature","properties":{"kecamatan":"Songgon","kab_kota":"Banyuwangi"},"geometry":{"type":"Polygon","coordinates":[[[114.23151,-8.27068,0.0],[114.23041,-8.27352,0.0],[114.2317,-8.2746,0.0],[114.23272,-8.28111,0.0],[114.22877,-8.28735,0.0],[114.23116,-8.29096,0.0],[114.22847,-8.29382,0.0],[114.22243,-8.29221,0.0],[114.22168,-8.29369,0.0],[114.21312,-8.28753,0.0],[114.20979,-8.27943,0.0],[114.20446,-8.27358,0.0],[114.20119,-8.26676,0.0],[114.20195,-8.26528,0.0],[114.19877,-8.26253,0.0],[114.19473,-8.25227,0.0],[114.19129,-8.25425,0.0],[114.18834,-8.2533,0.0],[114.18786,-8.252,0.0],[114.18652,-8.25234,0.0],[114.1869,-8.25426,0.0],[114.18559,-8.25465,0.0],[114.18337,-8.25113,0.0],[114.17977,-8.24976,0.0],[114.17775,-8.25346,0.0],[114.17872,-8.26034,0.0],[114.17808,-8.25958,0.0],[114.17458,-8.26092,0.0],[114.17145,-8.25649,0.0],[114.17068,-8.2524,0.0],[114.17167,-8.24914,0.0],[114.16966,-8.24725,0.0],[114.16858,-8.24112,0.0],[114.16365,-8.23152,0.0],[114.15731,-8.22128,0.0],[114.15525,-8.22197,0.0],[114.15273,-8.21938,0.0],[114.13615,-8.23029,0.0],[114.1367,-8.23148,0.0],[114.13228,-8.23436,0.0],[114.13284,-8.23878,0.0],[114.1295,-8.24008,0.0],[114.12639,-8.24328,0.0],[114.12384,-8.22907,0.0],[114.11949,-8.22257,0.0],[114.11281,-8.21713,0.0],[114.11181,-8.21208,0.0],[114.10923,-8.21065,0.0],[114.10592,-8.20287,0.0],[114.10663,-8.20099,0.0],[114.10452,-8.19345,0.0],[114.09859,-8.18379,0.0],[114.09338,-8.17931,0.0],[114.08897,-8.17862,0.0],[114.08728,-8.17601,0.0],[114.08397,-8.17485,0.0],[114.08312,-8.17138,0.0],[114.07919,-8.16677,0.0],[114.07528,-8.16432,0.0],[114.07061,-8.16335,0.0],[114.06758,-8.1594,0.0],[114.05671,-8.15097,0.0],[114.0435,-8.13414,0.0],[114.04333,-8.13096,0.0],[114.04576,-8.12624,0.0],[114.04678,-8.1252,0.0],[114.0485,-8.12702,0.0],[114.05555,-8.12798,0.0],[114.05992,-8.1227,0.0],[114.06407,-8.12189,0.0],[114.07857,-8.12681,0.0],[114.08137,-8.12555,0.0],[114.08389,-8.12089,0.0],[114.09174,-8.11615,0.0],[114.10932,-8.11298,0.0],[114.1135,-8.1149,0.0],[114.11658,-8.11438,0.0],[114.12885,-8.10969,0.0],[114.13525,-8.10291,0.0],[114.13855,-8.10334,0.0],[114.14548,-8.10111,0.0],[114.14963,-8.10221,0.0],[114.15328,-8.10542,0.0],[114.16139,-8.10552,0.0],[114.17033,-8.10815,0.0],[114.17274,-8.10734,0.0],[114.1755,-8.11191,0.0],[114.17416,-8.11388,0.0],[114.17623,-8.12004,0.0],[114.18356,-8.12095,0.0],[114.18246,-8.12563,0.0],[114.18796,-8.13354,0.0],[114.18912,-8.1409,0.0],[114.18729,-8.15237,0.0],[114.18792,-8.15561,0.0],[114.19192,-8.16071,0.0],[114.19206,-8.16462,0.0],[114.1952,-8.17004,0.0],[114.20198,-8.17369,0.0],[114.20328,-8.17627,0.0],[114.20228,-8.18198,0.0],[114.21239,-8.19615,0.0],[114.222,-8.20141,0.0],[114.22513,-8.20481,0.0],[114.22293,-8.20829,0.0],[114.22538,-8.21079,0.0],[114.227,-8.21591,0.0],[114.22512,-8.2194,0.0],[114.22546,-8.2276,0.0],[114.23643,-8.23459,0.0],[114.23794,-8.23417,0.0],[114.24133,-8.23733,0.0],[114.24313,-8.2373,0.0],[114.2452,-8.24046,0.0],[114.25348,-8.24159,0.0],[114.2614,-8.24933,0.0],[114.26337,-8.24902,0.0],[114.26643,-8.25275,0.0],[114.26652,-8.25539,0.0],[114.26922,-8.25485,0.0],[114.27032,-8.25681,0.0],[114.26501,-8.25591,0.0],[114.26423,-8.25911,0.0],[114.26088,-8.25999,0.0],[114.25464,-8.25632,0.0],[114.25192,-8.2528,0.0],[114.24934,-8.25525,0.0],[114.2479,-8.254,0.0],[114.24467,-8.25726,0.0],[114.24647,-8.26046,0.0],[114.25121,-8.26402,0.0],[114.24992,-8.26814,0.0],[114.25197,-8.269,0.0],[114.25128,-8.27104,0.0],[114.25361,-8.27326,0.0],[114.25207,-8.2778,0.0],[114.24949,-8.27886,0.0],[114.24963,-8.28022,0.0],[114.24686,-8.27863,0.0],[114.24772,-8.27972,0.0],[114.24681,-8.28048,0.0],[114.2428,-8.27716,0.0],[114.24083,-8.27805,0.0],[114.23383,-8.27041,0.0],[114.23151,-8.27068,0.0]]]}},{"type":"Feature","properties":{"kecamatan":"Sempu","kab_kota":"Banyuwangi"},"geometry":{"type":"Polygon","coordinates":[[[114.21506,-8.33365,0.0],[114.20735,-8.34062,0.0],[114.20816,-8.34164,0.0],[114.20715,-8.34309,0.0],[114.20345,-8.34376,0.0],[114.20274,-8.34545,0.0],[114.1983,-8.34408,0.0],[114.19863,-8.34767,0.0],[114.19674,-8.3477,0.0],[114.19559,-8.34946,0.0],[114.19342,-8.34874,0.0],[114.19208,-8.35042,0.0],[114.1934,-8.35267,0.0],[114.19077,-8.35223,0.0],[114.18959,-8.3502,0.0],[114.18683,-8.34905,0.0],[114.18253,-8.35163,0.0],[114.17688,-8.35163,0.0],[114.17459,-8.34854,0.0],[114.17467,-8.34667,0.0],[114.17384,-8.34708,0.0],[114.17115,-8.34417,0.0],[114.17198,-8.3398,0.0],[114.16741,-8.33678,0.0],[114.17022,-8.33413,0.0],[114.16359,-8.32904,0.0],[114.15833,-8.32717,0.0],[114.15473,-8.3378,0.0],[114.14903,-8.33831,0.0],[114.14902,-8.33694,0.0],[114.14404,-8.33778,0.0],[114.14489,-8.34274,0.0],[114.14377,-8.34279,0.0],[114.14057,-8.3305,0.0],[114.13867,-8.32803,0.0],[114.13615,-8.31969,0.0],[114.13382,-8.31615,0.0],[114.12595,-8.30998,0.0],[114.11906,-8.2963,0.0],[114.11583,-8.29457,0.0],[114.11377,-8.28837,0.0],[114.11009,-8.28295,0.0],[114.10727,-8.27346,0.0],[114.10118,-8.26506,0.0],[114.09257,-8.23988,0.0],[114.08941,-8.23868,0.0],[114.08573,-8.2338,0.0],[114.08332,-8.21823,0.0],[114.08986,-8.2169,0.0],[114.10832,-8.20875,0.0],[114.11181,-8.21208,0.0],[114.11291,-8.21729,0.0],[114.11949,-8.22257,0.0],[114.12384,-8.22907,0.0],[114.12694,-8.24362,0.0],[114.1295,-8.24008,0.0],[114.13284,-8.23878,0.0],[114.13228,-8.23436,0.0],[114.1367,-8.23148,0.0],[114.13615,-8.23029,0.0],[114.13838,-8.22853,0.0],[114.13923,-8.22895,0.0],[114.15273,-8.21938,0.0],[114.15525,-8.22197,0.0],[114.15731,-8.22128,0.0],[114.16858,-8.24112,0.0],[114.16966,-8.24725,0.0],[114.17167,-8.24914,0.0],[114.17068,-8.2524,0.0],[114.17136,-8.25621,0.0],[114.17458,-8.25999,0.0],[114.1754,-8.2638,0.0],[114.17906,-8.26687,0.0],[114.18289,-8.26715,0.0],[114.18892,-8.27594,0.0],[114.19231,-8.28562,0.0],[114.19772,-8.29107,0.0],[114.1981,-8.29347,0.0],[114.20191,-8.29841,0.0],[114.21033,-8.30074,0.0],[114.21165,-8.29973,0.0],[114.21805,-8.30736,0.0],[114.21648,-8.31068,0.0],[114.21184,-8.31483,0.0],[114.20949,-8.31976,0.0],[114.21128,-8.32328,0.0],[114.21467,-8.3247,0.0],[114.21566,-8.32371,0.0],[114.2163,-8.32499,0.0],[114.21599,-8.32765,0.0],[114.21738,-8.32966,0.0],[114.21451,-8.3321,0.0],[114.21506,-8.33365,0.0]]]}},{"type":"Feature","properties":{"kecamatan":"Kalipuro","kab_kota":"Banyuwangi"},"geometry":{"type":"Polygon","coordinates":[[[114.39587,-8.15974,0.0],[114.392,-8.17547,0.0],[114.38474,-8.18789,0.0],[114.38279,-8.1949,0.0],[114.36947,-8.19254,0.0],[114.36168,-8.18899,0.0],[114.36019,-8.18553,0.0],[114.3564,-8.18224,0.0],[114.34892,-8.1806,0.0],[114.34853,-8.17961,0.0],[114.34654,-8.17933,0.0],[114.34644,-8.18145,0.0],[114.33006,-8.17472,0.0],[114.32617,-8.17872,0.0],[114.32401,-8.17805,0.0],[114.32362,-8.17916,0.0],[114.31366,-8.17281,0.0],[114.31065,-8.17299,0.0],[114.30604,-8.16903,0.0],[114.30375,-8.16934,0.0],[114.30159,-8.16354,0.0],[114.29912,-8.1631,0.0],[114.29743,-8.16037,0.0],[114.29514,-8.15944,0.0],[114.29234,-8.16279,0.0],[114.28196,-8.15386,0.0],[114.28025,-8.15014,0.0],[114.28645,-8.14289,0.0],[114.28595,-8.13879,0.0],[114.26827,-8.12718,0.0],[114.26567,-8.13137,0.0],[114.2657,-8.13591,0.0],[114.26399,-8.137,0.0],[114.25579,-8.1248,0.0],[114.25078,-8.12004,0.0],[114.24964,-8.114,0.0],[114.24658,-8.1096,0.0],[114.2449,-8.10926,0.0],[114.24502,-8.08943,0.0],[114.25228,-8.0722,0.0],[114.2564,-8.06724,0.0],[114.26076,-8.06759,0.0],[114.26287,-8.06512,0.0],[114.26351,-8.06195,0.0],[114.26596,-8.0598,0.0],[114.29682,-8.05758,0.0],[114.30604,-8.05963,0.0],[114.30848,-8.05884,0.0],[114.31143,-8.06146,0.0],[114.31387,-8.06086,0.0],[114.31566,-8.06261,0.0],[114.32104,-8.06328,0.0],[114.32894,-8.06034,0.0],[114.34024,-8.06235,0.0],[114.34622,-8.06134,0.0],[114.36203,-8.06707,0.0],[114.36654,-8.06699,0.0],[114.37641,-8.06222,0.0],[114.38101,-8.06747,0.0],[114.39212,-8.06688,0.0],[114.40205,-8.06829,0.0],[114.41442,-8.07542,0.0],[114.41496,-8.07754,0.0],[114.41265,-8.08476,0.0],[114.41352,-8.08958,0.0],[114.41564,-8.09212,0.0],[114.40694,-8.1115,0.0],[114.40081,-8.11672,0.0],[114.39847,-8.12113,0.0],[114.39849,-8.1264,0.0],[114.40148,-8.13256,0.0],[114.40025,-8.14108,0.0],[114.40209,-8.14874,0.0],[114.39587,-8.15974,0.0]]]}},{"type":"Feature","properties":{"kecamatan":"Licin","kab_kota":"Banyuwangi"},"geometry":{"type":"Polygon","coordinates":[[[114.29124,-8.21808,0.0],[114.29187,-8.22257,0.0],[114.29578,-8.22466,0.0],[114.29658,-8.23012,0.0],[114.29485,-8.23134,0.0],[114.29602,-8.23227,0.0],[114.293,-8.23772,0.0],[114.28859,-8.23772,0.0],[114.28392,-8.24034,0.0],[114.2839,-8.24316,0.0],[114.28091,-8.24815,0.0],[114.27256,-8.23872,0.0],[114.26974,-8.23699,0.0],[114.26164,-8.23535,0.0],[114.25558,-8.22779,0.0],[114.25198,-8.22989,0.0],[114.25367,-8.2384,0.0],[114.25308,-8.24166,0.0],[114.2452,-8.24046,0.0],[114.24313,-8.2373,0.0],[114.2303,-8.23121,0.0],[114.22904,-8.22903,0.0],[114.22539,-8.22748,0.0],[114.22512,-8.2194,0.0],[114.227,-8.21591,0.0],[114.22538,-8.21079,0.0],[114.22293,-8.20829,0.0],[114.22513,-8.20481,0.0],[114.222,-8.20141,0.0],[114.21239,-8.19615,0.0],[114.20228,-8.18198,0.0],[114.20328,-8.17627,0.0],[114.20198,-8.17369,0.0],[114.19486,-8.16966,0.0],[114.19167,-8.16362,0.0],[114.19192,-8.16071,0.0],[114.18782,-8.15525,0.0],[114.18741,-8.15059,0.0],[114.18912,-8.1409,0.0],[114.18796,-8.13354,0.0],[114.18302,-8.12702,0.0],[114.18214,-8.1237,0.0],[114.18505,-8.12023,0.0],[114.18774,-8.11285,0.0],[114.19554,-8.10339,0.0],[114.21405,-8.09948,0.0],[114.21745,-8.09269,0.0],[114.21655,-8.09013,0.0],[114.21787,-8.08668,0.0],[114.21756,-8.08299,0.0],[114.2199,-8.07932,0.0],[114.21975,-8.07374,0.0],[114.22193,-8.07262,0.0],[114.22329,-8.07393,0.0],[114.23114,-8.07043,0.0],[114.23228,-8.06785,0.0],[114.23682,-8.06491,0.0],[114.24088,-8.05897,0.0],[114.24606,-8.05546,0.0],[114.24689,-8.05327,0.0],[114.25494,-8.05857,0.0],[114.26006,-8.05887,0.0],[114.26317,-8.06281,0.0],[114.26076,-8.06759,0.0],[114.2564,-8.06724,0.0],[114.25228,-8.0722,0.0],[114.24593,-8.08546,0.0],[114.24469,-8.09345,0.0],[114.2449,-8.10926,0.0],[114.24658,-8.1096,0.0],[114.24964,-8.114,0.0],[114.25078,-8.12004,0.0],[114.25579,-8.1248,0.0],[114.2676,-8.14178,0.0],[114.26944,-8.14699,0.0],[114.25777,-8.15637,0.0],[114.26529,-8.16484,0.0],[114.26663,-8.17272,0.0],[114.27062,-8.18074,0.0],[114.27229,-8.1804,0.0],[114.27777,-8.18583,0.0],[114.27978,-8.18636,0.0],[114.27876,-8.18865,0.0],[114.28098,-8.18869,0.0],[114.28313,-8.19105,0.0],[114.27685,-8.19687,0.0],[114.27958,-8.20605,0.0],[114.28408,-8.2126,0.0],[114.28895,-8.21524,0.0],[114.29124,-8.21808,0.0]]]}},{"type":"Feature","properties":{"kecamatan":"Blimbingsari","kab_kota":"Banyuwangi"},"geometry":{"type":"Polygon","coordinates":[[[114.32965,-8.37471,0.0],[114.32834,-8.37072,0.0],[114.32548,-8.37043,0.0],[114.32446,-8.37172,0.0],[114.32009,-8.36843,0.0],[114.31897,-8.36963,0.0],[114.31809,-8.36645,0.0],[114.31497,-8.36656,0.0],[114.31344,-8.36421,0.0],[114.31261,-8.36556,0.0],[114.31094,-8.36535,0.0],[114.3105,-8.36751,0.0],[114.30842,-8.36618,0.0],[114.30863,-8.36409,0.0],[114.30679,-8.3634,0.0],[114.30406,-8.3645,0.0],[114.3023,-8.36136,0.0],[114.30075,-8.36115,0.0],[114.3027,-8.35387,0.0],[114.30125,-8.35214,0.0],[114.30802,-8.33305,0.0],[114.30966,-8.33345,0.0],[114.30947,-8.33237,0.0],[114.31045,-8.33241,0.0],[114.31285,-8.33404,0.0],[114.31385,-8.33274,0.0],[114.31623,-8.33298,0.0],[114.31763,-8.33456,0.0],[114.31958,-8.3344,0.0],[114.32024,-8.33297,0.0],[114.31508,-8.33171,0.0],[114.31387,-8.32924,0.0],[114.30694,-8.32806,0.0],[114.30641,-8.32976,0.0],[114.29944,-8.32789,0.0],[114.30113,-8.3256,0.0],[114.29863,-8.32418,0.0],[114.29598,-8.32026,0.0],[114.29701,-8.31906,0.0],[114.29803,-8.31977,0.0],[114.29986,-8.31713,0.0],[114.30387,-8.31727,0.0],[114.3045,-8.31549,0.0],[114.31245,-8.31749,0.0],[114.31432,-8.3147,0.0],[114.31968,-8.31579,0.0],[114.32022,-8.31358,0.0],[114.32186,-8.31397,0.0],[114.32215,-8.31277,0.0],[114.32915,-8.31304,0.0],[114.32919,-8.31035,0.0],[114.33248,-8.3114,0.0],[114.33119,-8.31313,0.0],[114.33577,-8.31332,0.0],[114.33644,-8.31099,0.0],[114.33356,-8.30955,0.0],[114.33363,-8.30391,0.0],[114.33032,-8.30207,0.0],[114.32965,-8.29949,0.0],[114.33077,-8.29577,0.0],[114.32973,-8.29453,0.0],[114.34373,-8.29665,0.0],[114.34473,-8.29145,0.0],[114.34584,-8.29159,0.0],[114.3487,-8.28433,0.0],[114.34812,-8.28155,0.0],[114.34992,-8.27591,0.0],[114.35012,-8.27281,0.0],[114.3489,-8.27242,0.0],[114.34993,-8.26941,0.0],[114.35344,-8.26947,0.0],[114.35398,-8.27163,0.0],[114.35868,-8.27503,0.0],[114.36018,-8.27304,0.0],[114.36338,-8.27297,0.0],[114.36233,-8.271,0.0],[114.3668,-8.27205,0.0],[114.36754,-8.27281,0.0],[114.36594,-8.27478,0.0],[114.36697,-8.27602,0.0],[114.36507,-8.28227,0.0],[114.36514,-8.28937,0.0],[114.36299,-8.29928,0.0],[114.36474,-8.30942,0.0],[114.3574,-8.32785,0.0],[114.3578,-8.33135,0.0],[114.36062,-8.33577,0.0],[114.35213,-8.35567,0.0],[114.35099,-8.36197,0.0],[114.35217,-8.36386,0.0],[114.35185,-8.37418,0.0],[114.34892,-8.38161,0.0],[114.34316,-8.38054,0.0],[114.34296,-8.37876,0.0],[114.33973,-8.37746,0.0],[114.33851,-8.37495,0.0],[114.33695,-8.3747,0.0],[114.33567,-8.37657,0.0],[114.33192,-8.37582,0.0],[114.33106,-8.37678,0.0],[114.33125,-8.37515,0.0],[114.32965,-8.37471,0.0]]]}},{"type":"Feature","properties":{"kecamatan":"Siliragung","kab_kota":"Banyuwangi"},"geometry":{"type":"MultiPolygon","coordinates":[[[[114.11224,-8.61966,0.0],[114.11164,-8.6192,0.0],[114.11189,-8.61899,0.0],[114.11224,-8.61966,0.0]]],[[[114.14112,-8.52864,0.0],[114.16108,-8.52872,0.0],[114.17887,-8.53486,0.0],[114.17414,-8.55971,0.0],[114.17692,-8.58008,0.0],[114.18266,-8.60306,0.0],[114.18286,-8.63805,0.0],[114.17882,-8.63468,0.0],[114.16,-8.62729,0.0],[114.13644,-8.62069,0.0],[114.11349,-8.61718,0.0],[114.11071,-8.61489,0.0],[114.10961,-8.61149,0.0],[114.11254,-8.61042,0.0],[114.1168,-8.61097,0.0],[114.11838,-8.60981,0.0],[114.11904,-8.60713,0.0],[114.11668,-8.60657,0.0],[114.11437,-8.60219,0.0],[114.11968,-8.59495,0.0],[114.11591,-8.59349,0.0],[114.11607,-8.58708,0.0],[114.11447,-8.58324,0.0],[114.10777,-8.57835,0.0],[114.10574,-8.57424,0.0],[114.10713,-8.57156,0.0],[114.10569,-8.56741,0.0],[114.10774,-8.56205,0.0],[114.10614,-8.55698,0.0],[114.10731,-8.55231,0.0],[114.10528,-8.54991,0.0],[114.10638,-8.54582,0.0],[114.10589,-8.54137,0.0],[114.10846,-8.5389,0.0],[114.10471,-8.53571,0.0],[114.10227,-8.5284,0.0],[114.09815,-8.52567,0.0],[114.0971,-8.52351,0.0],[114.09399,-8.52419,0.0],[114.08907,-8.5205,0.0],[114.08532,-8.51698,0.0],[114.08611,-8.51533,0.0],[114.08334,-8.51112,0.0],[114.08137,-8.51146,0.0],[114.08106,-8.50974,0.0],[114.08077,-8.51066,0.0],[114.07831,-8.51036,0.0],[114.07844,-8.50932,0.0],[114.07518,-8.50891,0.0],[114.0744,-8.51022,0.0],[114.07294,-8.50932,0.0],[114.06934,-8.51009,0.0],[114.06187,-8.50802,0.0],[114.05087,-8.49546,0.0],[114.03229,-8.49362,0.0],[114.01359,-8.49381,0.0],[114.01123,-8.48971,0.0],[114.00999,-8.48302,0.0],[114.01058,-8.47913,0.0],[114.00749,-8.47675,0.0],[114.00748,-8.47233,0.0],[114.00952,-8.46894,0.0],[114.00651,-8.46001,0.0],[114.00723,-8.45793,0.0],[113.99761,-8.45051,0.0],[114.00001,-8.44497,0.0],[113.99843,-8.44143,0.0],[113.9995,-8.43837,0.0],[113.99826,-8.43426,0.0],[113.99874,-8.42986,0.0],[114.00802,-8.42439,0.0],[114.02403,-8.42148,0.0],[114.0269,-8.42508,0.0],[114.03024,-8.42593,0.0],[114.03636,-8.42293,0.0],[114.04201,-8.41738,0.0],[114.05136,-8.41343,0.0],[114.05258,-8.41344,0.0],[114.05367,-8.41679,0.0],[114.05591,-8.41709,0.0],[114.07061,-8.4147,0.0],[114.08299,-8.41442,0.0],[114.08994,-8.41198,0.0],[114.09203,-8.41258,0.0],[114.09593,-8.41649,0.0],[114.09749,-8.42135,0.0],[114.09942,-8.42298,0.0],[114.09874,-8.43522,0.0],[114.10027,-8.44079,0.0],[114.09581,-8.45044,0.0],[114.09859,-8.45678,0.0],[114.10722,-8.464,0.0],[114.11323,-8.46378,0.0],[114.12305,-8.4727,0.0],[114.12039,-8.47852,0.0],[114.11708,-8.48147,0.0],[114.11301,-8.49841,0.0],[114.10966,-8.50051,0.0],[114.1097,-8.50545,0.0],[114.10693,-8.50876,0.0],[114.10931,-8.51348,0.0],[114.1041,-8.52059,0.0],[114.10444,-8.52489,0.0],[114.13145,-8.52547,0.0],[114.13153,-8.52724,0.0],[114.13329,-8.52749,0.0],[114.13703,-8.52747,0.0],[114.13819,-8.52569,0.0],[114.14112,-8.52864,0.0]]]]}},{"type":"Feature","properties":{"kecamatan":"Tegalsari","kab_kota":"Banyuwangi"},"geometry":{"type":"Polygon","coordinates":[[[114.13443,-8.45654,0.0],[114.13342,-8.45926,0.0],[114.13549,-8.4641,0.0],[114.13437,-8.46786,0.0],[114.13106,-8.47148,0.0],[114.12319,-8.47247,0.0],[114.11323,-8.46378,0.0],[114.10833,-8.46431,0.0],[114.10586,-8.46323,0.0],[114.10192,-8.45877,0.0],[114.09905,-8.45744,0.0],[114.0958,-8.45103,0.0],[114.10027,-8.44079,0.0],[114.09874,-8.43522,0.0],[114.09978,-8.42802,0.0],[114.09876,-8.41821,0.0],[114.09949,-8.41484,0.0],[114.10332,-8.4104,0.0],[114.10476,-8.39968,0.0],[114.10382,-8.39878,0.0],[114.10417,-8.39497,0.0],[114.10523,-8.39503,0.0],[114.10423,-8.39144,0.0],[114.10561,-8.39037,0.0],[114.10504,-8.38558,0.0],[114.10327,-8.38252,0.0],[114.10522,-8.38083,0.0],[114.10411,-8.3787,0.0],[114.10588,-8.37524,0.0],[114.10443,-8.37273,0.0],[114.10664,-8.36738,0.0],[114.10386,-8.36079,0.0],[114.10556,-8.35611,0.0],[114.11229,-8.35812,0.0],[114.11726,-8.35755,0.0],[114.12383,-8.36189,0.0],[114.11999,-8.3666,0.0],[114.1271,-8.3684,0.0],[114.12791,-8.37268,0.0],[114.12669,-8.3747,0.0],[114.1284,-8.37941,0.0],[114.12703,-8.3855,0.0],[114.12856,-8.38759,0.0],[114.12665,-8.39764,0.0],[114.13196,-8.40763,0.0],[114.13367,-8.40942,0.0],[114.14454,-8.40985,0.0],[114.14389,-8.40869,0.0],[114.14642,-8.40822,0.0],[114.15044,-8.40906,0.0],[114.15127,-8.40726,0.0],[114.1568,-8.41026,0.0],[114.15682,-8.4213,0.0],[114.15877,-8.42474,0.0],[114.1575,-8.42781,0.0],[114.15909,-8.43095,0.0],[114.15973,-8.43892,0.0],[114.16125,-8.43921,0.0],[114.15894,-8.44138,0.0],[114.15952,-8.44393,0.0],[114.16305,-8.4448,0.0],[114.16524,-8.45317,0.0],[114.16954,-8.45945,0.0],[114.16523,-8.46141,0.0],[114.1553,-8.4603,0.0],[114.14159,-8.4543,0.0],[114.13443,-8.45654,0.0]]]}},{"type":"Feature","properties":{"kecamatan":"Bangorejo","kab_kota":"Banyuwangi"},"geometry":{"type":"MultiPolygon","coordinates":[[[[114.20379,-8.65629,0.0],[114.20386,-8.65587,0.0],[114.20402,-8.65582,0.0],[114.20379,-8.65629,0.0]]],[[[114.18085,-8.50856,0.0],[114.21367,-8.50887,0.0],[114.21327,-8.54032,0.0],[114.21575,-8.53983,0.0],[114.21972,-8.5479,0.0],[114.22107,-8.55392,0.0],[114.21581,-8.58819,0.0],[114.21755,-8.62793,0.0],[114.22368,-8.63684,0.0],[114.21984,-8.64503,0.0],[114.20891,-8.64455,0.0],[114.20731,-8.64248,0.0],[114.20281,-8.64063,0.0],[114.18971,-8.63905,0.0],[114.18508,-8.6402,0.0],[114.18286,-8.63805,0.0],[114.18266,-8.60306,0.0],[114.17692,-8.58008,0.0],[114.17414,-8.55971,0.0],[114.17887,-8.53486,0.0],[114.15758,-8.52791,0.0],[114.14112,-8.52864,0.0],[114.13819,-8.52569,0.0],[114.13703,-8.52747,0.0],[114.13329,-8.52749,0.0],[114.13153,-8.52724,0.0],[114.13145,-8.52547,0.0],[114.10444,-8.52489,0.0],[114.10349,-8.52267,0.0],[114.10528,-8.51835,0.0],[114.10861,-8.51549,0.0],[114.1093,-8.5131,0.0],[114.10708,-8.50815,0.0],[114.1097,-8.50545,0.0],[114.10975,-8.5003,0.0],[114.11216,-8.49953,0.0],[114.11392,-8.49633,0.0],[114.11708,-8.48147,0.0],[114.12039,-8.47852,0.0],[114.12299,-8.47382,0.0],[114.12239,-8.47118,0.0],[114.12319,-8.47247,0.0],[114.13106,-8.47148,0.0],[114.13437,-8.46786,0.0],[114.13549,-8.4641,0.0],[114.13342,-8.45926,0.0],[114.13446,-8.45636,0.0],[114.13803,-8.45617,0.0],[114.14109,-8.45436,0.0],[114.14476,-8.45489,0.0],[114.1553,-8.4603,0.0],[114.16523,-8.46141,0.0],[114.16954,-8.45945,0.0],[114.17547,-8.46432,0.0],[114.19078,-8.46912,0.0],[114.19065,-8.4771,0.0],[114.1918,-8.47884,0.0],[114.19002,-8.4807,0.0],[114.19019,-8.48832,0.0],[114.18867,-8.4911,0.0],[114.18138,-8.49609,0.0],[114.18085,-8.50856,0.0]]]]}},{"type":"Feature","properties":{"kecamatan":"Purwoharjo","kab_kota":"Banyuwangi"},"geometry":{"type":"Polygon","coordinates":[[[114.27233,-8.53988,0.0],[114.27319,-8.55883,0.0],[114.2769,-8.56195,0.0],[114.27742,-8.56437,0.0],[114.27981,-8.56669,0.0],[114.27946,-8.56895,0.0],[114.28324,-8.57007,0.0],[114.28322,-8.57224,0.0],[114.28444,-8.572,0.0],[114.28529,-8.57481,0.0],[114.28639,-8.57438,0.0],[114.28659,-8.57682,0.0],[114.28821,-8.57742,0.0],[114.28986,-8.58113,0.0],[114.28907,-8.5839,0.0],[114.29098,-8.58805,0.0],[114.28837,-8.59217,0.0],[114.28843,-8.59629,0.0],[114.29118,-8.59963,0.0],[114.28942,-8.60104,0.0],[114.29153,-8.60359,0.0],[114.29252,-8.61411,0.0],[114.28358,-8.61198,0.0],[114.26452,-8.60365,0.0],[114.25364,-8.60059,0.0],[114.24508,-8.59979,0.0],[114.23073,-8.60241,0.0],[114.22896,-8.6017,0.0],[114.22651,-8.60359,0.0],[114.22873,-8.60666,0.0],[114.2262,-8.60873,0.0],[114.22511,-8.61208,0.0],[114.2265,-8.61614,0.0],[114.22889,-8.61723,0.0],[114.22961,-8.62079,0.0],[114.22834,-8.62257,0.0],[114.22557,-8.6231,0.0],[114.22684,-8.62561,0.0],[114.22435,-8.63223,0.0],[114.22564,-8.63523,0.0],[114.22363,-8.6365,0.0],[114.21921,-8.63172,0.0],[114.21755,-8.62793,0.0],[114.21581,-8.58819,0.0],[114.22107,-8.55392,0.0],[114.21972,-8.5479,0.0],[114.21575,-8.53983,0.0],[114.21327,-8.54032,0.0],[114.21367,-8.50887,0.0],[114.18085,-8.50856,0.0],[114.18138,-8.49609,0.0],[114.18867,-8.4911,0.0],[114.19019,-8.48832,0.0],[114.19002,-8.4807,0.0],[114.1918,-8.47884,0.0],[114.19065,-8.4771,0.0],[114.19078,-8.46912,0.0],[114.19342,-8.47071,0.0],[114.20352,-8.47093,0.0],[114.20762,-8.47061,0.0],[114.21113,-8.46839,0.0],[114.21563,-8.46857,0.0],[114.21905,-8.46339,0.0],[114.21661,-8.45699,0.0],[114.22116,-8.45883,0.0],[114.22073,-8.45459,0.0],[114.24334,-8.45713,0.0],[114.24515,-8.45827,0.0],[114.24623,-8.45746,0.0],[114.24742,-8.46081,0.0],[114.24918,-8.46052,0.0],[114.24997,-8.46708,0.0],[114.25415,-8.47233,0.0],[114.25385,-8.47449,0.0],[114.25705,-8.47598,0.0],[114.26105,-8.48216,0.0],[114.26699,-8.48282,0.0],[114.27353,-8.48735,0.0],[114.27233,-8.53988,0.0]]]}},{"type":"Feature","properties":{"kecamatan":"Pesanggaran","kab_kota":"Banyuwangi"},"geometry":{"type":"MultiPolygon","coordinates":[[[[113.99241,-8.61502,0.0],[113.99518,-8.61622,0.0],[113.99527,-8.61787,0.0],[113.99179,-8.61596,0.0],[113.99241,-8.61502,0.0]]],[[[113.99485,-8.61163,0.0],[113.99221,-8.61465,0.0],[113.99038,-8.6144,0.0],[113.99485,-8.61163,0.0]]],[[[113.99362,-8.60796,0.0],[113.99428,-8.60955,0.0],[113.99278,-8.60848,0.0],[113.99362,-8.60796,0.0]]],[[[113.99265,-8.60536,0.0],[113.99225,-8.60582,0.0],[113.99216,-8.60565,0.0],[113.99265,-8.60536,0.0]]],[[[113.90274,-8.58626,0.0],[113.9026,-8.58578,0.0],[113.90283,-8.58548,0.0],[113.90274,-8.58626,0.0]]],[[[113.91475,-8.58436,0.0],[113.91329,-8.58521,0.0],[113.91199,-8.5834,0.0],[113.9135,-8.58362,0.0],[113.9147,-8.58196,0.0],[113.91475,-8.58436,0.0]]],[[[113.89345,-8.58275,0.0],[113.89509,-8.58181,0.0],[113.89341,-8.58297,0.0],[113.89345,-8.58275,0.0]]],[[[113.895,-8.57953,0.0],[113.8965,-8.57927,0.0],[113.89485,-8.57972,0.0],[113.895,-8.57953,0.0]]],[[[113.87054,-8.57893,0.0],[113.87145,-8.57922,0.0],[113.87065,-8.57954,0.0],[113.87054,-8.57893,0.0]]],[[[113.92356,-8.57407,0.0],[113.92349,-8.57451,0.0],[113.92308,-8.57427,0.0],[113.92356,-8.57407,0.0]]],[[[113.89107,-8.56874,0.0],[113.89084,-8.56841,0.0],[113.89105,-8.56827,0.0],[113.89107,-8.56874,0.0]]],[[[113.92492,-8.56351,0.0],[113.92528,-8.56365,0.0],[113.92497,-8.56375,0.0],[113.92492,-8.56351,0.0]]],[[[113.86713,-8.56174,0.0],[113.86711,-8.56179,0.0],[113.86719,-8.56224,0.0],[113.867,-8.56187,0.0],[113.86713,-8.56174,0.0]]],[[[113.85685,-8.55984,0.0],[113.85718,-8.55931,0.0],[113.85724,-8.56,0.0],[113.85685,-8.55984,0.0]]],[[[113.99874,-8.42986,0.0],[113.9995,-8.43837,0.0],[113.99846,-8.44178,0.0],[114.00001,-8.44497,0.0],[113.99761,-8.45051,0.0],[114.00723,-8.45793,0.0],[114.00651,-8.46001,0.0],[114.00952,-8.46894,0.0],[114.00748,-8.47233,0.0],[114.00749,-8.47675,0.0],[114.01058,-8.47913,0.0],[114.00999,-8.48302,0.0],[114.01123,-8.48971,0.0],[114.01359,-8.49381,0.0],[114.0496,-8.49497,0.0],[114.05195,-8.49596,0.0],[114.06187,-8.50802,0.0],[114.06934,-8.51009,0.0],[114.07294,-8.50932,0.0],[114.0744,-8.51022,0.0],[114.07649,-8.50895,0.0],[114.08077,-8.51066,0.0],[114.0809,-8.50966,0.0],[114.08137,-8.51146,0.0],[114.08334,-8.51112,0.0],[114.08611,-8.51533,0.0],[114.08532,-8.51698,0.0],[114.08907,-8.5205,0.0],[114.09399,-8.52419,0.0],[114.0971,-8.52351,0.0],[114.09815,-8.52567,0.0],[114.10227,-8.5284,0.0],[114.10471,-8.53571,0.0],[114.10846,-8.5389,0.0],[114.10589,-8.54137,0.0],[114.10638,-8.54582,0.0],[114.10528,-8.54991,0.0],[114.10731,-8.55231,0.0],[114.10614,-8.55698,0.0],[114.10774,-8.56205,0.0],[114.10569,-8.56741,0.0],[114.10713,-8.57156,0.0],[114.10567,-8.57388,0.0],[114.10777,-8.57835,0.0],[114.11447,-8.58324,0.0],[114.11607,-8.58708,0.0],[114.11591,-8.59349,0.0],[114.11968,-8.59495,0.0],[114.11437,-8.60219,0.0],[114.11668,-8.60657,0.0],[114.11904,-8.60713,0.0],[114.11811,-8.61032,0.0],[114.10961,-8.61149,0.0],[114.11195,-8.61699,0.0],[114.09552,-8.61467,0.0],[114.08861,-8.61597,0.0],[114.08498,-8.62074,0.0],[114.0862,-8.6243,0.0],[114.08447,-8.62903,0.0],[114.07831,-8.6245,0.0],[114.07571,-8.62411,0.0],[114.06539,-8.62461,0.0],[114.06294,-8.62659,0.0],[114.05984,-8.62615,0.0],[114.05903,-8.63233,0.0],[114.05714,-8.63338,0.0],[114.05739,-8.63686,0.0],[114.05429,-8.6357,0.0],[114.04983,-8.63763,0.0],[114.05253,-8.64419,0.0],[114.05208,-8.64585,0.0],[114.04979,-8.64652,0.0],[114.04758,-8.64552,0.0],[114.04795,-8.63722,0.0],[114.04497,-8.63606,0.0],[114.04357,-8.63679,0.0],[114.04246,-8.63483,0.0],[114.03829,-8.63353,0.0],[114.03275,-8.63308,0.0],[114.03361,-8.6312,0.0],[114.03159,-8.62979,0.0],[114.03202,-8.62211,0.0],[114.03032,-8.62038,0.0],[114.03207,-8.61458,0.0],[114.02938,-8.60312,0.0],[114.02986,-8.59941,0.0],[114.02548,-8.59413,0.0],[114.01497,-8.58975,0.0],[114.00898,-8.58898,0.0],[114.00237,-8.59004,0.0],[114.00027,-8.59117,0.0],[114.00087,-8.59212,0.0],[114.00045,-8.59342,0.0],[114.00067,-8.59211,0.0],[113.99902,-8.59208,0.0],[113.99966,-8.5928,0.0],[113.9993,-8.59422,0.0],[113.99946,-8.59279,0.0],[113.997,-8.59286,0.0],[113.99655,-8.59143,0.0],[113.99712,-8.59374,0.0],[113.99983,-8.59486,0.0],[113.99675,-8.59448,0.0],[113.99798,-8.59662,0.0],[113.99701,-8.60013,0.0],[113.99806,-8.60228,0.0],[113.99583,-8.60492,0.0],[113.99689,-8.60764,0.0],[113.99501,-8.60791,0.0],[113.99536,-8.6056,0.0],[113.99261,-8.60281,0.0],[113.99331,-8.60078,0.0],[113.99007,-8.59871,0.0],[113.98806,-8.60029,0.0],[113.98834,-8.60582,0.0],[113.98635,-8.6065,0.0],[113.98475,-8.60425,0.0],[113.98428,-8.60571,0.0],[113.98134,-8.6065,0.0],[113.98114,-8.60846,0.0],[113.97809,-8.60911,0.0],[113.97636,-8.60727,0.0],[113.97261,-8.60694,0.0],[113.96867,-8.61244,0.0],[113.96924,-8.61328,0.0],[113.96795,-8.61269,0.0],[113.96483,-8.61416,0.0],[113.96365,-8.6164,0.0],[113.96093,-8.61663,0.0],[113.95949,-8.61381,0.0],[113.95649,-8.61351,0.0],[113.95678,-8.60835,0.0],[113.95133,-8.60488,0.0],[113.94749,-8.59941,0.0],[113.95138,-8.59764,0.0],[113.95286,-8.5948,0.0],[113.95812,-8.59896,0.0],[113.96602,-8.59631,0.0],[113.96864,-8.58967,0.0],[113.96869,-8.58325,0.0],[113.96398,-8.57277,0.0],[113.96242,-8.57082,0.0],[113.95958,-8.56997,0.0],[113.95962,-8.56726,0.0],[113.94632,-8.55867,0.0],[113.94043,-8.55788,0.0],[113.93475,-8.56022,0.0],[113.9373,-8.56487,0.0],[113.93539,-8.56669,0.0],[113.93304,-8.56577,0.0],[113.92989,-8.56069,0.0],[113.92545,-8.56026,0.0],[113.92447,-8.56172,0.0],[113.92562,-8.56328,0.0],[113.92453,-8.5631,0.0],[113.92343,-8.56418,0.0],[113.92589,-8.5685,0.0],[113.92422,-8.56835,0.0],[113.92534,-8.57023,0.0],[113.92369,-8.57329,0.0],[113.91805,-8.57371,0.0],[113.9172,-8.57622,0.0],[113.91845,-8.57766,0.0],[113.91743,-8.57837,0.0],[113.91462,-8.57715,0.0],[113.9093,-8.57907,0.0],[113.90715,-8.57623,0.0],[113.90494,-8.5772,0.0],[113.90379,-8.57543,0.0],[113.90261,-8.57616,0.0],[113.901,-8.57512,0.0],[113.89978,-8.57356,0.0],[113.89979,-8.56889,0.0],[113.89672,-8.5657,0.0],[113.89145,-8.56449,0.0],[113.87609,-8.55705,0.0],[113.87378,-8.55769,0.0],[113.87156,-8.55643,0.0],[113.86959,-8.5597,0.0],[113.86411,-8.56142,0.0],[113.86055,-8.55911,0.0],[113.85822,-8.55879,0.0],[113.85786,-8.55972,0.0],[113.8567,-8.55872,0.0],[113.85595,-8.5538,0.0],[113.85346,-8.55236,0.0],[113.85327,-8.54972,0.0],[113.8437,-8.55532,0.0],[113.84319,-8.55376,0.0],[113.84071,-8.55525,0.0],[113.83759,-8.55368,0.0],[113.8439,-8.5459,0.0],[113.84714,-8.53334,0.0],[113.85302,-8.52616,0.0],[113.85512,-8.51963,0.0],[113.85552,-8.51553,0.0],[113.84738,-8.50906,0.0],[113.84314,-8.50353,0.0],[113.84221,-8.49446,0.0],[113.84488,-8.47516,0.0],[113.84828,-8.46237,0.0],[113.84819,-8.45456,0.0],[113.85325,-8.43272,0.0],[113.85833,-8.42662,0.0],[113.87501,-8.4161,0.0],[113.88196,-8.41727,0.0],[113.89041,-8.4104,0.0],[113.8942,-8.41346,0.0],[113.90033,-8.42397,0.0],[113.90102,-8.42667,0.0],[113.89898,-8.4318,0.0],[113.89924,-8.43443,0.0],[113.90542,-8.44006,0.0],[113.91027,-8.44197,0.0],[113.93442,-8.42324,0.0],[113.93744,-8.40913,0.0],[113.94727,-8.40179,0.0],[113.94971,-8.40396,0.0],[113.96289,-8.40333,0.0],[113.96437,-8.40547,0.0],[113.96847,-8.4065,0.0],[113.96852,-8.40759,0.0],[113.97694,-8.40859,0.0],[113.98826,-8.41515,0.0],[113.99284,-8.4254,0.0],[113.99614,-8.42935,0.0],[113.99874,-8.42986,0.0]]],[[[114.05176,-8.64856,0.0],[114.05166,-8.64877,0.0],[114.05158,-8.64874,0.0],[114.05176,-8.64856,0.0]]],[[[114.0268,-8.64551,0.0],[114.02924,-8.64924,0.0],[114.0249,-8.65172,0.0],[114.02745,-8.64818,0.0],[114.02392,-8.6491,0.0],[114.02599,-8.64734,0.0],[114.02622,-8.64632,0.0],[114.02473,-8.64669,0.0],[114.0268,-8.64551,0.0]]],[[[114.05061,-8.64679,0.0],[114.04979,-8.64745,0.0],[114.04943,-8.64726,0.0],[114.05061,-8.64679,0.0]]],[[[114.02691,-8.64506,0.0],[114.02465,-8.64604,0.0],[114.02576,-8.64491,0.0],[114.02436,-8.64503,0.0],[114.02681,-8.643,0.0],[114.02691,-8.64506,0.0]]],[[[114.05698,-8.63935,0.0],[114.05711,-8.639,0.0],[114.05702,-8.63935,0.0],[114.05698,-8.63935,0.0]]],[[[114.03326,-8.63422,0.0],[114.03327,-8.63383,0.0],[114.03337,-8.63385,0.0],[114.03326,-8.63422,0.0]]],[[[114.08267,-8.63042,0.0],[114.08391,-8.63468,0.0],[114.08257,-8.63507,0.0],[114.08267,-8.63042,0.0]]],[[[114.08751,-8.62034,0.0],[114.08705,-8.61947,0.0],[114.08764,-8.61903,0.0],[114.08821,-8.61936,0.0],[114.08751,-8.62034,0.0]]],[[[113.99593,-8.61007,0.0],[113.99526,-8.60906,0.0],[113.99558,-8.60875,0.0],[113.99593,-8.61007,0.0]]],[[[114.02475,-8.60702,0.0],[114.02537,-8.60654,0.0],[114.02492,-8.6073,0.0],[114.02475,-8.60702,0.0]]],[[[114.02733,-8.60541,0.0],[114.02403,-8.60606,0.0],[114.02666,-8.60413,0.0],[114.02733,-8.60541,0.0]]],[[[114.01583,-8.60168,0.0],[114.01584,-8.60123,0.0],[114.01611,-8.6018,0.0],[114.01583,-8.60168,0.0]]]]}},{"type":"Feature","properties":{"kecamatan":"Cluring","kab_kota":"Banyuwangi"},"geometry":{"type":"Polygon","coordinates":[[[114.27329,-8.46182,0.0],[114.27798,-8.46195,0.0],[114.29236,-8.47178,0.0],[114.29218,-8.47829,0.0],[114.28939,-8.47892,0.0],[114.28964,-8.48087,0.0],[114.28192,-8.48411,0.0],[114.27893,-8.48888,0.0],[114.2767,-8.48871,0.0],[114.2756,-8.48715,0.0],[114.27256,-8.48723,0.0],[114.26699,-8.48282,0.0],[114.26105,-8.48216,0.0],[114.25705,-8.47598,0.0],[114.25385,-8.47449,0.0],[114.25415,-8.47233,0.0],[114.24997,-8.46708,0.0],[114.24918,-8.46052,0.0],[114.24742,-8.46081,0.0],[114.24612,-8.4574,0.0],[114.24515,-8.45827,0.0],[114.24334,-8.45713,0.0],[114.22073,-8.45459,0.0],[114.22116,-8.45883,0.0],[114.21661,-8.45699,0.0],[114.21905,-8.46339,0.0],[114.21563,-8.46857,0.0],[114.21113,-8.46839,0.0],[114.20741,-8.47059,0.0],[114.20029,-8.46866,0.0],[114.19837,-8.46615,0.0],[114.19526,-8.46695,0.0],[114.19378,-8.46569,0.0],[114.19382,-8.46298,0.0],[114.19146,-8.46176,0.0],[114.18948,-8.45554,0.0],[114.18726,-8.45366,0.0],[114.19618,-8.44467,0.0],[114.19713,-8.44187,0.0],[114.19621,-8.43837,0.0],[114.19745,-8.43772,0.0],[114.19714,-8.43579,0.0],[114.19325,-8.42559,0.0],[114.19391,-8.42077,0.0],[114.19292,-8.42063,0.0],[114.1931,-8.41925,0.0],[114.18764,-8.41667,0.0],[114.1876,-8.41389,0.0],[114.18531,-8.41198,0.0],[114.18471,-8.40861,0.0],[114.18137,-8.40549,0.0],[114.18308,-8.40536,0.0],[114.18409,-8.40288,0.0],[114.18926,-8.40135,0.0],[114.19215,-8.4036,0.0],[114.19752,-8.40474,0.0],[114.20599,-8.39716,0.0],[114.20856,-8.39395,0.0],[114.20843,-8.39239,0.0],[114.21037,-8.39278,0.0],[114.2116,-8.38434,0.0],[114.21274,-8.38601,0.0],[114.21356,-8.38502,0.0],[114.21658,-8.38668,0.0],[114.21736,-8.38845,0.0],[114.21853,-8.38728,0.0],[114.22271,-8.3896,0.0],[114.22557,-8.39317,0.0],[114.23154,-8.39251,0.0],[114.23233,-8.39554,0.0],[114.23891,-8.39758,0.0],[114.23977,-8.39458,0.0],[114.24242,-8.39606,0.0],[114.24219,-8.39777,0.0],[114.24402,-8.39861,0.0],[114.24339,-8.40007,0.0],[114.24986,-8.40212,0.0],[114.25614,-8.40851,0.0],[114.26304,-8.41062,0.0],[114.26463,-8.40964,0.0],[114.26769,-8.41139,0.0],[114.26548,-8.41966,0.0],[114.26572,-8.42167,0.0],[114.26828,-8.42169,0.0],[114.26805,-8.42974,0.0],[114.27486,-8.43118,0.0],[114.2753,-8.43301,0.0],[114.27547,-8.45005,0.0],[114.27291,-8.45972,0.0],[114.27329,-8.46182,0.0]]]}},{"type":"Feature","properties":{"kecamatan":"Gambiran","kab_kota":"Banyuwangi"},"geometry":{"type":"Polygon","coordinates":[[[114.18726,-8.45366,0.0],[114.19163,-8.46203,0.0],[114.1939,-8.4631,0.0],[114.19378,-8.46569,0.0],[114.19526,-8.46695,0.0],[114.19837,-8.46615,0.0],[114.20029,-8.46866,0.0],[114.20421,-8.46954,0.0],[114.20475,-8.47089,0.0],[114.19342,-8.47071,0.0],[114.18453,-8.46686,0.0],[114.18002,-8.46631,0.0],[114.17547,-8.46432,0.0],[114.1687,-8.45888,0.0],[114.16524,-8.45317,0.0],[114.16305,-8.4448,0.0],[114.15952,-8.44393,0.0],[114.15894,-8.44138,0.0],[114.16125,-8.43921,0.0],[114.15973,-8.43892,0.0],[114.15909,-8.43095,0.0],[114.1575,-8.42781,0.0],[114.15877,-8.42474,0.0],[114.15682,-8.4213,0.0],[114.1568,-8.41026,0.0],[114.15127,-8.40726,0.0],[114.15044,-8.40906,0.0],[114.14642,-8.40822,0.0],[114.14389,-8.40869,0.0],[114.14454,-8.40985,0.0],[114.13367,-8.40942,0.0],[114.12946,-8.40353,0.0],[114.12881,-8.4003,0.0],[114.12727,-8.39995,0.0],[114.12665,-8.39764,0.0],[114.12856,-8.38759,0.0],[114.12703,-8.3855,0.0],[114.1284,-8.37941,0.0],[114.12669,-8.3747,0.0],[114.12791,-8.37268,0.0],[114.12706,-8.36829,0.0],[114.12815,-8.3658,0.0],[114.13356,-8.36988,0.0],[114.14025,-8.37011,0.0],[114.14326,-8.36942,0.0],[114.14319,-8.36842,0.0],[114.14782,-8.36984,0.0],[114.14955,-8.37094,0.0],[114.14931,-8.37215,0.0],[114.15194,-8.37229,0.0],[114.15174,-8.37426,0.0],[114.15365,-8.37459,0.0],[114.15329,-8.37601,0.0],[114.15717,-8.37652,0.0],[114.15774,-8.38096,0.0],[114.16329,-8.38234,0.0],[114.16639,-8.38038,0.0],[114.16606,-8.37827,0.0],[114.16931,-8.3792,0.0],[114.16996,-8.3806,0.0],[114.17662,-8.37481,0.0],[114.17997,-8.37814,0.0],[114.17948,-8.37974,0.0],[114.18581,-8.38511,0.0],[114.1905,-8.38607,0.0],[114.19253,-8.38896,0.0],[114.20199,-8.39503,0.0],[114.20771,-8.39462,0.0],[114.19716,-8.40498,0.0],[114.19215,-8.4036,0.0],[114.18926,-8.40135,0.0],[114.18409,-8.40288,0.0],[114.18308,-8.40536,0.0],[114.18126,-8.40583,0.0],[114.18471,-8.40861,0.0],[114.18847,-8.41766,0.0],[114.1931,-8.41925,0.0],[114.19335,-8.42612,0.0],[114.19714,-8.43579,0.0],[114.19618,-8.44467,0.0],[114.18726,-8.45366,0.0]]]}},{"type":"Feature","properties":{"kecamatan":"Tegaldlimo","kab_kota":"Banyuwangi"},"geometry":{"type":"Polygon","coordinates":[[[114.36447,-8.5381,0.0],[114.37316,-8.53553,0.0],[114.37643,-8.53202,0.0],[114.38563,-8.50542,0.0],[114.38469,-8.4923,0.0],[114.38834,-8.4812,0.0],[114.38633,-8.47416,0.0],[114.38561,-8.4616,0.0],[114.38311,-8.45668,0.0],[114.38249,-8.45076,0.0],[114.38353,-8.44682,0.0],[114.38683,-8.44686,0.0],[114.39221,-8.45001,0.0],[114.39912,-8.45929,0.0],[114.39627,-8.48584,0.0],[114.39703,-8.49456,0.0],[114.39901,-8.4956,0.0],[114.40004,-8.49875,0.0],[114.40277,-8.49901,0.0],[114.4045,-8.50062,0.0],[114.40791,-8.50875,0.0],[114.40936,-8.50953,0.0],[114.40969,-8.51543,0.0],[114.40854,-8.52035,0.0],[114.40548,-8.523,0.0],[114.40331,-8.52717,0.0],[114.40165,-8.53338,0.0],[114.40127,-8.54318,0.0],[114.40804,-8.55604,0.0],[114.4079,-8.56943,0.0],[114.41095,-8.57612,0.0],[114.41827,-8.58595,0.0],[114.42295,-8.60462,0.0],[114.43251,-8.61303,0.0],[114.43868,-8.62296,0.0],[114.43921,-8.63012,0.0],[114.44213,-8.63447,0.0],[114.44829,-8.63889,0.0],[114.45061,-8.63944,0.0],[114.45204,-8.63805,0.0],[114.45306,-8.63996,0.0],[114.45397,-8.63884,0.0],[114.45803,-8.63844,0.0],[114.46479,-8.62904,0.0],[114.46542,-8.62491,0.0],[114.47,-8.62005,0.0],[114.47301,-8.61746,0.0],[114.48078,-8.61786,0.0],[114.49031,-8.63118,0.0],[114.49629,-8.6346,0.0],[114.50553,-8.63572,0.0],[114.50725,-8.64094,0.0],[114.51439,-8.65011,0.0],[114.52013,-8.65182,0.0],[114.52393,-8.65156,0.0],[114.53122,-8.65619,0.0],[114.53683,-8.6563,0.0],[114.54246,-8.6592,0.0],[114.54766,-8.65943,0.0],[114.55335,-8.6569,0.0],[114.56207,-8.65655,0.0],[114.57021,-8.6607,0.0],[114.57601,-8.67288,0.0],[114.58222,-8.67924,0.0],[114.58712,-8.68692,0.0],[114.58931,-8.68766,0.0],[114.59551,-8.69734,0.0],[114.59735,-8.70045,0.0],[114.59764,-8.70489,0.0],[114.60362,-8.71236,0.0],[114.6051,-8.71621,0.0],[114.60319,-8.72576,0.0],[114.59692,-8.73736,0.0],[114.59532,-8.75056,0.0],[114.58782,-8.76302,0.0],[114.56862,-8.7725,0.0],[114.55803,-8.77431,0.0],[114.5475,-8.77815,0.0],[114.53238,-8.7802,0.0],[114.50489,-8.77527,0.0],[114.48474,-8.76529,0.0],[114.47831,-8.76034,0.0],[114.47294,-8.76003,0.0],[114.44607,-8.75265,0.0],[114.43544,-8.75124,0.0],[114.43151,-8.752,0.0],[114.41751,-8.74876,0.0],[114.401,-8.75257,0.0],[114.39467,-8.75131,0.0],[114.39027,-8.75186,0.0],[114.38158,-8.74883,0.0],[114.37059,-8.74897,0.0],[114.36942,-8.75039,0.0],[114.34399,-8.74194,0.0],[114.3419,-8.73753,0.0],[114.34386,-8.73362,0.0],[114.3483,-8.73276,0.0],[114.35139,-8.72957,0.0],[114.35356,-8.72994,0.0],[114.36258,-8.72558,0.0],[114.37085,-8.71872,0.0],[114.37247,-8.71593,0.0],[114.37646,-8.70535,0.0],[114.3774,-8.69907,0.0],[114.37451,-8.69043,0.0],[114.37505,-8.68594,0.0],[114.37328,-8.68369,0.0],[114.37317,-8.67765,0.0],[114.36252,-8.65966,0.0],[114.34975,-8.64538,0.0],[114.34461,-8.64129,0.0],[114.32115,-8.62504,0.0],[114.30868,-8.61933,0.0],[114.29252,-8.61411,0.0],[114.29153,-8.60359,0.0],[114.28942,-8.60104,0.0],[114.29118,-8.59963,0.0],[114.28843,-8.59629,0.0],[114.28837,-8.59217,0.0],[114.29098,-8.58805,0.0],[114.28907,-8.5839,0.0],[114.28986,-8.58113,0.0],[114.28821,-8.57742,0.0],[114.28659,-8.57682,0.0],[114.28639,-8.57438,0.0],[114.28529,-8.57481,0.0],[114.28444,-8.572,0.0],[114.28322,-8.57224,0.0],[114.28324,-8.57007,0.0],[114.27946,-8.56895,0.0],[114.27981,-8.56669,0.0],[114.27742,-8.56437,0.0],[114.2769,-8.56195,0.0],[114.27319,-8.55883,0.0],[114.27231,-8.53957,0.0],[114.27354,-8.48732,0.0],[114.27893,-8.48888,0.0],[114.28192,-8.48411,0.0],[114.28964,-8.48087,0.0],[114.29032,-8.47893,0.0],[114.29492,-8.47794,0.0],[114.30259,-8.48066,0.0],[114.30278,-8.48291,0.0],[114.30566,-8.48511,0.0],[114.31192,-8.48426,0.0],[114.31678,-8.48623,0.0],[114.32183,-8.48651,0.0],[114.32962,-8.49044,0.0],[114.33015,-8.49237,0.0],[114.33474,-8.49507,0.0],[114.33699,-8.49958,0.0],[114.33712,-8.51214,0.0],[114.34915,-8.51414,0.0],[114.34798,-8.51871,0.0],[114.35232,-8.52372,0.0],[114.35125,-8.52509,0.0],[114.35233,-8.52636,0.0],[114.35131,-8.52933,0.0],[114.35503,-8.53312,0.0],[114.35582,-8.53267,0.0],[114.35577,-8.5359,0.0],[114.35752,-8.5365,0.0],[114.35802,-8.53498,0.0],[114.36447,-8.5381,0.0]]]}},{"type":"Feature","properties":{"kecamatan":"Muncar","kab_kota":"Banyuwangi"},"geometry":{"type":"Polygon","coordinates":[[[114.35232,-8.52372,0.0],[114.34798,-8.51871,0.0],[114.34915,-8.51414,0.0],[114.33712,-8.51214,0.0],[114.33699,-8.49958,0.0],[114.33474,-8.49507,0.0],[114.33015,-8.49237,0.0],[114.32962,-8.49044,0.0],[114.32183,-8.48651,0.0],[114.31678,-8.48623,0.0],[114.31192,-8.48426,0.0],[114.30566,-8.48511,0.0],[114.30278,-8.48291,0.0],[114.30259,-8.48066,0.0],[114.29492,-8.47794,0.0],[114.29032,-8.47893,0.0],[114.28923,-8.48039,0.0],[114.28939,-8.47892,0.0],[114.29218,-8.47829,0.0],[114.29236,-8.47178,0.0],[114.27798,-8.46195,0.0],[114.27329,-8.46182,0.0],[114.27309,-8.4609,0.0],[114.27547,-8.45005,0.0],[114.27562,-8.43585,0.0],[114.27453,-8.43495,0.0],[114.27555,-8.43487,0.0],[114.27486,-8.43118,0.0],[114.26805,-8.42974,0.0],[114.26836,-8.42127,0.0],[114.27022,-8.42178,0.0],[114.27007,-8.42293,0.0],[114.27624,-8.42289,0.0],[114.27654,-8.4203,0.0],[114.28305,-8.41975,0.0],[114.28317,-8.41187,0.0],[114.27949,-8.40641,0.0],[114.282,-8.4074,0.0],[114.28284,-8.4066,0.0],[114.28381,-8.40869,0.0],[114.29032,-8.41037,0.0],[114.29413,-8.40974,0.0],[114.30116,-8.41563,0.0],[114.30223,-8.41102,0.0],[114.30627,-8.41221,0.0],[114.30841,-8.41566,0.0],[114.31188,-8.41658,0.0],[114.31382,-8.41909,0.0],[114.32151,-8.41814,0.0],[114.32432,-8.39858,0.0],[114.32241,-8.39768,0.0],[114.3184,-8.38864,0.0],[114.32143,-8.37009,0.0],[114.32446,-8.37172,0.0],[114.32548,-8.37043,0.0],[114.32834,-8.37072,0.0],[114.32965,-8.37471,0.0],[114.33125,-8.37515,0.0],[114.33106,-8.37678,0.0],[114.33192,-8.37582,0.0],[114.33567,-8.37657,0.0],[114.33695,-8.3747,0.0],[114.33851,-8.37495,0.0],[114.33973,-8.37746,0.0],[114.34296,-8.37876,0.0],[114.34316,-8.38054,0.0],[114.34892,-8.38161,0.0],[114.34554,-8.40369,0.0],[114.34111,-8.41519,0.0],[114.33916,-8.42736,0.0],[114.34324,-8.44029,0.0],[114.34744,-8.43787,0.0],[114.35055,-8.43771,0.0],[114.34473,-8.44055,0.0],[114.34428,-8.4414,0.0],[114.3475,-8.44293,0.0],[114.34493,-8.44187,0.0],[114.34554,-8.44441,0.0],[114.34857,-8.44328,0.0],[114.35143,-8.43809,0.0],[114.34865,-8.44332,0.0],[114.34524,-8.44497,0.0],[114.34756,-8.44969,0.0],[114.34895,-8.44923,0.0],[114.34983,-8.45198,0.0],[114.35028,-8.45051,0.0],[114.35211,-8.4511,0.0],[114.35165,-8.45246,0.0],[114.35325,-8.45266,0.0],[114.35446,-8.45582,0.0],[114.35652,-8.45688,0.0],[114.35576,-8.45971,0.0],[114.35733,-8.46454,0.0],[114.35502,-8.46704,0.0],[114.35537,-8.47018,0.0],[114.35708,-8.47016,0.0],[114.35709,-8.47206,0.0],[114.35861,-8.47276,0.0],[114.36176,-8.4716,0.0],[114.36183,-8.47293,0.0],[114.36516,-8.47368,0.0],[114.36607,-8.47602,0.0],[114.36827,-8.4753,0.0],[114.36668,-8.47711,0.0],[114.36908,-8.47735,0.0],[114.37066,-8.47987,0.0],[114.36767,-8.48235,0.0],[114.36671,-8.48542,0.0],[114.36548,-8.48449,0.0],[114.36518,-8.48716,0.0],[114.36359,-8.48748,0.0],[114.36627,-8.48946,0.0],[114.36525,-8.49279,0.0],[114.36237,-8.49527,0.0],[114.35977,-8.49357,0.0],[114.36112,-8.49545,0.0],[114.35969,-8.49573,0.0],[114.36152,-8.49616,0.0],[114.36252,-8.49917,0.0],[114.35615,-8.50287,0.0],[114.36085,-8.50373,0.0],[114.35797,-8.50397,0.0],[114.35741,-8.5078,0.0],[114.35893,-8.50933,0.0],[114.35729,-8.50948,0.0],[114.35873,-8.51056,0.0],[114.35742,-8.5127,0.0],[114.35564,-8.51247,0.0],[114.35572,-8.5148,0.0],[114.35448,-8.51478,0.0],[114.35392,-8.52304,0.0],[114.35232,-8.52372,0.0]]]}},{"type":"Feature","properties":{"kecamatan":"Srono","kab_kota":"Banyuwangi"},"geometry":{"type":"Polygon","coordinates":[[[114.3184,-8.38864,0.0],[114.32241,-8.39768,0.0],[114.32432,-8.39858,0.0],[114.32151,-8.41814,0.0],[114.31382,-8.41909,0.0],[114.31188,-8.41658,0.0],[114.30841,-8.41566,0.0],[114.30627,-8.41221,0.0],[114.30223,-8.41102,0.0],[114.30116,-8.41563,0.0],[114.29413,-8.40974,0.0],[114.29032,-8.41037,0.0],[114.28381,-8.40869,0.0],[114.28284,-8.4066,0.0],[114.282,-8.4074,0.0],[114.27949,-8.40641,0.0],[114.28317,-8.41187,0.0],[114.28305,-8.41975,0.0],[114.27654,-8.4203,0.0],[114.27624,-8.42289,0.0],[114.26572,-8.42167,0.0],[114.26769,-8.41139,0.0],[114.26463,-8.40964,0.0],[114.26304,-8.41062,0.0],[114.25614,-8.40851,0.0],[114.24986,-8.40212,0.0],[114.24339,-8.40007,0.0],[114.24402,-8.39861,0.0],[114.24219,-8.39777,0.0],[114.24282,-8.3963,0.0],[114.23977,-8.39458,0.0],[114.23891,-8.39758,0.0],[114.23233,-8.39554,0.0],[114.23154,-8.39251,0.0],[114.22557,-8.39317,0.0],[114.22271,-8.3896,0.0],[114.21853,-8.38728,0.0],[114.21736,-8.38845,0.0],[114.21658,-8.38668,0.0],[114.21356,-8.38502,0.0],[114.21274,-8.38601,0.0],[114.2116,-8.38434,0.0],[114.21037,-8.39278,0.0],[114.20843,-8.39239,0.0],[114.20856,-8.39302,0.0],[114.20846,-8.39406,0.0],[114.20492,-8.3876,0.0],[114.20557,-8.38551,0.0],[114.20344,-8.37776,0.0],[114.2038,-8.37289,0.0],[114.20249,-8.37176,0.0],[114.20455,-8.36881,0.0],[114.2017,-8.36398,0.0],[114.19689,-8.36335,0.0],[114.19589,-8.35693,0.0],[114.19208,-8.35042,0.0],[114.19342,-8.34874,0.0],[114.19559,-8.34946,0.0],[114.19674,-8.3477,0.0],[114.19863,-8.34767,0.0],[114.1983,-8.34408,0.0],[114.20274,-8.34545,0.0],[114.20345,-8.34376,0.0],[114.20715,-8.34309,0.0],[114.20816,-8.34164,0.0],[114.20735,-8.34062,0.0],[114.21506,-8.33365,0.0],[114.21451,-8.3321,0.0],[114.21738,-8.32966,0.0],[114.21834,-8.33268,0.0],[114.22025,-8.33343,0.0],[114.22113,-8.33812,0.0],[114.22556,-8.339,0.0],[114.22644,-8.34125,0.0],[114.23,-8.34169,0.0],[114.23107,-8.34379,0.0],[114.23667,-8.34751,0.0],[114.2411,-8.34677,0.0],[114.24188,-8.34797,0.0],[114.24615,-8.34861,0.0],[114.25023,-8.35498,0.0],[114.25697,-8.35524,0.0],[114.25731,-8.3534,0.0],[114.26082,-8.35306,0.0],[114.27048,-8.35822,0.0],[114.27398,-8.35693,0.0],[114.27492,-8.35497,0.0],[114.27899,-8.35715,0.0],[114.28127,-8.35689,0.0],[114.28608,-8.36016,0.0],[114.28935,-8.35861,0.0],[114.29592,-8.35807,0.0],[114.29852,-8.36157,0.0],[114.3023,-8.36136,0.0],[114.30406,-8.3645,0.0],[114.30809,-8.36373,0.0],[114.30842,-8.36618,0.0],[114.3105,-8.36751,0.0],[114.31094,-8.36535,0.0],[114.31261,-8.36556,0.0],[114.31328,-8.3642,0.0],[114.31497,-8.36656,0.0],[114.31809,-8.36645,0.0],[114.31866,-8.36937,0.0],[114.32009,-8.36843,0.0],[114.32143,-8.3701,0.0],[114.3184,-8.38864,0.0]]]}},{"type":"Feature","properties":{"kecamatan":"Genteng","kab_kota":"Banyuwangi"},"geometry":{"type":"Polygon","coordinates":[[[114.1934,-8.35335,0.0],[114.19627,-8.358,0.0],[114.19689,-8.36335,0.0],[114.2017,-8.36398,0.0],[114.20455,-8.36881,0.0],[114.20249,-8.37176,0.0],[114.2038,-8.37289,0.0],[114.20344,-8.37776,0.0],[114.20557,-8.38551,0.0],[114.20492,-8.3876,0.0],[114.20845,-8.39348,0.0],[114.20671,-8.39506,0.0],[114.20199,-8.39503,0.0],[114.19253,-8.38896,0.0],[114.1905,-8.38607,0.0],[114.18581,-8.38511,0.0],[114.17948,-8.37974,0.0],[114.17997,-8.37814,0.0],[114.17662,-8.37481,0.0],[114.16996,-8.3806,0.0],[114.16931,-8.3792,0.0],[114.16606,-8.37827,0.0],[114.16639,-8.38038,0.0],[114.16329,-8.38234,0.0],[114.15825,-8.3811,0.0],[114.15717,-8.37652,0.0],[114.15329,-8.37601,0.0],[114.15365,-8.37459,0.0],[114.15174,-8.37426,0.0],[114.15194,-8.37229,0.0],[114.14931,-8.37215,0.0],[114.14955,-8.37094,0.0],[114.14782,-8.36984,0.0],[114.14319,-8.36842,0.0],[114.14326,-8.36942,0.0],[114.14025,-8.37011,0.0],[114.13356,-8.36988,0.0],[114.12815,-8.3658,0.0],[114.12704,-8.36831,0.0],[114.11999,-8.3666,0.0],[114.12383,-8.36189,0.0],[114.11927,-8.3596,0.0],[114.11925,-8.3585,0.0],[114.1051,-8.35633,0.0],[114.10434,-8.35102,0.0],[114.10617,-8.34507,0.0],[114.10906,-8.34344,0.0],[114.11001,-8.33927,0.0],[114.10828,-8.33378,0.0],[114.10915,-8.32911,0.0],[114.10805,-8.32195,0.0],[114.10988,-8.316,0.0],[114.10747,-8.30972,0.0],[114.10794,-8.30111,0.0],[114.10531,-8.28697,0.0],[114.10369,-8.28389,0.0],[114.10459,-8.27607,0.0],[114.10246,-8.27152,0.0],[114.1053,-8.27007,0.0],[114.11583,-8.29457,0.0],[114.11906,-8.2963,0.0],[114.12595,-8.30998,0.0],[114.13382,-8.31615,0.0],[114.13615,-8.31969,0.0],[114.13867,-8.32803,0.0],[114.14057,-8.3305,0.0],[114.14377,-8.34279,0.0],[114.14489,-8.34274,0.0],[114.14404,-8.33778,0.0],[114.14902,-8.33694,0.0],[114.14903,-8.33831,0.0],[114.15473,-8.3378,0.0],[114.15833,-8.32717,0.0],[114.16359,-8.32904,0.0],[114.17022,-8.33413,0.0],[114.16741,-8.33678,0.0],[114.17198,-8.3398,0.0],[114.17115,-8.34417,0.0],[114.17384,-8.34708,0.0],[114.17467,-8.34667,0.0],[114.17459,-8.34854,0.0],[114.17688,-8.35163,0.0],[114.18215,-8.35172,0.0],[114.1871,-8.34906,0.0],[114.1934,-8.35335,0.0]]]}},{"type":"Feature","properties":{"kecamatan":"Glenmore","kab_kota":"Banyuwangi"},"geometry":{"type":"Polygon","coordinates":[[[114.08664,-8.41355,0.0],[114.05591,-8.41709,0.0],[114.05367,-8.41679,0.0],[114.05258,-8.41344,0.0],[114.05136,-8.41343,0.0],[114.04201,-8.41738,0.0],[114.03636,-8.42293,0.0],[114.03024,-8.42593,0.0],[114.0269,-8.42508,0.0],[114.02403,-8.42148,0.0],[114.00802,-8.42439,0.0],[114.00003,-8.42982,0.0],[113.99747,-8.42991,0.0],[113.99284,-8.4254,0.0],[113.98826,-8.41515,0.0],[113.97694,-8.40859,0.0],[113.96852,-8.40759,0.0],[113.96847,-8.4065,0.0],[113.96437,-8.40547,0.0],[113.96289,-8.40333,0.0],[113.94971,-8.40396,0.0],[113.94716,-8.40163,0.0],[113.95078,-8.39279,0.0],[113.95945,-8.38453,0.0],[113.96132,-8.37091,0.0],[113.97101,-8.36423,0.0],[113.96987,-8.35658,0.0],[113.9748,-8.35277,0.0],[113.975,-8.35038,0.0],[113.98299,-8.34082,0.0],[113.98201,-8.3338,0.0],[113.98888,-8.32539,0.0],[113.98973,-8.31951,0.0],[113.99425,-8.31507,0.0],[113.99869,-8.30715,0.0],[114.00514,-8.30451,0.0],[114.00966,-8.30571,0.0],[114.01456,-8.30516,0.0],[114.01927,-8.30719,0.0],[114.02534,-8.30587,0.0],[114.02558,-8.30429,0.0],[114.02113,-8.30043,0.0],[114.02108,-8.29482,0.0],[114.01788,-8.28706,0.0],[114.01777,-8.28053,0.0],[114.01908,-8.27908,0.0],[114.02161,-8.27989,0.0],[114.02182,-8.27751,0.0],[114.02533,-8.27677,0.0],[114.02678,-8.26957,0.0],[114.03132,-8.26706,0.0],[114.03119,-8.26395,0.0],[114.03299,-8.26282,0.0],[114.03302,-8.25445,0.0],[114.03193,-8.25356,0.0],[114.03212,-8.25125,0.0],[114.03106,-8.25114,0.0],[114.03255,-8.24999,0.0],[114.03272,-8.24808,0.0],[114.03128,-8.2473,0.0],[114.03397,-8.24191,0.0],[114.0318,-8.23924,0.0],[114.03353,-8.23691,0.0],[114.03144,-8.23124,0.0],[114.03106,-8.22546,0.0],[114.03216,-8.22463,0.0],[114.03075,-8.21761,0.0],[114.0334,-8.21557,0.0],[114.03187,-8.21131,0.0],[114.03413,-8.2095,0.0],[114.03771,-8.20196,0.0],[114.03746,-8.18799,0.0],[114.04109,-8.18187,0.0],[114.03924,-8.17588,0.0],[114.04003,-8.16678,0.0],[114.0375,-8.15679,0.0],[114.04036,-8.13777,0.0],[114.04294,-8.1327,0.0],[114.05762,-8.15189,0.0],[114.06302,-8.15535,0.0],[114.07061,-8.16335,0.0],[114.07528,-8.16432,0.0],[114.07919,-8.16677,0.0],[114.08312,-8.17138,0.0],[114.08397,-8.17485,0.0],[114.08728,-8.17601,0.0],[114.08897,-8.17862,0.0],[114.09338,-8.17931,0.0],[114.09859,-8.18379,0.0],[114.10452,-8.19345,0.0],[114.10663,-8.20099,0.0],[114.10592,-8.20287,0.0],[114.10858,-8.20733,0.0],[114.10607,-8.20993,0.0],[114.08986,-8.2169,0.0],[114.08328,-8.21831,0.0],[114.08573,-8.2338,0.0],[114.08941,-8.23868,0.0],[114.09257,-8.23988,0.0],[114.10118,-8.26506,0.0],[114.1053,-8.27007,0.0],[114.10232,-8.27233,0.0],[114.10459,-8.27607,0.0],[114.10369,-8.28389,0.0],[114.10531,-8.28697,0.0],[114.10794,-8.30111,0.0],[114.10747,-8.30972,0.0],[114.10989,-8.31628,0.0],[114.10805,-8.32195,0.0],[114.10915,-8.32911,0.0],[114.10828,-8.33378,0.0],[114.11001,-8.33927,0.0],[114.10906,-8.34344,0.0],[114.10617,-8.34507,0.0],[114.10434,-8.35102,0.0],[114.10537,-8.35296,0.0],[114.10386,-8.36079,0.0],[114.10665,-8.36707,0.0],[114.10443,-8.37273,0.0],[114.10588,-8.37524,0.0],[114.10411,-8.3787,0.0],[114.10522,-8.38083,0.0],[114.10327,-8.38252,0.0],[114.10504,-8.38558,0.0],[114.10561,-8.39037,0.0],[114.10423,-8.39144,0.0],[114.10523,-8.39503,0.0],[114.10413,-8.39508,0.0],[114.10377,-8.4086,0.0],[114.09949,-8.41484,0.0],[114.09837,-8.42193,0.0],[114.09353,-8.41356,0.0],[114.08994,-8.41198,0.0],[114.08664,-8.41355,0.0]]]}},{"type":"Feature","properties":{"kecamatan":"Rogojampi","kab_kota":"Banyuwangi"},"geometry":{"type":"Polygon","coordinates":[[[114.30812,-8.33292,0.0],[114.30125,-8.35214,0.0],[114.3027,-8.35387,0.0],[114.30112,-8.36023,0.0],[114.29892,-8.36156,0.0],[114.29592,-8.35807,0.0],[114.28935,-8.35861,0.0],[114.28608,-8.36016,0.0],[114.28127,-8.35689,0.0],[114.27899,-8.35715,0.0],[114.27492,-8.35497,0.0],[114.27398,-8.35693,0.0],[114.27048,-8.35822,0.0],[114.26082,-8.35306,0.0],[114.25731,-8.3534,0.0],[114.25697,-8.35524,0.0],[114.25023,-8.35498,0.0],[114.24645,-8.35007,0.0],[114.24792,-8.34612,0.0],[114.24751,-8.34346,0.0],[114.25371,-8.33541,0.0],[114.25594,-8.3368,0.0],[114.25852,-8.33542,0.0],[114.26215,-8.33774,0.0],[114.26511,-8.33506,0.0],[114.2674,-8.32876,0.0],[114.27109,-8.3246,0.0],[114.27025,-8.32383,0.0],[114.27099,-8.32111,0.0],[114.26983,-8.32057,0.0],[114.27099,-8.31882,0.0],[114.27735,-8.32317,0.0],[114.2816,-8.32386,0.0],[114.27983,-8.32072,0.0],[114.28083,-8.31877,0.0],[114.28005,-8.31735,0.0],[114.27585,-8.31598,0.0],[114.27133,-8.31246,0.0],[114.27227,-8.30964,0.0],[114.27065,-8.3083,0.0],[114.27065,-8.30601,0.0],[114.2657,-8.30096,0.0],[114.26432,-8.30091,0.0],[114.26368,-8.29657,0.0],[114.26637,-8.29444,0.0],[114.26774,-8.29405,0.0],[114.2707,-8.2967,0.0],[114.27699,-8.29593,0.0],[114.28047,-8.29821,0.0],[114.28178,-8.2937,0.0],[114.28815,-8.29806,0.0],[114.28961,-8.29633,0.0],[114.2886,-8.29187,0.0],[114.29383,-8.28928,0.0],[114.29632,-8.29165,0.0],[114.30223,-8.29331,0.0],[114.30025,-8.29782,0.0],[114.30205,-8.29729,0.0],[114.30386,-8.29854,0.0],[114.31227,-8.29339,0.0],[114.32172,-8.29467,0.0],[114.32634,-8.29371,0.0],[114.33077,-8.29577,0.0],[114.32965,-8.29949,0.0],[114.33032,-8.30207,0.0],[114.33363,-8.30391,0.0],[114.33356,-8.30955,0.0],[114.33644,-8.31099,0.0],[114.33577,-8.31332,0.0],[114.33119,-8.31313,0.0],[114.33248,-8.3114,0.0],[114.32919,-8.31035,0.0],[114.32915,-8.31304,0.0],[114.32215,-8.31277,0.0],[114.32186,-8.31397,0.0],[114.32022,-8.31358,0.0],[114.31968,-8.31579,0.0],[114.31432,-8.3147,0.0],[114.31245,-8.31749,0.0],[114.3045,-8.31549,0.0],[114.30387,-8.31727,0.0],[114.29986,-8.31713,0.0],[114.29803,-8.31977,0.0],[114.29701,-8.31906,0.0],[114.29598,-8.32026,0.0],[114.29863,-8.32418,0.0],[114.30113,-8.3256,0.0],[114.29944,-8.32789,0.0],[114.30641,-8.32976,0.0],[114.30694,-8.32806,0.0],[114.31387,-8.32924,0.0],[114.31508,-8.33171,0.0],[114.32024,-8.33297,0.0],[114.31958,-8.3344,0.0],[114.31763,-8.33456,0.0],[114.31623,-8.33298,0.0],[114.31385,-8.33274,0.0],[114.31285,-8.33404,0.0],[114.31056,-8.33244,0.0],[114.30947,-8.33237,0.0],[114.30966,-8.33345,0.0],[114.30812,-8.33292,0.0]]]}},{"type":"Feature","properties":{"kecamatan":"Kabat","kab_kota":"Banyuwangi"},"geometry":{"type":"Polygon","coordinates":[[[114.30223,-8.29331,0.0],[114.29383,-8.28928,0.0],[114.2886,-8.29187,0.0],[114.28961,-8.29633,0.0],[114.28815,-8.29806,0.0],[114.28178,-8.2937,0.0],[114.28047,-8.29821,0.0],[114.27673,-8.29587,0.0],[114.2707,-8.2967,0.0],[114.26768,-8.29403,0.0],[114.26368,-8.29657,0.0],[114.25172,-8.28626,0.0],[114.24949,-8.27886,0.0],[114.25186,-8.27809,0.0],[114.25361,-8.27326,0.0],[114.25128,-8.27104,0.0],[114.25197,-8.269,0.0],[114.24992,-8.26814,0.0],[114.25121,-8.26402,0.0],[114.24647,-8.26046,0.0],[114.24467,-8.25726,0.0],[114.2479,-8.254,0.0],[114.24934,-8.25525,0.0],[114.25192,-8.2528,0.0],[114.25464,-8.25632,0.0],[114.26088,-8.25999,0.0],[114.26423,-8.25911,0.0],[114.26501,-8.25591,0.0],[114.27032,-8.25681,0.0],[114.26922,-8.25485,0.0],[114.26652,-8.25539,0.0],[114.26643,-8.25275,0.0],[114.26337,-8.24902,0.0],[114.2614,-8.24933,0.0],[114.25391,-8.24291,0.0],[114.25182,-8.23133,0.0],[114.25354,-8.22825,0.0],[114.25558,-8.22779,0.0],[114.25782,-8.22968,0.0],[114.26164,-8.23535,0.0],[114.26974,-8.23699,0.0],[114.27256,-8.23872,0.0],[114.28091,-8.24815,0.0],[114.2839,-8.24316,0.0],[114.28392,-8.24034,0.0],[114.28859,-8.23772,0.0],[114.293,-8.23772,0.0],[114.29486,-8.23469,0.0],[114.30114,-8.23983,0.0],[114.30284,-8.24043,0.0],[114.30366,-8.2392,0.0],[114.30726,-8.24108,0.0],[114.31126,-8.2373,0.0],[114.31747,-8.22681,0.0],[114.32057,-8.23004,0.0],[114.32339,-8.23098,0.0],[114.32436,-8.23364,0.0],[114.3365,-8.23815,0.0],[114.33571,-8.24064,0.0],[114.33785,-8.24264,0.0],[114.34782,-8.24698,0.0],[114.35334,-8.24399,0.0],[114.3581,-8.24921,0.0],[114.35723,-8.25283,0.0],[114.36009,-8.25564,0.0],[114.35972,-8.25676,0.0],[114.36672,-8.26012,0.0],[114.3658,-8.26169,0.0],[114.36933,-8.26297,0.0],[114.36891,-8.26477,0.0],[114.37163,-8.26564,0.0],[114.3669,-8.27605,0.0],[114.3659,-8.27519,0.0],[114.36754,-8.27281,0.0],[114.3668,-8.27205,0.0],[114.36233,-8.271,0.0],[114.36338,-8.27297,0.0],[114.36018,-8.27304,0.0],[114.35868,-8.27503,0.0],[114.35398,-8.27163,0.0],[114.35344,-8.26947,0.0],[114.34979,-8.26954,0.0],[114.3487,-8.28433,0.0],[114.34584,-8.29159,0.0],[114.34473,-8.29145,0.0],[114.34373,-8.29665,0.0],[114.33869,-8.29511,0.0],[114.32995,-8.29428,0.0],[114.32894,-8.29521,0.0],[114.32634,-8.29371,0.0],[114.32172,-8.29467,0.0],[114.31227,-8.29339,0.0],[114.30386,-8.29854,0.0],[114.30205,-8.29729,0.0],[114.30025,-8.29782,0.0],[114.30223,-8.29331,0.0]]]}},{"type":"Feature","properties":{"kecamatan":"Kalibaru","kab_kota":"Banyuwangi"},"geometry":{"type":"Polygon","coordinates":[[[113.99869,-8.30715,0.0],[113.98973,-8.31951,0.0],[113.98888,-8.32539,0.0],[113.98201,-8.3338,0.0],[113.98299,-8.34082,0.0],[113.975,-8.35038,0.0],[113.9748,-8.35277,0.0],[113.96987,-8.35658,0.0],[113.97101,-8.36423,0.0],[113.96132,-8.37091,0.0],[113.95945,-8.38453,0.0],[113.95078,-8.39279,0.0],[113.94716,-8.40163,0.0],[113.94513,-8.40025,0.0],[113.94427,-8.39739,0.0],[113.93596,-8.39288,0.0],[113.93301,-8.3888,0.0],[113.93042,-8.38885,0.0],[113.92522,-8.38625,0.0],[113.92349,-8.38399,0.0],[113.92721,-8.38003,0.0],[113.92651,-8.37912,0.0],[113.92775,-8.37671,0.0],[113.92716,-8.3752,0.0],[113.92443,-8.37508,0.0],[113.92379,-8.37199,0.0],[113.92165,-8.3699,0.0],[113.92237,-8.36722,0.0],[113.92141,-8.36437,0.0],[113.92253,-8.36346,0.0],[113.91871,-8.35849,0.0],[113.92122,-8.35732,0.0],[113.919,-8.35369,0.0],[113.9159,-8.35317,0.0],[113.91686,-8.35053,0.0],[113.91582,-8.34812,0.0],[113.91151,-8.35002,0.0],[113.91156,-8.34788,0.0],[113.90901,-8.34686,0.0],[113.9105,-8.34627,0.0],[113.91333,-8.33994,0.0],[113.92422,-8.33491,0.0],[113.92406,-8.33141,0.0],[113.9264,-8.32653,0.0],[113.92572,-8.32337,0.0],[113.92837,-8.31996,0.0],[113.92558,-8.31767,0.0],[113.92366,-8.31015,0.0],[113.92115,-8.30845,0.0],[113.92249,-8.30283,0.0],[113.92458,-8.29981,0.0],[113.92538,-8.29423,0.0],[113.92901,-8.29222,0.0],[113.93078,-8.28471,0.0],[113.93436,-8.28136,0.0],[113.93382,-8.27582,0.0],[113.935,-8.2708,0.0],[113.941,-8.26857,0.0],[113.94977,-8.26072,0.0],[113.9536,-8.24884,0.0],[113.96285,-8.24042,0.0],[113.9667,-8.23227,0.0],[113.96531,-8.22553,0.0],[113.96812,-8.22061,0.0],[113.96313,-8.2151,0.0],[113.96005,-8.20822,0.0],[113.95752,-8.20649,0.0],[113.96599,-8.19824,0.0],[113.97075,-8.18959,0.0],[113.98083,-8.18748,0.0],[113.99028,-8.18295,0.0],[113.99645,-8.1765,0.0],[114.00009,-8.16917,0.0],[114.0039,-8.16549,0.0],[114.00422,-8.16222,0.0],[114.02205,-8.14187,0.0],[114.02692,-8.13942,0.0],[114.03566,-8.14102,0.0],[114.04036,-8.13777,0.0],[114.0375,-8.15679,0.0],[114.04003,-8.16678,0.0],[114.03924,-8.17588,0.0],[114.04109,-8.18187,0.0],[114.03746,-8.18799,0.0],[114.03771,-8.20196,0.0],[114.03413,-8.2095,0.0],[114.03187,-8.21131,0.0],[114.0334,-8.21557,0.0],[114.03075,-8.21761,0.0],[114.03216,-8.22463,0.0],[114.03106,-8.22546,0.0],[114.03144,-8.23124,0.0],[114.03353,-8.23691,0.0],[114.0318,-8.23924,0.0],[114.03397,-8.24191,0.0],[114.03128,-8.2473,0.0],[114.03272,-8.24808,0.0],[114.03255,-8.24999,0.0],[114.03106,-8.25114,0.0],[114.03212,-8.25125,0.0],[114.03193,-8.25356,0.0],[114.03302,-8.25445,0.0],[114.03299,-8.26282,0.0],[114.03119,-8.26395,0.0],[114.03132,-8.26706,0.0],[114.02678,-8.26957,0.0],[114.02533,-8.27677,0.0],[114.02182,-8.27751,0.0],[114.02161,-8.27989,0.0],[114.01908,-8.27908,0.0],[114.01777,-8.28053,0.0],[114.01788,-8.28706,0.0],[114.02108,-8.29482,0.0],[114.02113,-8.30043,0.0],[114.02558,-8.30429,0.0],[114.02534,-8.30587,0.0],[114.01927,-8.30719,0.0],[114.01456,-8.30516,0.0],[114.00299,-8.30474,0.0],[113.99869,-8.30715,0.0]]]}},{"type":"Feature","properties":{"kecamatan":"Singojuruh","kab_kota":"Banyuwangi"},"geometry":{"type":"Polygon","coordinates":[[[114.22556,-8.339,0.0],[114.22113,-8.33812,0.0],[114.22015,-8.33322,0.0],[114.21834,-8.33268,0.0],[114.21604,-8.3278,0.0],[114.21566,-8.32371,0.0],[114.21467,-8.3247,0.0],[114.21128,-8.32328,0.0],[114.20947,-8.31988,0.0],[114.21203,-8.31456,0.0],[114.21818,-8.30859,0.0],[114.21691,-8.30558,0.0],[114.21165,-8.29973,0.0],[114.21033,-8.30074,0.0],[114.20191,-8.29841,0.0],[114.1981,-8.29347,0.0],[114.19772,-8.29107,0.0],[114.19231,-8.28562,0.0],[114.18892,-8.27594,0.0],[114.18289,-8.26715,0.0],[114.17906,-8.26687,0.0],[114.1754,-8.2638,0.0],[114.17458,-8.26092,0.0],[114.17808,-8.25958,0.0],[114.17872,-8.26034,0.0],[114.17775,-8.25346,0.0],[114.17977,-8.24976,0.0],[114.18337,-8.25113,0.0],[114.18559,-8.25465,0.0],[114.1869,-8.25426,0.0],[114.18652,-8.25234,0.0],[114.18786,-8.252,0.0],[114.18834,-8.2533,0.0],[114.19129,-8.25425,0.0],[114.19473,-8.25227,0.0],[114.19877,-8.26253,0.0],[114.20195,-8.26528,0.0],[114.20119,-8.26676,0.0],[114.20446,-8.27358,0.0],[114.20979,-8.27943,0.0],[114.21312,-8.28753,0.0],[114.22168,-8.29369,0.0],[114.22243,-8.29221,0.0],[114.22847,-8.29382,0.0],[114.23116,-8.29096,0.0],[114.22877,-8.28735,0.0],[114.23272,-8.28111,0.0],[114.2317,-8.2746,0.0],[114.23041,-8.27352,0.0],[114.23139,-8.27258,0.0],[114.23049,-8.27134,0.0],[114.23181,-8.27036,0.0],[114.23383,-8.27041,0.0],[114.24083,-8.27805,0.0],[114.2428,-8.27716,0.0],[114.24681,-8.28048,0.0],[114.24772,-8.27972,0.0],[114.24686,-8.27863,0.0],[114.24862,-8.27951,0.0],[114.25395,-8.28912,0.0],[114.26381,-8.29668,0.0],[114.26432,-8.30091,0.0],[114.2657,-8.30096,0.0],[114.27065,-8.30601,0.0],[114.27065,-8.3083,0.0],[114.27227,-8.30964,0.0],[114.27133,-8.31246,0.0],[114.27585,-8.31598,0.0],[114.27954,-8.31692,0.0],[114.28083,-8.31877,0.0],[114.27983,-8.32072,0.0],[114.28167,-8.32342,0.0],[114.28044,-8.32438,0.0],[114.27099,-8.31882,0.0],[114.26983,-8.32057,0.0],[114.27099,-8.32111,0.0],[114.27025,-8.32383,0.0],[114.27109,-8.3246,0.0],[114.2674,-8.32876,0.0],[114.26511,-8.33506,0.0],[114.26215,-8.33774,0.0],[114.25852,-8.33542,0.0],[114.25594,-8.3368,0.0],[114.25371,-8.33541,0.0],[114.24751,-8.34346,0.0],[114.24792,-8.34612,0.0],[114.24645,-8.34894,0.0],[114.24188,-8.34797,0.0],[114.2411,-8.34677,0.0],[114.23894,-8.3478,0.0],[114.23486,-8.34669,0.0],[114.23,-8.34169,0.0],[114.22652,-8.3413,0.0],[114.22556,-8.339,0.0]]]}}]}