{"type":"FeatureCollection","features":[{"type":"Feature","properties":{"kecamatan":"Ngrambe","kab_kota":"Ngawi"},"geometry":{"type":"Polygon","coordinates":[[[111.21904,-7.54734,0.0],[111.21498,-7.55178,0.0],[111.21402,-7.55634,0.0],[111.20863,-7.5657,0.0],[111.20837,-7.56917,0.0],[111.20416,-7.57302,0.0],[111.20254,-7.58197,0.0],[111.19734,-7.58433,0.0],[111.19698,-7.56728,0.0],[111.19526,-7.55719,0.0],[111.1891,-7.54826,0.0],[111.18777,-7.53462,0.0],[111.19207,-7.53102,0.0],[111.19387,-7.52437,0.0],[111.19131,-7.52263,0.0],[111.18421,-7.52271,0.0],[111.18503,-7.52108,0.0],[111.18391,-7.51909,0.0],[111.18537,-7.51457,0.0],[111.18329,-7.51268,0.0],[111.18511,-7.5091,0.0],[111.18303,-7.50392,0.0],[111.18463,-7.49952,0.0],[111.18414,-7.49567,0.0],[111.18838,-7.49098,0.0],[111.18875,-7.48804,0.0],[111.19023,-7.48722,0.0],[111.18937,-7.48647,0.0],[111.19069,-7.48656,0.0],[111.18974,-7.48134,0.0],[111.19313,-7.47782,0.0],[111.19482,-7.47035,0.0],[111.19833,-7.46782,0.0],[111.19775,-7.46649,0.0],[111.19955,-7.46456,0.0],[111.19916,-7.46009,0.0],[111.20086,-7.454,0.0],[111.19992,-7.45206,0.0],[111.20201,-7.45139,0.0],[111.20463,-7.45267,0.0],[111.20483,-7.45446,0.0],[111.20248,-7.45392,0.0],[111.20259,-7.45731,0.0],[111.2056,-7.4559,0.0],[111.20829,-7.45953,0.0],[111.20921,-7.45904,0.0],[111.20939,-7.45715,0.0],[111.21139,-7.45599,0.0],[111.21097,-7.45405,0.0],[111.21327,-7.45397,0.0],[111.21167,-7.44389,0.0],[111.21452,-7.43689,0.0],[111.22005,-7.43974,0.0],[111.22023,-7.44997,0.0],[111.22281,-7.45745,0.0],[111.22141,-7.45878,0.0],[111.2224,-7.46102,0.0],[111.21979,-7.46635,0.0],[111.22026,-7.46847,0.0],[111.22951,-7.47033,0.0],[111.24067,-7.46303,0.0],[111.26694,-7.47615,0.0],[111.26559,-7.47679,0.0],[111.26665,-7.47874,0.0],[111.26587,-7.48048,0.0],[111.26235,-7.48087,0.0],[111.26289,-7.48438,0.0],[111.25825,-7.48777,0.0],[111.25944,-7.49093,0.0],[111.25737,-7.49262,0.0],[111.25688,-7.49619,0.0],[111.25585,-7.4953,0.0],[111.25523,-7.49655,0.0],[111.25627,-7.49698,0.0],[111.25384,-7.49858,0.0],[111.25372,-7.50447,0.0],[111.25134,-7.50586,0.0],[111.24947,-7.50927,0.0],[111.24737,-7.50954,0.0],[111.24704,-7.5117,0.0],[111.24485,-7.51384,0.0],[111.24355,-7.51932,0.0],[111.24474,-7.52065,0.0],[111.2428,-7.52059,0.0],[111.24238,-7.52252,0.0],[111.23639,-7.52638,0.0],[111.23587,-7.52893,0.0],[111.22642,-7.53334,0.0],[111.22526,-7.53835,0.0],[111.22156,-7.53999,0.0],[111.21955,-7.54253,0.0],[111.21904,-7.54734,0.0]]]}},{"type":"Feature","properties":{"kecamatan":"Jogorogo","kab_kota":"Ngawi"},"geometry":{"type":"Polygon","coordinates":[[[111.24462,-7.58511,0.0],[111.23302,-7.58931,0.0],[111.22741,-7.59561,0.0],[111.22201,-7.59699,0.0],[111.21825,-7.60292,0.0],[111.20547,-7.60765,0.0],[111.20079,-7.61159,0.0],[111.19495,-7.61987,0.0],[111.19402,-7.61836,0.0],[111.19671,-7.61061,0.0],[111.19393,-7.6055,0.0],[111.1952,-7.59549,0.0],[111.19771,-7.58757,0.0],[111.19734,-7.58433,0.0],[111.20254,-7.58197,0.0],[111.20416,-7.57302,0.0],[111.20853,-7.56889,0.0],[111.20863,-7.5657,0.0],[111.21402,-7.55634,0.0],[111.21498,-7.55178,0.0],[111.21904,-7.54734,0.0],[111.22058,-7.54077,0.0],[111.22526,-7.53835,0.0],[111.22642,-7.53334,0.0],[111.23587,-7.52893,0.0],[111.23639,-7.52638,0.0],[111.24238,-7.52252,0.0],[111.2428,-7.52059,0.0],[111.24474,-7.52065,0.0],[111.24355,-7.51932,0.0],[111.24485,-7.51384,0.0],[111.24704,-7.5117,0.0],[111.24737,-7.50954,0.0],[111.24947,-7.50927,0.0],[111.25134,-7.50586,0.0],[111.25372,-7.50447,0.0],[111.25384,-7.49858,0.0],[111.25627,-7.49698,0.0],[111.25523,-7.49655,0.0],[111.25585,-7.4953,0.0],[111.25688,-7.49619,0.0],[111.25737,-7.49262,0.0],[111.25944,-7.49093,0.0],[111.25825,-7.48777,0.0],[111.26289,-7.48438,0.0],[111.26235,-7.48087,0.0],[111.26587,-7.48048,0.0],[111.26665,-7.47874,0.0],[111.26566,-7.4766,0.0],[111.27445,-7.47295,0.0],[111.27466,-7.46987,0.0],[111.27597,-7.46908,0.0],[111.28623,-7.46732,0.0],[111.28003,-7.47284,0.0],[111.2789,-7.47857,0.0],[111.27635,-7.48013,0.0],[111.27238,-7.48583,0.0],[111.26698,-7.49911,0.0],[111.26236,-7.50247,0.0],[111.26859,-7.50453,0.0],[111.27351,-7.50462,0.0],[111.27836,-7.5006,0.0],[111.28047,-7.50324,0.0],[111.28408,-7.50331,0.0],[111.28671,-7.49944,0.0],[111.29415,-7.4966,0.0],[111.29523,-7.49382,0.0],[111.29853,-7.49442,0.0],[111.30117,-7.50067,0.0],[111.30501,-7.50315,0.0],[111.31015,-7.504,0.0],[111.31321,-7.50674,0.0],[111.31689,-7.50645,0.0],[111.31737,-7.50533,0.0],[111.32168,-7.50677,0.0],[111.32828,-7.50637,0.0],[111.32832,-7.50861,0.0],[111.32652,-7.50851,0.0],[111.32569,-7.50998,0.0],[111.32648,-7.51094,0.0],[111.32387,-7.51148,0.0],[111.32308,-7.51312,0.0],[111.31769,-7.51505,0.0],[111.317,-7.51635,0.0],[111.31378,-7.51611,0.0],[111.31422,-7.51752,0.0],[111.31248,-7.51742,0.0],[111.30975,-7.51992,0.0],[111.31026,-7.52131,0.0],[111.30686,-7.52122,0.0],[111.30626,-7.52448,0.0],[111.30348,-7.52456,0.0],[111.30286,-7.52607,0.0],[111.29385,-7.526,0.0],[111.28276,-7.53443,0.0],[111.27954,-7.53562,0.0],[111.27966,-7.53756,0.0],[111.27805,-7.53876,0.0],[111.26905,-7.54166,0.0],[111.26499,-7.54628,0.0],[111.26414,-7.55077,0.0],[111.2583,-7.55671,0.0],[111.25828,-7.56034,0.0],[111.26134,-7.5617,0.0],[111.26034,-7.56332,0.0],[111.26351,-7.56212,0.0],[111.26581,-7.56315,0.0],[111.26187,-7.57082,0.0],[111.2615,-7.57495,0.0],[111.24462,-7.58511,0.0]]]}},{"type":"Feature","properties":{"kecamatan":"Sine","kab_kota":"Ngawi"},"geometry":{"type":"Polygon","coordinates":[[[111.15381,-7.54956,0.0],[111.15069,-7.54382,0.0],[111.15247,-7.5416,0.0],[111.15117,-7.54065,0.0],[111.15205,-7.53931,0.0],[111.15095,-7.53875,0.0],[111.14989,-7.53142,0.0],[111.14635,-7.52759,0.0],[111.14666,-7.52582,0.0],[111.15208,-7.52231,0.0],[111.15177,-7.52073,0.0],[111.15043,-7.52049,0.0],[111.15073,-7.51785,0.0],[111.14824,-7.51653,0.0],[111.15045,-7.51115,0.0],[111.15368,-7.5096,0.0],[111.15215,-7.50731,0.0],[111.15343,-7.50569,0.0],[111.15268,-7.49953,0.0],[111.14825,-7.49412,0.0],[111.14483,-7.49337,0.0],[111.14149,-7.48631,0.0],[111.13937,-7.4868,0.0],[111.13515,-7.4836,0.0],[111.13699,-7.48203,0.0],[111.13603,-7.48142,0.0],[111.13676,-7.47989,0.0],[111.13518,-7.47906,0.0],[111.13542,-7.47725,0.0],[111.13321,-7.47457,0.0],[111.13512,-7.47345,0.0],[111.13393,-7.47203,0.0],[111.1355,-7.47102,0.0],[111.13442,-7.46837,0.0],[111.13717,-7.46549,0.0],[111.13463,-7.46197,0.0],[111.13331,-7.46201,0.0],[111.13212,-7.46431,0.0],[111.13209,-7.46098,0.0],[111.12861,-7.46107,0.0],[111.13102,-7.4574,0.0],[111.13009,-7.45354,0.0],[111.12531,-7.4506,0.0],[111.12474,-7.44794,0.0],[111.12645,-7.4452,0.0],[111.12977,-7.4452,0.0],[111.13548,-7.44968,0.0],[111.14168,-7.44985,0.0],[111.14277,-7.44835,0.0],[111.1457,-7.45161,0.0],[111.14963,-7.44818,0.0],[111.15792,-7.44508,0.0],[111.15875,-7.43176,0.0],[111.16139,-7.4304,0.0],[111.16325,-7.43412,0.0],[111.16834,-7.43857,0.0],[111.17414,-7.44109,0.0],[111.18288,-7.45022,0.0],[111.19361,-7.45102,0.0],[111.19554,-7.44909,0.0],[111.20108,-7.45146,0.0],[111.19992,-7.45206,0.0],[111.20086,-7.454,0.0],[111.19916,-7.46009,0.0],[111.19955,-7.46456,0.0],[111.19775,-7.46649,0.0],[111.19833,-7.46782,0.0],[111.19482,-7.47035,0.0],[111.19313,-7.47782,0.0],[111.18974,-7.48134,0.0],[111.19069,-7.48656,0.0],[111.18937,-7.48647,0.0],[111.19023,-7.48722,0.0],[111.18875,-7.48804,0.0],[111.18838,-7.49098,0.0],[111.18414,-7.49567,0.0],[111.18463,-7.49952,0.0],[111.18303,-7.50392,0.0],[111.18511,-7.5091,0.0],[111.18329,-7.51268,0.0],[111.18537,-7.51457,0.0],[111.18391,-7.51909,0.0],[111.18503,-7.52108,0.0],[111.18421,-7.52271,0.0],[111.19131,-7.52263,0.0],[111.19387,-7.52437,0.0],[111.19207,-7.53102,0.0],[111.18777,-7.53462,0.0],[111.1891,-7.54826,0.0],[111.19497,-7.55608,0.0],[111.19698,-7.56727,0.0],[111.19642,-7.57699,0.0],[111.19771,-7.58757,0.0],[111.1952,-7.59549,0.0],[111.19393,-7.6055,0.0],[111.19222,-7.60316,0.0],[111.16833,-7.59022,0.0],[111.16435,-7.58039,0.0],[111.16179,-7.57835,0.0],[111.16068,-7.5736,0.0],[111.15235,-7.56142,0.0],[111.15213,-7.55122,0.0],[111.15381,-7.54956,0.0]]]}},{"type":"Feature","properties":{"kecamatan":"Kwadungan","kab_kota":"Ngawi"},"geometry":{"type":"Polygon","coordinates":[[[111.50258,-7.51887,0.0],[111.50322,-7.51603,0.0],[111.49729,-7.51329,0.0],[111.49464,-7.51717,0.0],[111.48839,-7.51379,0.0],[111.48658,-7.51606,0.0],[111.48092,-7.51733,0.0],[111.47867,-7.517,0.0],[111.47878,-7.5153,0.0],[111.47636,-7.51583,0.0],[111.47506,-7.513,0.0],[111.46821,-7.5106,0.0],[111.46909,-7.507,0.0],[111.46656,-7.50793,0.0],[111.46676,-7.50465,0.0],[111.46902,-7.50468,0.0],[111.47158,-7.4978,0.0],[111.47352,-7.49787,0.0],[111.4749,-7.49274,0.0],[111.4692,-7.4916,0.0],[111.46892,-7.48658,0.0],[111.46814,-7.48783,0.0],[111.46661,-7.4872,0.0],[111.46628,-7.48859,0.0],[111.46401,-7.48744,0.0],[111.4637,-7.48502,0.0],[111.46408,-7.48373,0.0],[111.46809,-7.48502,0.0],[111.47111,-7.48382,0.0],[111.4716,-7.48258,0.0],[111.47002,-7.48151,0.0],[111.47118,-7.47628,0.0],[111.47712,-7.47544,0.0],[111.47972,-7.48072,0.0],[111.48321,-7.47737,0.0],[111.48484,-7.47747,0.0],[111.48745,-7.48688,0.0],[111.48987,-7.47977,0.0],[111.49135,-7.47856,0.0],[111.4927,-7.4787,0.0],[111.4951,-7.48409,0.0],[111.50152,-7.48137,0.0],[111.50134,-7.48552,0.0],[111.49875,-7.49156,0.0],[111.4968,-7.49204,0.0],[111.49703,-7.49431,0.0],[111.50014,-7.49314,0.0],[111.50402,-7.48902,0.0],[111.50569,-7.48906,0.0],[111.50703,-7.49184,0.0],[111.50421,-7.49447,0.0],[111.50453,-7.49649,0.0],[111.51139,-7.49953,0.0],[111.51523,-7.5042,0.0],[111.51691,-7.50856,0.0],[111.52258,-7.51394,0.0],[111.52926,-7.51597,0.0],[111.53185,-7.51978,0.0],[111.53533,-7.51969,0.0],[111.53527,-7.51543,0.0],[111.5405,-7.51672,0.0],[111.54167,-7.51878,0.0],[111.54451,-7.51506,0.0],[111.54622,-7.5156,0.0],[111.54583,-7.5143,0.0],[111.54736,-7.51253,0.0],[111.54977,-7.51333,0.0],[111.55366,-7.50987,0.0],[111.55877,-7.51077,0.0],[111.55763,-7.5157,0.0],[111.55859,-7.52028,0.0],[111.55608,-7.52273,0.0],[111.55899,-7.52632,0.0],[111.55637,-7.52953,0.0],[111.55448,-7.52896,0.0],[111.55385,-7.53062,0.0],[111.55318,-7.52829,0.0],[111.55262,-7.52908,0.0],[111.55252,-7.52768,0.0],[111.55052,-7.52688,0.0],[111.5522,-7.53002,0.0],[111.55148,-7.53186,0.0],[111.55315,-7.53391,0.0],[111.55199,-7.53471,0.0],[111.5501,-7.53196,0.0],[111.54855,-7.53205,0.0],[111.5492,-7.53427,0.0],[111.54739,-7.53719,0.0],[111.55318,-7.53837,0.0],[111.55399,-7.53631,0.0],[111.55984,-7.53643,0.0],[111.55952,-7.54102,0.0],[111.56329,-7.5412,0.0],[111.56229,-7.54546,0.0],[111.5615,-7.54676,0.0],[111.55926,-7.54563,0.0],[111.5562,-7.54693,0.0],[111.55334,-7.54495,0.0],[111.55026,-7.54516,0.0],[111.54996,-7.54339,0.0],[111.54802,-7.54224,0.0],[111.54821,-7.53892,0.0],[111.54522,-7.53924,0.0],[111.54109,-7.53585,0.0],[111.54025,-7.53793,0.0],[111.53605,-7.53819,0.0],[111.53543,-7.54543,0.0],[111.53033,-7.54675,0.0],[111.52482,-7.54448,0.0],[111.52444,-7.54105,0.0],[111.52241,-7.54027,0.0],[111.52274,-7.53836,0.0],[111.51814,-7.54011,0.0],[111.50817,-7.53689,0.0],[111.51181,-7.52361,0.0],[111.50258,-7.51887,0.0]]]}},{"type":"Feature","properties":{"kecamatan":"Karangjati","kab_kota":"Ngawi"},"geometry":{"type":"Polygon","coordinates":[[[111.58999,-7.5011,0.0],[111.59053,-7.50705,0.0],[111.58885,-7.50547,0.0],[111.58812,-7.50664,0.0],[111.58759,-7.50535,0.0],[111.57913,-7.5029,0.0],[111.57888,-7.50075,0.0],[111.57741,-7.50374,0.0],[111.57598,-7.50412,0.0],[111.56797,-7.50326,0.0],[111.57119,-7.49109,0.0],[111.56938,-7.49248,0.0],[111.56655,-7.49168,0.0],[111.56732,-7.49313,0.0],[111.56638,-7.49496,0.0],[111.5605,-7.49399,0.0],[111.5606,-7.49543,0.0],[111.55845,-7.49661,0.0],[111.5573,-7.49636,0.0],[111.55836,-7.49282,0.0],[111.55672,-7.48944,0.0],[111.55315,-7.48953,0.0],[111.54468,-7.48554,0.0],[111.54885,-7.47531,0.0],[111.54814,-7.47169,0.0],[111.54966,-7.47134,0.0],[111.55002,-7.46732,0.0],[111.54881,-7.46648,0.0],[111.55039,-7.46596,0.0],[111.55197,-7.4614,0.0],[111.55658,-7.46187,0.0],[111.55763,-7.45983,0.0],[111.56024,-7.46017,0.0],[111.56183,-7.45905,0.0],[111.56131,-7.45692,0.0],[111.56401,-7.4531,0.0],[111.56641,-7.44106,0.0],[111.57033,-7.4415,0.0],[111.57227,-7.43849,0.0],[111.57817,-7.43901,0.0],[111.5827,-7.44488,0.0],[111.58459,-7.4435,0.0],[111.5865,-7.44463,0.0],[111.60069,-7.44419,0.0],[111.60218,-7.44517,0.0],[111.60166,-7.44692,0.0],[111.60294,-7.44931,0.0],[111.6058,-7.44765,0.0],[111.60682,-7.44388,0.0],[111.60844,-7.44368,0.0],[111.60887,-7.44052,0.0],[111.61529,-7.4386,0.0],[111.61539,-7.43335,0.0],[111.61877,-7.4311,0.0],[111.61801,-7.42714,0.0],[111.61849,-7.42512,0.0],[111.62089,-7.42348,0.0],[111.62125,-7.41352,0.0],[111.62233,-7.41272,0.0],[111.6183,-7.40565,0.0],[111.62198,-7.4001,0.0],[111.62693,-7.38692,0.0],[111.63072,-7.38974,0.0],[111.65471,-7.39913,0.0],[111.67361,-7.41066,0.0],[111.67249,-7.41384,0.0],[111.6701,-7.41596,0.0],[111.66846,-7.42316,0.0],[111.66335,-7.42398,0.0],[111.66127,-7.42695,0.0],[111.65966,-7.42722,0.0],[111.65843,-7.43361,0.0],[111.65487,-7.4367,0.0],[111.65522,-7.43851,0.0],[111.65061,-7.43867,0.0],[111.65238,-7.44467,0.0],[111.65081,-7.44584,0.0],[111.65223,-7.45043,0.0],[111.64382,-7.45188,0.0],[111.64178,-7.45098,0.0],[111.64217,-7.45481,0.0],[111.64009,-7.45982,0.0],[111.63772,-7.46046,0.0],[111.63714,-7.46278,0.0],[111.63443,-7.4615,0.0],[111.63143,-7.46388,0.0],[111.62905,-7.46334,0.0],[111.62681,-7.46713,0.0],[111.62355,-7.46722,0.0],[111.62274,-7.46881,0.0],[111.62184,-7.46695,0.0],[111.61644,-7.46477,0.0],[111.61295,-7.46626,0.0],[111.61256,-7.46704,0.0],[111.61481,-7.468,0.0],[111.61236,-7.46902,0.0],[111.61048,-7.47607,0.0],[111.60896,-7.47564,0.0],[111.60745,-7.47881,0.0],[111.60671,-7.47557,0.0],[111.60492,-7.47677,0.0],[111.60398,-7.47918,0.0],[111.60474,-7.48027,0.0],[111.60248,-7.48084,0.0],[111.60376,-7.48374,0.0],[111.60028,-7.48269,0.0],[111.60064,-7.48522,0.0],[111.60291,-7.48491,0.0],[111.59966,-7.48638,0.0],[111.59924,-7.4889,0.0],[111.59782,-7.48853,0.0],[111.59985,-7.48931,0.0],[111.59942,-7.49097,0.0],[111.59781,-7.48954,0.0],[111.5967,-7.49083,0.0],[111.59578,-7.49422,0.0],[111.59785,-7.49538,0.0],[111.59608,-7.49566,0.0],[111.59578,-7.49766,0.0],[111.59371,-7.49775,0.0],[111.5943,-7.49907,0.0],[111.59167,-7.50244,0.0],[111.58999,-7.5011,0.0]]]}},{"type":"Feature","properties":{"kecamatan":"Kendal","kab_kota":"Ngawi"},"geometry":{"type":"Polygon","coordinates":[[[111.26028,-7.59835,0.0],[111.25583,-7.59944,0.0],[111.25294,-7.6032,0.0],[111.24899,-7.60026,0.0],[111.2401,-7.60634,0.0],[111.23199,-7.60992,0.0],[111.2269,-7.60948,0.0],[111.22562,-7.61104,0.0],[111.22116,-7.61141,0.0],[111.21696,-7.61444,0.0],[111.19979,-7.61601,0.0],[111.19495,-7.61987,0.0],[111.20079,-7.61159,0.0],[111.20547,-7.60765,0.0],[111.21825,-7.60292,0.0],[111.22172,-7.59722,0.0],[111.22741,-7.59561,0.0],[111.23302,-7.58931,0.0],[111.24438,-7.58524,0.0],[111.2615,-7.57495,0.0],[111.26187,-7.57082,0.0],[111.26581,-7.56315,0.0],[111.26351,-7.56212,0.0],[111.26034,-7.56332,0.0],[111.26134,-7.5617,0.0],[111.25828,-7.56034,0.0],[111.2583,-7.55671,0.0],[111.26414,-7.55077,0.0],[111.26499,-7.54628,0.0],[111.26905,-7.54166,0.0],[111.27805,-7.53876,0.0],[111.27966,-7.53756,0.0],[111.27954,-7.53562,0.0],[111.28276,-7.53443,0.0],[111.29385,-7.526,0.0],[111.30286,-7.52607,0.0],[111.30348,-7.52456,0.0],[111.30626,-7.52448,0.0],[111.30686,-7.52122,0.0],[111.31021,-7.52135,0.0],[111.30975,-7.51992,0.0],[111.31248,-7.51742,0.0],[111.31422,-7.51752,0.0],[111.31378,-7.51611,0.0],[111.317,-7.51635,0.0],[111.31769,-7.51505,0.0],[111.32308,-7.51312,0.0],[111.32387,-7.51148,0.0],[111.32648,-7.51094,0.0],[111.32639,-7.50863,0.0],[111.32832,-7.50861,0.0],[111.32915,-7.5063,0.0],[111.33755,-7.50687,0.0],[111.34241,-7.50437,0.0],[111.34328,-7.50617,0.0],[111.34513,-7.50464,0.0],[111.35044,-7.50359,0.0],[111.35805,-7.50358,0.0],[111.35927,-7.50204,0.0],[111.35734,-7.5185,0.0],[111.3536,-7.52502,0.0],[111.35479,-7.52587,0.0],[111.35306,-7.52766,0.0],[111.35336,-7.52951,0.0],[111.35162,-7.53046,0.0],[111.35151,-7.53288,0.0],[111.35255,-7.53351,0.0],[111.34941,-7.53412,0.0],[111.34919,-7.53634,0.0],[111.35439,-7.53644,0.0],[111.35597,-7.5394,0.0],[111.36167,-7.54325,0.0],[111.36149,-7.54534,0.0],[111.35994,-7.548,0.0],[111.35474,-7.55015,0.0],[111.34766,-7.55013,0.0],[111.34527,-7.56293,0.0],[111.34685,-7.56608,0.0],[111.3453,-7.56915,0.0],[111.34104,-7.5726,0.0],[111.33974,-7.57242,0.0],[111.33996,-7.57745,0.0],[111.33015,-7.58175,0.0],[111.32917,-7.58426,0.0],[111.3222,-7.58418,0.0],[111.31599,-7.58905,0.0],[111.31507,-7.58886,0.0],[111.31609,-7.58585,0.0],[111.31495,-7.58296,0.0],[111.30924,-7.58565,0.0],[111.30635,-7.58523,0.0],[111.30151,-7.58682,0.0],[111.29816,-7.59359,0.0],[111.29546,-7.59342,0.0],[111.29681,-7.59529,0.0],[111.29618,-7.59926,0.0],[111.29428,-7.60216,0.0],[111.29248,-7.60205,0.0],[111.29111,-7.60369,0.0],[111.2884,-7.60245,0.0],[111.28767,-7.60337,0.0],[111.27502,-7.60343,0.0],[111.27561,-7.60171,0.0],[111.27413,-7.60056,0.0],[111.26498,-7.59865,0.0],[111.26106,-7.59977,0.0],[111.26028,-7.59835,0.0]]]}},{"type":"Feature","properties":{"kecamatan":"Geneng","kab_kota":"Ngawi"},"geometry":{"type":"Polygon","coordinates":[[[111.43583,-7.52065,0.0],[111.43276,-7.52978,0.0],[111.42921,-7.53179,0.0],[111.42719,-7.53193,0.0],[111.4258,-7.53054,0.0],[111.42469,-7.53445,0.0],[111.42319,-7.53404,0.0],[111.42239,-7.53162,0.0],[111.42824,-7.51458,0.0],[111.42962,-7.51457,0.0],[111.42957,-7.51161,0.0],[111.42944,-7.5104,0.0],[111.42723,-7.51038,0.0],[111.42792,-7.51226,0.0],[111.42668,-7.51412,0.0],[111.42209,-7.51318,0.0],[111.42254,-7.51052,0.0],[111.42084,-7.50941,0.0],[111.42055,-7.50526,0.0],[111.42173,-7.5031,0.0],[111.4208,-7.49911,0.0],[111.41164,-7.49799,0.0],[111.41166,-7.49969,0.0],[111.41344,-7.50058,0.0],[111.40661,-7.50149,0.0],[111.40533,-7.50348,0.0],[111.38637,-7.50511,0.0],[111.3883,-7.50259,0.0],[111.38816,-7.49899,0.0],[111.38631,-7.49843,0.0],[111.38917,-7.49498,0.0],[111.39681,-7.4896,0.0],[111.39722,-7.48342,0.0],[111.39941,-7.48004,0.0],[111.39757,-7.47927,0.0],[111.40237,-7.47034,0.0],[111.40974,-7.47055,0.0],[111.40999,-7.4691,0.0],[111.41181,-7.46951,0.0],[111.41271,-7.46845,0.0],[111.41435,-7.46968,0.0],[111.41357,-7.47162,0.0],[111.41503,-7.47082,0.0],[111.42359,-7.47361,0.0],[111.42433,-7.47057,0.0],[111.42675,-7.47166,0.0],[111.42929,-7.47006,0.0],[111.43111,-7.47147,0.0],[111.43036,-7.47839,0.0],[111.43297,-7.47894,0.0],[111.43576,-7.46749,0.0],[111.44053,-7.46204,0.0],[111.4385,-7.46099,0.0],[111.439,-7.46016,0.0],[111.42731,-7.45743,0.0],[111.42798,-7.45549,0.0],[111.42216,-7.45354,0.0],[111.42345,-7.45141,0.0],[111.42232,-7.44848,0.0],[111.42288,-7.44763,0.0],[111.42484,-7.44887,0.0],[111.42514,-7.44619,0.0],[111.42954,-7.44368,0.0],[111.42888,-7.44134,0.0],[111.43027,-7.44158,0.0],[111.43199,-7.43802,0.0],[111.43851,-7.43265,0.0],[111.43611,-7.43049,0.0],[111.43599,-7.432,0.0],[111.4345,-7.4312,0.0],[111.43433,-7.43235,0.0],[111.4322,-7.43106,0.0],[111.43388,-7.42828,0.0],[111.43474,-7.42913,0.0],[111.43623,-7.42496,0.0],[111.44126,-7.42334,0.0],[111.44099,-7.4255,0.0],[111.44583,-7.42665,0.0],[111.44835,-7.42556,0.0],[111.45503,-7.42862,0.0],[111.4545,-7.43367,0.0],[111.45959,-7.43368,0.0],[111.462,-7.44012,0.0],[111.46392,-7.43782,0.0],[111.46564,-7.43874,0.0],[111.46286,-7.44319,0.0],[111.46489,-7.44522,0.0],[111.46187,-7.44679,0.0],[111.46237,-7.44819,0.0],[111.46544,-7.44817,0.0],[111.46227,-7.45034,0.0],[111.46462,-7.45506,0.0],[111.46127,-7.4583,0.0],[111.4634,-7.4597,0.0],[111.46469,-7.46354,0.0],[111.46949,-7.46758,0.0],[111.46835,-7.47145,0.0],[111.47139,-7.47626,0.0],[111.47002,-7.48151,0.0],[111.47162,-7.48269,0.0],[111.46938,-7.48502,0.0],[111.46408,-7.48373,0.0],[111.46401,-7.48744,0.0],[111.46628,-7.48859,0.0],[111.46661,-7.4872,0.0],[111.46814,-7.48783,0.0],[111.46892,-7.48658,0.0],[111.4692,-7.4916,0.0],[111.4749,-7.49274,0.0],[111.47352,-7.49787,0.0],[111.47158,-7.4978,0.0],[111.46902,-7.50468,0.0],[111.46676,-7.50465,0.0],[111.46656,-7.50793,0.0],[111.46909,-7.507,0.0],[111.46806,-7.51038,0.0],[111.4691,-7.51127,0.0],[111.46511,-7.50882,0.0],[111.4613,-7.50951,0.0],[111.4607,-7.51106,0.0],[111.46186,-7.51338,0.0],[111.4603,-7.51411,0.0],[111.46148,-7.51538,0.0],[111.46021,-7.51762,0.0],[111.45275,-7.51522,0.0],[111.44928,-7.51551,0.0],[111.44787,-7.51746,0.0],[111.43918,-7.51737,0.0],[111.43893,-7.51875,0.0],[111.43583,-7.52065,0.0]]]}},{"type":"Feature","properties":{"kecamatan":"Padas","kab_kota":"Ngawi"},"geometry":{"type":"Polygon","coordinates":[[[111.49543,-7.48415,0.0],[111.4927,-7.4787,0.0],[111.49051,-7.47897,0.0],[111.48832,-7.48645,0.0],[111.48663,-7.48653,0.0],[111.48558,-7.47861,0.0],[111.48397,-7.4767,0.0],[111.48636,-7.47657,0.0],[111.48587,-7.47399,0.0],[111.48768,-7.46896,0.0],[111.4862,-7.46822,0.0],[111.48833,-7.45805,0.0],[111.48966,-7.45524,0.0],[111.49147,-7.45451,0.0],[111.49895,-7.45697,0.0],[111.50165,-7.45024,0.0],[111.50392,-7.44902,0.0],[111.50462,-7.44973,0.0],[111.50562,-7.44675,0.0],[111.50719,-7.44615,0.0],[111.50771,-7.44053,0.0],[111.50465,-7.43746,0.0],[111.5102,-7.4337,0.0],[111.50665,-7.42992,0.0],[111.50915,-7.42614,0.0],[111.50933,-7.4234,0.0],[111.51194,-7.42455,0.0],[111.51281,-7.42296,0.0],[111.51631,-7.42435,0.0],[111.51701,-7.42246,0.0],[111.52458,-7.41992,0.0],[111.52587,-7.41189,0.0],[111.52471,-7.40974,0.0],[111.52608,-7.40624,0.0],[111.53464,-7.40748,0.0],[111.53576,-7.40476,0.0],[111.53492,-7.40322,0.0],[111.53748,-7.40305,0.0],[111.53936,-7.39967,0.0],[111.54099,-7.39903,0.0],[111.54576,-7.40175,0.0],[111.54181,-7.40859,0.0],[111.54581,-7.40903,0.0],[111.54611,-7.41168,0.0],[111.5453,-7.42024,0.0],[111.54261,-7.42361,0.0],[111.5415,-7.42812,0.0],[111.54171,-7.4347,0.0],[111.55276,-7.43753,0.0],[111.55501,-7.43663,0.0],[111.55652,-7.43348,0.0],[111.55579,-7.42918,0.0],[111.55822,-7.43046,0.0],[111.559,-7.42918,0.0],[111.56123,-7.42918,0.0],[111.56894,-7.43137,0.0],[111.56547,-7.43773,0.0],[111.56713,-7.44023,0.0],[111.56864,-7.44031,0.0],[111.56889,-7.44132,0.0],[111.5673,-7.44047,0.0],[111.56549,-7.44219,0.0],[111.56457,-7.45127,0.0],[111.56131,-7.45692,0.0],[111.56183,-7.45905,0.0],[111.56024,-7.46017,0.0],[111.55763,-7.45983,0.0],[111.55658,-7.46187,0.0],[111.55197,-7.4614,0.0],[111.55039,-7.46596,0.0],[111.54881,-7.46648,0.0],[111.55002,-7.46732,0.0],[111.54966,-7.47134,0.0],[111.54814,-7.47169,0.0],[111.54913,-7.47348,0.0],[111.54751,-7.4777,0.0],[111.54161,-7.47632,0.0],[111.54024,-7.47934,0.0],[111.53044,-7.47543,0.0],[111.52891,-7.47291,0.0],[111.52617,-7.47188,0.0],[111.5261,-7.47316,0.0],[111.5243,-7.47287,0.0],[111.52521,-7.47694,0.0],[111.52787,-7.48029,0.0],[111.52708,-7.48311,0.0],[111.52563,-7.48277,0.0],[111.52512,-7.48606,0.0],[111.51986,-7.48418,0.0],[111.5203,-7.47548,0.0],[111.51933,-7.47574,0.0],[111.51929,-7.47458,0.0],[111.51668,-7.47574,0.0],[111.51616,-7.4742,0.0],[111.51491,-7.47732,0.0],[111.51594,-7.47319,0.0],[111.51481,-7.47288,0.0],[111.51474,-7.4693,0.0],[111.51637,-7.46762,0.0],[111.51613,-7.4641,0.0],[111.5177,-7.46268,0.0],[111.51642,-7.46222,0.0],[111.51648,-7.46073,0.0],[111.51249,-7.45886,0.0],[111.51244,-7.46218,0.0],[111.50914,-7.46107,0.0],[111.50774,-7.4709,0.0],[111.50414,-7.48102,0.0],[111.49543,-7.48415,0.0]]]}},{"type":"Feature","properties":{"kecamatan":"Ngawi","kab_kota":"Ngawi"},"geometry":{"type":"Polygon","coordinates":[[[111.4492,-7.42579,0.0],[111.44537,-7.42657,0.0],[111.44099,-7.4255,0.0],[111.44126,-7.42334,0.0],[111.43924,-7.42375,0.0],[111.43513,-7.42593,0.0],[111.43474,-7.42913,0.0],[111.43388,-7.42828,0.0],[111.43238,-7.43081,0.0],[111.42784,-7.43244,0.0],[111.42561,-7.43642,0.0],[111.42222,-7.43914,0.0],[111.41921,-7.43944,0.0],[111.417,-7.43803,0.0],[111.41414,-7.43992,0.0],[111.40907,-7.43955,0.0],[111.40253,-7.43614,0.0],[111.40434,-7.43138,0.0],[111.40033,-7.42859,0.0],[111.40329,-7.42471,0.0],[111.4033,-7.42293,0.0],[111.3841,-7.41445,0.0],[111.3864,-7.41272,0.0],[111.3862,-7.41066,0.0],[111.38733,-7.41135,0.0],[111.39001,-7.40938,0.0],[111.3895,-7.40671,0.0],[111.39184,-7.40773,0.0],[111.39191,-7.40553,0.0],[111.39473,-7.40313,0.0],[111.39387,-7.40092,0.0],[111.3965,-7.40109,0.0],[111.39806,-7.39914,0.0],[111.39755,-7.39614,0.0],[111.4023,-7.39969,0.0],[111.40421,-7.39691,0.0],[111.40621,-7.39776,0.0],[111.40907,-7.39613,0.0],[111.4104,-7.39312,0.0],[111.40815,-7.38758,0.0],[111.41151,-7.38491,0.0],[111.41616,-7.38898,0.0],[111.42185,-7.38892,0.0],[111.42626,-7.38629,0.0],[111.42438,-7.38197,0.0],[111.42846,-7.38258,0.0],[111.42963,-7.38489,0.0],[111.42912,-7.39017,0.0],[111.43167,-7.39626,0.0],[111.43144,-7.39827,0.0],[111.42911,-7.40025,0.0],[111.43042,-7.40147,0.0],[111.43266,-7.40074,0.0],[111.43233,-7.39822,0.0],[111.4355,-7.3948,0.0],[111.43774,-7.39524,0.0],[111.43863,-7.39903,0.0],[111.44063,-7.39825,0.0],[111.44171,-7.39532,0.0],[111.44014,-7.39235,0.0],[111.44119,-7.39067,0.0],[111.4458,-7.38994,0.0],[111.45057,-7.39171,0.0],[111.45429,-7.3881,0.0],[111.45735,-7.3879,0.0],[111.46107,-7.38459,0.0],[111.4637,-7.37702,0.0],[111.46275,-7.37718,0.0],[111.46287,-7.37058,0.0],[111.45697,-7.36905,0.0],[111.45607,-7.36727,0.0],[111.46176,-7.36061,0.0],[111.46247,-7.36295,0.0],[111.46369,-7.36225,0.0],[111.46411,-7.36332,0.0],[111.46557,-7.36136,0.0],[111.46737,-7.36173,0.0],[111.46653,-7.35994,0.0],[111.47298,-7.35733,0.0],[111.47572,-7.35964,0.0],[111.47752,-7.3595,0.0],[111.47721,-7.35847,0.0],[111.48242,-7.35931,0.0],[111.48515,-7.35818,0.0],[111.4883,-7.3602,0.0],[111.49629,-7.36118,0.0],[111.49696,-7.36445,0.0],[111.49809,-7.36447,0.0],[111.49606,-7.369,0.0],[111.4961,-7.37556,0.0],[111.49174,-7.3844,0.0],[111.49019,-7.38459,0.0],[111.4885,-7.38132,0.0],[111.48689,-7.38213,0.0],[111.48589,-7.3808,0.0],[111.48446,-7.38296,0.0],[111.4841,-7.38153,0.0],[111.4824,-7.38203,0.0],[111.48115,-7.38805,0.0],[111.47624,-7.39762,0.0],[111.47719,-7.39674,0.0],[111.48255,-7.39989,0.0],[111.48197,-7.40231,0.0],[111.48585,-7.40524,0.0],[111.48235,-7.41445,0.0],[111.48373,-7.41614,0.0],[111.48323,-7.42058,0.0],[111.48618,-7.42208,0.0],[111.48809,-7.42138,0.0],[111.48803,-7.42457,0.0],[111.4906,-7.42628,0.0],[111.48758,-7.43283,0.0],[111.48764,-7.43844,0.0],[111.49659,-7.44495,0.0],[111.49662,-7.44625,0.0],[111.50198,-7.44842,0.0],[111.5028,-7.45008,0.0],[111.50006,-7.45254,0.0],[111.50043,-7.45476,0.0],[111.49895,-7.45697,0.0],[111.49263,-7.45465,0.0],[111.48966,-7.45524,0.0],[111.4862,-7.46822,0.0],[111.48768,-7.46896,0.0],[111.48587,-7.47399,0.0],[111.48636,-7.47657,0.0],[111.48411,-7.47635,0.0],[111.48052,-7.48052,0.0],[111.47938,-7.48047,0.0],[111.47712,-7.47544,0.0],[111.47233,-7.47651,0.0],[111.47038,-7.47552,0.0],[111.46835,-7.47145,0.0],[111.46936,-7.46728,0.0],[111.46522,-7.46413,0.0],[111.4634,-7.4597,0.0],[111.46132,-7.45857,0.0],[111.46462,-7.45506,0.0],[111.46227,-7.45034,0.0],[111.46544,-7.44817,0.0],[111.46237,-7.44819,0.0],[111.46187,-7.44679,0.0],[111.46489,-7.44522,0.0],[111.46286,-7.44319,0.0],[111.46564,-7.43874,0.0],[111.46392,-7.43782,0.0],[111.46251,-7.4404,0.0],[111.46127,-7.43958,0.0],[111.45959,-7.43368,0.0],[111.45486,-7.43398,0.0],[111.4553,-7.42886,0.0],[111.4492,-7.42579,0.0]]]}},{"type":"Feature","properties":{"kecamatan":"Paron","kab_kota":"Ngawi"},"geometry":{"type":"Polygon","coordinates":[[[111.3384,-7.50666,0.0],[111.32317,-7.50599,0.0],[111.32168,-7.50677,0.0],[111.31737,-7.50533,0.0],[111.31689,-7.50645,0.0],[111.31321,-7.50674,0.0],[111.3105,-7.50417,0.0],[111.30501,-7.50315,0.0],[111.30131,-7.50086,0.0],[111.29853,-7.49442,0.0],[111.29489,-7.49395,0.0],[111.30152,-7.48923,0.0],[111.30352,-7.48547,0.0],[111.30603,-7.48516,0.0],[111.30787,-7.47966,0.0],[111.30991,-7.47961,0.0],[111.31192,-7.47563,0.0],[111.31564,-7.47261,0.0],[111.31452,-7.47111,0.0],[111.31544,-7.47056,0.0],[111.31505,-7.46816,0.0],[111.31206,-7.46461,0.0],[111.31623,-7.45834,0.0],[111.32,-7.45447,0.0],[111.3275,-7.45708,0.0],[111.32959,-7.45539,0.0],[111.3353,-7.44071,0.0],[111.33796,-7.44058,0.0],[111.34292,-7.43637,0.0],[111.34592,-7.42927,0.0],[111.34872,-7.43043,0.0],[111.35219,-7.4289,0.0],[111.35298,-7.4273,0.0],[111.35912,-7.4268,0.0],[111.3617,-7.4245,0.0],[111.3636,-7.42114,0.0],[111.36322,-7.41955,0.0],[111.36873,-7.41183,0.0],[111.36841,-7.41003,0.0],[111.37004,-7.40843,0.0],[111.36925,-7.40553,0.0],[111.37199,-7.40125,0.0],[111.37189,-7.39815,0.0],[111.37338,-7.39547,0.0],[111.37495,-7.39561,0.0],[111.37136,-7.39235,0.0],[111.37104,-7.39057,0.0],[111.36894,-7.39021,0.0],[111.36819,-7.38777,0.0],[111.37219,-7.38211,0.0],[111.37812,-7.38051,0.0],[111.37774,-7.38252,0.0],[111.37438,-7.38415,0.0],[111.37385,-7.38627,0.0],[111.38172,-7.39561,0.0],[111.38498,-7.39161,0.0],[111.39146,-7.39392,0.0],[111.39534,-7.3894,0.0],[111.39759,-7.39245,0.0],[111.40331,-7.39111,0.0],[111.40421,-7.39691,0.0],[111.40296,-7.39914,0.0],[111.40083,-7.3994,0.0],[111.39755,-7.39614,0.0],[111.39806,-7.39914,0.0],[111.3965,-7.40109,0.0],[111.39387,-7.40092,0.0],[111.39473,-7.40313,0.0],[111.39191,-7.40553,0.0],[111.39184,-7.40773,0.0],[111.3895,-7.40671,0.0],[111.39001,-7.40938,0.0],[111.38733,-7.41135,0.0],[111.3862,-7.41066,0.0],[111.3864,-7.41272,0.0],[111.3841,-7.41445,0.0],[111.4033,-7.42293,0.0],[111.40045,-7.42912,0.0],[111.40434,-7.43138,0.0],[111.40253,-7.43614,0.0],[111.4081,-7.43933,0.0],[111.41414,-7.43992,0.0],[111.417,-7.43803,0.0],[111.41921,-7.43944,0.0],[111.4219,-7.43928,0.0],[111.42561,-7.43642,0.0],[111.42784,-7.43244,0.0],[111.4302,-7.43131,0.0],[111.43228,-7.43066,0.0],[111.43433,-7.43235,0.0],[111.4345,-7.4312,0.0],[111.43599,-7.432,0.0],[111.43598,-7.43046,0.0],[111.43842,-7.4323,0.0],[111.43199,-7.43802,0.0],[111.43027,-7.44158,0.0],[111.42888,-7.44134,0.0],[111.42954,-7.44368,0.0],[111.42514,-7.44619,0.0],[111.42484,-7.44887,0.0],[111.42288,-7.44763,0.0],[111.42232,-7.44848,0.0],[111.42345,-7.45141,0.0],[111.42216,-7.45354,0.0],[111.42798,-7.45549,0.0],[111.42731,-7.45743,0.0],[111.439,-7.46016,0.0],[111.4385,-7.46099,0.0],[111.44053,-7.46204,0.0],[111.43576,-7.46749,0.0],[111.43297,-7.47894,0.0],[111.43036,-7.47839,0.0],[111.43111,-7.47147,0.0],[111.42929,-7.47006,0.0],[111.42675,-7.47166,0.0],[111.42433,-7.47057,0.0],[111.42359,-7.47361,0.0],[111.41503,-7.47082,0.0],[111.41357,-7.47162,0.0],[111.41435,-7.46968,0.0],[111.41271,-7.46845,0.0],[111.41181,-7.46951,0.0],[111.40999,-7.4691,0.0],[111.40974,-7.47055,0.0],[111.40237,-7.47034,0.0],[111.39757,-7.47927,0.0],[111.39941,-7.48004,0.0],[111.39722,-7.48342,0.0],[111.39681,-7.4896,0.0],[111.38917,-7.49498,0.0],[111.38631,-7.49843,0.0],[111.38816,-7.49899,0.0],[111.3883,-7.50259,0.0],[111.38411,-7.50744,0.0],[111.38239,-7.51344,0.0],[111.37837,-7.51668,0.0],[111.37498,-7.51498,0.0],[111.37423,-7.51293,0.0],[111.37043,-7.51345,0.0],[111.37067,-7.51676,0.0],[111.37214,-7.51759,0.0],[111.37048,-7.52047,0.0],[111.37127,-7.52195,0.0],[111.36929,-7.52203,0.0],[111.36962,-7.52564,0.0],[111.36671,-7.52704,0.0],[111.36688,-7.52964,0.0],[111.36583,-7.52935,0.0],[111.36217,-7.53436,0.0],[111.359,-7.53174,0.0],[111.36177,-7.52251,0.0],[111.35993,-7.52144,0.0],[111.35666,-7.52371,0.0],[111.3555,-7.52301,0.0],[111.35734,-7.5185,0.0],[111.35927,-7.50204,0.0],[111.35805,-7.50358,0.0],[111.35044,-7.50359,0.0],[111.34513,-7.50464,0.0],[111.34328,-7.50617,0.0],[111.34241,-7.50437,0.0],[111.3384,-7.50666,0.0]]]}},{"type":"Feature","properties":{"kecamatan":"Mantingan","kab_kota":"Ngawi"},"geometry":{"type":"Polygon","coordinates":[[[111.14534,-7.45045,0.0],[111.14277,-7.44835,0.0],[111.14168,-7.44985,0.0],[111.13548,-7.44968,0.0],[111.12977,-7.4452,0.0],[111.12645,-7.4452,0.0],[111.12545,-7.44641,0.0],[111.12416,-7.44451,0.0],[111.12614,-7.44334,0.0],[111.12508,-7.43943,0.0],[111.12288,-7.43925,0.0],[111.12257,-7.43689,0.0],[111.12406,-7.43491,0.0],[111.12224,-7.4272,0.0],[111.12009,-7.4267,0.0],[111.119,-7.42489,0.0],[111.11857,-7.41994,0.0],[111.11966,-7.41716,0.0],[111.11842,-7.41488,0.0],[111.12042,-7.41146,0.0],[111.11926,-7.41033,0.0],[111.12154,-7.40865,0.0],[111.12452,-7.40891,0.0],[111.12342,-7.40559,0.0],[111.12685,-7.40484,0.0],[111.12785,-7.4024,0.0],[111.12964,-7.40158,0.0],[111.1285,-7.40068,0.0],[111.12925,-7.39952,0.0],[111.12747,-7.39857,0.0],[111.12819,-7.39693,0.0],[111.1293,-7.39541,0.0],[111.13083,-7.3963,0.0],[111.13195,-7.39368,0.0],[111.13343,-7.39319,0.0],[111.1334,-7.39126,0.0],[111.13626,-7.38961,0.0],[111.13772,-7.3861,0.0],[111.13929,-7.38555,0.0],[111.13658,-7.38254,0.0],[111.13708,-7.3789,0.0],[111.13896,-7.37883,0.0],[111.14324,-7.37438,0.0],[111.14132,-7.37305,0.0],[111.14528,-7.36848,0.0],[111.14508,-7.36715,0.0],[111.14347,-7.3672,0.0],[111.14402,-7.36476,0.0],[111.14148,-7.36321,0.0],[111.14414,-7.36185,0.0],[111.14449,-7.35969,0.0],[111.14108,-7.36086,0.0],[111.14262,-7.35772,0.0],[111.14111,-7.35689,0.0],[111.1403,-7.35207,0.0],[111.14268,-7.34697,0.0],[111.14099,-7.341,0.0],[111.14278,-7.33729,0.0],[111.14184,-7.33283,0.0],[111.14336,-7.32889,0.0],[111.14529,-7.32828,0.0],[111.14716,-7.32477,0.0],[111.14931,-7.3237,0.0],[111.14932,-7.32083,0.0],[111.16052,-7.3169,0.0],[111.16728,-7.31108,0.0],[111.17688,-7.30918,0.0],[111.17853,-7.31463,0.0],[111.17612,-7.31834,0.0],[111.17402,-7.31995,0.0],[111.17154,-7.31697,0.0],[111.16613,-7.31631,0.0],[111.1653,-7.31765,0.0],[111.16385,-7.31724,0.0],[111.16491,-7.31981,0.0],[111.16277,-7.32446,0.0],[111.16335,-7.32638,0.0],[111.16026,-7.32758,0.0],[111.15692,-7.32481,0.0],[111.15321,-7.32651,0.0],[111.1534,-7.32906,0.0],[111.15864,-7.33675,0.0],[111.15716,-7.33717,0.0],[111.15695,-7.3415,0.0],[111.16433,-7.34974,0.0],[111.16461,-7.35596,0.0],[111.16733,-7.36191,0.0],[111.16875,-7.36304,0.0],[111.1738,-7.35979,0.0],[111.17705,-7.35967,0.0],[111.18095,-7.36245,0.0],[111.17901,-7.36553,0.0],[111.179,-7.37051,0.0],[111.18346,-7.37022,0.0],[111.18383,-7.36852,0.0],[111.18206,-7.36502,0.0],[111.1824,-7.3635,0.0],[111.18463,-7.3628,0.0],[111.18369,-7.35529,0.0],[111.18889,-7.35568,0.0],[111.1883,-7.35216,0.0],[111.19179,-7.35099,0.0],[111.19272,-7.35182,0.0],[111.19249,-7.35893,0.0],[111.195,-7.36046,0.0],[111.19621,-7.35609,0.0],[111.19848,-7.35361,0.0],[111.20477,-7.35193,0.0],[111.20336,-7.35894,0.0],[111.20485,-7.36183,0.0],[111.20313,-7.36459,0.0],[111.20472,-7.36732,0.0],[111.20532,-7.37274,0.0],[111.20366,-7.37763,0.0],[111.19935,-7.38279,0.0],[111.20237,-7.38818,0.0],[111.20074,-7.39016,0.0],[111.20173,-7.392,0.0],[111.19903,-7.39367,0.0],[111.20114,-7.39633,0.0],[111.19991,-7.39685,0.0],[111.20114,-7.39779,0.0],[111.2,-7.39959,0.0],[111.20053,-7.40292,0.0],[111.19889,-7.40671,0.0],[111.19446,-7.41149,0.0],[111.19242,-7.41202,0.0],[111.19098,-7.41112,0.0],[111.19107,-7.40806,0.0],[111.18787,-7.4083,0.0],[111.18253,-7.40438,0.0],[111.1731,-7.40248,0.0],[111.17292,-7.40336,0.0],[111.17142,-7.40143,0.0],[111.16724,-7.40227,0.0],[111.16375,-7.40744,0.0],[111.1633,-7.41585,0.0],[111.16816,-7.42629,0.0],[111.16834,-7.43857,0.0],[111.16325,-7.43412,0.0],[111.16151,-7.43042,0.0],[111.15945,-7.43076,0.0],[111.15792,-7.44508,0.0],[111.14963,-7.44818,0.0],[111.14517,-7.45172,0.0],[111.14534,-7.45045,0.0]],[[111.18507,-7.38803,0.0],[111.18279,-7.38768,0.0],[111.1823,-7.39195,0.0],[111.18396,-7.39222,0.0],[111.18416,-7.39783,0.0],[111.18721,-7.39763,0.0],[111.18507,-7.38803,0.0]],[[111.18751,-7.39568,0.0],[111.19058,-7.39655,0.0],[111.19141,-7.39355,0.0],[111.18978,-7.39255,0.0],[111.1893,-7.39464,0.0],[111.18751,-7.39568,0.0]]]}},{"type":"Feature","properties":{"kecamatan":"Pangkur","kab_kota":"Ngawi"},"geometry":{"type":"Polygon","coordinates":[[[111.58759,-7.50535,0.0],[111.58702,-7.5078,0.0],[111.58812,-7.5087,0.0],[111.58589,-7.5083,0.0],[111.58412,-7.51172,0.0],[111.58187,-7.511,0.0],[111.58187,-7.51273,0.0],[111.58039,-7.51248,0.0],[111.57962,-7.51484,0.0],[111.58668,-7.51788,0.0],[111.58646,-7.52187,0.0],[111.58427,-7.52161,0.0],[111.58326,-7.52325,0.0],[111.58151,-7.52105,0.0],[111.57496,-7.5204,0.0],[111.57472,-7.52149,0.0],[111.57192,-7.52112,0.0],[111.57222,-7.5231,0.0],[111.57149,-7.5218,0.0],[111.56964,-7.52426,0.0],[111.5696,-7.52273,0.0],[111.56627,-7.5245,0.0],[111.564,-7.5232,0.0],[111.56362,-7.52509,0.0],[111.56218,-7.52484,0.0],[111.56132,-7.52667,0.0],[111.55613,-7.52313,0.0],[111.55859,-7.52028,0.0],[111.55763,-7.5157,0.0],[111.55877,-7.51077,0.0],[111.55366,-7.50987,0.0],[111.54977,-7.51333,0.0],[111.54736,-7.51253,0.0],[111.54583,-7.5143,0.0],[111.54622,-7.5156,0.0],[111.54451,-7.51506,0.0],[111.54167,-7.51878,0.0],[111.5405,-7.51672,0.0],[111.53527,-7.51543,0.0],[111.53533,-7.51969,0.0],[111.53229,-7.51994,0.0],[111.52926,-7.51597,0.0],[111.52258,-7.51394,0.0],[111.51925,-7.51085,0.0],[111.51139,-7.49953,0.0],[111.50453,-7.49649,0.0],[111.50421,-7.49447,0.0],[111.50703,-7.49184,0.0],[111.50569,-7.48906,0.0],[111.5017,-7.49045,0.0],[111.49941,-7.49357,0.0],[111.49703,-7.49431,0.0],[111.49649,-7.49345,0.0],[111.49998,-7.48884,0.0],[111.50152,-7.48137,0.0],[111.5045,-7.48042,0.0],[111.50449,-7.47782,0.0],[111.50774,-7.4709,0.0],[111.50914,-7.46107,0.0],[111.51244,-7.46218,0.0],[111.51324,-7.45896,0.0],[111.51762,-7.46235,0.0],[111.51613,-7.4641,0.0],[111.51637,-7.46762,0.0],[111.51474,-7.4693,0.0],[111.51481,-7.47288,0.0],[111.51594,-7.47319,0.0],[111.51491,-7.47732,0.0],[111.51616,-7.4742,0.0],[111.51668,-7.47574,0.0],[111.5192,-7.47455,0.0],[111.51933,-7.47574,0.0],[111.5203,-7.47548,0.0],[111.51986,-7.48418,0.0],[111.52512,-7.48606,0.0],[111.52563,-7.48277,0.0],[111.52708,-7.48311,0.0],[111.52787,-7.48029,0.0],[111.52381,-7.47355,0.0],[111.5261,-7.47316,0.0],[111.52617,-7.47188,0.0],[111.52891,-7.47291,0.0],[111.53044,-7.47543,0.0],[111.53813,-7.47879,0.0],[111.54062,-7.4791,0.0],[111.54161,-7.47632,0.0],[111.54751,-7.4777,0.0],[111.54463,-7.48539,0.0],[111.54514,-7.48661,0.0],[111.55315,-7.48953,0.0],[111.55672,-7.48944,0.0],[111.55836,-7.49282,0.0],[111.5573,-7.49636,0.0],[111.55888,-7.49652,0.0],[111.56145,-7.49384,0.0],[111.56638,-7.49496,0.0],[111.56732,-7.49313,0.0],[111.56655,-7.49168,0.0],[111.56938,-7.49248,0.0],[111.57062,-7.49079,0.0],[111.56797,-7.50326,0.0],[111.57598,-7.50412,0.0],[111.57741,-7.50374,0.0],[111.57888,-7.50075,0.0],[111.57913,-7.5029,0.0],[111.58759,-7.50535,0.0]]]}},{"type":"Feature","properties":{"kecamatan":"Kedunggalar","kab_kota":"Ngawi"},"geometry":{"type":"Polygon","coordinates":[[[111.31264,-7.46498,0.0],[111.31505,-7.46816,0.0],[111.31544,-7.47056,0.0],[111.31452,-7.47111,0.0],[111.31564,-7.47261,0.0],[111.31192,-7.47563,0.0],[111.30991,-7.47961,0.0],[111.30787,-7.47966,0.0],[111.30603,-7.48516,0.0],[111.30352,-7.48547,0.0],[111.30178,-7.48897,0.0],[111.29779,-7.4927,0.0],[111.29596,-7.49225,0.0],[111.29415,-7.4966,0.0],[111.28671,-7.49944,0.0],[111.28408,-7.50331,0.0],[111.28047,-7.50324,0.0],[111.27836,-7.5006,0.0],[111.27351,-7.50462,0.0],[111.26859,-7.50453,0.0],[111.26236,-7.50247,0.0],[111.26698,-7.49911,0.0],[111.27238,-7.48583,0.0],[111.27635,-7.48013,0.0],[111.2789,-7.47857,0.0],[111.28003,-7.47284,0.0],[111.28623,-7.46732,0.0],[111.27597,-7.46908,0.0],[111.27466,-7.46987,0.0],[111.27445,-7.47295,0.0],[111.26694,-7.47615,0.0],[111.25637,-7.47096,0.0],[111.25846,-7.4686,0.0],[111.25961,-7.46288,0.0],[111.2587,-7.46135,0.0],[111.26063,-7.45737,0.0],[111.26169,-7.45731,0.0],[111.26333,-7.45102,0.0],[111.26575,-7.44661,0.0],[111.2675,-7.44655,0.0],[111.26928,-7.44386,0.0],[111.26912,-7.43391,0.0],[111.2719,-7.43063,0.0],[111.27292,-7.42349,0.0],[111.27612,-7.41854,0.0],[111.2762,-7.40582,0.0],[111.27821,-7.40217,0.0],[111.27685,-7.39965,0.0],[111.27897,-7.39419,0.0],[111.27758,-7.39313,0.0],[111.277,-7.38677,0.0],[111.27565,-7.38573,0.0],[111.27658,-7.38169,0.0],[111.28239,-7.3725,0.0],[111.28688,-7.37569,0.0],[111.28867,-7.37474,0.0],[111.29079,-7.37052,0.0],[111.29651,-7.36986,0.0],[111.30086,-7.37188,0.0],[111.30108,-7.36605,0.0],[111.29475,-7.35763,0.0],[111.31105,-7.35914,0.0],[111.31107,-7.35767,0.0],[111.31653,-7.35816,0.0],[111.31446,-7.36827,0.0],[111.31615,-7.36942,0.0],[111.31973,-7.36852,0.0],[111.31973,-7.37117,0.0],[111.30983,-7.38413,0.0],[111.3092,-7.38939,0.0],[111.30726,-7.39266,0.0],[111.30108,-7.3992,0.0],[111.30017,-7.40231,0.0],[111.30166,-7.40315,0.0],[111.29987,-7.40616,0.0],[111.3013,-7.40671,0.0],[111.30729,-7.40362,0.0],[111.31021,-7.40059,0.0],[111.3122,-7.3945,0.0],[111.31564,-7.39189,0.0],[111.31647,-7.38903,0.0],[111.31783,-7.38966,0.0],[111.32159,-7.38692,0.0],[111.32371,-7.38755,0.0],[111.32725,-7.38065,0.0],[111.32944,-7.38101,0.0],[111.33145,-7.37863,0.0],[111.3335,-7.37891,0.0],[111.33352,-7.38035,0.0],[111.33876,-7.38141,0.0],[111.34162,-7.3716,0.0],[111.34412,-7.37133,0.0],[111.34852,-7.375,0.0],[111.34839,-7.37632,0.0],[111.34443,-7.37599,0.0],[111.34434,-7.37769,0.0],[111.34603,-7.38003,0.0],[111.35065,-7.3812,0.0],[111.35358,-7.37771,0.0],[111.3512,-7.37544,0.0],[111.35115,-7.37242,0.0],[111.34921,-7.37047,0.0],[111.34972,-7.3657,0.0],[111.3487,-7.36356,0.0],[111.35796,-7.36346,0.0],[111.36048,-7.36658,0.0],[111.35586,-7.36581,0.0],[111.35541,-7.36792,0.0],[111.36199,-7.37193,0.0],[111.3618,-7.37397,0.0],[111.35858,-7.375,0.0],[111.35916,-7.37888,0.0],[111.36212,-7.38146,0.0],[111.36459,-7.38736,0.0],[111.36892,-7.38824,0.0],[111.36894,-7.39021,0.0],[111.37104,-7.39057,0.0],[111.37345,-7.39496,0.0],[111.37499,-7.39533,0.0],[111.37338,-7.39547,0.0],[111.37189,-7.39815,0.0],[111.37199,-7.40125,0.0],[111.36925,-7.40553,0.0],[111.37004,-7.40843,0.0],[111.36841,-7.41003,0.0],[111.36873,-7.41183,0.0],[111.36623,-7.41416,0.0],[111.36644,-7.41585,0.0],[111.36322,-7.41955,0.0],[111.3636,-7.42114,0.0],[111.36094,-7.42559,0.0],[111.35691,-7.42733,0.0],[111.35298,-7.4273,0.0],[111.35219,-7.4289,0.0],[111.34872,-7.43043,0.0],[111.34592,-7.42927,0.0],[111.34292,-7.43637,0.0],[111.33796,-7.44058,0.0],[111.3353,-7.44071,0.0],[111.32959,-7.45539,0.0],[111.32617,-7.45721,0.0],[111.32588,-7.4559,0.0],[111.32,-7.45447,0.0],[111.31585,-7.45877,0.0],[111.31264,-7.46498,0.0]]]}},{"type":"Feature","properties":{"kecamatan":"Widodaren","kab_kota":"Ngawi"},"geometry":{"type":"Polygon","coordinates":[[[111.21954,-7.43968,0.0],[111.21431,-7.43708,0.0],[111.21167,-7.44389,0.0],[111.21327,-7.45397,0.0],[111.21097,-7.45405,0.0],[111.21126,-7.45631,0.0],[111.20939,-7.45715,0.0],[111.20829,-7.45953,0.0],[111.2056,-7.4559,0.0],[111.20259,-7.45731,0.0],[111.20248,-7.45392,0.0],[111.20483,-7.45446,0.0],[111.20463,-7.45267,0.0],[111.20257,-7.45147,0.0],[111.19554,-7.44909,0.0],[111.19394,-7.45098,0.0],[111.18331,-7.45042,0.0],[111.17414,-7.44109,0.0],[111.16834,-7.43857,0.0],[111.16816,-7.42629,0.0],[111.1633,-7.41585,0.0],[111.16412,-7.40658,0.0],[111.16659,-7.40286,0.0],[111.16963,-7.40141,0.0],[111.17237,-7.4018,0.0],[111.17292,-7.40336,0.0],[111.1731,-7.40248,0.0],[111.18253,-7.40438,0.0],[111.18787,-7.4083,0.0],[111.19107,-7.40806,0.0],[111.19158,-7.41187,0.0],[111.19446,-7.41149,0.0],[111.19889,-7.40671,0.0],[111.20114,-7.39779,0.0],[111.19991,-7.39685,0.0],[111.20114,-7.39633,0.0],[111.19998,-7.39588,0.0],[111.20011,-7.39388,0.0],[111.19903,-7.39367,0.0],[111.20173,-7.392,0.0],[111.20074,-7.39016,0.0],[111.20237,-7.38818,0.0],[111.19935,-7.38279,0.0],[111.20366,-7.37763,0.0],[111.20532,-7.37274,0.0],[111.20472,-7.36732,0.0],[111.20313,-7.36459,0.0],[111.20485,-7.36183,0.0],[111.20336,-7.35894,0.0],[111.20477,-7.35193,0.0],[111.2101,-7.35636,0.0],[111.21227,-7.36286,0.0],[111.21443,-7.36049,0.0],[111.22278,-7.3648,0.0],[111.22605,-7.36421,0.0],[111.24158,-7.36693,0.0],[111.24702,-7.36669,0.0],[111.24568,-7.36343,0.0],[111.24795,-7.35922,0.0],[111.25656,-7.35247,0.0],[111.25652,-7.34444,0.0],[111.26551,-7.34284,0.0],[111.26659,-7.34626,0.0],[111.26605,-7.35266,0.0],[111.26904,-7.35426,0.0],[111.2696,-7.3574,0.0],[111.27267,-7.35563,0.0],[111.27785,-7.35591,0.0],[111.28686,-7.35077,0.0],[111.28942,-7.35129,0.0],[111.29672,-7.35899,0.0],[111.29706,-7.36107,0.0],[111.30108,-7.36605,0.0],[111.30111,-7.37136,0.0],[111.29994,-7.37217,0.0],[111.29651,-7.36986,0.0],[111.29079,-7.37052,0.0],[111.28867,-7.37474,0.0],[111.28688,-7.37569,0.0],[111.28239,-7.3725,0.0],[111.27658,-7.38169,0.0],[111.27565,-7.38573,0.0],[111.277,-7.38677,0.0],[111.27758,-7.39313,0.0],[111.27897,-7.39419,0.0],[111.27685,-7.39965,0.0],[111.27821,-7.40217,0.0],[111.2762,-7.40582,0.0],[111.27612,-7.41854,0.0],[111.27292,-7.42349,0.0],[111.2719,-7.43063,0.0],[111.26912,-7.43391,0.0],[111.26928,-7.44386,0.0],[111.2675,-7.44655,0.0],[111.26575,-7.44661,0.0],[111.26169,-7.45731,0.0],[111.25987,-7.45852,0.0],[111.25867,-7.46149,0.0],[111.25961,-7.46288,0.0],[111.25864,-7.46798,0.0],[111.25719,-7.47048,0.0],[111.25379,-7.46994,0.0],[111.24045,-7.463,0.0],[111.22951,-7.47033,0.0],[111.22026,-7.46847,0.0],[111.21979,-7.46635,0.0],[111.2224,-7.46102,0.0],[111.22141,-7.45878,0.0],[111.22281,-7.45745,0.0],[111.22023,-7.44997,0.0],[111.21954,-7.43968,0.0]]]}},{"type":"Feature","properties":{"kecamatan":"Karanganyar","kab_kota":"Ngawi"},"geometry":{"type":"MultiPolygon","coordinates":[[[[111.18507,-7.38803,0.0],[111.18721,-7.39763,0.0],[111.18416,-7.39783,0.0],[111.18396,-7.39222,0.0],[111.1823,-7.39195,0.0],[111.18279,-7.38768,0.0],[111.18507,-7.38803,0.0]]],[[[111.19058,-7.39655,0.0],[111.1871,-7.3956,0.0],[111.1893,-7.39464,0.0],[111.18978,-7.39255,0.0],[111.19141,-7.39355,0.0],[111.19058,-7.39655,0.0]]],[[[111.20522,-7.35207,0.0],[111.19848,-7.35361,0.0],[111.19621,-7.35609,0.0],[111.195,-7.36046,0.0],[111.19249,-7.35893,0.0],[111.19272,-7.35182,0.0],[111.19179,-7.35099,0.0],[111.1883,-7.35216,0.0],[111.18889,-7.35568,0.0],[111.18369,-7.35529,0.0],[111.18463,-7.3628,0.0],[111.18206,-7.36467,0.0],[111.18383,-7.36852,0.0],[111.18331,-7.3705,0.0],[111.179,-7.37051,0.0],[111.17901,-7.36553,0.0],[111.18095,-7.36245,0.0],[111.1791,-7.36031,0.0],[111.17418,-7.35967,0.0],[111.16875,-7.36304,0.0],[111.16695,-7.36131,0.0],[111.16461,-7.35596,0.0],[111.16433,-7.34974,0.0],[111.15695,-7.3415,0.0],[111.15716,-7.33717,0.0],[111.15864,-7.33675,0.0],[111.1534,-7.32906,0.0],[111.15321,-7.32651,0.0],[111.15739,-7.32479,0.0],[111.16026,-7.32758,0.0],[111.16247,-7.32709,0.0],[111.16491,-7.31981,0.0],[111.16385,-7.31724,0.0],[111.1653,-7.31765,0.0],[111.16613,-7.31631,0.0],[111.17154,-7.31697,0.0],[111.17413,-7.31992,0.0],[111.17853,-7.31463,0.0],[111.17719,-7.31238,0.0],[111.17762,-7.30937,0.0],[111.16728,-7.31108,0.0],[111.16052,-7.3169,0.0],[111.15038,-7.32059,0.0],[111.15528,-7.31333,0.0],[111.14574,-7.30667,0.0],[111.14074,-7.30846,0.0],[111.13522,-7.29902,0.0],[111.13616,-7.29788,0.0],[111.13436,-7.29774,0.0],[111.13571,-7.29627,0.0],[111.13521,-7.29458,0.0],[111.14005,-7.29013,0.0],[111.14128,-7.2813,0.0],[111.14341,-7.27814,0.0],[111.14608,-7.27787,0.0],[111.14788,-7.27545,0.0],[111.15002,-7.26785,0.0],[111.14872,-7.26446,0.0],[111.15032,-7.26022,0.0],[111.15302,-7.26016,0.0],[111.15573,-7.25806,0.0],[111.15966,-7.25802,0.0],[111.1618,-7.25878,0.0],[111.16243,-7.26051,0.0],[111.16725,-7.26084,0.0],[111.16829,-7.26348,0.0],[111.17481,-7.2628,0.0],[111.17776,-7.26455,0.0],[111.17872,-7.26234,0.0],[111.18081,-7.26242,0.0],[111.18268,-7.25961,0.0],[111.18978,-7.25983,0.0],[111.19418,-7.25628,0.0],[111.19988,-7.25587,0.0],[111.1998,-7.24858,0.0],[111.19795,-7.2465,0.0],[111.2049,-7.24466,0.0],[111.21115,-7.24905,0.0],[111.21727,-7.25078,0.0],[111.21935,-7.25019,0.0],[111.22237,-7.25313,0.0],[111.22426,-7.2567,0.0],[111.22339,-7.25916,0.0],[111.22416,-7.26144,0.0],[111.22873,-7.26762,0.0],[111.2343,-7.26924,0.0],[111.23821,-7.27504,0.0],[111.23997,-7.2757,0.0],[111.23942,-7.27703,0.0],[111.24172,-7.27828,0.0],[111.24144,-7.28155,0.0],[111.24389,-7.28526,0.0],[111.24831,-7.28625,0.0],[111.24873,-7.28381,0.0],[111.25111,-7.28387,0.0],[111.25389,-7.28444,0.0],[111.25484,-7.28757,0.0],[111.25798,-7.28814,0.0],[111.2639,-7.28716,0.0],[111.26678,-7.28766,0.0],[111.26799,-7.28956,0.0],[111.27525,-7.28981,0.0],[111.27907,-7.28788,0.0],[111.28062,-7.29047,0.0],[111.2822,-7.28892,0.0],[111.28655,-7.28922,0.0],[111.28788,-7.29022,0.0],[111.28677,-7.29123,0.0],[111.28832,-7.29129,0.0],[111.2934,-7.29562,0.0],[111.29332,-7.29791,0.0],[111.29507,-7.29912,0.0],[111.29364,-7.30006,0.0],[111.29559,-7.29996,0.0],[111.29551,-7.30164,0.0],[111.29741,-7.30013,0.0],[111.30057,-7.30195,0.0],[111.30338,-7.2996,0.0],[111.30314,-7.30166,0.0],[111.30425,-7.30279,0.0],[111.30494,-7.30178,0.0],[111.30506,-7.30317,0.0],[111.30633,-7.30042,0.0],[111.30852,-7.30213,0.0],[111.30962,-7.30618,0.0],[111.31121,-7.30512,0.0],[111.31467,-7.30605,0.0],[111.31444,-7.30474,0.0],[111.31537,-7.30488,0.0],[111.31911,-7.30911,0.0],[111.32229,-7.30939,0.0],[111.32167,-7.31164,0.0],[111.32385,-7.31248,0.0],[111.32049,-7.31427,0.0],[111.31621,-7.32478,0.0],[111.30501,-7.32982,0.0],[111.30369,-7.33148,0.0],[111.30432,-7.33345,0.0],[111.29647,-7.33127,0.0],[111.28562,-7.33035,0.0],[111.28363,-7.33243,0.0],[111.28201,-7.34001,0.0],[111.28686,-7.35077,0.0],[111.2831,-7.35364,0.0],[111.27649,-7.35638,0.0],[111.27098,-7.35603,0.0],[111.2696,-7.3574,0.0],[111.26904,-7.35426,0.0],[111.26605,-7.35266,0.0],[111.26659,-7.34626,0.0],[111.26551,-7.34284,0.0],[111.25652,-7.34444,0.0],[111.25656,-7.35247,0.0],[111.24795,-7.35922,0.0],[111.24568,-7.36343,0.0],[111.24702,-7.36669,0.0],[111.24085,-7.36686,0.0],[111.22605,-7.36421,0.0],[111.22278,-7.3648,0.0],[111.21443,-7.36049,0.0],[111.21227,-7.36286,0.0],[111.2101,-7.35636,0.0],[111.20522,-7.35207,0.0]]]]}},{"type":"Feature","properties":{"kecamatan":"Gerih","kab_kota":"Ngawi"},"geometry":{"type":"MultiPolygon","coordinates":[[[[111.37229,-7.55145,0.0],[111.36769,-7.55641,0.0],[111.36851,-7.5574,0.0],[111.37113,-7.55993,0.0],[111.37239,-7.56022,0.0],[111.37326,-7.5586,0.0],[111.37425,-7.56072,0.0],[111.37172,-7.56296,0.0],[111.37203,-7.56751,0.0],[111.37019,-7.57336,0.0],[111.36761,-7.57414,0.0],[111.36579,-7.57313,0.0],[111.366,-7.57025,0.0],[111.35439,-7.57041,0.0],[111.3532,-7.57276,0.0],[111.33996,-7.57745,0.0],[111.33974,-7.57242,0.0],[111.34104,-7.5726,0.0],[111.3453,-7.56915,0.0],[111.34685,-7.56608,0.0],[111.34527,-7.56293,0.0],[111.34766,-7.55013,0.0],[111.35474,-7.55015,0.0],[111.35994,-7.548,0.0],[111.36149,-7.54534,0.0],[111.36167,-7.54325,0.0],[111.35597,-7.5394,0.0],[111.35439,-7.53644,0.0],[111.34919,-7.53634,0.0],[111.34941,-7.53412,0.0],[111.35255,-7.53351,0.0],[111.35151,-7.53288,0.0],[111.35162,-7.53046,0.0],[111.35336,-7.52951,0.0],[111.35306,-7.52766,0.0],[111.35479,-7.52587,0.0],[111.3536,-7.52502,0.0],[111.35557,-7.52294,0.0],[111.35666,-7.52371,0.0],[111.35993,-7.52144,0.0],[111.36177,-7.52251,0.0],[111.359,-7.53174,0.0],[111.36229,-7.53432,0.0],[111.36583,-7.52935,0.0],[111.36688,-7.52964,0.0],[111.36671,-7.52704,0.0],[111.36962,-7.52564,0.0],[111.36929,-7.52203,0.0],[111.37127,-7.52195,0.0],[111.37048,-7.52047,0.0],[111.37214,-7.51759,0.0],[111.37067,-7.51676,0.0],[111.37101,-7.51304,0.0],[111.37423,-7.51293,0.0],[111.37498,-7.51498,0.0],[111.37837,-7.51668,0.0],[111.38239,-7.51344,0.0],[111.38411,-7.50744,0.0],[111.38637,-7.50511,0.0],[111.40533,-7.50348,0.0],[111.40661,-7.50149,0.0],[111.41344,-7.50058,0.0],[111.41166,-7.49969,0.0],[111.41164,-7.49799,0.0],[111.4208,-7.49911,0.0],[111.42173,-7.5031,0.0],[111.42055,-7.50526,0.0],[111.42084,-7.50941,0.0],[111.42254,-7.51052,0.0],[111.42209,-7.51318,0.0],[111.42668,-7.51412,0.0],[111.42792,-7.51226,0.0],[111.42723,-7.51038,0.0],[111.42944,-7.5104,0.0],[111.42962,-7.51457,0.0],[111.42824,-7.51458,0.0],[111.42259,-7.53358,0.0],[111.42051,-7.53641,0.0],[111.41855,-7.53671,0.0],[111.41909,-7.53363,0.0],[111.4159,-7.53319,0.0],[111.41578,-7.53647,0.0],[111.41437,-7.53731,0.0],[111.40206,-7.53862,0.0],[111.40025,-7.54094,0.0],[111.39733,-7.54121,0.0],[111.38356,-7.53713,0.0],[111.37807,-7.54188,0.0],[111.37802,-7.54447,0.0],[111.37534,-7.54698,0.0],[111.37356,-7.54678,0.0],[111.37229,-7.55145,0.0]]],[[[111.41649,-7.54106,0.0],[111.41785,-7.54325,0.0],[111.41404,-7.54641,0.0],[111.41294,-7.54518,0.0],[111.41361,-7.54108,0.0],[111.41649,-7.54106,0.0]]]]}},{"type":"Feature","properties":{"kecamatan":"Bringin","kab_kota":"Ngawi"},"geometry":{"type":"Polygon","coordinates":[[[111.57019,-7.44154,0.0],[111.5655,-7.43746,0.0],[111.56894,-7.43137,0.0],[111.56594,-7.43002,0.0],[111.559,-7.42918,0.0],[111.55822,-7.43046,0.0],[111.55579,-7.42918,0.0],[111.55652,-7.43348,0.0],[111.55501,-7.43663,0.0],[111.55276,-7.43753,0.0],[111.54171,-7.4347,0.0],[111.5415,-7.42812,0.0],[111.54261,-7.42361,0.0],[111.5453,-7.42024,0.0],[111.5461,-7.41065,0.0],[111.54581,-7.40903,0.0],[111.54181,-7.40859,0.0],[111.54576,-7.40175,0.0],[111.54055,-7.39928,0.0],[111.54207,-7.39693,0.0],[111.54462,-7.39675,0.0],[111.55025,-7.38491,0.0],[111.55396,-7.38308,0.0],[111.55572,-7.38329,0.0],[111.55875,-7.38648,0.0],[111.56287,-7.38556,0.0],[111.56797,-7.37925,0.0],[111.56766,-7.37254,0.0],[111.56575,-7.372,0.0],[111.56447,-7.36699,0.0],[111.56205,-7.36399,0.0],[111.55972,-7.36408,0.0],[111.55971,-7.36174,0.0],[111.56252,-7.35758,0.0],[111.56647,-7.35995,0.0],[111.56714,-7.35531,0.0],[111.56947,-7.35436,0.0],[111.57491,-7.34856,0.0],[111.58014,-7.35471,0.0],[111.58349,-7.35293,0.0],[111.59167,-7.35707,0.0],[111.59273,-7.35911,0.0],[111.59624,-7.35894,0.0],[111.60493,-7.36362,0.0],[111.60727,-7.36677,0.0],[111.61009,-7.36784,0.0],[111.61125,-7.37063,0.0],[111.61378,-7.36981,0.0],[111.61533,-7.37219,0.0],[111.61439,-7.3758,0.0],[111.61628,-7.3794,0.0],[111.62352,-7.38223,0.0],[111.62693,-7.38692,0.0],[111.62198,-7.4001,0.0],[111.6183,-7.40565,0.0],[111.62233,-7.41272,0.0],[111.62125,-7.41352,0.0],[111.62089,-7.42348,0.0],[111.61849,-7.42512,0.0],[111.61801,-7.42714,0.0],[111.61877,-7.4311,0.0],[111.61539,-7.43335,0.0],[111.61529,-7.4386,0.0],[111.60887,-7.44052,0.0],[111.60844,-7.44368,0.0],[111.60682,-7.44388,0.0],[111.6058,-7.44765,0.0],[111.60294,-7.44931,0.0],[111.60166,-7.44692,0.0],[111.60218,-7.44517,0.0],[111.60069,-7.44419,0.0],[111.5865,-7.44463,0.0],[111.58459,-7.4435,0.0],[111.5827,-7.44488,0.0],[111.57817,-7.43901,0.0],[111.57227,-7.43849,0.0],[111.57019,-7.44154,0.0]]]}},{"type":"Feature","properties":{"kecamatan":"Pitu","kab_kota":"Ngawi"},"geometry":{"type":"Polygon","coordinates":[[[111.33876,-7.38141,0.0],[111.33145,-7.37863,0.0],[111.32944,-7.38101,0.0],[111.32725,-7.38065,0.0],[111.32371,-7.38755,0.0],[111.32159,-7.38692,0.0],[111.31783,-7.38966,0.0],[111.31642,-7.38908,0.0],[111.31564,-7.39189,0.0],[111.3122,-7.3945,0.0],[111.31047,-7.40025,0.0],[111.30729,-7.40362,0.0],[111.3013,-7.40671,0.0],[111.29987,-7.40616,0.0],[111.30166,-7.40315,0.0],[111.30017,-7.40231,0.0],[111.30108,-7.3992,0.0],[111.30726,-7.39266,0.0],[111.3092,-7.38939,0.0],[111.30983,-7.38413,0.0],[111.31935,-7.37186,0.0],[111.31976,-7.36856,0.0],[111.31615,-7.36942,0.0],[111.31446,-7.36827,0.0],[111.31653,-7.35816,0.0],[111.31107,-7.35767,0.0],[111.31105,-7.35914,0.0],[111.29475,-7.35763,0.0],[111.29265,-7.354,0.0],[111.28554,-7.34975,0.0],[111.28201,-7.34001,0.0],[111.28363,-7.33243,0.0],[111.28562,-7.33035,0.0],[111.29647,-7.33127,0.0],[111.30432,-7.33345,0.0],[111.30369,-7.33148,0.0],[111.30501,-7.32982,0.0],[111.31621,-7.32478,0.0],[111.32049,-7.31427,0.0],[111.32393,-7.31297,0.0],[111.32556,-7.31556,0.0],[111.32683,-7.31546,0.0],[111.32611,-7.31655,0.0],[111.33007,-7.31503,0.0],[111.3314,-7.31744,0.0],[111.33301,-7.31733,0.0],[111.33315,-7.32078,0.0],[111.33481,-7.32046,0.0],[111.33379,-7.31997,0.0],[111.3343,-7.31848,0.0],[111.33568,-7.3203,0.0],[111.34006,-7.31817,0.0],[111.34472,-7.31917,0.0],[111.34505,-7.32141,0.0],[111.34688,-7.32273,0.0],[111.34647,-7.32695,0.0],[111.34517,-7.32788,0.0],[111.34811,-7.33008,0.0],[111.34481,-7.33486,0.0],[111.34711,-7.33483,0.0],[111.34705,-7.33623,0.0],[111.35368,-7.3321,0.0],[111.36075,-7.33007,0.0],[111.36753,-7.33314,0.0],[111.36904,-7.33472,0.0],[111.36943,-7.33817,0.0],[111.37199,-7.3406,0.0],[111.3925,-7.34505,0.0],[111.40071,-7.34402,0.0],[111.40763,-7.34568,0.0],[111.42019,-7.34567,0.0],[111.42686,-7.35013,0.0],[111.42905,-7.36061,0.0],[111.43303,-7.36521,0.0],[111.43812,-7.36779,0.0],[111.45107,-7.37047,0.0],[111.45903,-7.37646,0.0],[111.46249,-7.37812,0.0],[111.4637,-7.37702,0.0],[111.46107,-7.38459,0.0],[111.45735,-7.3879,0.0],[111.45429,-7.3881,0.0],[111.45057,-7.39171,0.0],[111.4458,-7.38994,0.0],[111.44119,-7.39067,0.0],[111.44014,-7.39235,0.0],[111.44171,-7.39532,0.0],[111.44063,-7.39825,0.0],[111.43863,-7.39903,0.0],[111.43774,-7.39524,0.0],[111.4348,-7.39503,0.0],[111.43154,-7.4015,0.0],[111.42907,-7.40071,0.0],[111.43174,-7.39709,0.0],[111.42912,-7.39017,0.0],[111.42958,-7.38451,0.0],[111.42646,-7.38181,0.0],[111.42402,-7.38254,0.0],[111.42626,-7.38629,0.0],[111.42256,-7.38874,0.0],[111.41616,-7.38898,0.0],[111.41225,-7.3849,0.0],[111.4089,-7.3867,0.0],[111.40824,-7.38819,0.0],[111.41018,-7.39407,0.0],[111.40621,-7.39776,0.0],[111.40421,-7.39691,0.0],[111.40331,-7.39111,0.0],[111.39759,-7.39245,0.0],[111.39534,-7.3894,0.0],[111.39146,-7.39392,0.0],[111.38498,-7.39161,0.0],[111.38271,-7.39553,0.0],[111.38108,-7.39528,0.0],[111.37385,-7.38627,0.0],[111.37438,-7.38415,0.0],[111.37774,-7.38252,0.0],[111.37776,-7.38038,0.0],[111.37219,-7.38211,0.0],[111.36767,-7.38821,0.0],[111.36515,-7.3879,0.0],[111.35852,-7.37705,0.0],[111.35877,-7.37464,0.0],[111.3618,-7.37397,0.0],[111.36199,-7.37193,0.0],[111.35517,-7.36723,0.0],[111.35586,-7.36581,0.0],[111.36048,-7.36658,0.0],[111.35796,-7.36346,0.0],[111.3487,-7.36356,0.0],[111.34972,-7.3657,0.0],[111.34921,-7.37047,0.0],[111.35115,-7.37242,0.0],[111.3512,-7.37544,0.0],[111.35358,-7.37771,0.0],[111.35065,-7.3812,0.0],[111.34796,-7.38106,0.0],[111.34468,-7.37838,0.0],[111.34443,-7.37599,0.0],[111.34798,-7.3764,0.0],[111.34883,-7.37535,0.0],[111.34361,-7.37125,0.0],[111.34074,-7.37251,0.0],[111.33876,-7.38141,0.0]]]}},{"type":"Feature","properties":{"kecamatan":"Kasreman","kab_kota":"Ngawi"},"geometry":{"type":"Polygon","coordinates":[[[111.50665,-7.42992,0.0],[111.51026,-7.43342,0.0],[111.50465,-7.43746,0.0],[111.50802,-7.4418,0.0],[111.50692,-7.44322,0.0],[111.50719,-7.44615,0.0],[111.50562,-7.44675,0.0],[111.50462,-7.44973,0.0],[111.50392,-7.44902,0.0],[111.5028,-7.45008,0.0],[111.50038,-7.44741,0.0],[111.49662,-7.44625,0.0],[111.49659,-7.44495,0.0],[111.48764,-7.43844,0.0],[111.48758,-7.43283,0.0],[111.4906,-7.42628,0.0],[111.48803,-7.42457,0.0],[111.48809,-7.42138,0.0],[111.48618,-7.42208,0.0],[111.48323,-7.42058,0.0],[111.48373,-7.41614,0.0],[111.48235,-7.41445,0.0],[111.48585,-7.40524,0.0],[111.48197,-7.40231,0.0],[111.48255,-7.39989,0.0],[111.47719,-7.39674,0.0],[111.47624,-7.39762,0.0],[111.48115,-7.38805,0.0],[111.48225,-7.38223,0.0],[111.4841,-7.38153,0.0],[111.48446,-7.38296,0.0],[111.48589,-7.3808,0.0],[111.48689,-7.38213,0.0],[111.4885,-7.38132,0.0],[111.49007,-7.38448,0.0],[111.4917,-7.38446,0.0],[111.49568,-7.37693,0.0],[111.49606,-7.369,0.0],[111.49809,-7.36447,0.0],[111.50517,-7.36178,0.0],[111.51615,-7.36406,0.0],[111.51967,-7.36635,0.0],[111.52354,-7.37151,0.0],[111.52785,-7.37219,0.0],[111.53814,-7.36919,0.0],[111.5426,-7.37081,0.0],[111.54505,-7.37018,0.0],[111.54887,-7.36629,0.0],[111.55038,-7.36073,0.0],[111.55373,-7.35865,0.0],[111.55812,-7.36024,0.0],[111.56023,-7.35936,0.0],[111.55972,-7.36408,0.0],[111.56205,-7.36399,0.0],[111.56447,-7.36699,0.0],[111.56575,-7.372,0.0],[111.56766,-7.37254,0.0],[111.56797,-7.37925,0.0],[111.56287,-7.38556,0.0],[111.55875,-7.38648,0.0],[111.55572,-7.38329,0.0],[111.55396,-7.38308,0.0],[111.55025,-7.38491,0.0],[111.54462,-7.39675,0.0],[111.54207,-7.39693,0.0],[111.53748,-7.40305,0.0],[111.53492,-7.40322,0.0],[111.53576,-7.40476,0.0],[111.53464,-7.40748,0.0],[111.52604,-7.40626,0.0],[111.52471,-7.40974,0.0],[111.52587,-7.41189,0.0],[111.52458,-7.41992,0.0],[111.51701,-7.42246,0.0],[111.51631,-7.42435,0.0],[111.51281,-7.42296,0.0],[111.51194,-7.42455,0.0],[111.50933,-7.4234,0.0],[111.50915,-7.42614,0.0],[111.50665,-7.42992,0.0]]]}}]}