{"type":"FeatureCollection","features":[{"type":"Feature","properties":{"kecamatan":null,"kab_kota":"Tulungagung"},"geometry":{"type":"MultiPolygon","coordinates":[[[[111.76193,-8.38823,0.0],[111.76109,-8.38738,0.0],[111.76131,-8.38724,0.0],[111.76193,-8.38823,0.0]]],[[[111.7591,-8.38735,0.0],[111.76084,-8.38824,0.0],[111.75852,-8.38724,0.0],[111.7591,-8.38735,0.0]]],[[[111.76213,-8.38758,0.0],[111.76205,-8.3865,0.0],[111.76248,-8.38738,0.0],[111.76213,-8.38758,0.0]]],[[[111.76216,-8.386,0.0],[111.76247,-8.38588,0.0],[111.76237,-8.38604,0.0],[111.76216,-8.386,0.0]]],[[[111.74702,-8.34662,0.0],[111.74713,-8.34955,0.0],[111.74614,-8.35012,0.0],[111.74668,-8.35145,0.0],[111.74547,-8.34967,0.0],[111.74619,-8.34826,0.0],[111.74526,-8.34756,0.0],[111.74702,-8.34662,0.0]]],[[[111.75655,-8.34299,0.0],[111.75641,-8.34341,0.0],[111.75631,-8.34334,0.0],[111.75655,-8.34299,0.0]]],[[[111.75893,-8.34143,0.0],[111.76052,-8.34379,0.0],[111.75886,-8.34184,0.0],[111.75747,-8.34246,0.0],[111.75893,-8.34143,0.0]]],[[[111.75749,-8.34031,0.0],[111.75714,-8.3402,0.0],[111.75806,-8.33906,0.0],[111.75749,-8.34031,0.0]]],[[[111.76295,-8.38739,0.0],[111.76303,-8.38685,0.0],[111.76301,-8.38739,0.0],[111.76295,-8.38739,0.0]]],[[[111.78301,-8.37005,0.0],[111.78336,-8.36982,0.0],[111.78344,-8.37003,0.0],[111.78301,-8.37005,0.0]]],[[[111.77934,-8.36818,0.0],[111.77796,-8.36935,0.0],[111.77718,-8.36926,0.0],[111.77772,-8.36753,0.0],[111.77934,-8.36818,0.0]]],[[[111.77929,-8.36619,0.0],[111.78397,-8.36707,0.0],[111.78414,-8.37047,0.0],[111.78209,-8.36821,0.0],[111.77883,-8.36723,0.0],[111.77929,-8.36619,0.0]]],[[[111.78675,-8.36526,0.0],[111.78642,-8.36613,0.0],[111.78536,-8.36624,0.0],[111.78675,-8.36526,0.0]]],[[[111.79964,-8.35771,0.0],[111.79889,-8.35894,0.0],[111.79671,-8.35805,0.0],[111.79615,-8.35508,0.0],[111.79964,-8.35771,0.0]]],[[[111.79623,-8.35454,0.0],[111.7964,-8.35467,0.0],[111.7962,-8.35463,0.0],[111.79623,-8.35454,0.0]]],[[[111.78349,-8.32663,0.0],[111.7836,-8.32703,0.0],[111.78332,-8.32673,0.0],[111.78349,-8.32663,0.0]]]]}},{"type":"Feature","properties":{"kecamatan":"Kedungwaru","kab_kota":"Tulungagung"},"geometry":{"type":"MultiPolygon","coordinates":[[[[111.90753,-8.08829,0.0],[111.91688,-8.08931,0.0],[111.91682,-8.09844,0.0],[111.91282,-8.09883,0.0],[111.91233,-8.09574,0.0],[111.90868,-8.09503,0.0],[111.90753,-8.08829,0.0]]],[[[111.91876,-8.05856,0.0],[111.913,-8.05872,0.0],[111.91291,-8.05568,0.0],[111.89782,-8.05529,0.0],[111.8974,-8.05681,0.0],[111.89308,-8.05561,0.0],[111.89328,-8.05197,0.0],[111.89128,-8.05118,0.0],[111.89502,-8.03942,0.0],[111.89352,-8.03883,0.0],[111.89413,-8.03368,0.0],[111.89164,-8.03168,0.0],[111.89211,-8.03016,0.0],[111.90059,-8.03241,0.0],[111.90254,-8.0306,0.0],[111.90678,-8.03182,0.0],[111.90704,-8.02917,0.0],[111.90407,-8.02374,0.0],[111.90549,-8.02157,0.0],[111.90408,-8.01336,0.0],[111.91336,-8.00184,0.0],[111.9152,-7.99549,0.0],[111.91905,-7.99483,0.0],[111.92005,-7.99652,0.0],[111.91892,-7.99998,0.0],[111.92044,-8.00302,0.0],[111.91826,-8.00948,0.0],[111.91873,-8.01299,0.0],[111.93194,-8.0219,0.0],[111.94132,-8.03448,0.0],[111.94095,-8.03552,0.0],[111.94827,-8.03793,0.0],[111.9506,-8.04095,0.0],[111.95704,-8.04102,0.0],[111.95735,-8.04835,0.0],[111.95996,-8.04981,0.0],[111.95787,-8.05212,0.0],[111.95402,-8.05287,0.0],[111.95537,-8.06254,0.0],[111.95671,-8.06246,0.0],[111.95633,-8.06584,0.0],[111.95392,-8.06604,0.0],[111.95394,-8.06786,0.0],[111.94225,-8.0651,0.0],[111.94136,-8.05954,0.0],[111.93704,-8.06034,0.0],[111.93841,-8.06442,0.0],[111.93574,-8.06409,0.0],[111.93731,-8.06696,0.0],[111.93416,-8.06672,0.0],[111.93386,-8.06927,0.0],[111.93841,-8.06989,0.0],[111.93738,-8.07318,0.0],[111.93778,-8.08092,0.0],[111.9309,-8.08075,0.0],[111.93085,-8.08252,0.0],[111.91693,-8.07999,0.0],[111.91904,-8.07097,0.0],[111.91712,-8.07037,0.0],[111.91846,-8.06329,0.0],[111.92031,-8.06295,0.0],[111.91876,-8.05856,0.0]],[[111.91725,-8.0528,0.0],[111.92347,-8.0527,0.0],[111.92576,-8.05496,0.0],[111.93033,-8.05534,0.0],[111.93028,-8.05326,0.0],[111.92871,-8.05335,0.0],[111.92872,-8.05077,0.0],[111.9273,-8.04996,0.0],[111.91722,-8.05034,0.0],[111.91725,-8.0528,0.0]]],[[[111.94062,-8.0647,0.0],[111.93842,-8.06516,0.0],[111.93841,-8.06442,0.0],[111.94062,-8.0647,0.0]]]]}},{"type":"Feature","properties":{"kecamatan":"Ngantru","kab_kota":"Tulungagung"},"geometry":{"type":"Polygon","coordinates":[[[111.94827,-8.03793,0.0],[111.94095,-8.03552,0.0],[111.94132,-8.03448,0.0],[111.93194,-8.0219,0.0],[111.91873,-8.01299,0.0],[111.91826,-8.00948,0.0],[111.92044,-8.00302,0.0],[111.91887,-7.99925,0.0],[111.92005,-7.99652,0.0],[111.91905,-7.99483,0.0],[111.9152,-7.99549,0.0],[111.91471,-7.99403,0.0],[111.91817,-7.98882,0.0],[111.91836,-7.97926,0.0],[111.92378,-7.97293,0.0],[111.92673,-7.96398,0.0],[111.93091,-7.96233,0.0],[111.93483,-7.95707,0.0],[111.94206,-7.95575,0.0],[111.94479,-7.9532,0.0],[111.94659,-7.96089,0.0],[111.94387,-7.96449,0.0],[111.947,-7.96665,0.0],[111.94753,-7.97226,0.0],[111.95036,-7.97476,0.0],[111.95169,-7.97847,0.0],[111.9511,-7.98077,0.0],[111.95299,-7.98255,0.0],[111.95261,-7.9886,0.0],[111.95572,-7.98926,0.0],[111.95551,-7.99087,0.0],[111.95649,-7.99015,0.0],[111.95574,-7.99155,0.0],[111.95709,-7.99739,0.0],[111.95561,-7.9983,0.0],[111.95806,-8.00631,0.0],[111.95652,-8.00893,0.0],[111.96248,-8.01198,0.0],[111.96203,-8.01393,0.0],[111.96402,-8.0154,0.0],[111.96507,-8.01986,0.0],[111.96608,-8.02173,0.0],[111.96763,-8.02136,0.0],[111.96878,-8.02644,0.0],[111.97042,-8.02732,0.0],[111.96941,-8.02991,0.0],[111.97077,-8.0311,0.0],[111.97093,-8.03692,0.0],[111.97363,-8.04027,0.0],[111.97248,-8.04361,0.0],[111.97752,-8.04382,0.0],[111.98203,-8.04839,0.0],[111.98705,-8.04985,0.0],[111.98681,-8.05167,0.0],[111.98872,-8.0545,0.0],[111.99386,-8.05772,0.0],[111.99514,-8.06242,0.0],[111.99622,-8.06273,0.0],[111.99575,-8.06654,0.0],[111.9941,-8.06656,0.0],[111.99397,-8.06792,0.0],[111.99319,-8.06695,0.0],[111.99331,-8.07117,0.0],[111.99183,-8.07115,0.0],[111.98812,-8.0765,0.0],[111.98481,-8.07183,0.0],[111.98338,-8.07151,0.0],[111.98292,-8.06857,0.0],[111.97892,-8.06185,0.0],[111.97462,-8.05825,0.0],[111.96956,-8.0575,0.0],[111.95942,-8.05088,0.0],[111.95996,-8.04981,0.0],[111.95735,-8.04835,0.0],[111.95704,-8.04102,0.0],[111.9506,-8.04095,0.0],[111.94827,-8.03793,0.0]]]}},{"type":"Feature","properties":{"kecamatan":"Tulungagung","kab_kota":"Tulungagung"},"geometry":{"type":"MultiPolygon","coordinates":[[[[111.88517,-8.0716,0.0],[111.88037,-8.0761,0.0],[111.87803,-8.08357,0.0],[111.8749,-8.08702,0.0],[111.87279,-8.08725,0.0],[111.87231,-8.08919,0.0],[111.87086,-8.08915,0.0],[111.87266,-8.08566,0.0],[111.87381,-8.08604,0.0],[111.87473,-8.08286,0.0],[111.86919,-8.08154,0.0],[111.87046,-8.07716,0.0],[111.87307,-8.07693,0.0],[111.87426,-8.07814,0.0],[111.87433,-8.0756,0.0],[111.87619,-8.07315,0.0],[111.87506,-8.07263,0.0],[111.87625,-8.06901,0.0],[111.87511,-8.06558,0.0],[111.87641,-8.06168,0.0],[111.8789,-8.05883,0.0],[111.88558,-8.05995,0.0],[111.8869,-8.05168,0.0],[111.88852,-8.0503,0.0],[111.89314,-8.05167,0.0],[111.89308,-8.05561,0.0],[111.8974,-8.05681,0.0],[111.89782,-8.05529,0.0],[111.91291,-8.05568,0.0],[111.913,-8.05872,0.0],[111.91939,-8.05849,0.0],[111.92031,-8.06295,0.0],[111.91846,-8.06329,0.0],[111.91712,-8.07037,0.0],[111.91904,-8.07097,0.0],[111.91693,-8.07999,0.0],[111.8969,-8.07432,0.0],[111.89696,-8.07333,0.0],[111.89341,-8.07377,0.0],[111.88517,-8.0716,0.0]]],[[[111.93723,-8.06214,0.0],[111.93704,-8.06034,0.0],[111.94136,-8.05954,0.0],[111.94225,-8.0651,0.0],[111.94671,-8.06571,0.0],[111.94663,-8.07136,0.0],[111.94855,-8.07196,0.0],[111.94691,-8.0746,0.0],[111.94076,-8.07165,0.0],[111.94002,-8.0723,0.0],[111.93841,-8.06989,0.0],[111.93386,-8.06927,0.0],[111.93416,-8.06672,0.0],[111.93731,-8.06696,0.0],[111.93567,-8.06546,0.0],[111.93574,-8.06409,0.0],[111.93841,-8.06442,0.0],[111.93813,-8.06204,0.0],[111.93723,-8.06214,0.0]],[[111.93842,-8.06494,0.0],[111.93844,-8.0672,0.0],[111.94167,-8.06837,0.0],[111.94131,-8.06496,0.0],[111.93842,-8.06494,0.0]]]]}},{"type":"Feature","properties":{"kecamatan":"Boyolangu","kab_kota":"Tulungagung"},"geometry":{"type":"MultiPolygon","coordinates":[[[[111.8932,-8.12584,0.0],[111.89259,-8.1294,0.0],[111.88659,-8.12865,0.0],[111.8863,-8.13168,0.0],[111.88466,-8.13213,0.0],[111.88433,-8.13052,0.0],[111.88156,-8.13049,0.0],[111.88166,-8.12818,0.0],[111.87877,-8.1273,0.0],[111.87804,-8.13319,0.0],[111.87935,-8.13342,0.0],[111.87908,-8.13559,0.0],[111.87693,-8.1352,0.0],[111.87617,-8.1363,0.0],[111.86892,-8.13509,0.0],[111.86889,-8.13358,0.0],[111.87065,-8.13396,0.0],[111.87175,-8.125,0.0],[111.86775,-8.11301,0.0],[111.87063,-8.10546,0.0],[111.86967,-8.1052,0.0],[111.87013,-8.10332,0.0],[111.86753,-8.10192,0.0],[111.86702,-8.09821,0.0],[111.86872,-8.09628,0.0],[111.86818,-8.09433,0.0],[111.87071,-8.09243,0.0],[111.87005,-8.08955,0.0],[111.87231,-8.08919,0.0],[111.87279,-8.08725,0.0],[111.8749,-8.08702,0.0],[111.87803,-8.08357,0.0],[111.88076,-8.07554,0.0],[111.88517,-8.0716,0.0],[111.89341,-8.07377,0.0],[111.89696,-8.07333,0.0],[111.8969,-8.07432,0.0],[111.92605,-8.08206,0.0],[111.93085,-8.08252,0.0],[111.9309,-8.08075,0.0],[111.93778,-8.08092,0.0],[111.93778,-8.08252,0.0],[111.93129,-8.08257,0.0],[111.93015,-8.09188,0.0],[111.93105,-8.09812,0.0],[111.92487,-8.09822,0.0],[111.9247,-8.0961,0.0],[111.92471,-8.10179,0.0],[111.9228,-8.1017,0.0],[111.92466,-8.1112,0.0],[111.92002,-8.1147,0.0],[111.92383,-8.11645,0.0],[111.92463,-8.11946,0.0],[111.92825,-8.12065,0.0],[111.92846,-8.12269,0.0],[111.92767,-8.12749,0.0],[111.92612,-8.12891,0.0],[111.92328,-8.13763,0.0],[111.91938,-8.1399,0.0],[111.91733,-8.13965,0.0],[111.91525,-8.14258,0.0],[111.90785,-8.13604,0.0],[111.90601,-8.13109,0.0],[111.9061,-8.12646,0.0],[111.90503,-8.12619,0.0],[111.90394,-8.12791,0.0],[111.90116,-8.1278,0.0],[111.90142,-8.12573,0.0],[111.8932,-8.12584,0.0]],[[111.90753,-8.08829,0.0],[111.90892,-8.09555,0.0],[111.91233,-8.09574,0.0],[111.91282,-8.09883,0.0],[111.91682,-8.09844,0.0],[111.91678,-8.08914,0.0],[111.90753,-8.08829,0.0]]],[[[111.94167,-8.06837,0.0],[111.93844,-8.0672,0.0],[111.93842,-8.06516,0.0],[111.94133,-8.06538,0.0],[111.94167,-8.06837,0.0]]],[[[111.92792,-8.05555,0.0],[111.92347,-8.0527,0.0],[111.91725,-8.0528,0.0],[111.91722,-8.05034,0.0],[111.9273,-8.04996,0.0],[111.92872,-8.05077,0.0],[111.92871,-8.05335,0.0],[111.93028,-8.05326,0.0],[111.93033,-8.05534,0.0],[111.92792,-8.05555,0.0]]]]}},{"type":"Feature","properties":{"kecamatan":"Sendang","kab_kota":"Tulungagung"},"geometry":{"type":"Polygon","coordinates":[[[111.85098,-7.99571,0.0],[111.84536,-8.00163,0.0],[111.84191,-7.99706,0.0],[111.83913,-7.9978,0.0],[111.83013,-7.99413,0.0],[111.83083,-7.99087,0.0],[111.82966,-7.99096,0.0],[111.8299,-7.98972,0.0],[111.82535,-7.98532,0.0],[111.82592,-7.9823,0.0],[111.82475,-7.98197,0.0],[111.82403,-7.97746,0.0],[111.8212,-7.97756,0.0],[111.81785,-7.97467,0.0],[111.81824,-7.97264,0.0],[111.81718,-7.97317,0.0],[111.81352,-7.96965,0.0],[111.81432,-7.96835,0.0],[111.81216,-7.9655,0.0],[111.81378,-7.96387,0.0],[111.81211,-7.96311,0.0],[111.81204,-7.96045,0.0],[111.81322,-7.95972,0.0],[111.81129,-7.95371,0.0],[111.80971,-7.954,0.0],[111.80754,-7.95165,0.0],[111.80712,-7.94679,0.0],[111.80536,-7.94713,0.0],[111.80432,-7.94553,0.0],[111.80393,-7.94656,0.0],[111.80276,-7.9456,0.0],[111.79954,-7.94608,0.0],[111.79958,-7.944,0.0],[111.7978,-7.94304,0.0],[111.79844,-7.94172,0.0],[111.79732,-7.94213,0.0],[111.79759,-7.94067,0.0],[111.79598,-7.94121,0.0],[111.79671,-7.93877,0.0],[111.79426,-7.93834,0.0],[111.79413,-7.93594,0.0],[111.79258,-7.93599,0.0],[111.79307,-7.93446,0.0],[111.79152,-7.93376,0.0],[111.79109,-7.92993,0.0],[111.78943,-7.93101,0.0],[111.78724,-7.92939,0.0],[111.78892,-7.92853,0.0],[111.78864,-7.92211,0.0],[111.78341,-7.91331,0.0],[111.78482,-7.91284,0.0],[111.78621,-7.90912,0.0],[111.78603,-7.90703,0.0],[111.78321,-7.90688,0.0],[111.78464,-7.90551,0.0],[111.78309,-7.90386,0.0],[111.78451,-7.9026,0.0],[111.78452,-7.89979,0.0],[111.783,-7.89855,0.0],[111.78392,-7.8947,0.0],[111.78108,-7.88842,0.0],[111.7692,-7.88173,0.0],[111.77065,-7.88053,0.0],[111.76961,-7.87893,0.0],[111.77169,-7.87904,0.0],[111.77097,-7.87679,0.0],[111.77252,-7.87399,0.0],[111.77168,-7.87241,0.0],[111.77329,-7.8721,0.0],[111.77863,-7.86514,0.0],[111.77843,-7.86407,0.0],[111.77716,-7.86424,0.0],[111.77683,-7.86194,0.0],[111.77314,-7.86005,0.0],[111.7714,-7.85596,0.0],[111.77308,-7.85118,0.0],[111.77778,-7.84625,0.0],[111.78078,-7.83902,0.0],[111.78526,-7.83587,0.0],[111.78581,-7.83347,0.0],[111.79468,-7.83654,0.0],[111.7992,-7.83657,0.0],[111.79702,-7.84272,0.0],[111.79717,-7.8479,0.0],[111.80199,-7.85629,0.0],[111.80271,-7.86567,0.0],[111.81037,-7.86643,0.0],[111.8159,-7.87148,0.0],[111.82015,-7.87193,0.0],[111.82159,-7.87367,0.0],[111.83038,-7.87744,0.0],[111.83688,-7.88298,0.0],[111.84109,-7.88916,0.0],[111.84441,-7.89093,0.0],[111.85125,-7.90086,0.0],[111.85529,-7.9042,0.0],[111.86303,-7.90766,0.0],[111.86289,-7.9107,0.0],[111.86912,-7.91783,0.0],[111.87824,-7.93287,0.0],[111.87855,-7.93842,0.0],[111.88284,-7.94718,0.0],[111.88669,-7.94849,0.0],[111.89181,-7.95273,0.0],[111.89468,-7.95357,0.0],[111.89396,-7.95226,0.0],[111.89545,-7.95319,0.0],[111.89619,-7.95218,0.0],[111.89896,-7.95393,0.0],[111.89505,-7.9573,0.0],[111.89497,-7.96063,0.0],[111.89216,-7.96086,0.0],[111.88916,-7.96651,0.0],[111.88496,-7.97088,0.0],[111.88313,-7.97063,0.0],[111.88078,-7.96606,0.0],[111.87748,-7.9636,0.0],[111.86789,-7.96693,0.0],[111.86839,-7.9704,0.0],[111.87491,-7.97559,0.0],[111.8741,-7.97719,0.0],[111.87515,-7.97693,0.0],[111.87943,-7.98266,0.0],[111.88047,-7.98506,0.0],[111.87901,-7.987,0.0],[111.87995,-7.98863,0.0],[111.88549,-7.99252,0.0],[111.8848,-7.99385,0.0],[111.88729,-7.99494,0.0],[111.88861,-7.9939,0.0],[111.88962,-7.99553,0.0],[111.88709,-7.99527,0.0],[111.88594,-7.99615,0.0],[111.8864,-7.99735,0.0],[111.88332,-7.99813,0.0],[111.87928,-7.99704,0.0],[111.87663,-7.99774,0.0],[111.88342,-8.00831,0.0],[111.88013,-8.01261,0.0],[111.87825,-8.01204,0.0],[111.87688,-8.01322,0.0],[111.85922,-8.0033,0.0],[111.85286,-7.9957,0.0],[111.85098,-7.99571,0.0]]]}},{"type":"Feature","properties":{"kecamatan":"Karangrejo","kab_kota":"Tulungagung"},"geometry":{"type":"Polygon","coordinates":[[[111.90408,-8.01336,0.0],[111.90549,-8.02157,0.0],[111.90407,-8.02374,0.0],[111.90704,-8.02917,0.0],[111.90678,-8.03182,0.0],[111.90254,-8.0306,0.0],[111.90059,-8.03241,0.0],[111.89234,-8.02977,0.0],[111.89164,-8.03168,0.0],[111.89413,-8.03368,0.0],[111.89352,-8.03883,0.0],[111.88656,-8.0369,0.0],[111.88197,-8.03298,0.0],[111.88301,-8.03177,0.0],[111.88648,-8.03271,0.0],[111.88789,-8.03162,0.0],[111.88828,-8.03052,0.0],[111.88424,-8.02823,0.0],[111.88538,-8.02674,0.0],[111.88065,-8.02471,0.0],[111.8758,-8.03149,0.0],[111.87249,-8.0296,0.0],[111.86617,-8.02296,0.0],[111.86327,-8.01803,0.0],[111.85789,-8.01552,0.0],[111.85691,-8.01308,0.0],[111.85367,-8.01123,0.0],[111.85087,-8.01152,0.0],[111.84835,-8.00738,0.0],[111.84392,-8.00758,0.0],[111.84481,-8.00426,0.0],[111.83665,-8.0,0.0],[111.83593,-7.9966,0.0],[111.83948,-7.99787,0.0],[111.84191,-7.99706,0.0],[111.84536,-8.00163,0.0],[111.85098,-7.99571,0.0],[111.85286,-7.9957,0.0],[111.85922,-8.0033,0.0],[111.87688,-8.01322,0.0],[111.87825,-8.01204,0.0],[111.88013,-8.01261,0.0],[111.88342,-8.00831,0.0],[111.87663,-7.99774,0.0],[111.87928,-7.99704,0.0],[111.88332,-7.99813,0.0],[111.8864,-7.99735,0.0],[111.88594,-7.99615,0.0],[111.88709,-7.99527,0.0],[111.88962,-7.99553,0.0],[111.88861,-7.9939,0.0],[111.88729,-7.99494,0.0],[111.8848,-7.99385,0.0],[111.88549,-7.99252,0.0],[111.87995,-7.98863,0.0],[111.87901,-7.987,0.0],[111.88047,-7.98506,0.0],[111.87943,-7.98266,0.0],[111.87515,-7.97693,0.0],[111.8741,-7.97719,0.0],[111.87491,-7.97559,0.0],[111.86839,-7.9704,0.0],[111.86821,-7.96642,0.0],[111.87748,-7.9636,0.0],[111.88078,-7.96606,0.0],[111.88313,-7.97063,0.0],[111.88496,-7.97088,0.0],[111.88916,-7.96651,0.0],[111.89216,-7.96086,0.0],[111.89497,-7.96063,0.0],[111.89553,-7.95659,0.0],[111.89909,-7.95444,0.0],[111.9026,-7.95707,0.0],[111.90695,-7.95608,0.0],[111.90683,-7.95745,0.0],[111.9082,-7.95771,0.0],[111.91004,-7.95612,0.0],[111.91121,-7.95754,0.0],[111.91065,-7.95895,0.0],[111.91307,-7.95867,0.0],[111.91712,-7.96121,0.0],[111.91824,-7.96004,0.0],[111.91779,-7.95656,0.0],[111.92289,-7.95686,0.0],[111.92528,-7.96039,0.0],[111.92747,-7.96108,0.0],[111.92781,-7.96288,0.0],[111.92378,-7.97293,0.0],[111.91836,-7.97926,0.0],[111.91817,-7.98882,0.0],[111.91476,-7.99373,0.0],[111.91365,-8.00127,0.0],[111.90408,-8.01336,0.0]]]}},{"type":"Feature","properties":{"kecamatan":"Kauman","kab_kota":"Tulungagung"},"geometry":{"type":"Polygon","coordinates":[[[111.86835,-8.06845,0.0],[111.86715,-8.07123,0.0],[111.86448,-8.07511,0.0],[111.85647,-8.0704,0.0],[111.85834,-8.06558,0.0],[111.85465,-8.06405,0.0],[111.85697,-8.05844,0.0],[111.85407,-8.05772,0.0],[111.85348,-8.05628,0.0],[111.85021,-8.0572,0.0],[111.85097,-8.05422,0.0],[111.8542,-8.05564,0.0],[111.85493,-8.05345,0.0],[111.85084,-8.05064,0.0],[111.85104,-8.04898,0.0],[111.84949,-8.04873,0.0],[111.85078,-8.0469,0.0],[111.84455,-8.04517,0.0],[111.83904,-8.0412,0.0],[111.83558,-8.04245,0.0],[111.83201,-8.04125,0.0],[111.83214,-8.0389,0.0],[111.82778,-8.03616,0.0],[111.82527,-8.02559,0.0],[111.82592,-8.02271,0.0],[111.82328,-8.01689,0.0],[111.82132,-8.00619,0.0],[111.82405,-8.00543,0.0],[111.8253,-8.00813,0.0],[111.82467,-8.01062,0.0],[111.82641,-8.01112,0.0],[111.8248,-8.01408,0.0],[111.82741,-8.01946,0.0],[111.83169,-8.01231,0.0],[111.83568,-8.01151,0.0],[111.83714,-8.01253,0.0],[111.84392,-8.00758,0.0],[111.84835,-8.00738,0.0],[111.85087,-8.01152,0.0],[111.85412,-8.01144,0.0],[111.85691,-8.01308,0.0],[111.85789,-8.01552,0.0],[111.8632,-8.01796,0.0],[111.87146,-8.02872,0.0],[111.8758,-8.03149,0.0],[111.88065,-8.02471,0.0],[111.88538,-8.02674,0.0],[111.88424,-8.02823,0.0],[111.88828,-8.03052,0.0],[111.88648,-8.03271,0.0],[111.88301,-8.03177,0.0],[111.88197,-8.03298,0.0],[111.8836,-8.03512,0.0],[111.89502,-8.03942,0.0],[111.89128,-8.05118,0.0],[111.88852,-8.0503,0.0],[111.8869,-8.05168,0.0],[111.88558,-8.05995,0.0],[111.8789,-8.05883,0.0],[111.87694,-8.06059,0.0],[111.87518,-8.0648,0.0],[111.87625,-8.06901,0.0],[111.87512,-8.07229,0.0],[111.86835,-8.06845,0.0]]]}},{"type":"Feature","properties":{"kecamatan":"Pagerwojo","kab_kota":"Tulungagung"},"geometry":{"type":"Polygon","coordinates":[[[111.79342,-8.03882,0.0],[111.78797,-8.03511,0.0],[111.78264,-8.03642,0.0],[111.77922,-8.03873,0.0],[111.77213,-8.03661,0.0],[111.76865,-8.03731,0.0],[111.75884,-8.03186,0.0],[111.75462,-8.03125,0.0],[111.75629,-8.02479,0.0],[111.75451,-8.00271,0.0],[111.75684,-7.99602,0.0],[111.76037,-7.99284,0.0],[111.76054,-7.98794,0.0],[111.75912,-7.98367,0.0],[111.75345,-7.97933,0.0],[111.75104,-7.97198,0.0],[111.74837,-7.96966,0.0],[111.74345,-7.9706,0.0],[111.74173,-7.96963,0.0],[111.73813,-7.95891,0.0],[111.7436,-7.95389,0.0],[111.74437,-7.9483,0.0],[111.7457,-7.94746,0.0],[111.74483,-7.9467,0.0],[111.74644,-7.94214,0.0],[111.74489,-7.9393,0.0],[111.74574,-7.93605,0.0],[111.74418,-7.93215,0.0],[111.74899,-7.92814,0.0],[111.75296,-7.92901,0.0],[111.76123,-7.9229,0.0],[111.75943,-7.9225,0.0],[111.75913,-7.91793,0.0],[111.75492,-7.91439,0.0],[111.75613,-7.91238,0.0],[111.75428,-7.90993,0.0],[111.75598,-7.90912,0.0],[111.7553,-7.90828,0.0],[111.75704,-7.90607,0.0],[111.75858,-7.90598,0.0],[111.75792,-7.90207,0.0],[111.76067,-7.90096,0.0],[111.75608,-7.8987,0.0],[111.7578,-7.8965,0.0],[111.75605,-7.89613,0.0],[111.7561,-7.89319,0.0],[111.75874,-7.89478,0.0],[111.76117,-7.8904,0.0],[111.76411,-7.89052,0.0],[111.76945,-7.8866,0.0],[111.771,-7.88689,0.0],[111.77108,-7.88311,0.0],[111.78108,-7.88842,0.0],[111.78392,-7.8947,0.0],[111.783,-7.89855,0.0],[111.78452,-7.89979,0.0],[111.78451,-7.9026,0.0],[111.78309,-7.90386,0.0],[111.78464,-7.90551,0.0],[111.78321,-7.90688,0.0],[111.78603,-7.90703,0.0],[111.78621,-7.90912,0.0],[111.78482,-7.91284,0.0],[111.78341,-7.91331,0.0],[111.78864,-7.92211,0.0],[111.78892,-7.92853,0.0],[111.78724,-7.92939,0.0],[111.78943,-7.93101,0.0],[111.79109,-7.92993,0.0],[111.79152,-7.93376,0.0],[111.79307,-7.93446,0.0],[111.79258,-7.93599,0.0],[111.79413,-7.93594,0.0],[111.79426,-7.93834,0.0],[111.79671,-7.93877,0.0],[111.79598,-7.94121,0.0],[111.79759,-7.94067,0.0],[111.79732,-7.94213,0.0],[111.79844,-7.94172,0.0],[111.7978,-7.94304,0.0],[111.79958,-7.944,0.0],[111.79954,-7.94608,0.0],[111.80276,-7.9456,0.0],[111.80393,-7.94656,0.0],[111.80432,-7.94553,0.0],[111.80536,-7.94713,0.0],[111.80712,-7.94679,0.0],[111.80754,-7.95165,0.0],[111.80971,-7.954,0.0],[111.81129,-7.95371,0.0],[111.81322,-7.95972,0.0],[111.81204,-7.96045,0.0],[111.81211,-7.96311,0.0],[111.81378,-7.96387,0.0],[111.81216,-7.9655,0.0],[111.81432,-7.96835,0.0],[111.81352,-7.96965,0.0],[111.81718,-7.97317,0.0],[111.81824,-7.97264,0.0],[111.81785,-7.97467,0.0],[111.8212,-7.97756,0.0],[111.82403,-7.97746,0.0],[111.82475,-7.98197,0.0],[111.82592,-7.9823,0.0],[111.82535,-7.98532,0.0],[111.8299,-7.98972,0.0],[111.82966,-7.99096,0.0],[111.83083,-7.99087,0.0],[111.83013,-7.99413,0.0],[111.83593,-7.9966,0.0],[111.83665,-8.0,0.0],[111.84326,-8.00261,0.0],[111.84496,-8.00451,0.0],[111.8439,-8.00815,0.0],[111.8408,-8.00919,0.0],[111.83714,-8.01253,0.0],[111.83568,-8.01151,0.0],[111.83122,-8.01263,0.0],[111.8279,-8.01943,0.0],[111.82488,-8.01442,0.0],[111.82641,-8.01084,0.0],[111.82467,-8.01062,0.0],[111.8254,-8.00837,0.0],[111.82405,-8.00543,0.0],[111.82132,-8.00619,0.0],[111.82328,-8.01689,0.0],[111.82592,-8.02271,0.0],[111.82629,-8.032,0.0],[111.82781,-8.03425,0.0],[111.82717,-8.04402,0.0],[111.8286,-8.04619,0.0],[111.82689,-8.04438,0.0],[111.82428,-8.04534,0.0],[111.81813,-8.04186,0.0],[111.81446,-8.04255,0.0],[111.80923,-8.04037,0.0],[111.80533,-8.04251,0.0],[111.80307,-8.04743,0.0],[111.79826,-8.04632,0.0],[111.79385,-8.04162,0.0],[111.79342,-8.03882,0.0]]]}},{"type":"Feature","properties":{"kecamatan":"Gondang","kab_kota":"Tulungagung"},"geometry":{"type":"Polygon","coordinates":[[[111.8426,-8.10385,0.0],[111.84391,-8.09635,0.0],[111.83911,-8.0935,0.0],[111.83834,-8.0916,0.0],[111.83719,-8.09122,0.0],[111.83565,-8.09469,0.0],[111.82493,-8.09176,0.0],[111.82488,-8.08949,0.0],[111.82087,-8.08867,0.0],[111.81857,-8.08956,0.0],[111.81315,-8.08765,0.0],[111.80943,-8.07862,0.0],[111.8096,-8.07569,0.0],[111.79975,-8.06775,0.0],[111.79761,-8.06732,0.0],[111.79595,-8.06363,0.0],[111.79642,-8.06149,0.0],[111.7943,-8.06168,0.0],[111.79139,-8.05939,0.0],[111.78967,-8.05237,0.0],[111.78799,-8.05137,0.0],[111.78724,-8.04812,0.0],[111.78377,-8.0458,0.0],[111.78314,-8.04304,0.0],[111.77922,-8.03873,0.0],[111.78264,-8.03642,0.0],[111.78797,-8.03511,0.0],[111.79342,-8.03882,0.0],[111.79355,-8.04114,0.0],[111.79758,-8.04616,0.0],[111.80307,-8.04743,0.0],[111.80533,-8.04251,0.0],[111.80923,-8.04037,0.0],[111.81446,-8.04255,0.0],[111.81813,-8.04186,0.0],[111.82428,-8.04534,0.0],[111.82689,-8.04438,0.0],[111.8286,-8.04619,0.0],[111.82717,-8.04402,0.0],[111.82778,-8.03616,0.0],[111.83214,-8.0389,0.0],[111.83201,-8.04125,0.0],[111.83558,-8.04245,0.0],[111.83904,-8.0412,0.0],[111.84455,-8.04517,0.0],[111.85078,-8.0469,0.0],[111.84949,-8.04873,0.0],[111.85104,-8.04898,0.0],[111.85084,-8.05064,0.0],[111.85493,-8.05345,0.0],[111.8542,-8.05564,0.0],[111.85097,-8.05422,0.0],[111.85021,-8.0572,0.0],[111.85348,-8.05628,0.0],[111.85407,-8.05772,0.0],[111.85697,-8.05844,0.0],[111.85465,-8.06405,0.0],[111.85834,-8.06558,0.0],[111.85647,-8.0704,0.0],[111.86448,-8.07511,0.0],[111.86835,-8.06845,0.0],[111.8725,-8.06993,0.0],[111.87207,-8.07124,0.0],[111.87619,-8.07315,0.0],[111.87433,-8.0756,0.0],[111.87426,-8.07814,0.0],[111.87307,-8.07693,0.0],[111.87046,-8.07716,0.0],[111.86919,-8.08154,0.0],[111.87473,-8.08286,0.0],[111.87381,-8.08604,0.0],[111.87266,-8.08566,0.0],[111.87005,-8.08955,0.0],[111.87071,-8.09243,0.0],[111.86818,-8.09433,0.0],[111.86872,-8.09628,0.0],[111.86702,-8.09821,0.0],[111.86753,-8.10192,0.0],[111.87013,-8.10332,0.0],[111.86967,-8.1052,0.0],[111.87063,-8.10546,0.0],[111.86821,-8.11023,0.0],[111.8652,-8.10985,0.0],[111.8653,-8.10823,0.0],[111.86398,-8.10807,0.0],[111.86209,-8.11141,0.0],[111.85621,-8.11335,0.0],[111.85308,-8.11133,0.0],[111.84643,-8.11064,0.0],[111.84693,-8.10642,0.0],[111.8426,-8.10385,0.0]]]}},{"type":"Feature","properties":{"kecamatan":"Kalidawir","kab_kota":"Tulungagung"},"geometry":{"type":"Polygon","coordinates":[[[111.94276,-8.27877,0.0],[111.93743,-8.28462,0.0],[111.93506,-8.29269,0.0],[111.93359,-8.28511,0.0],[111.93001,-8.28446,0.0],[111.92995,-8.28595,0.0],[111.92705,-8.28418,0.0],[111.92446,-8.28454,0.0],[111.92351,-8.28085,0.0],[111.9225,-8.28195,0.0],[111.91815,-8.28096,0.0],[111.91612,-8.27858,0.0],[111.91739,-8.27644,0.0],[111.91274,-8.27297,0.0],[111.9157,-8.26831,0.0],[111.91725,-8.27035,0.0],[111.92354,-8.26812,0.0],[111.92454,-8.26733,0.0],[111.92406,-8.26485,0.0],[111.92688,-8.26276,0.0],[111.92784,-8.25874,0.0],[111.92459,-8.25678,0.0],[111.92697,-8.24939,0.0],[111.92314,-8.24912,0.0],[111.92541,-8.23866,0.0],[111.92274,-8.23431,0.0],[111.92718,-8.23228,0.0],[111.92652,-8.23058,0.0],[111.93226,-8.22869,0.0],[111.9346,-8.22553,0.0],[111.93044,-8.22188,0.0],[111.92801,-8.21684,0.0],[111.92496,-8.21486,0.0],[111.92389,-8.21631,0.0],[111.921,-8.21644,0.0],[111.92096,-8.21551,0.0],[111.91366,-8.21387,0.0],[111.91045,-8.21159,0.0],[111.90328,-8.21275,0.0],[111.90154,-8.20638,0.0],[111.89967,-8.20406,0.0],[111.90288,-8.19984,0.0],[111.90039,-8.19871,0.0],[111.9007,-8.19714,0.0],[111.89862,-8.19574,0.0],[111.90085,-8.19208,0.0],[111.90023,-8.18806,0.0],[111.90334,-8.17582,0.0],[111.90147,-8.17178,0.0],[111.90226,-8.16935,0.0],[111.90868,-8.16747,0.0],[111.91298,-8.1638,0.0],[111.91418,-8.16237,0.0],[111.91243,-8.15967,0.0],[111.91699,-8.15519,0.0],[111.91904,-8.15091,0.0],[111.91827,-8.14582,0.0],[111.91525,-8.14161,0.0],[111.91745,-8.13959,0.0],[111.91938,-8.1399,0.0],[111.92305,-8.13786,0.0],[111.92646,-8.13044,0.0],[111.92968,-8.13373,0.0],[111.93489,-8.13567,0.0],[111.94195,-8.12638,0.0],[111.94777,-8.12804,0.0],[111.94852,-8.13012,0.0],[111.94799,-8.13208,0.0],[111.94175,-8.13502,0.0],[111.94994,-8.13558,0.0],[111.95029,-8.13716,0.0],[111.95199,-8.13725,0.0],[111.95201,-8.13908,0.0],[111.96025,-8.14014,0.0],[111.96109,-8.14701,0.0],[111.96298,-8.14618,0.0],[111.96281,-8.14062,0.0],[111.96477,-8.14068,0.0],[111.9648,-8.13928,0.0],[111.96983,-8.14004,0.0],[111.97075,-8.13716,0.0],[111.97814,-8.13825,0.0],[111.97798,-8.14295,0.0],[111.98184,-8.14298,0.0],[111.98001,-8.14717,0.0],[111.98048,-8.15132,0.0],[111.98506,-8.15227,0.0],[111.98549,-8.15635,0.0],[111.99226,-8.15665,0.0],[111.99448,-8.15574,0.0],[111.99494,-8.15404,0.0],[112.00107,-8.15443,0.0],[112.0011,-8.15608,0.0],[111.99805,-8.15775,0.0],[111.99847,-8.15939,0.0],[112.00417,-8.15658,0.0],[112.00466,-8.15797,0.0],[112.00711,-8.15885,0.0],[112.00661,-8.16554,0.0],[112.0085,-8.16708,0.0],[112.01226,-8.16706,0.0],[112.01095,-8.17156,0.0],[112.00522,-8.17564,0.0],[112.00104,-8.18074,0.0],[111.99535,-8.18212,0.0],[111.98924,-8.18879,0.0],[111.98587,-8.19025,0.0],[111.9803,-8.20458,0.0],[111.97644,-8.20817,0.0],[111.97825,-8.20992,0.0],[111.97686,-8.21067,0.0],[111.97723,-8.21283,0.0],[111.97441,-8.21233,0.0],[111.9694,-8.21771,0.0],[111.96895,-8.21933,0.0],[111.97323,-8.22138,0.0],[111.97027,-8.22225,0.0],[111.96809,-8.22463,0.0],[111.97189,-8.23709,0.0],[111.97043,-8.24486,0.0],[111.97316,-8.25118,0.0],[111.9715,-8.25711,0.0],[111.96942,-8.25968,0.0],[111.96961,-8.26433,0.0],[111.96747,-8.26417,0.0],[111.96732,-8.26581,0.0],[111.96331,-8.26921,0.0],[111.96169,-8.27135,0.0],[111.96168,-8.27524,0.0],[111.95817,-8.27892,0.0],[111.94804,-8.27714,0.0],[111.94276,-8.27877,0.0]]]}},{"type":"Feature","properties":{"kecamatan":"Besuki","kab_kota":"Tulungagung"},"geometry":{"type":"MultiPolygon","coordinates":[[[[111.77534,-8.25948,0.0],[111.77079,-8.26501,0.0],[111.76994,-8.27019,0.0],[111.77773,-8.27435,0.0],[111.77872,-8.27723,0.0],[111.77798,-8.27853,0.0],[111.77583,-8.2786,0.0],[111.77328,-8.28333,0.0],[111.76886,-8.28575,0.0],[111.76969,-8.28882,0.0],[111.76716,-8.28799,0.0],[111.75884,-8.2902,0.0],[111.75682,-8.28776,0.0],[111.75166,-8.28824,0.0],[111.75,-8.28981,0.0],[111.74984,-8.28318,0.0],[111.75143,-8.27805,0.0],[111.75041,-8.27698,0.0],[111.75079,-8.27348,0.0],[111.74572,-8.26441,0.0],[111.74791,-8.25788,0.0],[111.7453,-8.25609,0.0],[111.74378,-8.25271,0.0],[111.73979,-8.25204,0.0],[111.73627,-8.25368,0.0],[111.73396,-8.25313,0.0],[111.73137,-8.24724,0.0],[111.72942,-8.24612,0.0],[111.72726,-8.24215,0.0],[111.72738,-8.24086,0.0],[111.73077,-8.2399,0.0],[111.73229,-8.23649,0.0],[111.729,-8.23127,0.0],[111.73017,-8.22965,0.0],[111.73234,-8.2298,0.0],[111.73288,-8.22767,0.0],[111.73191,-8.21944,0.0],[111.73322,-8.2191,0.0],[111.73442,-8.21512,0.0],[111.7337,-8.21053,0.0],[111.73957,-8.20844,0.0],[111.74013,-8.20318,0.0],[111.73854,-8.20065,0.0],[111.73699,-8.20038,0.0],[111.74346,-8.20029,0.0],[111.74829,-8.19472,0.0],[111.74429,-8.19108,0.0],[111.73759,-8.18866,0.0],[111.73653,-8.18673,0.0],[111.73932,-8.18351,0.0],[111.74111,-8.18486,0.0],[111.74541,-8.18188,0.0],[111.74695,-8.18213,0.0],[111.74675,-8.18054,0.0],[111.74997,-8.17883,0.0],[111.75006,-8.1756,0.0],[111.75158,-8.17455,0.0],[111.75457,-8.17409,0.0],[111.75964,-8.17577,0.0],[111.7639,-8.17446,0.0],[111.77227,-8.17549,0.0],[111.77575,-8.17466,0.0],[111.77785,-8.17573,0.0],[111.77759,-8.17799,0.0],[111.78214,-8.17771,0.0],[111.78378,-8.18032,0.0],[111.78432,-8.1788,0.0],[111.7867,-8.17883,0.0],[111.78928,-8.18119,0.0],[111.78934,-8.18424,0.0],[111.78455,-8.18263,0.0],[111.78423,-8.18422,0.0],[111.78545,-8.18698,0.0],[111.78835,-8.18759,0.0],[111.78849,-8.19288,0.0],[111.78977,-8.1931,0.0],[111.78976,-8.19481,0.0],[111.79554,-8.19609,0.0],[111.80235,-8.20586,0.0],[111.80709,-8.20601,0.0],[111.80621,-8.21022,0.0],[111.8261,-8.21463,0.0],[111.83102,-8.22373,0.0],[111.82857,-8.23286,0.0],[111.83213,-8.23591,0.0],[111.83079,-8.24182,0.0],[111.83364,-8.24424,0.0],[111.83185,-8.25051,0.0],[111.8349,-8.25763,0.0],[111.83416,-8.26017,0.0],[111.83563,-8.26128,0.0],[111.83507,-8.26452,0.0],[111.83843,-8.26448,0.0],[111.83821,-8.2676,0.0],[111.84065,-8.26787,0.0],[111.84002,-8.2708,0.0],[111.8422,-8.27198,0.0],[111.84067,-8.27282,0.0],[111.84199,-8.2741,0.0],[111.83974,-8.27393,0.0],[111.8395,-8.27485,0.0],[111.83984,-8.27598,0.0],[111.84176,-8.27619,0.0],[111.84116,-8.27995,0.0],[111.84304,-8.28161,0.0],[111.83263,-8.28114,0.0],[111.83178,-8.27789,0.0],[111.82912,-8.27767,0.0],[111.82923,-8.27594,0.0],[111.82804,-8.27597,0.0],[111.8296,-8.27466,0.0],[111.82975,-8.27341,0.0],[111.82814,-8.27352,0.0],[111.82879,-8.27234,0.0],[111.82685,-8.27283,0.0],[111.81927,-8.27024,0.0],[111.81808,-8.27076,0.0],[111.81806,-8.27301,0.0],[111.81469,-8.27261,0.0],[111.81391,-8.27039,0.0],[111.81568,-8.26981,0.0],[111.81554,-8.26845,0.0],[111.81268,-8.26811,0.0],[111.81276,-8.26678,0.0],[111.81114,-8.26769,0.0],[111.80867,-8.26411,0.0],[111.80569,-8.26641,0.0],[111.80581,-8.26824,0.0],[111.80247,-8.2675,0.0],[111.80246,-8.26889,0.0],[111.79993,-8.26985,0.0],[111.79924,-8.26853,0.0],[111.80167,-8.26687,0.0],[111.80204,-8.26585,0.0],[111.80079,-8.26555,0.0],[111.8026,-8.26505,0.0],[111.80364,-8.26262,0.0],[111.80044,-8.25802,0.0],[111.79508,-8.25535,0.0],[111.78286,-8.25671,0.0],[111.77534,-8.25948,0.0]]],[[[111.84554,-8.28308,0.0],[111.84561,-8.2829,0.0],[111.84568,-8.28298,0.0],[111.84554,-8.28308,0.0]]],[[[111.80588,-8.2688,0.0],[111.80592,-8.26825,0.0],[111.80599,-8.26884,0.0],[111.80588,-8.2688,0.0]]]]}},{"type":"Feature","properties":{"kecamatan":"Pucanglaban","kab_kota":"Tulungagung"},"geometry":{"type":"Polygon","coordinates":[[[112.025,-8.24756,0.0],[112.02626,-8.25715,0.0],[112.03063,-8.26268,0.0],[112.02892,-8.27319,0.0],[112.02356,-8.28167,0.0],[112.02448,-8.28779,0.0],[112.03159,-8.29391,0.0],[112.03436,-8.30085,0.0],[112.03405,-8.30831,0.0],[112.03086,-8.31132,0.0],[112.0264,-8.31141,0.0],[112.02365,-8.30698,0.0],[112.01691,-8.30222,0.0],[112.01032,-8.30363,0.0],[112.01009,-8.30148,0.0],[112.0073,-8.29961,0.0],[111.99346,-8.29699,0.0],[111.98512,-8.29154,0.0],[111.98047,-8.28448,0.0],[111.97448,-8.28083,0.0],[111.95815,-8.2793,0.0],[111.96168,-8.27524,0.0],[111.96169,-8.27135,0.0],[111.96331,-8.26921,0.0],[111.96732,-8.26581,0.0],[111.96747,-8.26417,0.0],[111.96961,-8.26433,0.0],[111.96942,-8.25968,0.0],[111.9715,-8.25711,0.0],[111.97316,-8.25118,0.0],[111.97043,-8.24486,0.0],[111.97182,-8.23659,0.0],[111.96805,-8.22619,0.0],[111.96882,-8.22346,0.0],[111.97322,-8.22119,0.0],[111.96895,-8.21933,0.0],[111.9694,-8.21771,0.0],[111.97441,-8.21233,0.0],[111.97723,-8.21283,0.0],[111.97686,-8.21067,0.0],[111.97825,-8.20992,0.0],[111.97644,-8.20817,0.0],[111.9803,-8.20458,0.0],[111.98587,-8.19025,0.0],[111.98924,-8.18879,0.0],[111.99535,-8.18212,0.0],[112.00104,-8.18074,0.0],[112.00522,-8.17564,0.0],[112.01095,-8.17156,0.0],[112.0216,-8.17083,0.0],[112.02707,-8.16757,0.0],[112.02884,-8.16821,0.0],[112.0292,-8.18085,0.0],[112.0271,-8.1846,0.0],[112.02419,-8.18572,0.0],[112.02541,-8.18763,0.0],[112.02297,-8.19328,0.0],[112.02356,-8.1948,0.0],[112.0261,-8.19566,0.0],[112.02637,-8.19902,0.0],[112.02818,-8.20027,0.0],[112.02544,-8.20588,0.0],[112.02566,-8.21451,0.0],[112.02326,-8.22163,0.0],[112.02392,-8.22527,0.0],[112.02193,-8.22643,0.0],[112.02266,-8.22884,0.0],[112.02547,-8.22913,0.0],[112.02688,-8.23424,0.0],[112.02595,-8.23931,0.0],[112.02265,-8.24426,0.0],[112.025,-8.24756,0.0]]]}},{"type":"Feature","properties":{"kecamatan":"Rejotangan","kab_kota":"Tulungagung"},"geometry":{"type":"Polygon","coordinates":[[[112.05534,-8.17723,0.0],[112.05068,-8.17975,0.0],[112.03811,-8.17375,0.0],[112.03545,-8.16928,0.0],[112.03162,-8.16997,0.0],[112.02812,-8.16766,0.0],[112.02593,-8.16771,0.0],[112.0216,-8.17083,0.0],[112.01095,-8.17156,0.0],[112.01217,-8.16868,0.0],[112.01266,-8.15921,0.0],[112.01004,-8.15843,0.0],[112.00985,-8.15682,0.0],[112.01406,-8.15624,0.0],[112.01353,-8.15207,0.0],[112.01467,-8.15201,0.0],[112.01235,-8.14798,0.0],[112.01083,-8.14909,0.0],[112.01057,-8.14594,0.0],[112.01239,-8.14505,0.0],[112.00887,-8.13426,0.0],[112.00944,-8.12827,0.0],[112.01964,-8.12723,0.0],[112.01889,-8.12172,0.0],[112.03484,-8.122,0.0],[112.03408,-8.10987,0.0],[112.03731,-8.10982,0.0],[112.03828,-8.10491,0.0],[112.04079,-8.10573,0.0],[112.03937,-8.10349,0.0],[112.04866,-8.10957,0.0],[112.06708,-8.11134,0.0],[112.07159,-8.11698,0.0],[112.07894,-8.11892,0.0],[112.08264,-8.11827,0.0],[112.08692,-8.11296,0.0],[112.09113,-8.11105,0.0],[112.09578,-8.11091,0.0],[112.11287,-8.11991,0.0],[112.11588,-8.12311,0.0],[112.12201,-8.12529,0.0],[112.11947,-8.12864,0.0],[112.1201,-8.13448,0.0],[112.11732,-8.14362,0.0],[112.11767,-8.15278,0.0],[112.11654,-8.15761,0.0],[112.115,-8.15871,0.0],[112.10365,-8.15839,0.0],[112.09751,-8.16644,0.0],[112.09539,-8.17197,0.0],[112.09397,-8.17362,0.0],[112.08902,-8.17336,0.0],[112.08462,-8.1779,0.0],[112.08459,-8.18084,0.0],[112.08154,-8.18294,0.0],[112.07985,-8.18664,0.0],[112.07092,-8.18759,0.0],[112.06663,-8.18671,0.0],[112.06448,-8.18409,0.0],[112.06442,-8.17693,0.0],[112.05534,-8.17723,0.0]]]}},{"type":"Feature","properties":{"kecamatan":"Pakel","kab_kota":"Tulungagung"},"geometry":{"type":"Polygon","coordinates":[[[111.81871,-8.19227,0.0],[111.7986,-8.18899,0.0],[111.79947,-8.18279,0.0],[111.79755,-8.17696,0.0],[111.79649,-8.16671,0.0],[111.79803,-8.15481,0.0],[111.79935,-8.15531,0.0],[111.79969,-8.15191,0.0],[111.81369,-8.15321,0.0],[111.81372,-8.15234,0.0],[111.80919,-8.15111,0.0],[111.8068,-8.1494,0.0],[111.80701,-8.14748,0.0],[111.80515,-8.1472,0.0],[111.80646,-8.13716,0.0],[111.8106,-8.13611,0.0],[111.81606,-8.13663,0.0],[111.8165,-8.13536,0.0],[111.82228,-8.1347,0.0],[111.82453,-8.13215,0.0],[111.83144,-8.12946,0.0],[111.83188,-8.12755,0.0],[111.83674,-8.12446,0.0],[111.84071,-8.11955,0.0],[111.84225,-8.11224,0.0],[111.8444,-8.11174,0.0],[111.84404,-8.11013,0.0],[111.85308,-8.11133,0.0],[111.85621,-8.11335,0.0],[111.86098,-8.11213,0.0],[111.86333,-8.10836,0.0],[111.8653,-8.10823,0.0],[111.8652,-8.10985,0.0],[111.86821,-8.11023,0.0],[111.86775,-8.11301,0.0],[111.87175,-8.125,0.0],[111.87065,-8.13396,0.0],[111.86249,-8.13243,0.0],[111.86282,-8.13019,0.0],[111.8597,-8.12849,0.0],[111.8584,-8.12829,0.0],[111.85807,-8.13025,0.0],[111.85676,-8.12994,0.0],[111.85503,-8.14246,0.0],[111.85103,-8.14202,0.0],[111.84877,-8.15442,0.0],[111.8433,-8.15296,0.0],[111.84255,-8.15913,0.0],[111.84077,-8.15879,0.0],[111.83996,-8.16132,0.0],[111.83623,-8.16086,0.0],[111.83471,-8.16185,0.0],[111.83733,-8.16267,0.0],[111.83969,-8.16575,0.0],[111.84245,-8.16523,0.0],[111.84236,-8.1673,0.0],[111.84539,-8.16766,0.0],[111.84297,-8.17663,0.0],[111.83996,-8.17977,0.0],[111.82802,-8.18531,0.0],[111.81871,-8.19227,0.0]],[[111.837,-8.16672,0.0],[111.83679,-8.16938,0.0],[111.83952,-8.17012,0.0],[111.8408,-8.1672,0.0],[111.837,-8.16672,0.0]]]}},{"type":"Feature","properties":{"kecamatan":"Tanggunggunung","kab_kota":"Tulungagung"},"geometry":{"type":"MultiPolygon","coordinates":[[[[111.87668,-8.2918,0.0],[111.87691,-8.29157,0.0],[111.87692,-8.29185,0.0],[111.87668,-8.2918,0.0]]],[[[111.86408,-8.2788,0.0],[111.86421,-8.27775,0.0],[111.86439,-8.27772,0.0],[111.86408,-8.2788,0.0]]],[[[111.8628,-8.27558,0.0],[111.86292,-8.27544,0.0],[111.86297,-8.27555,0.0],[111.8628,-8.27558,0.0]]],[[[111.88931,-8.29521,0.0],[111.88545,-8.29283,0.0],[111.87946,-8.29032,0.0],[111.87524,-8.2909,0.0],[111.87454,-8.28893,0.0],[111.87353,-8.28919,0.0],[111.87363,-8.28477,0.0],[111.86912,-8.28431,0.0],[111.86869,-8.28055,0.0],[111.86671,-8.28044,0.0],[111.86883,-8.27905,0.0],[111.86826,-8.27628,0.0],[111.86612,-8.27562,0.0],[111.86655,-8.27462,0.0],[111.86516,-8.27368,0.0],[111.86231,-8.27462,0.0],[111.86363,-8.27127,0.0],[111.86246,-8.26872,0.0],[111.86102,-8.27039,0.0],[111.85783,-8.26806,0.0],[111.85731,-8.26972,0.0],[111.85541,-8.26884,0.0],[111.85477,-8.27064,0.0],[111.85412,-8.26929,0.0],[111.85286,-8.27113,0.0],[111.85145,-8.26881,0.0],[111.85166,-8.26625,0.0],[111.85037,-8.26727,0.0],[111.84917,-8.26384,0.0],[111.8459,-8.26452,0.0],[111.84431,-8.26233,0.0],[111.84163,-8.2636,0.0],[111.8404,-8.25866,0.0],[111.83889,-8.25866,0.0],[111.83817,-8.26104,0.0],[111.83448,-8.26101,0.0],[111.8349,-8.25763,0.0],[111.83185,-8.25051,0.0],[111.83364,-8.24424,0.0],[111.83079,-8.24182,0.0],[111.83213,-8.23591,0.0],[111.82857,-8.23286,0.0],[111.83101,-8.22373,0.0],[111.83648,-8.22367,0.0],[111.838,-8.222,0.0],[111.83713,-8.21899,0.0],[111.8391,-8.21748,0.0],[111.84957,-8.21806,0.0],[111.84963,-8.21533,0.0],[111.84553,-8.21053,0.0],[111.84627,-8.20431,0.0],[111.84256,-8.19977,0.0],[111.84026,-8.19912,0.0],[111.83867,-8.19698,0.0],[111.83266,-8.19552,0.0],[111.83176,-8.19856,0.0],[111.8302,-8.19881,0.0],[111.82996,-8.19718,0.0],[111.83297,-8.19258,0.0],[111.83951,-8.1902,0.0],[111.84074,-8.18865,0.0],[111.84766,-8.18805,0.0],[111.85495,-8.17604,0.0],[111.85033,-8.17244,0.0],[111.85076,-8.17125,0.0],[111.85581,-8.17279,0.0],[111.8616,-8.17247,0.0],[111.86649,-8.17727,0.0],[111.8691,-8.17551,0.0],[111.86733,-8.17247,0.0],[111.86625,-8.16331,0.0],[111.87612,-8.16772,0.0],[111.87903,-8.16177,0.0],[111.88091,-8.16595,0.0],[111.88269,-8.16636,0.0],[111.88622,-8.16419,0.0],[111.88567,-8.16155,0.0],[111.8897,-8.1614,0.0],[111.89192,-8.15591,0.0],[111.89646,-8.15366,0.0],[111.89534,-8.15671,0.0],[111.90516,-8.15732,0.0],[111.91243,-8.15967,0.0],[111.91418,-8.16237,0.0],[111.90883,-8.16739,0.0],[111.90271,-8.16863,0.0],[111.90147,-8.17178,0.0],[111.90334,-8.17582,0.0],[111.90023,-8.18806,0.0],[111.90085,-8.19208,0.0],[111.89862,-8.19574,0.0],[111.9007,-8.19714,0.0],[111.90039,-8.19871,0.0],[111.90288,-8.19984,0.0],[111.89967,-8.20406,0.0],[111.90154,-8.20638,0.0],[111.9032,-8.21266,0.0],[111.91045,-8.21159,0.0],[111.91366,-8.21387,0.0],[111.92096,-8.21551,0.0],[111.921,-8.21644,0.0],[111.92389,-8.21631,0.0],[111.92496,-8.21486,0.0],[111.92801,-8.21684,0.0],[111.93044,-8.22188,0.0],[111.9346,-8.22553,0.0],[111.93226,-8.22869,0.0],[111.92652,-8.23058,0.0],[111.92718,-8.23228,0.0],[111.92274,-8.23431,0.0],[111.92541,-8.23866,0.0],[111.92314,-8.24912,0.0],[111.92697,-8.24939,0.0],[111.92459,-8.25678,0.0],[111.92784,-8.25874,0.0],[111.92688,-8.26276,0.0],[111.92406,-8.26485,0.0],[111.92454,-8.26733,0.0],[111.92354,-8.26812,0.0],[111.91725,-8.27035,0.0],[111.9157,-8.26831,0.0],[111.9127,-8.27284,0.0],[111.91739,-8.27644,0.0],[111.91612,-8.27858,0.0],[111.91815,-8.28096,0.0],[111.9225,-8.28195,0.0],[111.92351,-8.28085,0.0],[111.92446,-8.28454,0.0],[111.92705,-8.28418,0.0],[111.92995,-8.28595,0.0],[111.93001,-8.28446,0.0],[111.93359,-8.28511,0.0],[111.93512,-8.29283,0.0],[111.94304,-8.29382,0.0],[111.9441,-8.29596,0.0],[111.94265,-8.29674,0.0],[111.94323,-8.29957,0.0],[111.94182,-8.29996,0.0],[111.93813,-8.30565,0.0],[111.93489,-8.30746,0.0],[111.93353,-8.30533,0.0],[111.92941,-8.30616,0.0],[111.92854,-8.30387,0.0],[111.92748,-8.30527,0.0],[111.92652,-8.30347,0.0],[111.92544,-8.30421,0.0],[111.92229,-8.30138,0.0],[111.91729,-8.29972,0.0],[111.91575,-8.29737,0.0],[111.91153,-8.29675,0.0],[111.90965,-8.29797,0.0],[111.91041,-8.29992,0.0],[111.90747,-8.30254,0.0],[111.90571,-8.30312,0.0],[111.90286,-8.30133,0.0],[111.9015,-8.30248,0.0],[111.9024,-8.30374,0.0],[111.90154,-8.30301,0.0],[111.89921,-8.30422,0.0],[111.89742,-8.30312,0.0],[111.89926,-8.30181,0.0],[111.89815,-8.30011,0.0],[111.89144,-8.29825,0.0],[111.88931,-8.29521,0.0]]],[[[111.92466,-8.30689,0.0],[111.92519,-8.30659,0.0],[111.92498,-8.30702,0.0],[111.92466,-8.30689,0.0]]],[[[111.92549,-8.3062,0.0],[111.92509,-8.30531,0.0],[111.92561,-8.30475,0.0],[111.92549,-8.3062,0.0]]],[[[111.89346,-8.30061,0.0],[111.89375,-8.30078,0.0],[111.89362,-8.30086,0.0],[111.89346,-8.30061,0.0]]]]}},{"type":"Feature","properties":{"kecamatan":"Campurdarat","kab_kota":"Tulungagung"},"geometry":{"type":"MultiPolygon","coordinates":[[[[111.84588,-8.21116,0.0],[111.84963,-8.21533,0.0],[111.84957,-8.21806,0.0],[111.8391,-8.21748,0.0],[111.83713,-8.21899,0.0],[111.83782,-8.22254,0.0],[111.83478,-8.22436,0.0],[111.83028,-8.22333,0.0],[111.83013,-8.2206,0.0],[111.82828,-8.2193,0.0],[111.8261,-8.21463,0.0],[111.80621,-8.21022,0.0],[111.80905,-8.19938,0.0],[111.82802,-8.18531,0.0],[111.83996,-8.17977,0.0],[111.84297,-8.17663,0.0],[111.84539,-8.16766,0.0],[111.84236,-8.1673,0.0],[111.84245,-8.16523,0.0],[111.83969,-8.16575,0.0],[111.83733,-8.16267,0.0],[111.83471,-8.16185,0.0],[111.83623,-8.16086,0.0],[111.83996,-8.16132,0.0],[111.84077,-8.15879,0.0],[111.84255,-8.15913,0.0],[111.8433,-8.15296,0.0],[111.84877,-8.15442,0.0],[111.85043,-8.1495,0.0],[111.84944,-8.14845,0.0],[111.84992,-8.14482,0.0],[111.85103,-8.14202,0.0],[111.85503,-8.14246,0.0],[111.85627,-8.13171,0.0],[111.8584,-8.12829,0.0],[111.86282,-8.13019,0.0],[111.86249,-8.13243,0.0],[111.86889,-8.13358,0.0],[111.86892,-8.13509,0.0],[111.87659,-8.13629,0.0],[111.87693,-8.1352,0.0],[111.87939,-8.13502,0.0],[111.87935,-8.13342,0.0],[111.87804,-8.13319,0.0],[111.87877,-8.1273,0.0],[111.88166,-8.12818,0.0],[111.88156,-8.13049,0.0],[111.88433,-8.13052,0.0],[111.88466,-8.13213,0.0],[111.8863,-8.13168,0.0],[111.88659,-8.12865,0.0],[111.89259,-8.1294,0.0],[111.8932,-8.12584,0.0],[111.90142,-8.12573,0.0],[111.90116,-8.1278,0.0],[111.90394,-8.12791,0.0],[111.90503,-8.12619,0.0],[111.9061,-8.12646,0.0],[111.90601,-8.13109,0.0],[111.90785,-8.13604,0.0],[111.91827,-8.14582,0.0],[111.91904,-8.15091,0.0],[111.91699,-8.15519,0.0],[111.91243,-8.15967,0.0],[111.90359,-8.1569,0.0],[111.89534,-8.15671,0.0],[111.89646,-8.15366,0.0],[111.89192,-8.15591,0.0],[111.8897,-8.1614,0.0],[111.88567,-8.16155,0.0],[111.88637,-8.16391,0.0],[111.88467,-8.16567,0.0],[111.88114,-8.16622,0.0],[111.87862,-8.16189,0.0],[111.87612,-8.16772,0.0],[111.86625,-8.16331,0.0],[111.86733,-8.17247,0.0],[111.8691,-8.17551,0.0],[111.86649,-8.17727,0.0],[111.8616,-8.17247,0.0],[111.85581,-8.17279,0.0],[111.85067,-8.17132,0.0],[111.85033,-8.17244,0.0],[111.85495,-8.17604,0.0],[111.84766,-8.18805,0.0],[111.84074,-8.18865,0.0],[111.83951,-8.1902,0.0],[111.83297,-8.19258,0.0],[111.83003,-8.19647,0.0],[111.8302,-8.19881,0.0],[111.83176,-8.19856,0.0],[111.83266,-8.19552,0.0],[111.83867,-8.19698,0.0],[111.84026,-8.19912,0.0],[111.84256,-8.19977,0.0],[111.84627,-8.20431,0.0],[111.84588,-8.21116,0.0]]],[[[111.84067,-8.16786,0.0],[111.83952,-8.17012,0.0],[111.83679,-8.16938,0.0],[111.837,-8.16672,0.0],[111.84067,-8.16786,0.0]]]]}},{"type":"Feature","properties":{"kecamatan":"Bandung","kab_kota":"Tulungagung"},"geometry":{"type":"Polygon","coordinates":[[[111.73932,-8.18351,0.0],[111.73653,-8.18673,0.0],[111.73759,-8.18866,0.0],[111.74429,-8.19108,0.0],[111.74829,-8.19472,0.0],[111.74346,-8.20029,0.0],[111.7373,-8.20002,0.0],[111.73062,-8.2056,0.0],[111.72848,-8.2005,0.0],[111.72571,-8.19985,0.0],[111.72381,-8.19418,0.0],[111.71686,-8.19112,0.0],[111.71648,-8.18991,0.0],[111.71873,-8.18885,0.0],[111.71926,-8.18718,0.0],[111.71545,-8.18412,0.0],[111.71944,-8.17768,0.0],[111.72058,-8.17338,0.0],[111.71847,-8.16865,0.0],[111.72124,-8.1645,0.0],[111.72156,-8.16172,0.0],[111.72438,-8.15979,0.0],[111.7256,-8.15633,0.0],[111.72882,-8.15302,0.0],[111.73361,-8.14221,0.0],[111.7362,-8.14273,0.0],[111.743,-8.13857,0.0],[111.74888,-8.14005,0.0],[111.75205,-8.14271,0.0],[111.75656,-8.14062,0.0],[111.77156,-8.13881,0.0],[111.7813,-8.13803,0.0],[111.78149,-8.13933,0.0],[111.79241,-8.13899,0.0],[111.79281,-8.13752,0.0],[111.80646,-8.13716,0.0],[111.80515,-8.1472,0.0],[111.80701,-8.14748,0.0],[111.8068,-8.1494,0.0],[111.80919,-8.15111,0.0],[111.81372,-8.15234,0.0],[111.81369,-8.15321,0.0],[111.79969,-8.15191,0.0],[111.79935,-8.15531,0.0],[111.79803,-8.15481,0.0],[111.79649,-8.16671,0.0],[111.79755,-8.17696,0.0],[111.79947,-8.18279,0.0],[111.7986,-8.18899,0.0],[111.8188,-8.19211,0.0],[111.80905,-8.19938,0.0],[111.80709,-8.20601,0.0],[111.80235,-8.20586,0.0],[111.79554,-8.19609,0.0],[111.78976,-8.19481,0.0],[111.78977,-8.1931,0.0],[111.78849,-8.19288,0.0],[111.78835,-8.18759,0.0],[111.78545,-8.18698,0.0],[111.78423,-8.18422,0.0],[111.78455,-8.18263,0.0],[111.78934,-8.18424,0.0],[111.78928,-8.18119,0.0],[111.78631,-8.17869,0.0],[111.78432,-8.1788,0.0],[111.78378,-8.18032,0.0],[111.78214,-8.17771,0.0],[111.77759,-8.17799,0.0],[111.77785,-8.17573,0.0],[111.77575,-8.17466,0.0],[111.77227,-8.17549,0.0],[111.7639,-8.17446,0.0],[111.75964,-8.17577,0.0],[111.75457,-8.17409,0.0],[111.75158,-8.17455,0.0],[111.75006,-8.1756,0.0],[111.74997,-8.17883,0.0],[111.74675,-8.18054,0.0],[111.74685,-8.18221,0.0],[111.74541,-8.18188,0.0],[111.74111,-8.18486,0.0],[111.73932,-8.18351,0.0]]]}},{"type":"Feature","properties":{"kecamatan":"Sumbergempol","kab_kota":"Tulungagung"},"geometry":{"type":"Polygon","coordinates":[[[111.96054,-8.14037,0.0],[111.95201,-8.13908,0.0],[111.95199,-8.13725,0.0],[111.95029,-8.13716,0.0],[111.94994,-8.13558,0.0],[111.94175,-8.13502,0.0],[111.94827,-8.13179,0.0],[111.94788,-8.12812,0.0],[111.94475,-8.12655,0.0],[111.94117,-8.12681,0.0],[111.93489,-8.13567,0.0],[111.92911,-8.13336,0.0],[111.926,-8.12926,0.0],[111.92767,-8.12749,0.0],[111.92825,-8.12065,0.0],[111.92481,-8.11966,0.0],[111.92383,-8.11645,0.0],[111.92002,-8.1147,0.0],[111.92466,-8.1112,0.0],[111.92275,-8.10212,0.0],[111.92471,-8.10179,0.0],[111.92438,-8.09653,0.0],[111.92487,-8.09822,0.0],[111.93105,-8.09812,0.0],[111.93015,-8.09188,0.0],[111.93129,-8.08257,0.0],[111.93778,-8.08252,0.0],[111.93738,-8.07318,0.0],[111.93836,-8.07051,0.0],[111.94002,-8.0723,0.0],[111.94076,-8.07165,0.0],[111.94691,-8.0746,0.0],[111.94855,-8.07196,0.0],[111.94663,-8.07136,0.0],[111.94673,-8.06693,0.0],[111.95394,-8.06786,0.0],[111.95392,-8.06604,0.0],[111.95633,-8.06584,0.0],[111.95671,-8.06246,0.0],[111.95537,-8.06254,0.0],[111.95402,-8.05287,0.0],[111.95959,-8.051,0.0],[111.96956,-8.0575,0.0],[111.97462,-8.05825,0.0],[111.97892,-8.06185,0.0],[111.98292,-8.06857,0.0],[111.98374,-8.07201,0.0],[111.97298,-8.07382,0.0],[111.97295,-8.0775,0.0],[111.97522,-8.07742,0.0],[111.97504,-8.0824,0.0],[111.97591,-8.08285,0.0],[111.97246,-8.08383,0.0],[111.97225,-8.08783,0.0],[111.96782,-8.08758,0.0],[111.9675,-8.0987,0.0],[111.97009,-8.09972,0.0],[111.96912,-8.10435,0.0],[111.96635,-8.10392,0.0],[111.96609,-8.10598,0.0],[111.96878,-8.10623,0.0],[111.96859,-8.10754,0.0],[111.97402,-8.10778,0.0],[111.97568,-8.12418,0.0],[111.98069,-8.12523,0.0],[111.98137,-8.13031,0.0],[111.98418,-8.13044,0.0],[111.98556,-8.13469,0.0],[111.97813,-8.13957,0.0],[111.97814,-8.13825,0.0],[111.97075,-8.13716,0.0],[111.96983,-8.14004,0.0],[111.9648,-8.13928,0.0],[111.96477,-8.14068,0.0],[111.96281,-8.14062,0.0],[111.96298,-8.14618,0.0],[111.96186,-8.14712,0.0],[111.96017,-8.14336,0.0],[111.96054,-8.14037,0.0]]]}},{"type":"Feature","properties":{"kecamatan":"Ngunut","kab_kota":"Tulungagung"},"geometry":{"type":"Polygon","coordinates":[[[111.99448,-8.15574,0.0],[111.98549,-8.15635,0.0],[111.98506,-8.15227,0.0],[111.98048,-8.15132,0.0],[111.98001,-8.14717,0.0],[111.98184,-8.14298,0.0],[111.97798,-8.14295,0.0],[111.97816,-8.13931,0.0],[111.9849,-8.13544,0.0],[111.98532,-8.13186,0.0],[111.98418,-8.13044,0.0],[111.98137,-8.13031,0.0],[111.98069,-8.12523,0.0],[111.97568,-8.12418,0.0],[111.97402,-8.10778,0.0],[111.96859,-8.10754,0.0],[111.96878,-8.10623,0.0],[111.96609,-8.10598,0.0],[111.96635,-8.10392,0.0],[111.96912,-8.10435,0.0],[111.97009,-8.09972,0.0],[111.9675,-8.0987,0.0],[111.96782,-8.08758,0.0],[111.97225,-8.08783,0.0],[111.97246,-8.08383,0.0],[111.97591,-8.08285,0.0],[111.97504,-8.0824,0.0],[111.97522,-8.07742,0.0],[111.97295,-8.0775,0.0],[111.97298,-8.07382,0.0],[111.98481,-8.07183,0.0],[111.99284,-8.08093,0.0],[111.99408,-8.08747,0.0],[111.99687,-8.09211,0.0],[112.008,-8.09755,0.0],[112.01745,-8.09681,0.0],[112.02391,-8.09857,0.0],[112.03365,-8.09885,0.0],[112.04079,-8.10573,0.0],[112.03828,-8.10491,0.0],[112.03731,-8.10982,0.0],[112.03408,-8.10987,0.0],[112.03484,-8.122,0.0],[112.01889,-8.12172,0.0],[112.01964,-8.12723,0.0],[112.00944,-8.12827,0.0],[112.00887,-8.13426,0.0],[112.01239,-8.14505,0.0],[112.01057,-8.14594,0.0],[112.01083,-8.14909,0.0],[112.01235,-8.14798,0.0],[112.01467,-8.15201,0.0],[112.01353,-8.15207,0.0],[112.01406,-8.15624,0.0],[112.00985,-8.15682,0.0],[112.01004,-8.15843,0.0],[112.01266,-8.15921,0.0],[112.01226,-8.16706,0.0],[112.0085,-8.16708,0.0],[112.00661,-8.16554,0.0],[112.00711,-8.15885,0.0],[112.00466,-8.15797,0.0],[112.00417,-8.15658,0.0],[111.99847,-8.15939,0.0],[111.99805,-8.15775,0.0],[112.0011,-8.15608,0.0],[112.00107,-8.15443,0.0],[111.99494,-8.15404,0.0],[111.99448,-8.15574,0.0]]]}}]}