{"type":"FeatureCollection","features":[{"type":"Feature","properties":{"kecamatan":"Kandat","kab_kota":"Kediri"},"geometry":{"type":"Polygon","coordinates":[[[112.04624,-7.95683,0.0],[112.04218,-7.96321,0.0],[112.03942,-7.96244,0.0],[112.03581,-7.9649,0.0],[112.02662,-7.96521,0.0],[112.02619,-7.96382,0.0],[112.02362,-7.96336,0.0],[112.02474,-7.9601,0.0],[112.02093,-7.95788,0.0],[112.02074,-7.95561,0.0],[112.01866,-7.95388,0.0],[112.02031,-7.93742,0.0],[112.01742,-7.93694,0.0],[112.01644,-7.93832,0.0],[112.01442,-7.93818,0.0],[112.01299,-7.93641,0.0],[112.01147,-7.9372,0.0],[112.00866,-7.93586,0.0],[112.00682,-7.93636,0.0],[112.00535,-7.93321,0.0],[111.99946,-7.93126,0.0],[111.99845,-7.92969,0.0],[111.99923,-7.92755,0.0],[111.9952,-7.92661,0.0],[111.99609,-7.9236,0.0],[112.00682,-7.92682,0.0],[112.0108,-7.92106,0.0],[112.01288,-7.92293,0.0],[112.01998,-7.924,0.0],[112.0212,-7.92244,0.0],[112.01995,-7.90334,0.0],[112.02622,-7.90238,0.0],[112.02693,-7.89813,0.0],[112.02987,-7.89887,0.0],[112.03145,-7.89125,0.0],[112.03249,-7.89075,0.0],[112.03185,-7.88724,0.0],[112.01873,-7.88438,0.0],[112.01897,-7.8834,0.0],[112.01552,-7.8822,0.0],[112.01857,-7.87532,0.0],[112.0206,-7.87497,0.0],[112.02386,-7.8652,0.0],[112.02202,-7.86322,0.0],[112.02248,-7.8618,0.0],[112.02605,-7.86299,0.0],[112.03063,-7.86741,0.0],[112.03733,-7.86823,0.0],[112.03874,-7.87053,0.0],[112.04239,-7.87005,0.0],[112.04547,-7.87269,0.0],[112.04854,-7.87271,0.0],[112.05045,-7.86665,0.0],[112.05131,-7.86515,0.0],[112.05251,-7.86563,0.0],[112.05309,-7.86376,0.0],[112.05696,-7.86532,0.0],[112.05561,-7.87008,0.0],[112.05611,-7.87424,0.0],[112.05308,-7.87911,0.0],[112.05029,-7.88861,0.0],[112.05429,-7.89073,0.0],[112.05516,-7.89604,0.0],[112.05691,-7.89722,0.0],[112.07241,-7.90109,0.0],[112.07724,-7.9044,0.0],[112.07264,-7.9275,0.0],[112.07747,-7.92829,0.0],[112.07718,-7.93012,0.0],[112.07919,-7.9306,0.0],[112.07925,-7.94287,0.0],[112.08059,-7.94456,0.0],[112.07727,-7.95003,0.0],[112.07941,-7.95147,0.0],[112.07886,-7.95521,0.0],[112.07423,-7.95447,0.0],[112.06912,-7.95134,0.0],[112.06064,-7.95301,0.0],[112.0571,-7.95542,0.0],[112.05439,-7.95469,0.0],[112.04624,-7.95683,0.0]]]}},{"type":"Feature","properties":{"kecamatan":"Wates","kab_kota":"Kediri"},"geometry":{"type":"Polygon","coordinates":[[[112.1141,-7.9404,0.0],[112.11163,-7.9431,0.0],[112.10985,-7.9485,0.0],[112.10766,-7.96168,0.0],[112.10521,-7.95966,0.0],[112.09331,-7.95636,0.0],[112.08187,-7.95746,0.0],[112.07886,-7.95521,0.0],[112.07941,-7.95147,0.0],[112.07727,-7.95003,0.0],[112.08059,-7.94456,0.0],[112.07925,-7.94287,0.0],[112.07919,-7.9306,0.0],[112.07718,-7.93012,0.0],[112.07747,-7.92829,0.0],[112.07264,-7.9275,0.0],[112.07724,-7.9044,0.0],[112.07241,-7.90109,0.0],[112.05691,-7.89722,0.0],[112.05516,-7.89604,0.0],[112.05429,-7.89073,0.0],[112.05029,-7.88861,0.0],[112.05308,-7.87911,0.0],[112.05611,-7.87424,0.0],[112.05561,-7.87008,0.0],[112.05666,-7.86501,0.0],[112.05781,-7.86432,0.0],[112.06674,-7.8681,0.0],[112.06945,-7.87501,0.0],[112.07164,-7.87624,0.0],[112.07207,-7.87508,0.0],[112.07428,-7.8758,0.0],[112.07487,-7.87401,0.0],[112.07188,-7.87228,0.0],[112.07034,-7.86482,0.0],[112.07121,-7.8617,0.0],[112.06647,-7.85788,0.0],[112.06578,-7.85459,0.0],[112.06607,-7.85363,0.0],[112.06741,-7.85446,0.0],[112.0689,-7.85156,0.0],[112.06734,-7.85033,0.0],[112.06927,-7.84396,0.0],[112.07231,-7.84526,0.0],[112.07282,-7.84746,0.0],[112.07755,-7.84961,0.0],[112.07886,-7.84649,0.0],[112.07993,-7.84684,0.0],[112.08047,-7.84487,0.0],[112.08213,-7.84431,0.0],[112.08331,-7.84883,0.0],[112.10102,-7.85459,0.0],[112.09588,-7.86546,0.0],[112.09637,-7.86727,0.0],[112.09321,-7.87156,0.0],[112.0958,-7.87532,0.0],[112.09967,-7.87795,0.0],[112.10338,-7.87917,0.0],[112.10582,-7.87701,0.0],[112.10778,-7.87751,0.0],[112.11297,-7.88378,0.0],[112.11452,-7.88815,0.0],[112.11964,-7.89022,0.0],[112.12155,-7.88257,0.0],[112.12448,-7.881,0.0],[112.13265,-7.88525,0.0],[112.13257,-7.88279,0.0],[112.13456,-7.88376,0.0],[112.13615,-7.88059,0.0],[112.13815,-7.88167,0.0],[112.13863,-7.88066,0.0],[112.14867,-7.88873,0.0],[112.14892,-7.89179,0.0],[112.15405,-7.89476,0.0],[112.15992,-7.89601,0.0],[112.16025,-7.90036,0.0],[112.17498,-7.90924,0.0],[112.17379,-7.91343,0.0],[112.17042,-7.91227,0.0],[112.15348,-7.9122,0.0],[112.14953,-7.90938,0.0],[112.1489,-7.91416,0.0],[112.14513,-7.91094,0.0],[112.1421,-7.91927,0.0],[112.14045,-7.91798,0.0],[112.13854,-7.91917,0.0],[112.13625,-7.91797,0.0],[112.13597,-7.91904,0.0],[112.13555,-7.92112,0.0],[112.13916,-7.9224,0.0],[112.13888,-7.92498,0.0],[112.1418,-7.92632,0.0],[112.14059,-7.92835,0.0],[112.13275,-7.92575,0.0],[112.12736,-7.92623,0.0],[112.12666,-7.92899,0.0],[112.12837,-7.93,0.0],[112.12634,-7.94527,0.0],[112.1141,-7.9404,0.0]]]}},{"type":"Feature","properties":{"kecamatan":"Kras","kab_kota":"Kediri"},"geometry":{"type":"Polygon","coordinates":[[[111.98805,-7.98251,0.0],[111.98615,-7.99768,0.0],[111.97781,-7.99755,0.0],[111.97631,-8.00344,0.0],[111.97828,-8.00534,0.0],[111.97625,-8.01255,0.0],[111.97415,-8.01187,0.0],[111.97441,-8.01063,0.0],[111.96389,-8.00717,0.0],[111.96172,-7.99861,0.0],[111.95674,-7.99774,0.0],[111.95649,-7.99015,0.0],[111.95551,-7.99087,0.0],[111.95572,-7.98926,0.0],[111.95261,-7.9886,0.0],[111.95299,-7.98255,0.0],[111.9511,-7.98077,0.0],[111.95169,-7.97847,0.0],[111.95036,-7.97476,0.0],[111.94753,-7.97226,0.0],[111.947,-7.96665,0.0],[111.94387,-7.96449,0.0],[111.94648,-7.96157,0.0],[111.9448,-7.9532,0.0],[111.94683,-7.94783,0.0],[111.95,-7.94426,0.0],[111.95586,-7.94145,0.0],[111.95602,-7.93126,0.0],[111.96047,-7.92594,0.0],[111.96206,-7.92069,0.0],[111.96818,-7.9233,0.0],[111.9694,-7.92088,0.0],[111.97205,-7.92176,0.0],[111.97221,-7.9196,0.0],[111.97787,-7.92109,0.0],[111.96994,-7.93531,0.0],[111.97167,-7.9358,0.0],[111.9709,-7.93772,0.0],[111.97728,-7.94191,0.0],[111.982,-7.9422,0.0],[111.98345,-7.94102,0.0],[111.98425,-7.94217,0.0],[111.98555,-7.93995,0.0],[111.9883,-7.94075,0.0],[111.98676,-7.9387,0.0],[111.98865,-7.93887,0.0],[111.98916,-7.93674,0.0],[111.99134,-7.93748,0.0],[111.98881,-7.93318,0.0],[111.99596,-7.93504,0.0],[111.99878,-7.93105,0.0],[112.00535,-7.93321,0.0],[112.00682,-7.93636,0.0],[112.00866,-7.93586,0.0],[112.01147,-7.9372,0.0],[112.01299,-7.93641,0.0],[112.01442,-7.93818,0.0],[112.01644,-7.93832,0.0],[112.01742,-7.93694,0.0],[112.02031,-7.93742,0.0],[112.02007,-7.94302,0.0],[112.0181,-7.94266,0.0],[112.01765,-7.9442,0.0],[112.01515,-7.94352,0.0],[112.01488,-7.94472,0.0],[112.01116,-7.94355,0.0],[112.00901,-7.94681,0.0],[112.01106,-7.9474,0.0],[112.0098,-7.95136,0.0],[112.00595,-7.95009,0.0],[112.00505,-7.95359,0.0],[112.01074,-7.96068,0.0],[112.01379,-7.96184,0.0],[112.01389,-7.96339,0.0],[112.01273,-7.96257,0.0],[112.01116,-7.96663,0.0],[112.01106,-7.97017,0.0],[112.01426,-7.97058,0.0],[112.0161,-7.97218,0.0],[112.01405,-7.97335,0.0],[112.01382,-7.97571,0.0],[112.0152,-7.97643,0.0],[112.0115,-7.97598,0.0],[112.01119,-7.97762,0.0],[112.00852,-7.97725,0.0],[112.00718,-7.98068,0.0],[112.00501,-7.98217,0.0],[112.00559,-7.98684,0.0],[111.99737,-7.98615,0.0],[111.99418,-7.98399,0.0],[111.98805,-7.98251,0.0]]]}},{"type":"Feature","properties":{"kecamatan":"Ngadiluwih","kab_kota":"Kediri"},"geometry":{"type":"Polygon","coordinates":[[[111.99595,-7.92404,0.0],[111.9952,-7.92661,0.0],[111.99923,-7.92755,0.0],[111.99845,-7.92969,0.0],[111.99946,-7.93126,0.0],[111.99804,-7.93309,0.0],[111.9966,-7.93278,0.0],[111.99596,-7.93504,0.0],[111.98881,-7.93318,0.0],[111.99134,-7.93748,0.0],[111.98916,-7.93674,0.0],[111.98865,-7.93887,0.0],[111.98676,-7.9387,0.0],[111.9883,-7.94075,0.0],[111.98555,-7.93995,0.0],[111.98425,-7.94217,0.0],[111.98345,-7.94102,0.0],[111.982,-7.9422,0.0],[111.97728,-7.94191,0.0],[111.9709,-7.93772,0.0],[111.97167,-7.9358,0.0],[111.96994,-7.93531,0.0],[111.97787,-7.92109,0.0],[111.97221,-7.9196,0.0],[111.97205,-7.92176,0.0],[111.9694,-7.92088,0.0],[111.96818,-7.9233,0.0],[111.96206,-7.92069,0.0],[111.96354,-7.91417,0.0],[111.96182,-7.91136,0.0],[111.96565,-7.90424,0.0],[111.9753,-7.89787,0.0],[111.97424,-7.88761,0.0],[111.97511,-7.87716,0.0],[111.98049,-7.87248,0.0],[111.98193,-7.86821,0.0],[111.98897,-7.86479,0.0],[111.99306,-7.85949,0.0],[111.99507,-7.85274,0.0],[111.99787,-7.85085,0.0],[112.0079,-7.8562,0.0],[112.01192,-7.85677,0.0],[112.01271,-7.85463,0.0],[112.02485,-7.8592,0.0],[112.02377,-7.86223,0.0],[112.02248,-7.8618,0.0],[112.02202,-7.86322,0.0],[112.02386,-7.8652,0.0],[112.0203,-7.87578,0.0],[112.01857,-7.87532,0.0],[112.01552,-7.8822,0.0],[112.01897,-7.8834,0.0],[112.01873,-7.88438,0.0],[112.03185,-7.88724,0.0],[112.03249,-7.89075,0.0],[112.03145,-7.89125,0.0],[112.02987,-7.89887,0.0],[112.02693,-7.89813,0.0],[112.02622,-7.90238,0.0],[112.01995,-7.90334,0.0],[112.01993,-7.91279,0.0],[112.0211,-7.91356,0.0],[112.02145,-7.92143,0.0],[112.02002,-7.924,0.0],[112.01288,-7.92293,0.0],[112.0108,-7.92106,0.0],[112.00682,-7.92682,0.0],[111.99595,-7.92404,0.0]]]}},{"type":"Feature","properties":{"kecamatan":"Plosoklaten","kab_kota":"Kediri"},"geometry":{"type":"Polygon","coordinates":[[[112.122,-7.88273,0.0],[112.11964,-7.89022,0.0],[112.11452,-7.88815,0.0],[112.11281,-7.88354,0.0],[112.10672,-7.87707,0.0],[112.10805,-7.87335,0.0],[112.11017,-7.87373,0.0],[112.11169,-7.87047,0.0],[112.1164,-7.8682,0.0],[112.12077,-7.86859,0.0],[112.12161,-7.86576,0.0],[112.11913,-7.86286,0.0],[112.11701,-7.86406,0.0],[112.11484,-7.86211,0.0],[112.11436,-7.85988,0.0],[112.11717,-7.85319,0.0],[112.11455,-7.85175,0.0],[112.11554,-7.84835,0.0],[112.11454,-7.84773,0.0],[112.11822,-7.84138,0.0],[112.1155,-7.83775,0.0],[112.11187,-7.83624,0.0],[112.11372,-7.83245,0.0],[112.11789,-7.83358,0.0],[112.1153,-7.83169,0.0],[112.1171,-7.8233,0.0],[112.11825,-7.82373,0.0],[112.12145,-7.81286,0.0],[112.12517,-7.81449,0.0],[112.13004,-7.82021,0.0],[112.13357,-7.82201,0.0],[112.12824,-7.825,0.0],[112.13544,-7.82619,0.0],[112.14412,-7.83115,0.0],[112.14585,-7.82984,0.0],[112.14961,-7.83162,0.0],[112.15116,-7.82814,0.0],[112.1547,-7.83152,0.0],[112.15747,-7.83233,0.0],[112.15813,-7.83105,0.0],[112.15685,-7.82923,0.0],[112.1517,-7.82615,0.0],[112.15642,-7.82671,0.0],[112.15899,-7.82167,0.0],[112.16181,-7.81919,0.0],[112.16814,-7.82352,0.0],[112.17805,-7.82621,0.0],[112.18463,-7.83347,0.0],[112.19158,-7.83484,0.0],[112.19343,-7.83219,0.0],[112.19537,-7.83311,0.0],[112.19559,-7.83109,0.0],[112.1919,-7.82778,0.0],[112.1928,-7.82651,0.0],[112.19585,-7.82906,0.0],[112.19749,-7.8242,0.0],[112.19694,-7.82233,0.0],[112.20269,-7.82746,0.0],[112.20355,-7.82482,0.0],[112.20589,-7.82571,0.0],[112.20688,-7.82818,0.0],[112.21277,-7.82326,0.0],[112.209,-7.83536,0.0],[112.20914,-7.83654,0.0],[112.21205,-7.83778,0.0],[112.21046,-7.84311,0.0],[112.21434,-7.84484,0.0],[112.21332,-7.84736,0.0],[112.21552,-7.84821,0.0],[112.21412,-7.85157,0.0],[112.21115,-7.85295,0.0],[112.21011,-7.85779,0.0],[112.21693,-7.86309,0.0],[112.23025,-7.87729,0.0],[112.23143,-7.87676,0.0],[112.23375,-7.87826,0.0],[112.24099,-7.88691,0.0],[112.24939,-7.89383,0.0],[112.25221,-7.89966,0.0],[112.26076,-7.9049,0.0],[112.2622,-7.90828,0.0],[112.26582,-7.90966,0.0],[112.26917,-7.91913,0.0],[112.27587,-7.92025,0.0],[112.28138,-7.92487,0.0],[112.285,-7.92371,0.0],[112.28759,-7.92576,0.0],[112.28957,-7.92543,0.0],[112.29404,-7.92957,0.0],[112.30283,-7.93335,0.0],[112.29503,-7.93319,0.0],[112.29121,-7.93106,0.0],[112.28767,-7.93175,0.0],[112.28641,-7.93353,0.0],[112.28007,-7.93172,0.0],[112.26933,-7.93291,0.0],[112.26142,-7.92831,0.0],[112.25605,-7.92717,0.0],[112.25508,-7.9254,0.0],[112.25239,-7.92623,0.0],[112.25083,-7.92438,0.0],[112.24668,-7.92371,0.0],[112.24363,-7.92455,0.0],[112.2391,-7.91899,0.0],[112.23407,-7.91887,0.0],[112.23305,-7.91645,0.0],[112.23055,-7.91602,0.0],[112.23004,-7.91892,0.0],[112.22031,-7.91563,0.0],[112.21793,-7.91296,0.0],[112.21116,-7.91175,0.0],[112.20774,-7.90991,0.0],[112.20801,-7.90428,0.0],[112.19544,-7.90278,0.0],[112.19678,-7.90351,0.0],[112.19548,-7.9058,0.0],[112.19093,-7.90297,0.0],[112.18435,-7.9018,0.0],[112.17889,-7.9031,0.0],[112.17498,-7.90924,0.0],[112.16025,-7.90036,0.0],[112.15992,-7.89601,0.0],[112.15405,-7.89476,0.0],[112.14892,-7.89179,0.0],[112.14867,-7.88873,0.0],[112.13863,-7.88066,0.0],[112.13815,-7.88167,0.0],[112.13615,-7.88059,0.0],[112.13456,-7.88376,0.0],[112.13257,-7.88279,0.0],[112.13265,-7.88525,0.0],[112.12534,-7.8811,0.0],[112.122,-7.88273,0.0]]]}},{"type":"Feature","properties":{"kecamatan":"Ngancar","kab_kota":"Kediri"},"geometry":{"type":"Polygon","coordinates":[[[112.15036,-7.97571,0.0],[112.13343,-7.97604,0.0],[112.12818,-7.97415,0.0],[112.11636,-7.97256,0.0],[112.11189,-7.9699,0.0],[112.11261,-7.96314,0.0],[112.11071,-7.96208,0.0],[112.1106,-7.96313,0.0],[112.10762,-7.96352,0.0],[112.10735,-7.95926,0.0],[112.11163,-7.9431,0.0],[112.1143,-7.94019,0.0],[112.12634,-7.94527,0.0],[112.12837,-7.93,0.0],[112.12666,-7.92899,0.0],[112.12782,-7.92551,0.0],[112.13275,-7.92575,0.0],[112.14059,-7.92835,0.0],[112.1418,-7.92632,0.0],[112.13888,-7.92498,0.0],[112.13916,-7.9224,0.0],[112.13555,-7.92112,0.0],[112.13625,-7.91797,0.0],[112.13854,-7.91917,0.0],[112.14045,-7.91798,0.0],[112.1421,-7.91927,0.0],[112.14513,-7.91094,0.0],[112.14896,-7.91416,0.0],[112.14927,-7.90943,0.0],[112.15348,-7.9122,0.0],[112.17042,-7.91227,0.0],[112.17379,-7.91343,0.0],[112.17518,-7.91091,0.0],[112.17425,-7.91048,0.0],[112.17889,-7.9031,0.0],[112.18717,-7.90185,0.0],[112.19622,-7.90584,0.0],[112.19678,-7.90351,0.0],[112.19544,-7.90278,0.0],[112.2002,-7.90285,0.0],[112.20801,-7.90428,0.0],[112.20774,-7.90991,0.0],[112.21116,-7.91175,0.0],[112.21793,-7.91296,0.0],[112.22031,-7.91563,0.0],[112.23004,-7.91892,0.0],[112.23055,-7.91602,0.0],[112.23305,-7.91645,0.0],[112.23407,-7.91887,0.0],[112.2391,-7.91899,0.0],[112.24363,-7.92455,0.0],[112.24668,-7.92371,0.0],[112.25083,-7.92438,0.0],[112.25239,-7.92623,0.0],[112.25508,-7.9254,0.0],[112.25605,-7.92717,0.0],[112.26142,-7.92831,0.0],[112.26933,-7.93291,0.0],[112.28007,-7.93172,0.0],[112.28641,-7.93353,0.0],[112.28767,-7.93175,0.0],[112.29121,-7.93106,0.0],[112.29503,-7.93319,0.0],[112.30393,-7.93359,0.0],[112.30547,-7.93634,0.0],[112.29293,-7.94038,0.0],[112.28243,-7.939,0.0],[112.27547,-7.94238,0.0],[112.26655,-7.94293,0.0],[112.25946,-7.94738,0.0],[112.25809,-7.94683,0.0],[112.25719,-7.94405,0.0],[112.25139,-7.94476,0.0],[112.24243,-7.94748,0.0],[112.2402,-7.95143,0.0],[112.23459,-7.95487,0.0],[112.22959,-7.95554,0.0],[112.22138,-7.96159,0.0],[112.21236,-7.96366,0.0],[112.20695,-7.96275,0.0],[112.20133,-7.96404,0.0],[112.19757,-7.96748,0.0],[112.19214,-7.97008,0.0],[112.18155,-7.97349,0.0],[112.16284,-7.9755,0.0],[112.15564,-7.97744,0.0],[112.15024,-7.9772,0.0],[112.15036,-7.97571,0.0]]]}},{"type":"Feature","properties":{"kecamatan":"Puncu","kab_kota":"Kediri"},"geometry":{"type":"Polygon","coordinates":[[[112.30225,-7.92772,0.0],[112.30746,-7.93243,0.0],[112.30614,-7.93607,0.0],[112.29914,-7.93097,0.0],[112.29404,-7.92957,0.0],[112.28957,-7.92543,0.0],[112.28759,-7.92576,0.0],[112.285,-7.92371,0.0],[112.28138,-7.92487,0.0],[112.27587,-7.92025,0.0],[112.26917,-7.91913,0.0],[112.26582,-7.90966,0.0],[112.2622,-7.90828,0.0],[112.26076,-7.9049,0.0],[112.25221,-7.89966,0.0],[112.24939,-7.89383,0.0],[112.24099,-7.88691,0.0],[112.23375,-7.87826,0.0],[112.23143,-7.87676,0.0],[112.23025,-7.87729,0.0],[112.21693,-7.86309,0.0],[112.21011,-7.85779,0.0],[112.21115,-7.85295,0.0],[112.21412,-7.85157,0.0],[112.21552,-7.84821,0.0],[112.21332,-7.84736,0.0],[112.21434,-7.84484,0.0],[112.21046,-7.84311,0.0],[112.21205,-7.83778,0.0],[112.20914,-7.83654,0.0],[112.209,-7.83536,0.0],[112.21277,-7.82326,0.0],[112.20688,-7.82818,0.0],[112.20589,-7.82571,0.0],[112.20355,-7.82482,0.0],[112.20269,-7.82746,0.0],[112.19694,-7.82233,0.0],[112.19749,-7.8242,0.0],[112.19585,-7.82906,0.0],[112.1928,-7.82651,0.0],[112.1919,-7.82778,0.0],[112.19559,-7.83109,0.0],[112.19537,-7.83311,0.0],[112.19343,-7.83219,0.0],[112.19158,-7.83484,0.0],[112.1887,-7.83352,0.0],[112.18528,-7.83377,0.0],[112.17855,-7.82712,0.0],[112.17929,-7.82344,0.0],[112.17798,-7.82206,0.0],[112.17949,-7.82041,0.0],[112.1741,-7.81922,0.0],[112.16887,-7.81311,0.0],[112.16875,-7.80926,0.0],[112.16363,-7.80614,0.0],[112.17641,-7.81181,0.0],[112.17755,-7.80921,0.0],[112.17564,-7.80318,0.0],[112.17768,-7.79914,0.0],[112.18363,-7.8034,0.0],[112.19343,-7.78801,0.0],[112.19804,-7.78969,0.0],[112.19825,-7.78805,0.0],[112.19921,-7.78811,0.0],[112.19949,-7.78201,0.0],[112.20263,-7.78123,0.0],[112.20523,-7.7821,0.0],[112.20726,-7.77991,0.0],[112.21412,-7.783,0.0],[112.21397,-7.78656,0.0],[112.21542,-7.78895,0.0],[112.22262,-7.79285,0.0],[112.22161,-7.7983,0.0],[112.2227,-7.79993,0.0],[112.22784,-7.8033,0.0],[112.24111,-7.80748,0.0],[112.24201,-7.80433,0.0],[112.24517,-7.80233,0.0],[112.25203,-7.8016,0.0],[112.25159,-7.81078,0.0],[112.24725,-7.81826,0.0],[112.2486,-7.82442,0.0],[112.2617,-7.81982,0.0],[112.26171,-7.82286,0.0],[112.27322,-7.81854,0.0],[112.27294,-7.82534,0.0],[112.2768,-7.82448,0.0],[112.2752,-7.83078,0.0],[112.27084,-7.8365,0.0],[112.27077,-7.86075,0.0],[112.27208,-7.86078,0.0],[112.27209,-7.86253,0.0],[112.27524,-7.86271,0.0],[112.27525,-7.86378,0.0],[112.28123,-7.86457,0.0],[112.28132,-7.86836,0.0],[112.28289,-7.8684,0.0],[112.28509,-7.87226,0.0],[112.28511,-7.87838,0.0],[112.2895,-7.88246,0.0],[112.28947,-7.88889,0.0],[112.29435,-7.89462,0.0],[112.29854,-7.90377,0.0],[112.29899,-7.91636,0.0],[112.30188,-7.92112,0.0],[112.30077,-7.92356,0.0],[112.30225,-7.92772,0.0]]]}},{"type":"Feature","properties":{"kecamatan":"Semen","kab_kota":"Kediri"},"geometry":{"type":"Polygon","coordinates":[[[111.94937,-7.85498,0.0],[111.94849,-7.85908,0.0],[111.94398,-7.86073,0.0],[111.93784,-7.85904,0.0],[111.93136,-7.86282,0.0],[111.92599,-7.86085,0.0],[111.91818,-7.86138,0.0],[111.91519,-7.86314,0.0],[111.90654,-7.8643,0.0],[111.90602,-7.86855,0.0],[111.89801,-7.86718,0.0],[111.89715,-7.86838,0.0],[111.88922,-7.86161,0.0],[111.88338,-7.8597,0.0],[111.87705,-7.85178,0.0],[111.875,-7.85139,0.0],[111.87467,-7.8489,0.0],[111.872,-7.85042,0.0],[111.86695,-7.84936,0.0],[111.86173,-7.85206,0.0],[111.85702,-7.85179,0.0],[111.85448,-7.85497,0.0],[111.85087,-7.85136,0.0],[111.84851,-7.85131,0.0],[111.84691,-7.85321,0.0],[111.84363,-7.85383,0.0],[111.83804,-7.85212,0.0],[111.82367,-7.85549,0.0],[111.82021,-7.85341,0.0],[111.8196,-7.85146,0.0],[111.81217,-7.85225,0.0],[111.80176,-7.84822,0.0],[111.79717,-7.8479,0.0],[111.79702,-7.84272,0.0],[111.7992,-7.83657,0.0],[111.80553,-7.82767,0.0],[111.81058,-7.8255,0.0],[111.81431,-7.8219,0.0],[111.82504,-7.81834,0.0],[111.84306,-7.81938,0.0],[111.84599,-7.81824,0.0],[111.84911,-7.81878,0.0],[111.84962,-7.82141,0.0],[111.85359,-7.81997,0.0],[111.85847,-7.82264,0.0],[111.86621,-7.82088,0.0],[111.87488,-7.82304,0.0],[111.8781,-7.8197,0.0],[111.88267,-7.8177,0.0],[111.88368,-7.81544,0.0],[111.88464,-7.81598,0.0],[111.88747,-7.8142,0.0],[111.89303,-7.81465,0.0],[111.89325,-7.81281,0.0],[111.8957,-7.8138,0.0],[111.8965,-7.81205,0.0],[111.89869,-7.81325,0.0],[111.90166,-7.81129,0.0],[111.90521,-7.81156,0.0],[111.90592,-7.81027,0.0],[111.91447,-7.81318,0.0],[111.92094,-7.81264,0.0],[111.92406,-7.80968,0.0],[111.92892,-7.80975,0.0],[111.9325,-7.80837,0.0],[111.93722,-7.80968,0.0],[111.95537,-7.80935,0.0],[111.95491,-7.81485,0.0],[111.95783,-7.81888,0.0],[111.95809,-7.82286,0.0],[111.96474,-7.82421,0.0],[111.96714,-7.82327,0.0],[111.96747,-7.82483,0.0],[111.97176,-7.82436,0.0],[111.97304,-7.82307,0.0],[111.97291,-7.82508,0.0],[111.9745,-7.82516,0.0],[111.97658,-7.82866,0.0],[111.97799,-7.8284,0.0],[111.97793,-7.82701,0.0],[111.97997,-7.82781,0.0],[111.98393,-7.82625,0.0],[111.98281,-7.83248,0.0],[111.98464,-7.83309,0.0],[111.98353,-7.83728,0.0],[111.98701,-7.83958,0.0],[111.99299,-7.83832,0.0],[111.997,-7.83924,0.0],[111.99767,-7.83743,0.0],[112.00805,-7.84037,0.0],[112.00624,-7.84372,0.0],[111.99563,-7.85209,0.0],[111.99447,-7.85432,0.0],[111.98943,-7.85241,0.0],[111.989,-7.85356,0.0],[111.9874,-7.85287,0.0],[111.9856,-7.85666,0.0],[111.97879,-7.85457,0.0],[111.97728,-7.856,0.0],[111.96535,-7.85363,0.0],[111.96477,-7.85565,0.0],[111.95522,-7.85388,0.0],[111.9546,-7.85679,0.0],[111.94937,-7.85498,0.0]]]}},{"type":"Feature","properties":{"kecamatan":"Mojo","kab_kota":"Kediri"},"geometry":{"type":"Polygon","coordinates":[[[111.93458,-7.9573,0.0],[111.93091,-7.96233,0.0],[111.92768,-7.96294,0.0],[111.92747,-7.96108,0.0],[111.92528,-7.96039,0.0],[111.92307,-7.95696,0.0],[111.91797,-7.95646,0.0],[111.91727,-7.95829,0.0],[111.91824,-7.96004,0.0],[111.91712,-7.96121,0.0],[111.91307,-7.95867,0.0],[111.91065,-7.95895,0.0],[111.91121,-7.95754,0.0],[111.91004,-7.95612,0.0],[111.9082,-7.95771,0.0],[111.90683,-7.95745,0.0],[111.90695,-7.95608,0.0],[111.9026,-7.95707,0.0],[111.89619,-7.95218,0.0],[111.89545,-7.95319,0.0],[111.89396,-7.95226,0.0],[111.89468,-7.95357,0.0],[111.89181,-7.95273,0.0],[111.88669,-7.94849,0.0],[111.88363,-7.94791,0.0],[111.88199,-7.94371,0.0],[111.88002,-7.94254,0.0],[111.87824,-7.93287,0.0],[111.86912,-7.91783,0.0],[111.86289,-7.9107,0.0],[111.86303,-7.90766,0.0],[111.85529,-7.9042,0.0],[111.85125,-7.90086,0.0],[111.84441,-7.89093,0.0],[111.84109,-7.88916,0.0],[111.83688,-7.88298,0.0],[111.83038,-7.87744,0.0],[111.82159,-7.87367,0.0],[111.82015,-7.87193,0.0],[111.81684,-7.87205,0.0],[111.8117,-7.86865,0.0],[111.81037,-7.86643,0.0],[111.80271,-7.86567,0.0],[111.80199,-7.85629,0.0],[111.79717,-7.8479,0.0],[111.80176,-7.84822,0.0],[111.81217,-7.85225,0.0],[111.8196,-7.85146,0.0],[111.82021,-7.85341,0.0],[111.82367,-7.85549,0.0],[111.83804,-7.85212,0.0],[111.84363,-7.85383,0.0],[111.84691,-7.85321,0.0],[111.84851,-7.85131,0.0],[111.85087,-7.85136,0.0],[111.85448,-7.85497,0.0],[111.85702,-7.85179,0.0],[111.86173,-7.85206,0.0],[111.86695,-7.84936,0.0],[111.872,-7.85042,0.0],[111.87467,-7.8489,0.0],[111.875,-7.85139,0.0],[111.87705,-7.85178,0.0],[111.88365,-7.85992,0.0],[111.88922,-7.86161,0.0],[111.89678,-7.86826,0.0],[111.89885,-7.86721,0.0],[111.90373,-7.86871,0.0],[111.90602,-7.86855,0.0],[111.90645,-7.86436,0.0],[111.91072,-7.86296,0.0],[111.91519,-7.86314,0.0],[111.91808,-7.8614,0.0],[111.92534,-7.86082,0.0],[111.93136,-7.86282,0.0],[111.93784,-7.85904,0.0],[111.94398,-7.86073,0.0],[111.94849,-7.85908,0.0],[111.94939,-7.85488,0.0],[111.9546,-7.85679,0.0],[111.95522,-7.85388,0.0],[111.96477,-7.85565,0.0],[111.96535,-7.85363,0.0],[111.97728,-7.856,0.0],[111.97879,-7.85457,0.0],[111.9856,-7.85666,0.0],[111.9874,-7.85287,0.0],[111.989,-7.85356,0.0],[111.98943,-7.85241,0.0],[111.99447,-7.85432,0.0],[111.99306,-7.85949,0.0],[111.98897,-7.86479,0.0],[111.98193,-7.86821,0.0],[111.98049,-7.87248,0.0],[111.97511,-7.87716,0.0],[111.97424,-7.88761,0.0],[111.9753,-7.89787,0.0],[111.968,-7.90215,0.0],[111.96248,-7.90899,0.0],[111.96182,-7.91136,0.0],[111.96333,-7.91561,0.0],[111.96047,-7.92594,0.0],[111.95602,-7.93126,0.0],[111.95586,-7.94145,0.0],[111.94853,-7.94566,0.0],[111.94325,-7.95507,0.0],[111.93458,-7.9573,0.0]]]}},{"type":"Feature","properties":{"kecamatan":"Plemahan","kab_kota":"Kediri"},"geometry":{"type":"Polygon","coordinates":[[[112.14777,-7.73526,0.0],[112.13457,-7.73166,0.0],[112.13356,-7.73448,0.0],[112.13464,-7.73565,0.0],[112.13286,-7.73793,0.0],[112.13161,-7.73726,0.0],[112.132,-7.7319,0.0],[112.13351,-7.73119,0.0],[112.1359,-7.7226,0.0],[112.13155,-7.72188,0.0],[112.13159,-7.72356,0.0],[112.12792,-7.72415,0.0],[112.12205,-7.72219,0.0],[112.12083,-7.72316,0.0],[112.11726,-7.72111,0.0],[112.12134,-7.70892,0.0],[112.12413,-7.70821,0.0],[112.12465,-7.70584,0.0],[112.12305,-7.70408,0.0],[112.12383,-7.70042,0.0],[112.12525,-7.70064,0.0],[112.12574,-7.69863,0.0],[112.12741,-7.69903,0.0],[112.12977,-7.69146,0.0],[112.12612,-7.69038,0.0],[112.12664,-7.6852,0.0],[112.12838,-7.68584,0.0],[112.12936,-7.68467,0.0],[112.12567,-7.67868,0.0],[112.12464,-7.68004,0.0],[112.1214,-7.67849,0.0],[112.12134,-7.67954,0.0],[112.11921,-7.67888,0.0],[112.11858,-7.67984,0.0],[112.12042,-7.67377,0.0],[112.12167,-7.67412,0.0],[112.12047,-7.67363,0.0],[112.12087,-7.6719,0.0],[112.11831,-7.67059,0.0],[112.11869,-7.66757,0.0],[112.12118,-7.66486,0.0],[112.12432,-7.6661,0.0],[112.12516,-7.66403,0.0],[112.1326,-7.66678,0.0],[112.13378,-7.66408,0.0],[112.1357,-7.66302,0.0],[112.13792,-7.66469,0.0],[112.13791,-7.66759,0.0],[112.14329,-7.6687,0.0],[112.14424,-7.66641,0.0],[112.14882,-7.66811,0.0],[112.14925,-7.66723,0.0],[112.15275,-7.66843,0.0],[112.15318,-7.67047,0.0],[112.15756,-7.67167,0.0],[112.15792,-7.67009,0.0],[112.16135,-7.67142,0.0],[112.16357,-7.67584,0.0],[112.16609,-7.67569,0.0],[112.16574,-7.67341,0.0],[112.16798,-7.67247,0.0],[112.1764,-7.68243,0.0],[112.17794,-7.68279,0.0],[112.17865,-7.68121,0.0],[112.18012,-7.68156,0.0],[112.18022,-7.68019,0.0],[112.18182,-7.68038,0.0],[112.18171,-7.68189,0.0],[112.18475,-7.68309,0.0],[112.18398,-7.68717,0.0],[112.18499,-7.6895,0.0],[112.18977,-7.69168,0.0],[112.18716,-7.69628,0.0],[112.18944,-7.69801,0.0],[112.18925,-7.70123,0.0],[112.19131,-7.70462,0.0],[112.18975,-7.71153,0.0],[112.18813,-7.71189,0.0],[112.18524,-7.71746,0.0],[112.17997,-7.71436,0.0],[112.17561,-7.72905,0.0],[112.1747,-7.73027,0.0],[112.17132,-7.72797,0.0],[112.16866,-7.73386,0.0],[112.17533,-7.7376,0.0],[112.17379,-7.7414,0.0],[112.17479,-7.74226,0.0],[112.17377,-7.74716,0.0],[112.1687,-7.74999,0.0],[112.16675,-7.75404,0.0],[112.1603,-7.75211,0.0],[112.15963,-7.75076,0.0],[112.15818,-7.75299,0.0],[112.15114,-7.75156,0.0],[112.14898,-7.75307,0.0],[112.14768,-7.7512,0.0],[112.14848,-7.74899,0.0],[112.14738,-7.7459,0.0],[112.14966,-7.73923,0.0],[112.14777,-7.73526,0.0]]]}},{"type":"Feature","properties":{"kecamatan":"Pare","kab_kota":"Kediri"},"geometry":{"type":"Polygon","coordinates":[[[112.16613,-7.8065,0.0],[112.16363,-7.80614,0.0],[112.16875,-7.80926,0.0],[112.16887,-7.81311,0.0],[112.17072,-7.81603,0.0],[112.1741,-7.81922,0.0],[112.17949,-7.82041,0.0],[112.17798,-7.82206,0.0],[112.17929,-7.82344,0.0],[112.17855,-7.82659,0.0],[112.16814,-7.82352,0.0],[112.16181,-7.81919,0.0],[112.15899,-7.82167,0.0],[112.15642,-7.82671,0.0],[112.15146,-7.82601,0.0],[112.14612,-7.81124,0.0],[112.15229,-7.79516,0.0],[112.15091,-7.79384,0.0],[112.14998,-7.79453,0.0],[112.15163,-7.79112,0.0],[112.15002,-7.78891,0.0],[112.14828,-7.78939,0.0],[112.14445,-7.78644,0.0],[112.14319,-7.78824,0.0],[112.13888,-7.78627,0.0],[112.13812,-7.78369,0.0],[112.13019,-7.77992,0.0],[112.12903,-7.77904,0.0],[112.13053,-7.77678,0.0],[112.12741,-7.77318,0.0],[112.13111,-7.76529,0.0],[112.13272,-7.76602,0.0],[112.13519,-7.76063,0.0],[112.13972,-7.76195,0.0],[112.14039,-7.75979,0.0],[112.13869,-7.75875,0.0],[112.13748,-7.76021,0.0],[112.1374,-7.75748,0.0],[112.14092,-7.75773,0.0],[112.14278,-7.75468,0.0],[112.14596,-7.75707,0.0],[112.14933,-7.7576,0.0],[112.14949,-7.75234,0.0],[112.15114,-7.75156,0.0],[112.15818,-7.75299,0.0],[112.15963,-7.75076,0.0],[112.1603,-7.75211,0.0],[112.16675,-7.75404,0.0],[112.1687,-7.74999,0.0],[112.17377,-7.74716,0.0],[112.17479,-7.74203,0.0],[112.17833,-7.74232,0.0],[112.17817,-7.74376,0.0],[112.18198,-7.7441,0.0],[112.1824,-7.74535,0.0],[112.18457,-7.74401,0.0],[112.18998,-7.74699,0.0],[112.19077,-7.74528,0.0],[112.19205,-7.74658,0.0],[112.19118,-7.7483,0.0],[112.19209,-7.74864,0.0],[112.1918,-7.74728,0.0],[112.19355,-7.74765,0.0],[112.19385,-7.74252,0.0],[112.19737,-7.74386,0.0],[112.19705,-7.74506,0.0],[112.20075,-7.74589,0.0],[112.20135,-7.74933,0.0],[112.20466,-7.75057,0.0],[112.20358,-7.75571,0.0],[112.20523,-7.75656,0.0],[112.2046,-7.75801,0.0],[112.20238,-7.75725,0.0],[112.20199,-7.75816,0.0],[112.20415,-7.75933,0.0],[112.20186,-7.75843,0.0],[112.20133,-7.75972,0.0],[112.20317,-7.76193,0.0],[112.20693,-7.76339,0.0],[112.20919,-7.76051,0.0],[112.21424,-7.76189,0.0],[112.22529,-7.76192,0.0],[112.22692,-7.76591,0.0],[112.224,-7.76567,0.0],[112.22302,-7.77193,0.0],[112.22079,-7.77489,0.0],[112.21951,-7.77468,0.0],[112.21819,-7.78023,0.0],[112.21565,-7.78074,0.0],[112.21495,-7.78338,0.0],[112.20726,-7.77991,0.0],[112.20523,-7.7821,0.0],[112.20263,-7.78123,0.0],[112.19949,-7.78201,0.0],[112.19921,-7.78811,0.0],[112.19825,-7.78805,0.0],[112.19804,-7.78969,0.0],[112.19343,-7.78801,0.0],[112.18363,-7.8034,0.0],[112.17768,-7.79914,0.0],[112.17564,-7.80318,0.0],[112.17755,-7.80921,0.0],[112.17641,-7.81181,0.0],[112.17206,-7.81064,0.0],[112.16613,-7.8065,0.0]]]}},{"type":"Feature","properties":{"kecamatan":"Papar","kab_kota":"Kediri"},"geometry":{"type":"Polygon","coordinates":[[[112.0528,-7.7273,0.0],[112.05023,-7.73289,0.0],[112.04945,-7.73234,0.0],[112.04746,-7.73505,0.0],[112.04835,-7.73601,0.0],[112.04038,-7.74219,0.0],[112.035,-7.73986,0.0],[112.03533,-7.73877,0.0],[112.03299,-7.73758,0.0],[112.03349,-7.73569,0.0],[112.02486,-7.73197,0.0],[112.02639,-7.72677,0.0],[112.02811,-7.72531,0.0],[112.03192,-7.72637,0.0],[112.03752,-7.72459,0.0],[112.04476,-7.72457,0.0],[112.05043,-7.72614,0.0],[112.06167,-7.7218,0.0],[112.06578,-7.71166,0.0],[112.07631,-7.7015,0.0],[112.07514,-7.69307,0.0],[112.07656,-7.68535,0.0],[112.07587,-7.67876,0.0],[112.07859,-7.67489,0.0],[112.08278,-7.67291,0.0],[112.08195,-7.66778,0.0],[112.08278,-7.66575,0.0],[112.08826,-7.6687,0.0],[112.09498,-7.66768,0.0],[112.09547,-7.66914,0.0],[112.09373,-7.67137,0.0],[112.0955,-7.67368,0.0],[112.09443,-7.67629,0.0],[112.10019,-7.67783,0.0],[112.10306,-7.68047,0.0],[112.10496,-7.67818,0.0],[112.1067,-7.6789,0.0],[112.10764,-7.67637,0.0],[112.11058,-7.67762,0.0],[112.11451,-7.66529,0.0],[112.11869,-7.66757,0.0],[112.11831,-7.67059,0.0],[112.12087,-7.6719,0.0],[112.12047,-7.67363,0.0],[112.12167,-7.67412,0.0],[112.12042,-7.67377,0.0],[112.11858,-7.67984,0.0],[112.11921,-7.67888,0.0],[112.12134,-7.67954,0.0],[112.1214,-7.67849,0.0],[112.12464,-7.68004,0.0],[112.12567,-7.67868,0.0],[112.12936,-7.68467,0.0],[112.12838,-7.68584,0.0],[112.12664,-7.6852,0.0],[112.12612,-7.69038,0.0],[112.12977,-7.69146,0.0],[112.12741,-7.69903,0.0],[112.12574,-7.69863,0.0],[112.12525,-7.70064,0.0],[112.12383,-7.70042,0.0],[112.12305,-7.70408,0.0],[112.12465,-7.70584,0.0],[112.12413,-7.70821,0.0],[112.12134,-7.70892,0.0],[112.11744,-7.72219,0.0],[112.11227,-7.72061,0.0],[112.11136,-7.7218,0.0],[112.10679,-7.72195,0.0],[112.10534,-7.72377,0.0],[112.10405,-7.72228,0.0],[112.10462,-7.71936,0.0],[112.1033,-7.71928,0.0],[112.10445,-7.71691,0.0],[112.1025,-7.71617,0.0],[112.10275,-7.71514,0.0],[112.09933,-7.71377,0.0],[112.09863,-7.71539,0.0],[112.09663,-7.71477,0.0],[112.09749,-7.71863,0.0],[112.10041,-7.72174,0.0],[112.1,-7.72274,0.0],[112.09709,-7.72229,0.0],[112.09344,-7.7259,0.0],[112.09304,-7.72758,0.0],[112.09612,-7.72843,0.0],[112.09672,-7.73157,0.0],[112.09433,-7.73352,0.0],[112.08781,-7.73124,0.0],[112.08593,-7.73193,0.0],[112.08465,-7.73771,0.0],[112.08567,-7.73807,0.0],[112.08516,-7.74419,0.0],[112.07834,-7.74121,0.0],[112.07867,-7.735,0.0],[112.07567,-7.73312,0.0],[112.07602,-7.73187,0.0],[112.06967,-7.72991,0.0],[112.06732,-7.73549,0.0],[112.05581,-7.72971,0.0],[112.05604,-7.72801,0.0],[112.0528,-7.7273,0.0]]]}},{"type":"Feature","properties":{"kecamatan":"Purwoasri","kab_kota":"Kediri"},"geometry":{"type":"Polygon","coordinates":[[[112.11451,-7.66529,0.0],[112.11058,-7.67762,0.0],[112.10764,-7.67637,0.0],[112.1067,-7.6789,0.0],[112.10496,-7.67818,0.0],[112.10306,-7.68047,0.0],[112.10019,-7.67783,0.0],[112.09443,-7.67629,0.0],[112.0955,-7.67368,0.0],[112.09373,-7.67137,0.0],[112.09547,-7.66914,0.0],[112.09498,-7.66768,0.0],[112.08826,-7.6687,0.0],[112.08278,-7.66575,0.0],[112.08548,-7.65815,0.0],[112.09029,-7.65566,0.0],[112.09175,-7.64958,0.0],[112.09683,-7.64652,0.0],[112.09835,-7.64411,0.0],[112.09821,-7.63974,0.0],[112.10131,-7.63435,0.0],[112.10085,-7.62833,0.0],[112.10389,-7.61435,0.0],[112.10309,-7.60947,0.0],[112.10909,-7.6039,0.0],[112.11048,-7.59315,0.0],[112.11703,-7.6024,0.0],[112.11661,-7.60372,0.0],[112.1215,-7.60674,0.0],[112.12734,-7.60675,0.0],[112.13918,-7.61163,0.0],[112.13973,-7.60971,0.0],[112.14242,-7.60975,0.0],[112.16499,-7.61272,0.0],[112.17123,-7.61867,0.0],[112.17155,-7.62226,0.0],[112.17652,-7.62504,0.0],[112.18344,-7.63399,0.0],[112.17523,-7.63047,0.0],[112.17316,-7.62843,0.0],[112.17202,-7.63087,0.0],[112.16785,-7.63251,0.0],[112.16725,-7.63395,0.0],[112.16391,-7.63343,0.0],[112.16102,-7.64092,0.0],[112.16355,-7.64174,0.0],[112.16242,-7.64436,0.0],[112.1652,-7.64531,0.0],[112.16456,-7.64775,0.0],[112.16096,-7.65019,0.0],[112.15861,-7.64806,0.0],[112.15766,-7.65013,0.0],[112.15582,-7.64806,0.0],[112.15201,-7.64788,0.0],[112.15293,-7.64187,0.0],[112.15088,-7.64125,0.0],[112.15134,-7.63944,0.0],[112.1473,-7.63635,0.0],[112.14495,-7.63933,0.0],[112.14404,-7.64401,0.0],[112.14136,-7.64309,0.0],[112.13944,-7.64864,0.0],[112.14295,-7.65155,0.0],[112.141,-7.66205,0.0],[112.14516,-7.66265,0.0],[112.14329,-7.6687,0.0],[112.13791,-7.66759,0.0],[112.13792,-7.66469,0.0],[112.1357,-7.66302,0.0],[112.13378,-7.66408,0.0],[112.1326,-7.66678,0.0],[112.12516,-7.66403,0.0],[112.12432,-7.6661,0.0],[112.12118,-7.66486,0.0],[112.11891,-7.66764,0.0],[112.11451,-7.66529,0.0]]]}},{"type":"Feature","properties":{"kecamatan":"Kepung","kab_kota":"Kediri"},"geometry":{"type":"Polygon","coordinates":[[[112.3258,-7.8718,0.0],[112.32523,-7.88316,0.0],[112.32263,-7.88978,0.0],[112.32337,-7.89186,0.0],[112.31783,-7.89564,0.0],[112.31724,-7.89805,0.0],[112.31247,-7.90276,0.0],[112.31382,-7.9205,0.0],[112.31023,-7.92772,0.0],[112.30658,-7.9293,0.0],[112.30679,-7.93147,0.0],[112.30113,-7.92585,0.0],[112.30077,-7.92356,0.0],[112.30197,-7.92169,0.0],[112.29899,-7.91636,0.0],[112.29854,-7.90377,0.0],[112.29435,-7.89462,0.0],[112.28947,-7.88889,0.0],[112.2895,-7.88246,0.0],[112.28511,-7.87838,0.0],[112.28509,-7.87226,0.0],[112.28289,-7.8684,0.0],[112.28132,-7.86836,0.0],[112.28123,-7.86457,0.0],[112.27525,-7.86378,0.0],[112.27524,-7.86271,0.0],[112.27209,-7.86253,0.0],[112.27208,-7.86078,0.0],[112.27077,-7.86075,0.0],[112.27084,-7.8365,0.0],[112.2752,-7.83078,0.0],[112.2768,-7.82448,0.0],[112.27294,-7.82534,0.0],[112.27322,-7.81854,0.0],[112.26171,-7.82286,0.0],[112.2617,-7.81982,0.0],[112.2486,-7.82442,0.0],[112.24725,-7.81826,0.0],[112.25159,-7.81078,0.0],[112.25203,-7.8016,0.0],[112.24517,-7.80233,0.0],[112.24201,-7.80433,0.0],[112.24111,-7.80748,0.0],[112.22784,-7.8033,0.0],[112.22161,-7.7983,0.0],[112.22262,-7.79285,0.0],[112.21604,-7.78959,0.0],[112.21397,-7.78656,0.0],[112.21412,-7.783,0.0],[112.21495,-7.78338,0.0],[112.21565,-7.78074,0.0],[112.21819,-7.78023,0.0],[112.21951,-7.77468,0.0],[112.22079,-7.77489,0.0],[112.22302,-7.77193,0.0],[112.224,-7.76567,0.0],[112.22692,-7.76591,0.0],[112.22529,-7.76192,0.0],[112.2299,-7.76254,0.0],[112.23216,-7.76439,0.0],[112.24679,-7.76896,0.0],[112.24776,-7.76156,0.0],[112.26206,-7.76245,0.0],[112.26349,-7.76399,0.0],[112.26478,-7.7619,0.0],[112.26947,-7.76062,0.0],[112.27045,-7.76163,0.0],[112.27606,-7.75775,0.0],[112.28407,-7.76424,0.0],[112.28742,-7.76915,0.0],[112.28887,-7.77585,0.0],[112.28829,-7.77955,0.0],[112.29269,-7.78128,0.0],[112.29607,-7.7889,0.0],[112.30038,-7.78927,0.0],[112.30174,-7.79323,0.0],[112.30686,-7.79928,0.0],[112.30527,-7.81222,0.0],[112.30804,-7.82348,0.0],[112.30664,-7.82848,0.0],[112.30951,-7.83398,0.0],[112.30763,-7.83892,0.0],[112.31558,-7.8375,0.0],[112.31935,-7.83908,0.0],[112.31731,-7.84686,0.0],[112.32031,-7.85009,0.0],[112.32125,-7.85545,0.0],[112.31902,-7.85734,0.0],[112.3182,-7.86147,0.0],[112.32257,-7.86553,0.0],[112.3258,-7.8718,0.0]]]}},{"type":"Feature","properties":{"kecamatan":"Kandangan","kab_kota":"Kediri"},"geometry":{"type":"Polygon","coordinates":[[[112.27716,-7.7582,0.0],[112.27045,-7.76163,0.0],[112.26947,-7.76062,0.0],[112.26478,-7.7619,0.0],[112.26349,-7.76399,0.0],[112.26206,-7.76245,0.0],[112.24776,-7.76156,0.0],[112.24679,-7.76896,0.0],[112.23329,-7.76457,0.0],[112.23666,-7.75083,0.0],[112.24033,-7.74328,0.0],[112.23938,-7.74263,0.0],[112.24021,-7.73654,0.0],[112.23764,-7.73599,0.0],[112.23793,-7.73345,0.0],[112.23599,-7.73127,0.0],[112.23858,-7.72701,0.0],[112.23589,-7.72225,0.0],[112.23728,-7.7186,0.0],[112.23904,-7.71828,0.0],[112.24124,-7.71411,0.0],[112.25053,-7.7249,0.0],[112.25722,-7.72796,0.0],[112.26702,-7.72806,0.0],[112.26817,-7.72626,0.0],[112.26611,-7.72304,0.0],[112.26699,-7.72251,0.0],[112.27935,-7.7256,0.0],[112.29362,-7.72574,0.0],[112.29367,-7.72692,0.0],[112.29572,-7.7278,0.0],[112.29939,-7.72669,0.0],[112.30118,-7.72814,0.0],[112.3018,-7.72682,0.0],[112.30506,-7.72921,0.0],[112.31026,-7.73066,0.0],[112.31836,-7.73756,0.0],[112.32488,-7.73802,0.0],[112.32843,-7.74135,0.0],[112.33408,-7.74135,0.0],[112.33719,-7.74529,0.0],[112.34152,-7.74796,0.0],[112.34863,-7.74879,0.0],[112.355,-7.75363,0.0],[112.3612,-7.76116,0.0],[112.36536,-7.76081,0.0],[112.37528,-7.76397,0.0],[112.38462,-7.76876,0.0],[112.38811,-7.7724,0.0],[112.39348,-7.77335,0.0],[112.39726,-7.77607,0.0],[112.40861,-7.77339,0.0],[112.41179,-7.76919,0.0],[112.41734,-7.76445,0.0],[112.41359,-7.77393,0.0],[112.40572,-7.78051,0.0],[112.40049,-7.78112,0.0],[112.39675,-7.7853,0.0],[112.38902,-7.78293,0.0],[112.38292,-7.78511,0.0],[112.37283,-7.77708,0.0],[112.36676,-7.76838,0.0],[112.35757,-7.76626,0.0],[112.34946,-7.76156,0.0],[112.34647,-7.76551,0.0],[112.33965,-7.76805,0.0],[112.33936,-7.77444,0.0],[112.33706,-7.77394,0.0],[112.32874,-7.77727,0.0],[112.32246,-7.7766,0.0],[112.31963,-7.77783,0.0],[112.31046,-7.77675,0.0],[112.3109,-7.77498,0.0],[112.30869,-7.77551,0.0],[112.30736,-7.77407,0.0],[112.30684,-7.77486,0.0],[112.30635,-7.77278,0.0],[112.30058,-7.77168,0.0],[112.29941,-7.76939,0.0],[112.29209,-7.76863,0.0],[112.2877,-7.77097,0.0],[112.28407,-7.76424,0.0],[112.27716,-7.7582,0.0]]]}},{"type":"Feature","properties":{"kecamatan":"Gampengrejo","kab_kota":"Kediri"},"geometry":{"type":"MultiPolygon","coordinates":[[[[112.02493,-7.79973,0.0],[112.02475,-7.80088,0.0],[112.01916,-7.80003,0.0],[112.01642,-7.79587,0.0],[112.02493,-7.79973,0.0]]],[[[112.01802,-7.78639,0.0],[112.01983,-7.78853,0.0],[112.01961,-7.78957,0.0],[112.01583,-7.78958,0.0],[112.01774,-7.79062,0.0],[112.01734,-7.79257,0.0],[112.01591,-7.79082,0.0],[112.01064,-7.78938,0.0],[112.01049,-7.79025,0.0],[112.0031,-7.78987,0.0],[112.00176,-7.7867,0.0],[112.00411,-7.78283,0.0],[112.01032,-7.78093,0.0],[112.02131,-7.77405,0.0],[112.0233,-7.77088,0.0],[112.02375,-7.76587,0.0],[112.0214,-7.75911,0.0],[112.02061,-7.74254,0.0],[112.02486,-7.73197,0.0],[112.03349,-7.73569,0.0],[112.03299,-7.73758,0.0],[112.03533,-7.73877,0.0],[112.035,-7.73986,0.0],[112.04038,-7.74219,0.0],[112.03713,-7.74508,0.0],[112.0403,-7.74675,0.0],[112.03996,-7.74808,0.0],[112.04199,-7.74873,0.0],[112.04183,-7.74981,0.0],[112.04321,-7.7498,0.0],[112.04347,-7.74566,0.0],[112.04489,-7.74527,0.0],[112.05113,-7.74766,0.0],[112.05169,-7.74911,0.0],[112.05535,-7.75089,0.0],[112.05441,-7.75484,0.0],[112.05533,-7.75528,0.0],[112.05513,-7.7592,0.0],[112.05754,-7.76127,0.0],[112.05588,-7.76586,0.0],[112.05797,-7.77267,0.0],[112.05591,-7.77557,0.0],[112.0532,-7.77645,0.0],[112.04798,-7.77402,0.0],[112.04864,-7.77182,0.0],[112.04742,-7.77091,0.0],[112.0482,-7.76912,0.0],[112.04683,-7.7683,0.0],[112.04747,-7.76661,0.0],[112.04583,-7.76793,0.0],[112.04376,-7.76683,0.0],[112.04205,-7.76958,0.0],[112.04167,-7.77521,0.0],[112.04037,-7.77474,0.0],[112.0395,-7.77756,0.0],[112.03887,-7.78179,0.0],[112.0406,-7.78273,0.0],[112.03867,-7.78764,0.0],[112.03413,-7.78569,0.0],[112.03392,-7.78752,0.0],[112.02737,-7.78596,0.0],[112.02287,-7.78316,0.0],[112.01802,-7.78639,0.0]]]]}},{"type":"Feature","properties":{"kecamatan":"Grogol","kab_kota":"Kediri"},"geometry":{"type":"Polygon","coordinates":[[[111.94467,-7.76778,0.0],[111.92064,-7.7743,0.0],[111.90996,-7.78124,0.0],[111.90278,-7.78163,0.0],[111.88334,-7.7793,0.0],[111.87764,-7.78282,0.0],[111.87448,-7.7829,0.0],[111.87336,-7.78426,0.0],[111.8736,-7.78785,0.0],[111.87524,-7.78953,0.0],[111.87322,-7.79118,0.0],[111.87362,-7.79328,0.0],[111.86879,-7.79501,0.0],[111.86407,-7.7999,0.0],[111.8607,-7.79903,0.0],[111.84423,-7.80087,0.0],[111.83794,-7.79922,0.0],[111.84306,-7.79269,0.0],[111.85398,-7.78636,0.0],[111.86278,-7.77603,0.0],[111.86866,-7.77278,0.0],[111.87655,-7.766,0.0],[111.88026,-7.76651,0.0],[111.88353,-7.77089,0.0],[111.89713,-7.76874,0.0],[111.90381,-7.76492,0.0],[111.92708,-7.76255,0.0],[111.92983,-7.76014,0.0],[111.93354,-7.75946,0.0],[111.93786,-7.75529,0.0],[111.9455,-7.75193,0.0],[111.95275,-7.74518,0.0],[111.95523,-7.7452,0.0],[111.95704,-7.74669,0.0],[111.95836,-7.74248,0.0],[111.95545,-7.73688,0.0],[111.96034,-7.73119,0.0],[111.9658,-7.72822,0.0],[111.96645,-7.72365,0.0],[111.96812,-7.72383,0.0],[111.96971,-7.71304,0.0],[111.97264,-7.71257,0.0],[111.97311,-7.71015,0.0],[111.98245,-7.71127,0.0],[111.98825,-7.7238,0.0],[111.99332,-7.72838,0.0],[111.99756,-7.7293,0.0],[111.99928,-7.74174,0.0],[111.99824,-7.74292,0.0],[112.00118,-7.7445,0.0],[112.00252,-7.74964,0.0],[112.00223,-7.75226,0.0],[111.99679,-7.75137,0.0],[111.99629,-7.7532,0.0],[111.99457,-7.75386,0.0],[111.99343,-7.75225,0.0],[111.98951,-7.75242,0.0],[111.9894,-7.75036,0.0],[111.98786,-7.7498,0.0],[111.9842,-7.75027,0.0],[111.98318,-7.75222,0.0],[111.98328,-7.7568,0.0],[111.98475,-7.75746,0.0],[111.9842,-7.76025,0.0],[111.98186,-7.7616,0.0],[111.98708,-7.76218,0.0],[111.99238,-7.76495,0.0],[111.99398,-7.7624,0.0],[111.99698,-7.76355,0.0],[111.99621,-7.7658,0.0],[111.99466,-7.76639,0.0],[111.99547,-7.76717,0.0],[111.99438,-7.77017,0.0],[111.99169,-7.77206,0.0],[111.98162,-7.76918,0.0],[111.97556,-7.75699,0.0],[111.97404,-7.75754,0.0],[111.97357,-7.75629,0.0],[111.96739,-7.75409,0.0],[111.9679,-7.75546,0.0],[111.96444,-7.75942,0.0],[111.9639,-7.7621,0.0],[111.96064,-7.76092,0.0],[111.9551,-7.76575,0.0],[111.94851,-7.76528,0.0],[111.94467,-7.76778,0.0]]]}},{"type":"Feature","properties":{"kecamatan":"Gurah","kab_kota":"Kediri"},"geometry":{"type":"Polygon","coordinates":[[[112.10672,-7.87707,0.0],[112.10338,-7.87917,0.0],[112.09967,-7.87795,0.0],[112.0958,-7.87532,0.0],[112.09321,-7.87156,0.0],[112.09637,-7.86727,0.0],[112.09588,-7.86546,0.0],[112.10102,-7.85459,0.0],[112.08331,-7.84883,0.0],[112.08241,-7.84309,0.0],[112.07853,-7.84234,0.0],[112.07844,-7.8405,0.0],[112.07572,-7.83742,0.0],[112.07695,-7.83219,0.0],[112.07427,-7.83209,0.0],[112.06858,-7.82838,0.0],[112.07068,-7.82512,0.0],[112.06852,-7.8242,0.0],[112.06913,-7.8231,0.0],[112.06612,-7.82174,0.0],[112.06578,-7.82379,0.0],[112.06149,-7.82213,0.0],[112.06344,-7.81792,0.0],[112.07259,-7.81436,0.0],[112.07315,-7.80919,0.0],[112.07752,-7.81235,0.0],[112.0796,-7.81156,0.0],[112.08368,-7.80441,0.0],[112.08845,-7.8058,0.0],[112.0903,-7.80139,0.0],[112.0894,-7.79842,0.0],[112.09135,-7.79457,0.0],[112.09031,-7.79423,0.0],[112.09114,-7.79076,0.0],[112.09962,-7.79428,0.0],[112.10261,-7.78913,0.0],[112.10684,-7.79146,0.0],[112.1086,-7.78568,0.0],[112.10638,-7.78228,0.0],[112.10861,-7.77262,0.0],[112.10823,-7.76887,0.0],[112.11658,-7.77048,0.0],[112.11781,-7.77005,0.0],[112.11882,-7.76596,0.0],[112.1213,-7.76621,0.0],[112.1292,-7.76936,0.0],[112.12741,-7.77318,0.0],[112.13053,-7.77678,0.0],[112.12903,-7.77904,0.0],[112.13812,-7.78369,0.0],[112.13888,-7.78627,0.0],[112.14319,-7.78824,0.0],[112.14445,-7.78644,0.0],[112.14785,-7.78917,0.0],[112.15103,-7.78992,0.0],[112.15163,-7.79112,0.0],[112.14998,-7.79453,0.0],[112.15091,-7.79384,0.0],[112.15229,-7.79516,0.0],[112.14612,-7.81124,0.0],[112.15138,-7.82593,0.0],[112.15582,-7.82828,0.0],[112.15812,-7.83137,0.0],[112.15747,-7.83233,0.0],[112.1547,-7.83152,0.0],[112.15116,-7.82814,0.0],[112.14961,-7.83162,0.0],[112.14585,-7.82984,0.0],[112.14412,-7.83115,0.0],[112.13544,-7.82619,0.0],[112.12876,-7.82527,0.0],[112.13357,-7.82201,0.0],[112.13004,-7.82021,0.0],[112.12517,-7.81449,0.0],[112.12145,-7.81286,0.0],[112.11825,-7.82373,0.0],[112.1171,-7.8233,0.0],[112.1153,-7.83169,0.0],[112.11789,-7.83358,0.0],[112.11372,-7.83245,0.0],[112.11187,-7.83624,0.0],[112.1155,-7.83775,0.0],[112.11822,-7.84138,0.0],[112.11454,-7.84773,0.0],[112.11554,-7.84835,0.0],[112.11455,-7.85175,0.0],[112.11717,-7.85319,0.0],[112.11436,-7.85988,0.0],[112.11484,-7.86211,0.0],[112.11701,-7.86406,0.0],[112.11913,-7.86286,0.0],[112.12161,-7.86576,0.0],[112.12077,-7.86859,0.0],[112.1164,-7.8682,0.0],[112.11169,-7.87047,0.0],[112.11017,-7.87373,0.0],[112.10805,-7.87335,0.0],[112.10672,-7.87707,0.0]]]}},{"type":"Feature","properties":{"kecamatan":"Pagu","kab_kota":"Kediri"},"geometry":{"type":"Polygon","coordinates":[[[112.08973,-7.79884,0.0],[112.0903,-7.80139,0.0],[112.08845,-7.8058,0.0],[112.08368,-7.80441,0.0],[112.0796,-7.81156,0.0],[112.07752,-7.81235,0.0],[112.06997,-7.8063,0.0],[112.07108,-7.8013,0.0],[112.06052,-7.79856,0.0],[112.05674,-7.79624,0.0],[112.05793,-7.7904,0.0],[112.05912,-7.79027,0.0],[112.06093,-7.78576,0.0],[112.05966,-7.78511,0.0],[112.06025,-7.78236,0.0],[112.05859,-7.78172,0.0],[112.06,-7.77842,0.0],[112.05744,-7.77426,0.0],[112.05608,-7.76497,0.0],[112.05754,-7.76127,0.0],[112.06172,-7.76168,0.0],[112.06162,-7.75865,0.0],[112.06287,-7.75884,0.0],[112.06379,-7.75649,0.0],[112.06528,-7.75602,0.0],[112.06726,-7.75794,0.0],[112.06809,-7.75026,0.0],[112.0714,-7.75047,0.0],[112.07165,-7.74852,0.0],[112.08046,-7.75208,0.0],[112.085,-7.75679,0.0],[112.0856,-7.75494,0.0],[112.08936,-7.75635,0.0],[112.0889,-7.75817,0.0],[112.09077,-7.75903,0.0],[112.09105,-7.7617,0.0],[112.09297,-7.76034,0.0],[112.09597,-7.76349,0.0],[112.09669,-7.76235,0.0],[112.10031,-7.7645,0.0],[112.10097,-7.76304,0.0],[112.09886,-7.76196,0.0],[112.09907,-7.75911,0.0],[112.10122,-7.75942,0.0],[112.1035,-7.75649,0.0],[112.10453,-7.76131,0.0],[112.10594,-7.76223,0.0],[112.11882,-7.76596,0.0],[112.11781,-7.77005,0.0],[112.11663,-7.77047,0.0],[112.10818,-7.76896,0.0],[112.10861,-7.77262,0.0],[112.10639,-7.78248,0.0],[112.1086,-7.78568,0.0],[112.10684,-7.79146,0.0],[112.10261,-7.78913,0.0],[112.09962,-7.79428,0.0],[112.09114,-7.79076,0.0],[112.09031,-7.79423,0.0],[112.09135,-7.79457,0.0],[112.08973,-7.79884,0.0]]]}},{"type":"Feature","properties":{"kecamatan":"Ngasem","kab_kota":"Kediri"},"geometry":{"type":"Polygon","coordinates":[[[112.04346,-7.82403,0.0],[112.04199,-7.82259,0.0],[112.0427,-7.82043,0.0],[112.03928,-7.81928,0.0],[112.03875,-7.82074,0.0],[112.03328,-7.81883,0.0],[112.03769,-7.81056,0.0],[112.03089,-7.80861,0.0],[112.02929,-7.80959,0.0],[112.0313,-7.80029,0.0],[112.02844,-7.79894,0.0],[112.026,-7.80006,0.0],[112.01603,-7.79567,0.0],[112.01604,-7.79223,0.0],[112.01734,-7.79257,0.0],[112.01774,-7.79062,0.0],[112.01583,-7.78958,0.0],[112.01961,-7.78957,0.0],[112.01951,-7.78748,0.0],[112.01783,-7.78633,0.0],[112.02287,-7.78316,0.0],[112.02737,-7.78596,0.0],[112.03392,-7.78752,0.0],[112.03413,-7.78569,0.0],[112.03867,-7.78764,0.0],[112.0406,-7.78273,0.0],[112.03887,-7.78179,0.0],[112.03946,-7.77774,0.0],[112.04037,-7.77474,0.0],[112.04192,-7.77447,0.0],[112.04205,-7.76958,0.0],[112.04376,-7.76683,0.0],[112.04583,-7.76793,0.0],[112.04672,-7.76635,0.0],[112.04683,-7.7683,0.0],[112.0482,-7.76912,0.0],[112.04798,-7.77402,0.0],[112.05426,-7.77679,0.0],[112.05661,-7.77403,0.0],[112.05869,-7.77499,0.0],[112.0582,-7.77619,0.0],[112.05966,-7.77727,0.0],[112.05859,-7.78172,0.0],[112.06025,-7.78236,0.0],[112.05966,-7.78511,0.0],[112.06093,-7.78576,0.0],[112.05912,-7.79027,0.0],[112.05793,-7.7904,0.0],[112.05674,-7.79624,0.0],[112.06052,-7.79856,0.0],[112.07108,-7.8013,0.0],[112.06958,-7.80486,0.0],[112.07324,-7.80993,0.0],[112.07259,-7.81436,0.0],[112.06344,-7.81792,0.0],[112.06149,-7.82213,0.0],[112.06578,-7.82379,0.0],[112.06612,-7.82174,0.0],[112.07068,-7.82512,0.0],[112.06858,-7.82838,0.0],[112.07087,-7.82953,0.0],[112.06697,-7.83589,0.0],[112.05779,-7.83155,0.0],[112.05587,-7.83437,0.0],[112.05438,-7.83363,0.0],[112.0558,-7.83152,0.0],[112.05175,-7.82947,0.0],[112.05001,-7.83024,0.0],[112.04302,-7.82675,0.0],[112.04346,-7.82403,0.0]]]}},{"type":"Feature","properties":{"kecamatan":"Badas","kab_kota":"Kediri"},"geometry":{"type":"Polygon","coordinates":[[[112.20882,-7.761,0.0],[112.20693,-7.76339,0.0],[112.20317,-7.76193,0.0],[112.20133,-7.75972,0.0],[112.20186,-7.75843,0.0],[112.20415,-7.75933,0.0],[112.20199,-7.75816,0.0],[112.20238,-7.75725,0.0],[112.2046,-7.75801,0.0],[112.20523,-7.75656,0.0],[112.20358,-7.75571,0.0],[112.20466,-7.75057,0.0],[112.20135,-7.74933,0.0],[112.20075,-7.74589,0.0],[112.19705,-7.74506,0.0],[112.19737,-7.74386,0.0],[112.19385,-7.74252,0.0],[112.19355,-7.74765,0.0],[112.1918,-7.74728,0.0],[112.19209,-7.74864,0.0],[112.19077,-7.74528,0.0],[112.18998,-7.74699,0.0],[112.18457,-7.74401,0.0],[112.1824,-7.74535,0.0],[112.17994,-7.74348,0.0],[112.17947,-7.74452,0.0],[112.17817,-7.74376,0.0],[112.17833,-7.74232,0.0],[112.17379,-7.7414,0.0],[112.17533,-7.7376,0.0],[112.16866,-7.73386,0.0],[112.17132,-7.72797,0.0],[112.1747,-7.73027,0.0],[112.17561,-7.72905,0.0],[112.17997,-7.71436,0.0],[112.18524,-7.71746,0.0],[112.18813,-7.71189,0.0],[112.18975,-7.71153,0.0],[112.19131,-7.70462,0.0],[112.18925,-7.70123,0.0],[112.18944,-7.69801,0.0],[112.18716,-7.69628,0.0],[112.18959,-7.69132,0.0],[112.19931,-7.69249,0.0],[112.20954,-7.68708,0.0],[112.22189,-7.69157,0.0],[112.22591,-7.69736,0.0],[112.23308,-7.70137,0.0],[112.23415,-7.70475,0.0],[112.23325,-7.70708,0.0],[112.23841,-7.7102,0.0],[112.24124,-7.71411,0.0],[112.23904,-7.71828,0.0],[112.23728,-7.7186,0.0],[112.23589,-7.72225,0.0],[112.23858,-7.72701,0.0],[112.23599,-7.73127,0.0],[112.23793,-7.73345,0.0],[112.23764,-7.73599,0.0],[112.24021,-7.73654,0.0],[112.23938,-7.74263,0.0],[112.24033,-7.74328,0.0],[112.23666,-7.75083,0.0],[112.23329,-7.76457,0.0],[112.22627,-7.76155,0.0],[112.20882,-7.761,0.0]]]}},{"type":"Feature","properties":{"kecamatan":"Tarokan","kab_kota":"Kediri"},"geometry":{"type":"Polygon","coordinates":[[[111.95554,-7.73694,0.0],[111.95836,-7.74248,0.0],[111.95704,-7.74669,0.0],[111.95523,-7.7452,0.0],[111.95275,-7.74518,0.0],[111.9455,-7.75193,0.0],[111.93786,-7.75529,0.0],[111.93354,-7.75946,0.0],[111.92983,-7.76014,0.0],[111.92708,-7.76255,0.0],[111.90381,-7.76492,0.0],[111.89713,-7.76874,0.0],[111.88353,-7.77089,0.0],[111.87853,-7.76551,0.0],[111.88337,-7.76145,0.0],[111.88571,-7.75486,0.0],[111.89506,-7.7471,0.0],[111.9003,-7.73973,0.0],[111.91934,-7.72576,0.0],[111.92805,-7.72256,0.0],[111.93187,-7.71617,0.0],[111.93185,-7.70877,0.0],[111.93795,-7.7007,0.0],[111.9394,-7.7007,0.0],[111.94231,-7.69405,0.0],[111.94576,-7.69404,0.0],[111.94998,-7.68592,0.0],[111.95245,-7.68648,0.0],[111.95411,-7.67961,0.0],[111.9579,-7.67902,0.0],[111.97157,-7.68329,0.0],[111.97598,-7.68389,0.0],[111.9785,-7.68277,0.0],[111.98261,-7.68381,0.0],[111.98542,-7.68713,0.0],[111.98572,-7.69162,0.0],[111.98287,-7.69572,0.0],[111.98239,-7.7055,0.0],[111.98379,-7.70812,0.0],[111.98251,-7.7115,0.0],[111.97311,-7.71015,0.0],[111.97264,-7.71257,0.0],[111.96971,-7.71304,0.0],[111.96812,-7.72383,0.0],[111.96645,-7.72365,0.0],[111.9658,-7.72822,0.0],[111.96034,-7.73119,0.0],[111.95554,-7.73694,0.0]]]}},{"type":"Feature","properties":{"kecamatan":"Ringinrejo","kab_kota":"Kediri"},"geometry":{"type":"Polygon","coordinates":[[[112.03664,-7.99332,0.0],[112.01423,-8.00172,0.0],[112.01288,-8.0005,0.0],[112.01306,-7.99833,0.0],[111.99168,-7.99581,0.0],[111.99139,-7.99856,0.0],[111.98615,-7.99768,0.0],[111.98805,-7.98251,0.0],[111.99418,-7.98399,0.0],[111.99737,-7.98615,0.0],[112.00559,-7.98684,0.0],[112.00501,-7.98217,0.0],[112.00718,-7.98068,0.0],[112.00852,-7.97725,0.0],[112.01119,-7.97762,0.0],[112.0115,-7.97598,0.0],[112.0152,-7.97643,0.0],[112.01382,-7.97571,0.0],[112.01405,-7.97335,0.0],[112.0161,-7.97218,0.0],[112.01426,-7.97058,0.0],[112.01106,-7.97017,0.0],[112.01116,-7.96663,0.0],[112.01273,-7.96257,0.0],[112.01389,-7.96339,0.0],[112.01379,-7.96184,0.0],[112.01074,-7.96068,0.0],[112.00761,-7.95602,0.0],[112.00496,-7.95438,0.0],[112.00595,-7.95009,0.0],[112.0098,-7.95136,0.0],[112.01106,-7.9474,0.0],[112.00901,-7.94681,0.0],[112.01116,-7.94355,0.0],[112.01488,-7.94472,0.0],[112.01515,-7.94352,0.0],[112.01765,-7.9442,0.0],[112.0181,-7.94266,0.0],[112.02007,-7.94302,0.0],[112.01866,-7.95388,0.0],[112.02074,-7.95561,0.0],[112.02093,-7.95788,0.0],[112.02474,-7.9601,0.0],[112.02362,-7.96336,0.0],[112.02619,-7.96382,0.0],[112.02662,-7.96521,0.0],[112.03581,-7.9649,0.0],[112.03942,-7.96244,0.0],[112.04218,-7.96321,0.0],[112.04624,-7.95683,0.0],[112.05439,-7.95469,0.0],[112.0571,-7.95542,0.0],[112.06064,-7.95301,0.0],[112.06912,-7.95134,0.0],[112.07423,-7.95447,0.0],[112.07956,-7.95537,0.0],[112.0817,-7.95742,0.0],[112.09331,-7.95636,0.0],[112.10521,-7.95966,0.0],[112.10766,-7.96168,0.0],[112.10762,-7.96352,0.0],[112.1106,-7.96313,0.0],[112.11071,-7.96208,0.0],[112.11261,-7.96314,0.0],[112.11189,-7.9699,0.0],[112.09625,-7.97001,0.0],[112.09825,-7.97742,0.0],[112.09629,-7.98908,0.0],[112.0937,-7.99063,0.0],[112.08767,-7.99161,0.0],[112.07403,-7.99015,0.0],[112.06777,-7.99226,0.0],[112.05772,-7.99122,0.0],[112.04714,-7.99356,0.0],[112.03664,-7.99332,0.0]]]}},{"type":"Feature","properties":{"kecamatan":"Kayen Kidul","kab_kota":"Kediri"},"geometry":{"type":"Polygon","coordinates":[[[112.1032,-7.75665,0.0],[112.10122,-7.75942,0.0],[112.09927,-7.7587,0.0],[112.09864,-7.76022,0.0],[112.09886,-7.76196,0.0],[112.10097,-7.76304,0.0],[112.10031,-7.7645,0.0],[112.09669,-7.76235,0.0],[112.09617,-7.76358,0.0],[112.09297,-7.76034,0.0],[112.09105,-7.7617,0.0],[112.09077,-7.75903,0.0],[112.0889,-7.75817,0.0],[112.08936,-7.75635,0.0],[112.0856,-7.75494,0.0],[112.085,-7.75679,0.0],[112.08046,-7.75208,0.0],[112.07165,-7.74852,0.0],[112.0714,-7.75047,0.0],[112.06809,-7.75026,0.0],[112.06726,-7.75794,0.0],[112.06528,-7.75602,0.0],[112.06379,-7.75649,0.0],[112.06287,-7.75884,0.0],[112.06162,-7.75865,0.0],[112.06172,-7.76168,0.0],[112.05754,-7.76127,0.0],[112.05513,-7.7592,0.0],[112.0549,-7.75033,0.0],[112.04489,-7.74527,0.0],[112.04347,-7.74566,0.0],[112.04273,-7.75014,0.0],[112.03996,-7.74808,0.0],[112.0403,-7.74675,0.0],[112.03713,-7.74508,0.0],[112.04835,-7.73601,0.0],[112.04746,-7.73505,0.0],[112.04945,-7.73234,0.0],[112.05023,-7.73289,0.0],[112.05285,-7.72711,0.0],[112.05604,-7.72801,0.0],[112.05581,-7.72971,0.0],[112.06732,-7.73549,0.0],[112.06967,-7.72991,0.0],[112.07602,-7.73187,0.0],[112.07567,-7.73312,0.0],[112.07867,-7.735,0.0],[112.07834,-7.74121,0.0],[112.08516,-7.74419,0.0],[112.08567,-7.73807,0.0],[112.08465,-7.73771,0.0],[112.08593,-7.73193,0.0],[112.08781,-7.73124,0.0],[112.09433,-7.73352,0.0],[112.09672,-7.73157,0.0],[112.09612,-7.72843,0.0],[112.09304,-7.72758,0.0],[112.09709,-7.72229,0.0],[112.1,-7.72274,0.0],[112.1004,-7.72159,0.0],[112.0962,-7.71616,0.0],[112.09663,-7.71477,0.0],[112.09863,-7.71539,0.0],[112.09933,-7.71377,0.0],[112.10445,-7.71691,0.0],[112.1033,-7.71928,0.0],[112.10462,-7.71936,0.0],[112.10405,-7.72228,0.0],[112.10541,-7.72379,0.0],[112.10679,-7.72195,0.0],[112.11136,-7.7218,0.0],[112.11227,-7.72061,0.0],[112.12792,-7.72415,0.0],[112.13159,-7.72356,0.0],[112.13155,-7.72188,0.0],[112.1359,-7.7226,0.0],[112.13351,-7.73119,0.0],[112.132,-7.7319,0.0],[112.13161,-7.73726,0.0],[112.13286,-7.73793,0.0],[112.13299,-7.73657,0.0],[112.13412,-7.73683,0.0],[112.13457,-7.73166,0.0],[112.14785,-7.73524,0.0],[112.14957,-7.73896,0.0],[112.14735,-7.74648,0.0],[112.14848,-7.74899,0.0],[112.14768,-7.7512,0.0],[112.14987,-7.75399,0.0],[112.14933,-7.7576,0.0],[112.14596,-7.75707,0.0],[112.14278,-7.75468,0.0],[112.14092,-7.75773,0.0],[112.1374,-7.75748,0.0],[112.13748,-7.76021,0.0],[112.13869,-7.75875,0.0],[112.14039,-7.75979,0.0],[112.13972,-7.76195,0.0],[112.13519,-7.76063,0.0],[112.13272,-7.76602,0.0],[112.13111,-7.76529,0.0],[112.1292,-7.76936,0.0],[112.10594,-7.76223,0.0],[112.10453,-7.76131,0.0],[112.10484,-7.75915,0.0],[112.1032,-7.75665,0.0]]]}},{"type":"Feature","properties":{"kecamatan":"Kunjang","kab_kota":"Kediri"},"geometry":{"type":"Polygon","coordinates":[[[112.1764,-7.68243,0.0],[112.16728,-7.67232,0.0],[112.16574,-7.67341,0.0],[112.16609,-7.67569,0.0],[112.16357,-7.67584,0.0],[112.16029,-7.67083,0.0],[112.15792,-7.67009,0.0],[112.15756,-7.67167,0.0],[112.1553,-7.67108,0.0],[112.15318,-7.67047,0.0],[112.15275,-7.66843,0.0],[112.1442,-7.66642,0.0],[112.14516,-7.66265,0.0],[112.14142,-7.66265,0.0],[112.14077,-7.66049,0.0],[112.14295,-7.65155,0.0],[112.13944,-7.64864,0.0],[112.14136,-7.64309,0.0],[112.14404,-7.64401,0.0],[112.14495,-7.63933,0.0],[112.1473,-7.63635,0.0],[112.15134,-7.63944,0.0],[112.15088,-7.64125,0.0],[112.15293,-7.64187,0.0],[112.15201,-7.64788,0.0],[112.15582,-7.64806,0.0],[112.15766,-7.65013,0.0],[112.15861,-7.64806,0.0],[112.16096,-7.65019,0.0],[112.16456,-7.64775,0.0],[112.1652,-7.64531,0.0],[112.16242,-7.64436,0.0],[112.16355,-7.64174,0.0],[112.16102,-7.64092,0.0],[112.16391,-7.63343,0.0],[112.16725,-7.63395,0.0],[112.16785,-7.63251,0.0],[112.17202,-7.63087,0.0],[112.17316,-7.62843,0.0],[112.18251,-7.63355,0.0],[112.18512,-7.63738,0.0],[112.18512,-7.64124,0.0],[112.19303,-7.64887,0.0],[112.19263,-7.65069,0.0],[112.19491,-7.65232,0.0],[112.19458,-7.65372,0.0],[112.20399,-7.66086,0.0],[112.20459,-7.66324,0.0],[112.20847,-7.66573,0.0],[112.21016,-7.66964,0.0],[112.21809,-7.67675,0.0],[112.21521,-7.6885,0.0],[112.2129,-7.68772,0.0],[112.21252,-7.68895,0.0],[112.20954,-7.68708,0.0],[112.19876,-7.69259,0.0],[112.18972,-7.69145,0.0],[112.18499,-7.6895,0.0],[112.18398,-7.68717,0.0],[112.18472,-7.68303,0.0],[112.18022,-7.68019,0.0],[112.18012,-7.68156,0.0],[112.1764,-7.68243,0.0]]]}},{"type":"Feature","properties":{"kecamatan":"Banyakan","kab_kota":"Kediri"},"geometry":{"type":"Polygon","coordinates":[[[111.924,-7.80973,0.0],[111.92094,-7.81264,0.0],[111.91447,-7.81318,0.0],[111.90592,-7.81027,0.0],[111.90521,-7.81156,0.0],[111.90166,-7.81129,0.0],[111.89869,-7.81325,0.0],[111.8965,-7.81205,0.0],[111.8957,-7.8138,0.0],[111.89325,-7.81281,0.0],[111.89303,-7.81465,0.0],[111.88747,-7.8142,0.0],[111.88464,-7.81598,0.0],[111.88368,-7.81544,0.0],[111.88267,-7.8177,0.0],[111.8781,-7.8197,0.0],[111.87488,-7.82304,0.0],[111.86621,-7.82088,0.0],[111.85847,-7.82264,0.0],[111.85359,-7.81997,0.0],[111.84962,-7.82141,0.0],[111.84911,-7.81878,0.0],[111.84599,-7.81824,0.0],[111.84306,-7.81938,0.0],[111.82504,-7.81834,0.0],[111.81329,-7.82266,0.0],[111.81401,-7.81297,0.0],[111.82472,-7.81122,0.0],[111.83794,-7.79922,0.0],[111.84423,-7.80087,0.0],[111.8607,-7.79903,0.0],[111.86476,-7.79968,0.0],[111.86879,-7.79501,0.0],[111.87362,-7.79328,0.0],[111.87322,-7.79118,0.0],[111.87524,-7.78953,0.0],[111.8736,-7.78785,0.0],[111.87336,-7.78426,0.0],[111.87448,-7.7829,0.0],[111.8773,-7.78295,0.0],[111.8843,-7.77924,0.0],[111.90278,-7.78163,0.0],[111.90996,-7.78124,0.0],[111.92064,-7.7743,0.0],[111.94099,-7.76956,0.0],[111.94851,-7.76528,0.0],[111.9551,-7.76575,0.0],[111.96064,-7.76092,0.0],[111.9639,-7.7621,0.0],[111.96444,-7.75942,0.0],[111.9679,-7.75546,0.0],[111.96726,-7.7541,0.0],[111.97357,-7.75629,0.0],[111.97404,-7.75754,0.0],[111.97556,-7.75699,0.0],[111.98162,-7.76918,0.0],[111.99169,-7.77206,0.0],[111.99479,-7.76955,0.0],[111.99466,-7.76639,0.0],[111.99621,-7.7658,0.0],[111.99698,-7.76355,0.0],[111.99398,-7.7624,0.0],[111.99238,-7.76495,0.0],[111.98708,-7.76218,0.0],[111.98186,-7.7616,0.0],[111.98449,-7.75907,0.0],[111.98308,-7.75383,0.0],[111.9842,-7.75027,0.0],[111.98927,-7.75015,0.0],[111.98951,-7.75242,0.0],[111.99343,-7.75225,0.0],[111.99457,-7.75386,0.0],[111.99629,-7.7532,0.0],[111.99679,-7.75137,0.0],[111.99983,-7.75138,0.0],[112.00223,-7.75226,0.0],[112.00596,-7.75753,0.0],[112.0097,-7.76,0.0],[112.01466,-7.76038,0.0],[112.01793,-7.76219,0.0],[112.02228,-7.76195,0.0],[112.02337,-7.76405,0.0],[112.02387,-7.76814,0.0],[112.0223,-7.77303,0.0],[112.00778,-7.78186,0.0],[112.01021,-7.77216,0.0],[112.00849,-7.7713,0.0],[112.00778,-7.77314,0.0],[112.00487,-7.77319,0.0],[111.99865,-7.77144,0.0],[111.99707,-7.77596,0.0],[111.99535,-7.77595,0.0],[111.99426,-7.7778,0.0],[111.99238,-7.77694,0.0],[111.99169,-7.77995,0.0],[111.99292,-7.78036,0.0],[111.99266,-7.78406,0.0],[111.9832,-7.78213,0.0],[111.98039,-7.79262,0.0],[111.9813,-7.79378,0.0],[111.97952,-7.79337,0.0],[111.97794,-7.79468,0.0],[111.97415,-7.79253,0.0],[111.97397,-7.79546,0.0],[111.96661,-7.79595,0.0],[111.9628,-7.80293,0.0],[111.95902,-7.80613,0.0],[111.95548,-7.80632,0.0],[111.95537,-7.80935,0.0],[111.93722,-7.80968,0.0],[111.9325,-7.80837,0.0],[111.924,-7.80973,0.0]]]}}]}