{"type":"FeatureCollection","features":[{"type":"Feature","properties":{"kecamatan":"Krembung","kab_kota":"Sidoarjo"},"geometry":{"type":"Polygon","coordinates":[[[112.64708,-7.53842,0.0],[112.6308,-7.53307,0.0],[112.62553,-7.52752,0.0],[112.61998,-7.51893,0.0],[112.61393,-7.51513,0.0],[112.61352,-7.51268,0.0],[112.60909,-7.50753,0.0],[112.60519,-7.50645,0.0],[112.60303,-7.50156,0.0],[112.60643,-7.49287,0.0],[112.60814,-7.49262,0.0],[112.60932,-7.49033,0.0],[112.60562,-7.48799,0.0],[112.60667,-7.48613,0.0],[112.6051,-7.47898,0.0],[112.60745,-7.47731,0.0],[112.60989,-7.47899,0.0],[112.61362,-7.47775,0.0],[112.613,-7.48094,0.0],[112.62092,-7.48482,0.0],[112.62008,-7.48969,0.0],[112.62958,-7.49219,0.0],[112.62933,-7.4942,0.0],[112.63169,-7.4933,0.0],[112.6333,-7.4903,0.0],[112.63963,-7.49208,0.0],[112.63911,-7.49382,0.0],[112.64252,-7.49475,0.0],[112.64151,-7.49833,0.0],[112.64609,-7.49967,0.0],[112.64489,-7.50271,0.0],[112.65292,-7.50491,0.0],[112.65223,-7.50655,0.0],[112.65397,-7.50904,0.0],[112.65507,-7.50656,0.0],[112.66046,-7.50886,0.0],[112.66251,-7.50622,0.0],[112.67003,-7.50799,0.0],[112.67072,-7.50866,0.0],[112.66642,-7.515,0.0],[112.66349,-7.51477,0.0],[112.66264,-7.51711,0.0],[112.66137,-7.51514,0.0],[112.65932,-7.52003,0.0],[112.65933,-7.5243,0.0],[112.66745,-7.52591,0.0],[112.66646,-7.52845,0.0],[112.67303,-7.53522,0.0],[112.66735,-7.54398,0.0],[112.6699,-7.54384,0.0],[112.6711,-7.54531,0.0],[112.66919,-7.54866,0.0],[112.66691,-7.54869,0.0],[112.66458,-7.5568,0.0],[112.66131,-7.5557,0.0],[112.652,-7.54722,0.0],[112.64708,-7.53842,0.0]]]}},{"type":"Feature","properties":{"kecamatan":"Porong","kab_kota":"Sidoarjo"},"geometry":{"type":"Polygon","coordinates":[[[112.70418,-7.54511,0.0],[112.69099,-7.54628,0.0],[112.6892,-7.55167,0.0],[112.68518,-7.5507,0.0],[112.68562,-7.54839,0.0],[112.68396,-7.54665,0.0],[112.67924,-7.54931,0.0],[112.67431,-7.55019,0.0],[112.67361,-7.55175,0.0],[112.67658,-7.55274,0.0],[112.67414,-7.55861,0.0],[112.67083,-7.55934,0.0],[112.67025,-7.5625,0.0],[112.66611,-7.56115,0.0],[112.66632,-7.5601,0.0],[112.66311,-7.56019,0.0],[112.66633,-7.55314,0.0],[112.66552,-7.55207,0.0],[112.66691,-7.54869,0.0],[112.66919,-7.54866,0.0],[112.6711,-7.54531,0.0],[112.6699,-7.54384,0.0],[112.66735,-7.54398,0.0],[112.67303,-7.53522,0.0],[112.66646,-7.52845,0.0],[112.66745,-7.52591,0.0],[112.65933,-7.5243,0.0],[112.65932,-7.52003,0.0],[112.66137,-7.51514,0.0],[112.66264,-7.51711,0.0],[112.66349,-7.51477,0.0],[112.66642,-7.515,0.0],[112.67072,-7.50866,0.0],[112.66852,-7.50305,0.0],[112.67967,-7.50476,0.0],[112.67821,-7.50776,0.0],[112.683,-7.50727,0.0],[112.68303,-7.50889,0.0],[112.68914,-7.51052,0.0],[112.68884,-7.51279,0.0],[112.69147,-7.51326,0.0],[112.69118,-7.51478,0.0],[112.7019,-7.51775,0.0],[112.7023,-7.51932,0.0],[112.70756,-7.52269,0.0],[112.708,-7.52187,0.0],[112.71474,-7.52369,0.0],[112.7154,-7.52202,0.0],[112.72058,-7.52312,0.0],[112.72207,-7.51854,0.0],[112.72568,-7.52049,0.0],[112.7362,-7.5227,0.0],[112.73281,-7.53379,0.0],[112.73668,-7.53539,0.0],[112.73755,-7.53332,0.0],[112.74354,-7.53318,0.0],[112.74659,-7.52934,0.0],[112.7477,-7.53032,0.0],[112.74761,-7.52601,0.0],[112.7493,-7.52521,0.0],[112.74773,-7.52402,0.0],[112.74851,-7.52085,0.0],[112.75897,-7.51933,0.0],[112.76507,-7.52201,0.0],[112.7679,-7.51765,0.0],[112.77373,-7.51639,0.0],[112.77439,-7.51379,0.0],[112.77868,-7.51453,0.0],[112.78026,-7.51128,0.0],[112.78549,-7.51246,0.0],[112.78712,-7.51482,0.0],[112.78637,-7.51759,0.0],[112.78788,-7.5188,0.0],[112.7913,-7.5176,0.0],[112.79627,-7.52098,0.0],[112.80133,-7.51985,0.0],[112.80848,-7.52225,0.0],[112.80116,-7.52151,0.0],[112.7959,-7.52473,0.0],[112.79237,-7.52331,0.0],[112.78794,-7.52351,0.0],[112.78737,-7.52484,0.0],[112.79016,-7.5266,0.0],[112.78897,-7.52893,0.0],[112.78506,-7.52743,0.0],[112.78158,-7.52843,0.0],[112.77932,-7.52685,0.0],[112.77585,-7.52769,0.0],[112.77413,-7.52574,0.0],[112.76708,-7.52782,0.0],[112.75833,-7.52531,0.0],[112.75168,-7.52924,0.0],[112.74934,-7.53633,0.0],[112.74502,-7.53505,0.0],[112.74263,-7.5373,0.0],[112.73768,-7.53589,0.0],[112.73767,-7.53829,0.0],[112.73327,-7.53699,0.0],[112.7326,-7.53863,0.0],[112.73034,-7.53857,0.0],[112.7299,-7.53965,0.0],[112.72782,-7.53915,0.0],[112.72798,-7.53792,0.0],[112.72633,-7.53707,0.0],[112.72774,-7.53537,0.0],[112.72271,-7.53368,0.0],[112.71642,-7.53488,0.0],[112.71624,-7.53596,0.0],[112.71282,-7.53505,0.0],[112.71207,-7.53726,0.0],[112.71113,-7.53693,0.0],[112.71189,-7.53491,0.0],[112.70895,-7.53423,0.0],[112.7038,-7.54352,0.0],[112.70418,-7.54511,0.0]]]}},{"type":"Feature","properties":{"kecamatan":"Tarik","kab_kota":"Sidoarjo"},"geometry":{"type":"Polygon","coordinates":[[[112.51957,-7.46741,0.0],[112.51174,-7.4668,0.0],[112.50549,-7.46248,0.0],[112.48806,-7.45974,0.0],[112.4835,-7.45667,0.0],[112.48234,-7.45241,0.0],[112.47954,-7.45343,0.0],[112.46864,-7.44529,0.0],[112.45669,-7.44697,0.0],[112.45965,-7.44008,0.0],[112.45984,-7.43625,0.0],[112.46326,-7.43148,0.0],[112.46732,-7.4316,0.0],[112.47327,-7.42922,0.0],[112.47406,-7.43112,0.0],[112.48432,-7.43099,0.0],[112.49115,-7.43365,0.0],[112.49196,-7.43009,0.0],[112.49428,-7.43049,0.0],[112.49349,-7.43352,0.0],[112.49862,-7.43435,0.0],[112.50263,-7.43261,0.0],[112.50249,-7.43346,0.0],[112.50557,-7.43391,0.0],[112.50644,-7.43545,0.0],[112.50544,-7.4381,0.0],[112.50957,-7.43909,0.0],[112.51133,-7.42609,0.0],[112.5206,-7.42453,0.0],[112.53221,-7.43009,0.0],[112.53216,-7.43188,0.0],[112.54074,-7.43198,0.0],[112.54322,-7.43025,0.0],[112.54536,-7.43262,0.0],[112.55097,-7.43232,0.0],[112.54996,-7.4362,0.0],[112.55702,-7.43743,0.0],[112.55469,-7.44488,0.0],[112.55962,-7.44669,0.0],[112.55729,-7.45261,0.0],[112.56036,-7.45218,0.0],[112.56135,-7.45026,0.0],[112.56253,-7.45129,0.0],[112.56498,-7.45053,0.0],[112.56487,-7.45174,0.0],[112.56045,-7.45468,0.0],[112.56132,-7.45618,0.0],[112.55952,-7.46266,0.0],[112.55694,-7.46338,0.0],[112.55387,-7.4675,0.0],[112.54952,-7.46679,0.0],[112.54921,-7.46884,0.0],[112.54278,-7.46867,0.0],[112.54031,-7.4714,0.0],[112.53764,-7.47048,0.0],[112.53356,-7.47112,0.0],[112.51957,-7.46741,0.0]]]}},{"type":"Feature","properties":{"kecamatan":"Prambon","kab_kota":"Sidoarjo"},"geometry":{"type":"Polygon","coordinates":[[[112.58436,-7.49354,0.0],[112.58163,-7.49164,0.0],[112.57782,-7.48455,0.0],[112.57327,-7.48378,0.0],[112.57063,-7.47975,0.0],[112.56435,-7.47639,0.0],[112.54031,-7.4714,0.0],[112.54278,-7.46867,0.0],[112.54921,-7.46884,0.0],[112.54952,-7.46679,0.0],[112.55387,-7.4675,0.0],[112.55694,-7.46338,0.0],[112.55952,-7.46266,0.0],[112.56132,-7.45618,0.0],[112.56045,-7.45468,0.0],[112.56487,-7.45174,0.0],[112.56498,-7.45053,0.0],[112.56253,-7.45129,0.0],[112.56135,-7.45026,0.0],[112.56036,-7.45218,0.0],[112.55729,-7.45261,0.0],[112.55962,-7.44669,0.0],[112.55476,-7.44459,0.0],[112.55816,-7.43503,0.0],[112.56469,-7.4371,0.0],[112.56862,-7.42986,0.0],[112.57055,-7.43022,0.0],[112.57059,-7.43297,0.0],[112.57577,-7.43326,0.0],[112.5761,-7.43689,0.0],[112.57911,-7.43708,0.0],[112.58036,-7.43325,0.0],[112.58398,-7.43409,0.0],[112.58542,-7.43583,0.0],[112.5852,-7.43775,0.0],[112.58871,-7.43818,0.0],[112.59112,-7.44481,0.0],[112.59356,-7.44494,0.0],[112.59328,-7.44862,0.0],[112.59755,-7.44935,0.0],[112.5998,-7.44734,0.0],[112.60345,-7.4481,0.0],[112.60447,-7.44952,0.0],[112.61167,-7.44935,0.0],[112.61604,-7.45386,0.0],[112.61319,-7.45505,0.0],[112.61448,-7.4583,0.0],[112.62136,-7.46231,0.0],[112.62041,-7.4646,0.0],[112.62068,-7.46603,0.0],[112.62229,-7.46613,0.0],[112.62151,-7.46962,0.0],[112.618,-7.46904,0.0],[112.61537,-7.46677,0.0],[112.61409,-7.46886,0.0],[112.61522,-7.46929,0.0],[112.61333,-7.47771,0.0],[112.60989,-7.47899,0.0],[112.6078,-7.47722,0.0],[112.6051,-7.47898,0.0],[112.60667,-7.48613,0.0],[112.60562,-7.48799,0.0],[112.60932,-7.49033,0.0],[112.60814,-7.49262,0.0],[112.60643,-7.49287,0.0],[112.60303,-7.50156,0.0],[112.59705,-7.49969,0.0],[112.59131,-7.4942,0.0],[112.58436,-7.49354,0.0]]]}},{"type":"Feature","properties":{"kecamatan":"Candi","kab_kota":"Sidoarjo"},"geometry":{"type":"Polygon","coordinates":[[[112.71873,-7.50172,0.0],[112.69119,-7.48959,0.0],[112.69134,-7.48756,0.0],[112.68925,-7.48546,0.0],[112.68474,-7.48384,0.0],[112.68275,-7.48136,0.0],[112.68258,-7.4776,0.0],[112.679,-7.47556,0.0],[112.67865,-7.47408,0.0],[112.67279,-7.47198,0.0],[112.67298,-7.47044,0.0],[112.67046,-7.46835,0.0],[112.66504,-7.46771,0.0],[112.66588,-7.46251,0.0],[112.66026,-7.45969,0.0],[112.66096,-7.45539,0.0],[112.67624,-7.46089,0.0],[112.67853,-7.45471,0.0],[112.68282,-7.45625,0.0],[112.687,-7.45468,0.0],[112.68779,-7.45171,0.0],[112.691,-7.45205,0.0],[112.69253,-7.45277,0.0],[112.69194,-7.45608,0.0],[112.69916,-7.45762,0.0],[112.70008,-7.45551,0.0],[112.70165,-7.45736,0.0],[112.70564,-7.45762,0.0],[112.70368,-7.46638,0.0],[112.7055,-7.46654,0.0],[112.70668,-7.46255,0.0],[112.71453,-7.46484,0.0],[112.71414,-7.46685,0.0],[112.7208,-7.46788,0.0],[112.72138,-7.46976,0.0],[112.73058,-7.4707,0.0],[112.73403,-7.47317,0.0],[112.73445,-7.47228,0.0],[112.742,-7.47243,0.0],[112.7444,-7.47091,0.0],[112.74439,-7.47297,0.0],[112.74552,-7.47346,0.0],[112.74563,-7.4708,0.0],[112.74837,-7.47114,0.0],[112.74824,-7.46975,0.0],[112.74897,-7.47102,0.0],[112.74844,-7.47369,0.0],[112.75193,-7.47386,0.0],[112.75206,-7.47637,0.0],[112.75505,-7.4774,0.0],[112.75566,-7.48082,0.0],[112.75763,-7.4809,0.0],[112.75745,-7.48293,0.0],[112.76427,-7.48285,0.0],[112.76569,-7.4868,0.0],[112.76931,-7.4879,0.0],[112.76949,-7.48978,0.0],[112.7705,-7.4895,0.0],[112.772,-7.49184,0.0],[112.77399,-7.49094,0.0],[112.77265,-7.48532,0.0],[112.77543,-7.48445,0.0],[112.77756,-7.4865,0.0],[112.78101,-7.48373,0.0],[112.78462,-7.48686,0.0],[112.78664,-7.48676,0.0],[112.78933,-7.48864,0.0],[112.79547,-7.48792,0.0],[112.80387,-7.49595,0.0],[112.80333,-7.49921,0.0],[112.80155,-7.50116,0.0],[112.79572,-7.50173,0.0],[112.79608,-7.50568,0.0],[112.79352,-7.51027,0.0],[112.79473,-7.51174,0.0],[112.79371,-7.51613,0.0],[112.7928,-7.51769,0.0],[112.78848,-7.51886,0.0],[112.78641,-7.5177,0.0],[112.78712,-7.51482,0.0],[112.78549,-7.51246,0.0],[112.78026,-7.51128,0.0],[112.77858,-7.50435,0.0],[112.77544,-7.50325,0.0],[112.77605,-7.50112,0.0],[112.7718,-7.50026,0.0],[112.77024,-7.50253,0.0],[112.76895,-7.49998,0.0],[112.76596,-7.49876,0.0],[112.76436,-7.50016,0.0],[112.76261,-7.49985,0.0],[112.76292,-7.49822,0.0],[112.75763,-7.4948,0.0],[112.75353,-7.49403,0.0],[112.75206,-7.49732,0.0],[112.74771,-7.49567,0.0],[112.74749,-7.49825,0.0],[112.73799,-7.49772,0.0],[112.73684,-7.50423,0.0],[112.7308,-7.49959,0.0],[112.7257,-7.50102,0.0],[112.71931,-7.49962,0.0],[112.71873,-7.50172,0.0]]]}},{"type":"Feature","properties":{"kecamatan":"Sidoarjo","kab_kota":"Sidoarjo"},"geometry":{"type":"Polygon","coordinates":[[[112.72078,-7.46788,0.0],[112.71414,-7.46685,0.0],[112.71453,-7.46484,0.0],[112.70668,-7.46255,0.0],[112.7055,-7.46654,0.0],[112.70368,-7.46638,0.0],[112.70564,-7.45762,0.0],[112.70165,-7.45736,0.0],[112.70008,-7.45551,0.0],[112.69916,-7.45762,0.0],[112.69194,-7.45608,0.0],[112.69253,-7.45277,0.0],[112.691,-7.45205,0.0],[112.68779,-7.45171,0.0],[112.687,-7.45468,0.0],[112.68282,-7.45625,0.0],[112.67853,-7.45471,0.0],[112.67624,-7.46089,0.0],[112.66056,-7.45533,0.0],[112.66228,-7.45028,0.0],[112.66432,-7.45024,0.0],[112.66517,-7.4487,0.0],[112.66613,-7.44443,0.0],[112.67018,-7.44634,0.0],[112.6709,-7.44285,0.0],[112.66079,-7.43944,0.0],[112.6599,-7.43684,0.0],[112.66003,-7.43467,0.0],[112.6639,-7.43506,0.0],[112.66548,-7.43143,0.0],[112.66566,-7.42722,0.0],[112.66339,-7.42496,0.0],[112.66443,-7.42233,0.0],[112.67086,-7.42382,0.0],[112.67151,-7.42604,0.0],[112.67542,-7.42717,0.0],[112.67639,-7.42196,0.0],[112.67928,-7.42246,0.0],[112.68126,-7.42129,0.0],[112.68618,-7.42332,0.0],[112.68721,-7.42733,0.0],[112.69227,-7.42832,0.0],[112.69222,-7.43032,0.0],[112.69494,-7.43058,0.0],[112.69301,-7.4385,0.0],[112.70241,-7.43907,0.0],[112.70058,-7.44506,0.0],[112.70421,-7.4462,0.0],[112.70793,-7.44026,0.0],[112.7147,-7.4424,0.0],[112.71695,-7.43531,0.0],[112.71815,-7.43565,0.0],[112.7192,-7.43395,0.0],[112.72131,-7.43459,0.0],[112.72076,-7.43734,0.0],[112.72562,-7.43886,0.0],[112.72747,-7.4343,0.0],[112.73686,-7.438,0.0],[112.7448,-7.43912,0.0],[112.74725,-7.44151,0.0],[112.74924,-7.43957,0.0],[112.75066,-7.44169,0.0],[112.75625,-7.44342,0.0],[112.75935,-7.44249,0.0],[112.76085,-7.44448,0.0],[112.76821,-7.44839,0.0],[112.77364,-7.44754,0.0],[112.77537,-7.45009,0.0],[112.77524,-7.45438,0.0],[112.77948,-7.45332,0.0],[112.78188,-7.4566,0.0],[112.78717,-7.45751,0.0],[112.79142,-7.46304,0.0],[112.80014,-7.47015,0.0],[112.80302,-7.47442,0.0],[112.80328,-7.47981,0.0],[112.81309,-7.47838,0.0],[112.81377,-7.47973,0.0],[112.81643,-7.47903,0.0],[112.81821,-7.48047,0.0],[112.82193,-7.49128,0.0],[112.82055,-7.49775,0.0],[112.82381,-7.50175,0.0],[112.82259,-7.50613,0.0],[112.82381,-7.50993,0.0],[112.8206,-7.51844,0.0],[112.81471,-7.52185,0.0],[112.81386,-7.52538,0.0],[112.81098,-7.52565,0.0],[112.80785,-7.52148,0.0],[112.80054,-7.5198,0.0],[112.79627,-7.52098,0.0],[112.79176,-7.51772,0.0],[112.79371,-7.51613,0.0],[112.79473,-7.51174,0.0],[112.79352,-7.51027,0.0],[112.79608,-7.50568,0.0],[112.79572,-7.50173,0.0],[112.80155,-7.50116,0.0],[112.80333,-7.49921,0.0],[112.80387,-7.49595,0.0],[112.79547,-7.48792,0.0],[112.78933,-7.48864,0.0],[112.78664,-7.48676,0.0],[112.78462,-7.48686,0.0],[112.78101,-7.48373,0.0],[112.77756,-7.4865,0.0],[112.77543,-7.48445,0.0],[112.77381,-7.48452,0.0],[112.77246,-7.48619,0.0],[112.77399,-7.49094,0.0],[112.77213,-7.4919,0.0],[112.7705,-7.4895,0.0],[112.76949,-7.48978,0.0],[112.76931,-7.4879,0.0],[112.76569,-7.4868,0.0],[112.76427,-7.48285,0.0],[112.75745,-7.48293,0.0],[112.75763,-7.4809,0.0],[112.75566,-7.48082,0.0],[112.75505,-7.4774,0.0],[112.75206,-7.47637,0.0],[112.75193,-7.47386,0.0],[112.74844,-7.47369,0.0],[112.74897,-7.47102,0.0],[112.74824,-7.46975,0.0],[112.74837,-7.47114,0.0],[112.74563,-7.4708,0.0],[112.74552,-7.47346,0.0],[112.74439,-7.47297,0.0],[112.7444,-7.47091,0.0],[112.742,-7.47243,0.0],[112.73445,-7.47228,0.0],[112.73403,-7.47317,0.0],[112.73058,-7.4707,0.0],[112.72138,-7.46976,0.0],[112.72078,-7.46788,0.0]]]}},{"type":"Feature","properties":{"kecamatan":"Jabon","kab_kota":"Sidoarjo"},"geometry":{"type":"Polygon","coordinates":[[[112.74082,-7.57323,0.0],[112.73396,-7.5706,0.0],[112.72767,-7.57062,0.0],[112.72443,-7.56929,0.0],[112.71922,-7.56101,0.0],[112.71189,-7.55737,0.0],[112.71001,-7.54861,0.0],[112.70601,-7.54518,0.0],[112.70418,-7.54511,0.0],[112.7038,-7.54352,0.0],[112.70895,-7.53423,0.0],[112.71189,-7.53491,0.0],[112.71113,-7.53693,0.0],[112.71207,-7.53726,0.0],[112.71282,-7.53505,0.0],[112.71624,-7.53596,0.0],[112.71642,-7.53488,0.0],[112.72271,-7.53368,0.0],[112.72774,-7.53537,0.0],[112.72633,-7.53707,0.0],[112.72798,-7.53792,0.0],[112.72782,-7.53915,0.0],[112.7299,-7.53965,0.0],[112.73034,-7.53857,0.0],[112.7326,-7.53863,0.0],[112.73327,-7.53699,0.0],[112.73767,-7.53829,0.0],[112.73768,-7.53589,0.0],[112.74263,-7.5373,0.0],[112.74502,-7.53505,0.0],[112.74934,-7.53633,0.0],[112.75168,-7.52924,0.0],[112.75833,-7.52531,0.0],[112.76708,-7.52782,0.0],[112.77413,-7.52574,0.0],[112.77585,-7.52769,0.0],[112.77932,-7.52685,0.0],[112.78158,-7.52843,0.0],[112.78506,-7.52743,0.0],[112.78897,-7.52893,0.0],[112.79016,-7.5266,0.0],[112.78737,-7.52484,0.0],[112.78794,-7.52351,0.0],[112.79237,-7.52331,0.0],[112.7959,-7.52473,0.0],[112.80173,-7.52144,0.0],[112.80882,-7.52236,0.0],[112.81077,-7.52558,0.0],[112.81349,-7.52563,0.0],[112.81471,-7.52185,0.0],[112.81978,-7.51941,0.0],[112.82243,-7.51441,0.0],[112.82381,-7.50993,0.0],[112.82259,-7.50613,0.0],[112.82381,-7.50175,0.0],[112.82051,-7.4973,0.0],[112.82351,-7.49338,0.0],[112.83152,-7.50112,0.0],[112.83655,-7.51057,0.0],[112.83772,-7.50973,0.0],[112.84106,-7.51042,0.0],[112.85171,-7.5181,0.0],[112.86149,-7.52128,0.0],[112.85786,-7.52226,0.0],[112.85896,-7.52376,0.0],[112.85801,-7.52521,0.0],[112.86265,-7.52371,0.0],[112.86117,-7.52703,0.0],[112.86422,-7.52666,0.0],[112.86645,-7.52909,0.0],[112.86579,-7.53103,0.0],[112.86997,-7.53258,0.0],[112.86803,-7.53347,0.0],[112.87313,-7.53792,0.0],[112.86802,-7.54076,0.0],[112.86613,-7.54051,0.0],[112.8667,-7.5426,0.0],[112.86958,-7.54278,0.0],[112.86842,-7.54363,0.0],[112.86961,-7.54564,0.0],[112.86765,-7.54639,0.0],[112.8686,-7.54824,0.0],[112.8676,-7.55274,0.0],[112.87114,-7.55279,0.0],[112.87308,-7.55434,0.0],[112.87444,-7.55939,0.0],[112.8757,-7.55909,0.0],[112.87516,-7.56129,0.0],[112.87718,-7.5612,0.0],[112.87784,-7.56363,0.0],[112.87419,-7.56513,0.0],[112.86858,-7.56257,0.0],[112.86749,-7.56438,0.0],[112.8696,-7.57163,0.0],[112.86506,-7.57346,0.0],[112.86211,-7.57244,0.0],[112.86196,-7.57434,0.0],[112.85907,-7.57309,0.0],[112.85872,-7.57477,0.0],[112.85395,-7.57454,0.0],[112.84511,-7.57743,0.0],[112.83752,-7.5682,0.0],[112.83486,-7.55847,0.0],[112.83579,-7.55434,0.0],[112.83203,-7.55237,0.0],[112.82691,-7.55353,0.0],[112.81673,-7.55887,0.0],[112.8129,-7.55867,0.0],[112.81164,-7.55459,0.0],[112.80684,-7.555,0.0],[112.80514,-7.55611,0.0],[112.80508,-7.55911,0.0],[112.80236,-7.55905,0.0],[112.80144,-7.56205,0.0],[112.79983,-7.56186,0.0],[112.79973,-7.55896,0.0],[112.79846,-7.55831,0.0],[112.79826,-7.56119,0.0],[112.79625,-7.56044,0.0],[112.79049,-7.56443,0.0],[112.78318,-7.56307,0.0],[112.77406,-7.57147,0.0],[112.77219,-7.57062,0.0],[112.76996,-7.5714,0.0],[112.76926,-7.573,0.0],[112.77094,-7.5748,0.0],[112.75643,-7.57324,0.0],[112.75305,-7.5752,0.0],[112.74684,-7.57177,0.0],[112.74082,-7.57323,0.0]]]}},{"type":"Feature","properties":{"kecamatan":"Tanggulangin","kab_kota":"Sidoarjo"},"geometry":{"type":"Polygon","coordinates":[[[112.72192,-7.5186,0.0],[112.72058,-7.52312,0.0],[112.7154,-7.52202,0.0],[112.71474,-7.52369,0.0],[112.708,-7.52187,0.0],[112.70756,-7.52269,0.0],[112.7023,-7.51932,0.0],[112.7019,-7.51775,0.0],[112.69118,-7.51478,0.0],[112.69147,-7.51326,0.0],[112.68884,-7.51279,0.0],[112.68914,-7.51052,0.0],[112.68303,-7.50889,0.0],[112.683,-7.50727,0.0],[112.67821,-7.50776,0.0],[112.67967,-7.50476,0.0],[112.66852,-7.50305,0.0],[112.66973,-7.49792,0.0],[112.67101,-7.49842,0.0],[112.67272,-7.49277,0.0],[112.66958,-7.49062,0.0],[112.66762,-7.49088,0.0],[112.6679,-7.48397,0.0],[112.66132,-7.4838,0.0],[112.66296,-7.47848,0.0],[112.6722,-7.48039,0.0],[112.68192,-7.48601,0.0],[112.68437,-7.4829,0.0],[112.68925,-7.48546,0.0],[112.69134,-7.48756,0.0],[112.69114,-7.48955,0.0],[112.69478,-7.49095,0.0],[112.69503,-7.49215,0.0],[112.69918,-7.49277,0.0],[112.70258,-7.49579,0.0],[112.71873,-7.50172,0.0],[112.71931,-7.49962,0.0],[112.7257,-7.50102,0.0],[112.7308,-7.49959,0.0],[112.73684,-7.50423,0.0],[112.73799,-7.49772,0.0],[112.74749,-7.49825,0.0],[112.74771,-7.49567,0.0],[112.75206,-7.49732,0.0],[112.75353,-7.49403,0.0],[112.75763,-7.4948,0.0],[112.76292,-7.49822,0.0],[112.76261,-7.49985,0.0],[112.76436,-7.50016,0.0],[112.76596,-7.49876,0.0],[112.76895,-7.49998,0.0],[112.77024,-7.50253,0.0],[112.7718,-7.50026,0.0],[112.77605,-7.50112,0.0],[112.77544,-7.50325,0.0],[112.77854,-7.50428,0.0],[112.77869,-7.508,0.0],[112.78036,-7.5094,0.0],[112.77989,-7.5136,0.0],[112.77661,-7.5148,0.0],[112.77439,-7.51379,0.0],[112.77373,-7.51639,0.0],[112.7679,-7.51765,0.0],[112.76507,-7.52201,0.0],[112.75897,-7.51933,0.0],[112.74851,-7.52085,0.0],[112.74773,-7.52402,0.0],[112.7493,-7.52521,0.0],[112.74761,-7.52601,0.0],[112.7477,-7.53032,0.0],[112.74659,-7.52934,0.0],[112.74354,-7.53318,0.0],[112.73755,-7.53332,0.0],[112.73668,-7.53539,0.0],[112.73281,-7.53379,0.0],[112.7362,-7.5227,0.0],[112.72192,-7.5186,0.0]]]}},{"type":"Feature","properties":{"kecamatan":"Tulangan","kab_kota":"Sidoarjo"},"geometry":{"type":"Polygon","coordinates":[[[112.6419,-7.4946,0.0],[112.63911,-7.49382,0.0],[112.63963,-7.49208,0.0],[112.6333,-7.4903,0.0],[112.63169,-7.4933,0.0],[112.62933,-7.4942,0.0],[112.62958,-7.49219,0.0],[112.62008,-7.48969,0.0],[112.62092,-7.48482,0.0],[112.613,-7.48094,0.0],[112.61452,-7.47585,0.0],[112.61452,-7.46752,0.0],[112.61564,-7.46672,0.0],[112.618,-7.46904,0.0],[112.62151,-7.46962,0.0],[112.62229,-7.46613,0.0],[112.62068,-7.46603,0.0],[112.62136,-7.46231,0.0],[112.61448,-7.4583,0.0],[112.61319,-7.45505,0.0],[112.61604,-7.45386,0.0],[112.61363,-7.4508,0.0],[112.61172,-7.4504,0.0],[112.61225,-7.44876,0.0],[112.61602,-7.44875,0.0],[112.62177,-7.44495,0.0],[112.62449,-7.44655,0.0],[112.62811,-7.44476,0.0],[112.62993,-7.44188,0.0],[112.63239,-7.44377,0.0],[112.63277,-7.44742,0.0],[112.63644,-7.44921,0.0],[112.64068,-7.44882,0.0],[112.65062,-7.45341,0.0],[112.66096,-7.45539,0.0],[112.66026,-7.45969,0.0],[112.66588,-7.46251,0.0],[112.66504,-7.46771,0.0],[112.67046,-7.46835,0.0],[112.67298,-7.47044,0.0],[112.67279,-7.47198,0.0],[112.67861,-7.47405,0.0],[112.679,-7.47556,0.0],[112.68258,-7.4776,0.0],[112.68275,-7.48136,0.0],[112.68404,-7.48286,0.0],[112.68208,-7.48604,0.0],[112.6722,-7.48039,0.0],[112.66291,-7.47855,0.0],[112.66132,-7.4838,0.0],[112.6679,-7.48397,0.0],[112.66762,-7.49088,0.0],[112.66958,-7.49062,0.0],[112.67272,-7.49277,0.0],[112.67101,-7.49842,0.0],[112.66973,-7.49792,0.0],[112.66881,-7.50019,0.0],[112.67003,-7.50799,0.0],[112.6617,-7.50628,0.0],[112.66046,-7.50886,0.0],[112.65507,-7.50656,0.0],[112.65397,-7.50904,0.0],[112.65223,-7.50655,0.0],[112.65292,-7.50491,0.0],[112.64489,-7.50271,0.0],[112.64609,-7.49967,0.0],[112.64151,-7.49833,0.0],[112.6419,-7.4946,0.0]]]}},{"type":"Feature","properties":{"kecamatan":"Sukodono","kab_kota":"Sidoarjo"},"geometry":{"type":"Polygon","coordinates":[[[112.68147,-7.42136,0.0],[112.67915,-7.42248,0.0],[112.67639,-7.42196,0.0],[112.67591,-7.4272,0.0],[112.67151,-7.42604,0.0],[112.67086,-7.42382,0.0],[112.66443,-7.42233,0.0],[112.66384,-7.4234,0.0],[112.65695,-7.42126,0.0],[112.65976,-7.41072,0.0],[112.65895,-7.40959,0.0],[112.65044,-7.40783,0.0],[112.65014,-7.40679,0.0],[112.647,-7.4077,0.0],[112.64056,-7.40707,0.0],[112.63932,-7.40259,0.0],[112.6363,-7.40203,0.0],[112.63611,-7.4006,0.0],[112.62534,-7.40216,0.0],[112.6256,-7.39418,0.0],[112.63058,-7.39403,0.0],[112.63428,-7.38712,0.0],[112.6362,-7.38613,0.0],[112.63822,-7.38807,0.0],[112.64382,-7.38706,0.0],[112.64422,-7.38541,0.0],[112.64743,-7.38472,0.0],[112.64969,-7.38114,0.0],[112.65428,-7.38157,0.0],[112.65415,-7.38443,0.0],[112.65858,-7.38451,0.0],[112.65915,-7.37941,0.0],[112.67127,-7.38164,0.0],[112.67195,-7.37878,0.0],[112.67511,-7.37974,0.0],[112.68232,-7.37908,0.0],[112.68615,-7.37536,0.0],[112.69039,-7.37586,0.0],[112.69333,-7.37023,0.0],[112.6984,-7.37014,0.0],[112.70345,-7.36682,0.0],[112.70524,-7.3673,0.0],[112.70398,-7.37947,0.0],[112.701,-7.37996,0.0],[112.69855,-7.38511,0.0],[112.70499,-7.3866,0.0],[112.70364,-7.39287,0.0],[112.70139,-7.3928,0.0],[112.69904,-7.39685,0.0],[112.7016,-7.40049,0.0],[112.70012,-7.40524,0.0],[112.70576,-7.40746,0.0],[112.70466,-7.41302,0.0],[112.70242,-7.41251,0.0],[112.70258,-7.41925,0.0],[112.69343,-7.42315,0.0],[112.69227,-7.42832,0.0],[112.68721,-7.42733,0.0],[112.68618,-7.42332,0.0],[112.68147,-7.42136,0.0]]]}},{"type":"Feature","properties":{"kecamatan":"Buduran","kab_kota":"Sidoarjo"},"geometry":{"type":"Polygon","coordinates":[[[112.71697,-7.43526,0.0],[112.7147,-7.4424,0.0],[112.70793,-7.44026,0.0],[112.70421,-7.4462,0.0],[112.70058,-7.44506,0.0],[112.70241,-7.43907,0.0],[112.69301,-7.4385,0.0],[112.69494,-7.43058,0.0],[112.69222,-7.43032,0.0],[112.69343,-7.42315,0.0],[112.70258,-7.41925,0.0],[112.70242,-7.41251,0.0],[112.70466,-7.41302,0.0],[112.7054,-7.41043,0.0],[112.7091,-7.41217,0.0],[112.71079,-7.40927,0.0],[112.71498,-7.41051,0.0],[112.71427,-7.41256,0.0],[112.71979,-7.41332,0.0],[112.72019,-7.41203,0.0],[112.72364,-7.41285,0.0],[112.72476,-7.40871,0.0],[112.73049,-7.41052,0.0],[112.73155,-7.41166,0.0],[112.73117,-7.41387,0.0],[112.73424,-7.41503,0.0],[112.73582,-7.41032,0.0],[112.73713,-7.41067,0.0],[112.73801,-7.40916,0.0],[112.74082,-7.40918,0.0],[112.74131,-7.41108,0.0],[112.7489,-7.41293,0.0],[112.75089,-7.40557,0.0],[112.75986,-7.40751,0.0],[112.76099,-7.40875,0.0],[112.76032,-7.41043,0.0],[112.76453,-7.41073,0.0],[112.76512,-7.41445,0.0],[112.76682,-7.41469,0.0],[112.76697,-7.41616,0.0],[112.77132,-7.41551,0.0],[112.77224,-7.41888,0.0],[112.77762,-7.41998,0.0],[112.77696,-7.42317,0.0],[112.78579,-7.42458,0.0],[112.78532,-7.42724,0.0],[112.78812,-7.42872,0.0],[112.78593,-7.42776,0.0],[112.77761,-7.43645,0.0],[112.78082,-7.43885,0.0],[112.78069,-7.4422,0.0],[112.78405,-7.44268,0.0],[112.78631,-7.44494,0.0],[112.7881,-7.44374,0.0],[112.78813,-7.44484,0.0],[112.79798,-7.44891,0.0],[112.80023,-7.44859,0.0],[112.80243,-7.44537,0.0],[112.80883,-7.44298,0.0],[112.80923,-7.4465,0.0],[112.81279,-7.4524,0.0],[112.8177,-7.45622,0.0],[112.81897,-7.46247,0.0],[112.81711,-7.46658,0.0],[112.81866,-7.47212,0.0],[112.81242,-7.47884,0.0],[112.80328,-7.47981,0.0],[112.80302,-7.47442,0.0],[112.80014,-7.47015,0.0],[112.79142,-7.46304,0.0],[112.78717,-7.45751,0.0],[112.78188,-7.4566,0.0],[112.77948,-7.45332,0.0],[112.77524,-7.45438,0.0],[112.77537,-7.45009,0.0],[112.77327,-7.44734,0.0],[112.76821,-7.44839,0.0],[112.76085,-7.44448,0.0],[112.75935,-7.44249,0.0],[112.75625,-7.44342,0.0],[112.75066,-7.44169,0.0],[112.74924,-7.43957,0.0],[112.74725,-7.44151,0.0],[112.7448,-7.43912,0.0],[112.73686,-7.438,0.0],[112.72747,-7.4343,0.0],[112.72596,-7.43892,0.0],[112.72076,-7.43734,0.0],[112.72131,-7.43459,0.0],[112.7192,-7.43395,0.0],[112.71815,-7.43565,0.0],[112.71697,-7.43526,0.0]]]}},{"type":"Feature","properties":{"kecamatan":"Balongbendo","kab_kota":"Sidoarjo"},"geometry":{"type":"Polygon","coordinates":[[[112.53197,-7.43012,0.0],[112.52572,-7.42763,0.0],[112.5226,-7.42498,0.0],[112.51249,-7.42558,0.0],[112.51133,-7.42609,0.0],[112.50957,-7.43909,0.0],[112.50544,-7.4381,0.0],[112.50644,-7.43545,0.0],[112.50263,-7.43261,0.0],[112.49862,-7.43435,0.0],[112.49349,-7.43352,0.0],[112.49428,-7.43049,0.0],[112.49196,-7.43009,0.0],[112.49115,-7.43365,0.0],[112.48432,-7.43099,0.0],[112.47406,-7.43112,0.0],[112.47327,-7.42922,0.0],[112.47388,-7.42421,0.0],[112.48354,-7.41704,0.0],[112.48297,-7.41148,0.0],[112.48417,-7.40976,0.0],[112.48627,-7.40901,0.0],[112.49242,-7.41022,0.0],[112.49889,-7.40672,0.0],[112.507,-7.40674,0.0],[112.52506,-7.39724,0.0],[112.52923,-7.40367,0.0],[112.53387,-7.40081,0.0],[112.54396,-7.40471,0.0],[112.54949,-7.40335,0.0],[112.55235,-7.40039,0.0],[112.56589,-7.39803,0.0],[112.56581,-7.4028,0.0],[112.56451,-7.40403,0.0],[112.55762,-7.40462,0.0],[112.55886,-7.41085,0.0],[112.56002,-7.40979,0.0],[112.56074,-7.41132,0.0],[112.56951,-7.40876,0.0],[112.57461,-7.40973,0.0],[112.57514,-7.40887,0.0],[112.5744,-7.41751,0.0],[112.57698,-7.41852,0.0],[112.57582,-7.42265,0.0],[112.57135,-7.42216,0.0],[112.5714,-7.42846,0.0],[112.57047,-7.43019,0.0],[112.56862,-7.42986,0.0],[112.56469,-7.4371,0.0],[112.55933,-7.43505,0.0],[112.55816,-7.43503,0.0],[112.55702,-7.43743,0.0],[112.54996,-7.4362,0.0],[112.55097,-7.43232,0.0],[112.54536,-7.43262,0.0],[112.54322,-7.43025,0.0],[112.54074,-7.43198,0.0],[112.53765,-7.4322,0.0],[112.53216,-7.43188,0.0],[112.53197,-7.43012,0.0]]]}},{"type":"Feature","properties":{"kecamatan":"Taman","kab_kota":"Sidoarjo"},"geometry":{"type":"Polygon","coordinates":[[[112.6362,-7.38613,0.0],[112.63237,-7.39021,0.0],[112.63136,-7.38973,0.0],[112.63188,-7.38838,0.0],[112.62809,-7.38729,0.0],[112.62834,-7.38156,0.0],[112.62553,-7.38141,0.0],[112.62482,-7.3772,0.0],[112.61972,-7.37639,0.0],[112.61932,-7.37443,0.0],[112.61562,-7.37323,0.0],[112.61495,-7.3679,0.0],[112.61824,-7.36636,0.0],[112.62159,-7.36801,0.0],[112.625,-7.3668,0.0],[112.63024,-7.36779,0.0],[112.6351,-7.36406,0.0],[112.6397,-7.36316,0.0],[112.64271,-7.36081,0.0],[112.65342,-7.36218,0.0],[112.65417,-7.3589,0.0],[112.66236,-7.35161,0.0],[112.67864,-7.35035,0.0],[112.68306,-7.34747,0.0],[112.69623,-7.34299,0.0],[112.70428,-7.33651,0.0],[112.71603,-7.33996,0.0],[112.71247,-7.3508,0.0],[112.70984,-7.35024,0.0],[112.71005,-7.35803,0.0],[112.70891,-7.36078,0.0],[112.71117,-7.36064,0.0],[112.7117,-7.36405,0.0],[112.71607,-7.36588,0.0],[112.71626,-7.36847,0.0],[112.71429,-7.37071,0.0],[112.71309,-7.37769,0.0],[112.71742,-7.37817,0.0],[112.71731,-7.37972,0.0],[112.7199,-7.37942,0.0],[112.71924,-7.38238,0.0],[112.71657,-7.38227,0.0],[112.71624,-7.38387,0.0],[112.71293,-7.38317,0.0],[112.71041,-7.38363,0.0],[112.71016,-7.3847,0.0],[112.7056,-7.38427,0.0],[112.70499,-7.3866,0.0],[112.69855,-7.38511,0.0],[112.701,-7.37996,0.0],[112.70398,-7.37947,0.0],[112.7058,-7.36793,0.0],[112.70371,-7.36678,0.0],[112.6984,-7.37014,0.0],[112.69333,-7.37023,0.0],[112.69039,-7.37586,0.0],[112.68615,-7.37536,0.0],[112.68232,-7.37908,0.0],[112.67511,-7.37974,0.0],[112.67195,-7.37878,0.0],[112.67127,-7.38164,0.0],[112.65915,-7.37941,0.0],[112.65858,-7.38451,0.0],[112.65415,-7.38443,0.0],[112.65428,-7.38157,0.0],[112.65064,-7.38085,0.0],[112.64743,-7.38472,0.0],[112.64422,-7.38541,0.0],[112.64382,-7.38706,0.0],[112.63822,-7.38807,0.0],[112.6362,-7.38613,0.0]]]}},{"type":"Feature","properties":{"kecamatan":"Waru","kab_kota":"Sidoarjo"},"geometry":{"type":"Polygon","coordinates":[[[112.72605,-7.37001,0.0],[112.71624,-7.36759,0.0],[112.716,-7.36579,0.0],[112.71415,-7.36593,0.0],[112.71356,-7.36431,0.0],[112.7117,-7.36405,0.0],[112.71117,-7.36064,0.0],[112.70891,-7.36078,0.0],[112.71005,-7.35803,0.0],[112.70984,-7.35024,0.0],[112.71247,-7.3508,0.0],[112.71563,-7.34177,0.0],[112.71988,-7.34305,0.0],[112.71976,-7.34441,0.0],[112.72426,-7.34586,0.0],[112.72523,-7.3479,0.0],[112.72745,-7.34846,0.0],[112.73315,-7.34813,0.0],[112.73343,-7.34659,0.0],[112.73631,-7.34623,0.0],[112.73677,-7.3448,0.0],[112.74198,-7.3452,0.0],[112.74303,-7.34082,0.0],[112.74782,-7.34237,0.0],[112.75346,-7.34223,0.0],[112.75541,-7.33674,0.0],[112.76636,-7.33833,0.0],[112.76806,-7.34158,0.0],[112.77017,-7.33921,0.0],[112.77742,-7.34009,0.0],[112.77956,-7.34477,0.0],[112.78447,-7.34551,0.0],[112.78905,-7.34394,0.0],[112.79358,-7.34638,0.0],[112.79875,-7.3449,0.0],[112.81252,-7.34639,0.0],[112.81923,-7.34348,0.0],[112.82732,-7.34317,0.0],[112.82784,-7.35152,0.0],[112.82437,-7.3607,0.0],[112.82256,-7.36136,0.0],[112.81848,-7.35795,0.0],[112.81678,-7.35786,0.0],[112.81466,-7.35984,0.0],[112.81537,-7.36371,0.0],[112.8096,-7.36629,0.0],[112.80603,-7.36488,0.0],[112.80837,-7.36383,0.0],[112.80468,-7.36068,0.0],[112.80475,-7.36378,0.0],[112.79866,-7.36527,0.0],[112.79359,-7.36831,0.0],[112.78863,-7.3665,0.0],[112.77951,-7.36606,0.0],[112.77662,-7.36431,0.0],[112.77119,-7.36521,0.0],[112.77052,-7.36735,0.0],[112.76742,-7.36666,0.0],[112.76515,-7.36757,0.0],[112.76119,-7.36422,0.0],[112.7476,-7.36348,0.0],[112.74556,-7.36512,0.0],[112.73919,-7.36368,0.0],[112.73766,-7.36763,0.0],[112.727,-7.36734,0.0],[112.72605,-7.37001,0.0]]]}},{"type":"Feature","properties":{"kecamatan":"Gedangan","kab_kota":"Sidoarjo"},"geometry":{"type":"Polygon","coordinates":[[[112.74082,-7.40918,0.0],[112.73582,-7.41032,0.0],[112.73424,-7.41503,0.0],[112.73117,-7.41387,0.0],[112.73155,-7.41166,0.0],[112.73049,-7.41052,0.0],[112.72476,-7.40871,0.0],[112.72364,-7.41285,0.0],[112.72019,-7.41203,0.0],[112.71979,-7.41332,0.0],[112.7179,-7.41248,0.0],[112.71734,-7.41344,0.0],[112.71427,-7.41256,0.0],[112.71498,-7.41051,0.0],[112.71079,-7.40927,0.0],[112.7091,-7.41217,0.0],[112.70555,-7.41051,0.0],[112.70566,-7.40736,0.0],[112.70012,-7.40524,0.0],[112.7016,-7.40049,0.0],[112.69904,-7.39685,0.0],[112.70139,-7.3928,0.0],[112.70364,-7.39287,0.0],[112.7056,-7.38427,0.0],[112.71016,-7.3847,0.0],[112.71041,-7.38363,0.0],[112.71293,-7.38317,0.0],[112.71624,-7.38387,0.0],[112.71657,-7.38227,0.0],[112.7193,-7.38234,0.0],[112.7199,-7.37942,0.0],[112.71731,-7.37972,0.0],[112.71742,-7.37817,0.0],[112.71309,-7.37769,0.0],[112.71429,-7.37071,0.0],[112.71627,-7.36764,0.0],[112.72546,-7.37032,0.0],[112.727,-7.36734,0.0],[112.73766,-7.36763,0.0],[112.73919,-7.36368,0.0],[112.74557,-7.36513,0.0],[112.74504,-7.37171,0.0],[112.74616,-7.37196,0.0],[112.74582,-7.37378,0.0],[112.74888,-7.37384,0.0],[112.74825,-7.37725,0.0],[112.75064,-7.37791,0.0],[112.75049,-7.38263,0.0],[112.7558,-7.38307,0.0],[112.75279,-7.39178,0.0],[112.75749,-7.39293,0.0],[112.75379,-7.40616,0.0],[112.75077,-7.40568,0.0],[112.7489,-7.41293,0.0],[112.74131,-7.41108,0.0],[112.74082,-7.40918,0.0]]]}},{"type":"Feature","properties":{"kecamatan":"Sedati","kab_kota":"Sidoarjo"},"geometry":{"type":"Polygon","coordinates":[[[112.77132,-7.41551,0.0],[112.76697,-7.41616,0.0],[112.76682,-7.41469,0.0],[112.76512,-7.41445,0.0],[112.76453,-7.41073,0.0],[112.76032,-7.41043,0.0],[112.76099,-7.40875,0.0],[112.75986,-7.40751,0.0],[112.75383,-7.40662,0.0],[112.75749,-7.39293,0.0],[112.75277,-7.39168,0.0],[112.7558,-7.38307,0.0],[112.75049,-7.38263,0.0],[112.75064,-7.37791,0.0],[112.74825,-7.37725,0.0],[112.74888,-7.37384,0.0],[112.74582,-7.37378,0.0],[112.74616,-7.37196,0.0],[112.74504,-7.37171,0.0],[112.74615,-7.36436,0.0],[112.7476,-7.36348,0.0],[112.76119,-7.36422,0.0],[112.76515,-7.36757,0.0],[112.76742,-7.36666,0.0],[112.77052,-7.36735,0.0],[112.77119,-7.36521,0.0],[112.77662,-7.36431,0.0],[112.77951,-7.36606,0.0],[112.78863,-7.3665,0.0],[112.79359,-7.36831,0.0],[112.79866,-7.36527,0.0],[112.80475,-7.36378,0.0],[112.80468,-7.36068,0.0],[112.80837,-7.36383,0.0],[112.80603,-7.36488,0.0],[112.81037,-7.36608,0.0],[112.81537,-7.36371,0.0],[112.81466,-7.35984,0.0],[112.81678,-7.35786,0.0],[112.81848,-7.35795,0.0],[112.82256,-7.36136,0.0],[112.82437,-7.3607,0.0],[112.82784,-7.35152,0.0],[112.82675,-7.34625,0.0],[112.82894,-7.33774,0.0],[112.83335,-7.33235,0.0],[112.835,-7.33348,0.0],[112.83707,-7.33082,0.0],[112.84108,-7.33089,0.0],[112.8408,-7.33914,0.0],[112.83939,-7.34091,0.0],[112.84099,-7.3409,0.0],[112.84051,-7.34562,0.0],[112.8394,-7.34987,0.0],[112.83798,-7.35068,0.0],[112.83945,-7.35124,0.0],[112.83953,-7.35316,0.0],[112.83742,-7.35556,0.0],[112.8388,-7.35613,0.0],[112.83913,-7.35805,0.0],[112.83739,-7.37081,0.0],[112.83603,-7.37154,0.0],[112.83694,-7.37224,0.0],[112.83638,-7.37872,0.0],[112.83462,-7.38291,0.0],[112.83248,-7.384,0.0],[112.83456,-7.38423,0.0],[112.83623,-7.38666,0.0],[112.83476,-7.40104,0.0],[112.83319,-7.40471,0.0],[112.83149,-7.40491,0.0],[112.83569,-7.40581,0.0],[112.83688,-7.40933,0.0],[112.83597,-7.42354,0.0],[112.83546,-7.4257,0.0],[112.83422,-7.42588,0.0],[112.83561,-7.42768,0.0],[112.83707,-7.43656,0.0],[112.83625,-7.43801,0.0],[112.83759,-7.44056,0.0],[112.83898,-7.46504,0.0],[112.8415,-7.4773,0.0],[112.84035,-7.48289,0.0],[112.83559,-7.48501,0.0],[112.8282,-7.47363,0.0],[112.82034,-7.4735,0.0],[112.81866,-7.47212,0.0],[112.81711,-7.46658,0.0],[112.81897,-7.46247,0.0],[112.8177,-7.45622,0.0],[112.81279,-7.4524,0.0],[112.80923,-7.4465,0.0],[112.80865,-7.44283,0.0],[112.80243,-7.44537,0.0],[112.80023,-7.44859,0.0],[112.79798,-7.44891,0.0],[112.78813,-7.44484,0.0],[112.7881,-7.44374,0.0],[112.78631,-7.44494,0.0],[112.78405,-7.44268,0.0],[112.78069,-7.4422,0.0],[112.78082,-7.43885,0.0],[112.77761,-7.43645,0.0],[112.78593,-7.42776,0.0],[112.78812,-7.42872,0.0],[112.78532,-7.42724,0.0],[112.78579,-7.42458,0.0],[112.77696,-7.42317,0.0],[112.77762,-7.41998,0.0],[112.77224,-7.41888,0.0],[112.77132,-7.41551,0.0]]]}},{"type":"Feature","properties":{"kecamatan":"Wonoayu","kab_kota":"Sidoarjo"},"geometry":{"type":"Polygon","coordinates":[[[112.62993,-7.44188,0.0],[112.62811,-7.44476,0.0],[112.62449,-7.44655,0.0],[112.62156,-7.44499,0.0],[112.61602,-7.44875,0.0],[112.60447,-7.44952,0.0],[112.60345,-7.4481,0.0],[112.5998,-7.44734,0.0],[112.59755,-7.44935,0.0],[112.59328,-7.44862,0.0],[112.59356,-7.44494,0.0],[112.59112,-7.44481,0.0],[112.58764,-7.43776,0.0],[112.59104,-7.42661,0.0],[112.59453,-7.42653,0.0],[112.59475,-7.42485,0.0],[112.60118,-7.42529,0.0],[112.60262,-7.41882,0.0],[112.61036,-7.41914,0.0],[112.61088,-7.41575,0.0],[112.61319,-7.4161,0.0],[112.61347,-7.40253,0.0],[112.61927,-7.40458,0.0],[112.61941,-7.40312,0.0],[112.62458,-7.40361,0.0],[112.62535,-7.40204,0.0],[112.62798,-7.40252,0.0],[112.62828,-7.40144,0.0],[112.63611,-7.4006,0.0],[112.6363,-7.40203,0.0],[112.63932,-7.40259,0.0],[112.64056,-7.40707,0.0],[112.647,-7.4077,0.0],[112.65014,-7.40679,0.0],[112.65044,-7.40783,0.0],[112.65895,-7.40959,0.0],[112.65976,-7.41072,0.0],[112.65695,-7.42126,0.0],[112.66384,-7.4234,0.0],[112.66339,-7.42496,0.0],[112.66568,-7.42734,0.0],[112.6639,-7.43506,0.0],[112.66003,-7.43467,0.0],[112.6599,-7.43684,0.0],[112.66079,-7.43944,0.0],[112.6709,-7.44285,0.0],[112.67018,-7.44634,0.0],[112.66613,-7.44443,0.0],[112.66517,-7.4487,0.0],[112.66432,-7.45024,0.0],[112.66228,-7.45028,0.0],[112.66056,-7.45533,0.0],[112.65062,-7.45341,0.0],[112.64068,-7.44882,0.0],[112.63644,-7.44921,0.0],[112.63277,-7.44742,0.0],[112.63239,-7.44377,0.0],[112.62993,-7.44188,0.0]]]}},{"type":"Feature","properties":{"kecamatan":"Krian","kab_kota":"Sidoarjo"},"geometry":{"type":"Polygon","coordinates":[[[112.59474,-7.42489,0.0],[112.59453,-7.42653,0.0],[112.59102,-7.42664,0.0],[112.58766,-7.43799,0.0],[112.5852,-7.43775,0.0],[112.58542,-7.43583,0.0],[112.58203,-7.43318,0.0],[112.58036,-7.43325,0.0],[112.57911,-7.43708,0.0],[112.5761,-7.43689,0.0],[112.57577,-7.43326,0.0],[112.56992,-7.43263,0.0],[112.57142,-7.42839,0.0],[112.57135,-7.42216,0.0],[112.57582,-7.42265,0.0],[112.57698,-7.41852,0.0],[112.5744,-7.41751,0.0],[112.57514,-7.40887,0.0],[112.57461,-7.40973,0.0],[112.56951,-7.40876,0.0],[112.56074,-7.41132,0.0],[112.56002,-7.40979,0.0],[112.55879,-7.41072,0.0],[112.55762,-7.40462,0.0],[112.56412,-7.40426,0.0],[112.56581,-7.4028,0.0],[112.56589,-7.39803,0.0],[112.56781,-7.39637,0.0],[112.5669,-7.39044,0.0],[112.56798,-7.38787,0.0],[112.57002,-7.38798,0.0],[112.57181,-7.39199,0.0],[112.57476,-7.38858,0.0],[112.57834,-7.38709,0.0],[112.57937,-7.38367,0.0],[112.58396,-7.38297,0.0],[112.58404,-7.37969,0.0],[112.58827,-7.3756,0.0],[112.58851,-7.3703,0.0],[112.59272,-7.3723,0.0],[112.59683,-7.37217,0.0],[112.61495,-7.3679,0.0],[112.61562,-7.37323,0.0],[112.61932,-7.37443,0.0],[112.61972,-7.37639,0.0],[112.62482,-7.3772,0.0],[112.62553,-7.38141,0.0],[112.62834,-7.38156,0.0],[112.62809,-7.38729,0.0],[112.63188,-7.38838,0.0],[112.6323,-7.39179,0.0],[112.63058,-7.39403,0.0],[112.6256,-7.39418,0.0],[112.62458,-7.40361,0.0],[112.61941,-7.40312,0.0],[112.61927,-7.40458,0.0],[112.61347,-7.40253,0.0],[112.61319,-7.4161,0.0],[112.61088,-7.41575,0.0],[112.61036,-7.41914,0.0],[112.60262,-7.41882,0.0],[112.60118,-7.42529,0.0],[112.59474,-7.42489,0.0]]]}}]}