{"type":"FeatureCollection","features":[{"type":"Feature","properties":{"kecamatan":"Tutur","kab_kota":"Pasuruan"},"geometry":{"type":"Polygon","coordinates":[[[112.82327,-7.93272,0.0],[112.8221,-7.92832,0.0],[112.81717,-7.92741,0.0],[112.8147,-7.92834,0.0],[112.80563,-7.92554,0.0],[112.80162,-7.91954,0.0],[112.79678,-7.91762,0.0],[112.79381,-7.91305,0.0],[112.79,-7.91029,0.0],[112.7881,-7.90719,0.0],[112.78816,-7.90422,0.0],[112.78367,-7.90027,0.0],[112.78498,-7.89736,0.0],[112.78005,-7.89155,0.0],[112.77862,-7.88636,0.0],[112.77725,-7.87863,0.0],[112.78071,-7.87401,0.0],[112.78597,-7.87382,0.0],[112.79018,-7.87065,0.0],[112.79461,-7.87319,0.0],[112.79608,-7.87174,0.0],[112.79463,-7.87086,0.0],[112.79533,-7.86774,0.0],[112.79757,-7.86635,0.0],[112.79759,-7.86116,0.0],[112.79955,-7.86042,0.0],[112.79796,-7.85514,0.0],[112.79884,-7.85367,0.0],[112.79819,-7.84346,0.0],[112.79615,-7.84105,0.0],[112.79739,-7.83699,0.0],[112.79387,-7.83397,0.0],[112.79324,-7.83169,0.0],[112.7888,-7.8302,0.0],[112.78867,-7.81698,0.0],[112.7844,-7.80157,0.0],[112.78677,-7.7964,0.0],[112.78214,-7.78545,0.0],[112.78895,-7.78015,0.0],[112.79498,-7.78605,0.0],[112.8006,-7.78529,0.0],[112.80069,-7.78897,0.0],[112.80261,-7.79166,0.0],[112.81655,-7.80466,0.0],[112.8143,-7.8079,0.0],[112.81563,-7.81136,0.0],[112.81317,-7.82201,0.0],[112.82557,-7.83651,0.0],[112.82285,-7.83785,0.0],[112.81945,-7.84289,0.0],[112.82194,-7.8509,0.0],[112.82687,-7.85934,0.0],[112.82971,-7.86199,0.0],[112.8302,-7.86666,0.0],[112.83387,-7.87015,0.0],[112.82987,-7.87421,0.0],[112.83068,-7.87888,0.0],[112.83729,-7.88484,0.0],[112.8385,-7.88925,0.0],[112.84217,-7.88879,0.0],[112.84948,-7.89209,0.0],[112.85743,-7.90414,0.0],[112.86219,-7.90838,0.0],[112.86319,-7.91254,0.0],[112.86771,-7.91326,0.0],[112.87101,-7.91603,0.0],[112.88406,-7.92039,0.0],[112.88585,-7.92848,0.0],[112.8928,-7.9389,0.0],[112.90599,-7.94076,0.0],[112.9122,-7.94529,0.0],[112.91536,-7.95136,0.0],[112.91297,-7.95676,0.0],[112.91083,-7.95414,0.0],[112.90646,-7.95271,0.0],[112.90395,-7.94941,0.0],[112.90392,-7.94698,0.0],[112.89736,-7.94678,0.0],[112.88498,-7.95235,0.0],[112.88084,-7.94721,0.0],[112.87368,-7.94547,0.0],[112.86957,-7.9468,0.0],[112.86719,-7.94451,0.0],[112.85655,-7.93974,0.0],[112.8552,-7.93521,0.0],[112.85319,-7.93375,0.0],[112.84965,-7.93408,0.0],[112.84691,-7.93639,0.0],[112.84053,-7.93868,0.0],[112.83478,-7.93645,0.0],[112.82804,-7.93575,0.0],[112.82327,-7.93272,0.0]]]}},{"type":"Feature","properties":{"kecamatan":"Puspo","kab_kota":"Pasuruan"},"geometry":{"type":"Polygon","coordinates":[[[112.86496,-7.86595,0.0],[112.85335,-7.8766,0.0],[112.85338,-7.87887,0.0],[112.8594,-7.88668,0.0],[112.85689,-7.89108,0.0],[112.85023,-7.89463,0.0],[112.8486,-7.89152,0.0],[112.84112,-7.88855,0.0],[112.8385,-7.88925,0.0],[112.83729,-7.88484,0.0],[112.83068,-7.87888,0.0],[112.82987,-7.87421,0.0],[112.83387,-7.87015,0.0],[112.8302,-7.86666,0.0],[112.82971,-7.86199,0.0],[112.82687,-7.85934,0.0],[112.82194,-7.8509,0.0],[112.81945,-7.84289,0.0],[112.82337,-7.83744,0.0],[112.83397,-7.83625,0.0],[112.83511,-7.83395,0.0],[112.83761,-7.83388,0.0],[112.84214,-7.82589,0.0],[112.84561,-7.82359,0.0],[112.86155,-7.81939,0.0],[112.86079,-7.81065,0.0],[112.86239,-7.80943,0.0],[112.86102,-7.80416,0.0],[112.86629,-7.80223,0.0],[112.86773,-7.80242,0.0],[112.86844,-7.80431,0.0],[112.87358,-7.80759,0.0],[112.877,-7.81164,0.0],[112.89682,-7.81312,0.0],[112.89774,-7.81655,0.0],[112.90082,-7.81847,0.0],[112.90089,-7.82032,0.0],[112.9027,-7.82051,0.0],[112.90252,-7.82276,0.0],[112.90962,-7.82221,0.0],[112.9152,-7.82917,0.0],[112.92006,-7.82978,0.0],[112.93111,-7.82729,0.0],[112.9377,-7.82748,0.0],[112.94035,-7.83096,0.0],[112.9404,-7.83582,0.0],[112.93916,-7.83744,0.0],[112.93939,-7.84073,0.0],[112.93485,-7.84459,0.0],[112.93499,-7.84788,0.0],[112.93815,-7.85188,0.0],[112.94183,-7.86146,0.0],[112.9453,-7.86534,0.0],[112.94774,-7.86516,0.0],[112.95107,-7.86853,0.0],[112.95461,-7.87999,0.0],[112.95446,-7.88408,0.0],[112.95749,-7.89129,0.0],[112.95629,-7.89812,0.0],[112.95373,-7.90036,0.0],[112.95362,-7.90305,0.0],[112.94961,-7.90535,0.0],[112.94838,-7.90828,0.0],[112.93565,-7.90542,0.0],[112.9338,-7.89295,0.0],[112.93096,-7.88372,0.0],[112.92493,-7.87561,0.0],[112.91768,-7.87213,0.0],[112.91376,-7.86731,0.0],[112.91471,-7.86273,0.0],[112.9122,-7.8593,0.0],[112.91396,-7.85695,0.0],[112.91164,-7.85451,0.0],[112.91396,-7.84947,0.0],[112.91216,-7.8466,0.0],[112.91244,-7.84065,0.0],[112.91,-7.83672,0.0],[112.90598,-7.83668,0.0],[112.9042,-7.83388,0.0],[112.90132,-7.83454,0.0],[112.89592,-7.84282,0.0],[112.88942,-7.84299,0.0],[112.88846,-7.84578,0.0],[112.88618,-7.84601,0.0],[112.87787,-7.85677,0.0],[112.86496,-7.86595,0.0]]]}},{"type":"Feature","properties":{"kecamatan":"Purwodadi","kab_kota":"Pasuruan"},"geometry":{"type":"Polygon","coordinates":[[[112.72138,-7.81897,0.0],[112.71583,-7.82095,0.0],[112.71144,-7.81899,0.0],[112.71111,-7.82392,0.0],[112.70622,-7.82213,0.0],[112.70742,-7.81825,0.0],[112.70472,-7.81707,0.0],[112.69829,-7.81672,0.0],[112.69561,-7.8144,0.0],[112.68089,-7.8117,0.0],[112.66947,-7.80684,0.0],[112.66143,-7.80593,0.0],[112.65661,-7.80064,0.0],[112.65367,-7.80062,0.0],[112.6542,-7.79697,0.0],[112.64202,-7.79504,0.0],[112.63639,-7.79782,0.0],[112.63245,-7.7976,0.0],[112.63139,-7.79364,0.0],[112.62843,-7.79147,0.0],[112.61976,-7.78977,0.0],[112.6152,-7.78692,0.0],[112.60862,-7.776,0.0],[112.61967,-7.77794,0.0],[112.6229,-7.78162,0.0],[112.62438,-7.78268,0.0],[112.62573,-7.78194,0.0],[112.62744,-7.7839,0.0],[112.63268,-7.78366,0.0],[112.63605,-7.78494,0.0],[112.6393,-7.78329,0.0],[112.64253,-7.78438,0.0],[112.64996,-7.77962,0.0],[112.65631,-7.77822,0.0],[112.67024,-7.78265,0.0],[112.67203,-7.78224,0.0],[112.67642,-7.78701,0.0],[112.68131,-7.78752,0.0],[112.68818,-7.78673,0.0],[112.69165,-7.78506,0.0],[112.69337,-7.78587,0.0],[112.69808,-7.78364,0.0],[112.7044,-7.78365,0.0],[112.70617,-7.78173,0.0],[112.70449,-7.78464,0.0],[112.70831,-7.78719,0.0],[112.73671,-7.78383,0.0],[112.74033,-7.7852,0.0],[112.73853,-7.79424,0.0],[112.74927,-7.80096,0.0],[112.7515,-7.79877,0.0],[112.75504,-7.79769,0.0],[112.75951,-7.79239,0.0],[112.75921,-7.79057,0.0],[112.76161,-7.78789,0.0],[112.76211,-7.78022,0.0],[112.76725,-7.77548,0.0],[112.77213,-7.76612,0.0],[112.77626,-7.76216,0.0],[112.78551,-7.75968,0.0],[112.7851,-7.76067,0.0],[112.78837,-7.76221,0.0],[112.78415,-7.77105,0.0],[112.78112,-7.77374,0.0],[112.77931,-7.7728,0.0],[112.77621,-7.77678,0.0],[112.7793,-7.78254,0.0],[112.78188,-7.78478,0.0],[112.78629,-7.79396,0.0],[112.78676,-7.79719,0.0],[112.7844,-7.80157,0.0],[112.78867,-7.81698,0.0],[112.7888,-7.8302,0.0],[112.79324,-7.83169,0.0],[112.79387,-7.83397,0.0],[112.79739,-7.83699,0.0],[112.79615,-7.84105,0.0],[112.79819,-7.84346,0.0],[112.79884,-7.85367,0.0],[112.79796,-7.85514,0.0],[112.79955,-7.86042,0.0],[112.79759,-7.86116,0.0],[112.79757,-7.86635,0.0],[112.7953,-7.86782,0.0],[112.79463,-7.87086,0.0],[112.79608,-7.87174,0.0],[112.79378,-7.87357,0.0],[112.79379,-7.87243,0.0],[112.79247,-7.87283,0.0],[112.79018,-7.87065,0.0],[112.78791,-7.87289,0.0],[112.78302,-7.87424,0.0],[112.78071,-7.87401,0.0],[112.77586,-7.87003,0.0],[112.76814,-7.87319,0.0],[112.76571,-7.87558,0.0],[112.76207,-7.87617,0.0],[112.76096,-7.8645,0.0],[112.76229,-7.8594,0.0],[112.76034,-7.85736,0.0],[112.76001,-7.85436,0.0],[112.75726,-7.8524,0.0],[112.7497,-7.85094,0.0],[112.74937,-7.84829,0.0],[112.74604,-7.84591,0.0],[112.74431,-7.84192,0.0],[112.73904,-7.8386,0.0],[112.73765,-7.83397,0.0],[112.73804,-7.82527,0.0],[112.73914,-7.82394,0.0],[112.73308,-7.82258,0.0],[112.73279,-7.81803,0.0],[112.72138,-7.81897,0.0]]]}},{"type":"Feature","properties":{"kecamatan":"Kejayan","kab_kota":"Pasuruan"},"geometry":{"type":"Polygon","coordinates":[[[112.8508,-7.78086,0.0],[112.8379,-7.781,0.0],[112.82981,-7.7757,0.0],[112.825,-7.77552,0.0],[112.82595,-7.7732,0.0],[112.81437,-7.77184,0.0],[112.81293,-7.77484,0.0],[112.81067,-7.77448,0.0],[112.80822,-7.77583,0.0],[112.79581,-7.77343,0.0],[112.78214,-7.78545,0.0],[112.77621,-7.77678,0.0],[112.77931,-7.7728,0.0],[112.78112,-7.77374,0.0],[112.78404,-7.77124,0.0],[112.78716,-7.76384,0.0],[112.79115,-7.76076,0.0],[112.79386,-7.75056,0.0],[112.79808,-7.74814,0.0],[112.79849,-7.7443,0.0],[112.80048,-7.7416,0.0],[112.79938,-7.73889,0.0],[112.80105,-7.73846,0.0],[112.80131,-7.73569,0.0],[112.79997,-7.73294,0.0],[112.80341,-7.73283,0.0],[112.80494,-7.73005,0.0],[112.80965,-7.7287,0.0],[112.81142,-7.72246,0.0],[112.81731,-7.71448,0.0],[112.81571,-7.71239,0.0],[112.81693,-7.71039,0.0],[112.82077,-7.71278,0.0],[112.82201,-7.71033,0.0],[112.82689,-7.70796,0.0],[112.82684,-7.70584,0.0],[112.82874,-7.70345,0.0],[112.8311,-7.70279,0.0],[112.83054,-7.70177,0.0],[112.83685,-7.69941,0.0],[112.85014,-7.7,0.0],[112.86161,-7.69963,0.0],[112.86314,-7.69837,0.0],[112.86859,-7.69885,0.0],[112.87252,-7.69578,0.0],[112.87341,-7.69267,0.0],[112.87011,-7.691,0.0],[112.87001,-7.68791,0.0],[112.87164,-7.68672,0.0],[112.8767,-7.68731,0.0],[112.87835,-7.68801,0.0],[112.87839,-7.68976,0.0],[112.88435,-7.69179,0.0],[112.88784,-7.6916,0.0],[112.88816,-7.69064,0.0],[112.88972,-7.69135,0.0],[112.88902,-7.69297,0.0],[112.89111,-7.69405,0.0],[112.88928,-7.69735,0.0],[112.89391,-7.69985,0.0],[112.8927,-7.70351,0.0],[112.88995,-7.70274,0.0],[112.888,-7.70659,0.0],[112.88988,-7.70748,0.0],[112.88829,-7.71893,0.0],[112.89018,-7.71811,0.0],[112.89223,-7.71941,0.0],[112.89001,-7.72488,0.0],[112.89375,-7.72668,0.0],[112.8918,-7.73444,0.0],[112.88692,-7.74037,0.0],[112.88708,-7.74329,0.0],[112.88499,-7.74806,0.0],[112.88038,-7.7494,0.0],[112.87963,-7.74622,0.0],[112.87449,-7.75103,0.0],[112.87181,-7.7581,0.0],[112.87697,-7.7597,0.0],[112.87749,-7.76135,0.0],[112.87464,-7.76574,0.0],[112.87175,-7.76682,0.0],[112.86987,-7.76955,0.0],[112.86813,-7.77621,0.0],[112.86598,-7.7786,0.0],[112.86563,-7.78293,0.0],[112.8508,-7.78086,0.0]]]}},{"type":"Feature","properties":{"kecamatan":"Wonorejo","kab_kota":"Pasuruan"},"geometry":{"type":"Polygon","coordinates":[[[112.80055,-7.74136,0.0],[112.79808,-7.74814,0.0],[112.79386,-7.75056,0.0],[112.79115,-7.76076,0.0],[112.78781,-7.76316,0.0],[112.78831,-7.76206,0.0],[112.7851,-7.76067,0.0],[112.78551,-7.75968,0.0],[112.78375,-7.75985,0.0],[112.78134,-7.75801,0.0],[112.77728,-7.75053,0.0],[112.77349,-7.74777,0.0],[112.77811,-7.74371,0.0],[112.76919,-7.7453,0.0],[112.76956,-7.7435,0.0],[112.75939,-7.74098,0.0],[112.7587,-7.73284,0.0],[112.75673,-7.73073,0.0],[112.75766,-7.73004,0.0],[112.75692,-7.72758,0.0],[112.75945,-7.72665,0.0],[112.75981,-7.72343,0.0],[112.75328,-7.71718,0.0],[112.7556,-7.71462,0.0],[112.75248,-7.71278,0.0],[112.7525,-7.71089,0.0],[112.75714,-7.70085,0.0],[112.76546,-7.69719,0.0],[112.766,-7.69452,0.0],[112.76922,-7.69311,0.0],[112.77107,-7.69029,0.0],[112.77986,-7.68528,0.0],[112.79033,-7.68598,0.0],[112.79229,-7.68478,0.0],[112.79924,-7.68709,0.0],[112.80112,-7.68524,0.0],[112.80282,-7.68487,0.0],[112.80398,-7.68602,0.0],[112.80907,-7.68348,0.0],[112.80937,-7.68177,0.0],[112.81527,-7.68024,0.0],[112.82655,-7.68482,0.0],[112.82321,-7.69206,0.0],[112.82344,-7.69514,0.0],[112.82795,-7.69514,0.0],[112.82976,-7.69225,0.0],[112.83553,-7.69437,0.0],[112.83549,-7.69599,0.0],[112.83435,-7.69831,0.0],[112.83061,-7.70052,0.0],[112.8311,-7.70279,0.0],[112.82853,-7.70362,0.0],[112.8267,-7.70813,0.0],[112.82201,-7.71033,0.0],[112.82077,-7.71278,0.0],[112.81737,-7.71042,0.0],[112.81619,-7.71121,0.0],[112.81576,-7.71277,0.0],[112.81731,-7.71448,0.0],[112.81142,-7.72246,0.0],[112.80965,-7.7287,0.0],[112.80494,-7.73005,0.0],[112.80341,-7.73283,0.0],[112.79997,-7.73294,0.0],[112.80132,-7.73785,0.0],[112.79938,-7.73889,0.0],[112.80055,-7.74136,0.0]]]}},{"type":"Feature","properties":{"kecamatan":"Lumbang","kab_kota":"Pasuruan"},"geometry":{"type":"Polygon","coordinates":[[[113.01386,-7.84837,0.0],[113.0139,-7.85025,0.0],[113.00925,-7.8527,0.0],[113.00622,-7.85763,0.0],[112.99783,-7.86386,0.0],[112.99669,-7.86623,0.0],[112.99001,-7.8696,0.0],[112.9848,-7.87894,0.0],[112.9792,-7.88072,0.0],[112.97506,-7.88623,0.0],[112.96926,-7.88774,0.0],[112.96707,-7.89497,0.0],[112.96904,-7.89838,0.0],[112.96817,-7.90054,0.0],[112.95515,-7.89951,0.0],[112.95754,-7.89413,0.0],[112.95749,-7.89129,0.0],[112.95446,-7.88408,0.0],[112.95461,-7.87999,0.0],[112.95107,-7.86853,0.0],[112.94774,-7.86516,0.0],[112.9453,-7.86534,0.0],[112.94183,-7.86146,0.0],[112.93449,-7.84585,0.0],[112.93939,-7.84073,0.0],[112.93916,-7.83744,0.0],[112.94064,-7.83399,0.0],[112.94035,-7.83096,0.0],[112.93645,-7.82552,0.0],[112.93537,-7.82075,0.0],[112.93599,-7.81761,0.0],[112.93437,-7.81433,0.0],[112.93583,-7.79962,0.0],[112.93408,-7.79551,0.0],[112.93052,-7.79289,0.0],[112.93481,-7.78351,0.0],[112.93374,-7.78077,0.0],[112.94044,-7.77982,0.0],[112.9416,-7.77681,0.0],[112.94446,-7.77701,0.0],[112.94615,-7.76615,0.0],[112.95105,-7.76625,0.0],[112.95533,-7.76392,0.0],[112.96375,-7.76362,0.0],[112.96489,-7.76506,0.0],[112.96409,-7.7751,0.0],[112.98145,-7.77761,0.0],[112.98827,-7.77734,0.0],[112.9901,-7.77109,0.0],[112.99869,-7.76909,0.0],[113.01064,-7.76943,0.0],[113.01235,-7.76537,0.0],[113.01879,-7.7675,0.0],[113.02365,-7.76759,0.0],[113.02478,-7.76939,0.0],[113.03387,-7.77038,0.0],[113.03796,-7.77209,0.0],[113.03991,-7.77436,0.0],[113.04086,-7.78094,0.0],[113.04823,-7.78846,0.0],[113.04805,-7.79666,0.0],[113.04949,-7.7997,0.0],[113.0514,-7.80034,0.0],[113.04895,-7.80408,0.0],[113.05081,-7.80454,0.0],[113.05124,-7.80607,0.0],[113.04922,-7.81078,0.0],[113.04749,-7.81176,0.0],[113.04841,-7.81685,0.0],[113.04723,-7.81997,0.0],[113.04525,-7.82026,0.0],[113.04526,-7.82228,0.0],[113.04105,-7.82455,0.0],[113.03864,-7.82812,0.0],[113.03309,-7.82994,0.0],[113.0334,-7.83139,0.0],[113.03083,-7.83241,0.0],[113.03087,-7.83355,0.0],[113.02737,-7.83388,0.0],[113.02663,-7.83649,0.0],[113.02462,-7.83723,0.0],[113.0252,-7.83826,0.0],[113.02254,-7.83947,0.0],[113.02256,-7.84114,0.0],[113.01794,-7.84393,0.0],[113.01553,-7.84829,0.0],[113.01386,-7.84837,0.0]]]}},{"type":"Feature","properties":{"kecamatan":"Pasrepan","kab_kota":"Pasuruan"},"geometry":{"type":"Polygon","coordinates":[[[112.84869,-7.82228,0.0],[112.84214,-7.82589,0.0],[112.83825,-7.83326,0.0],[112.83511,-7.83395,0.0],[112.83397,-7.83625,0.0],[112.82496,-7.83613,0.0],[112.81326,-7.82235,0.0],[112.81563,-7.81136,0.0],[112.8143,-7.8079,0.0],[112.81655,-7.80466,0.0],[112.80261,-7.79166,0.0],[112.80069,-7.78897,0.0],[112.8006,-7.78529,0.0],[112.79434,-7.78572,0.0],[112.78895,-7.78015,0.0],[112.78952,-7.77921,0.0],[112.79581,-7.77343,0.0],[112.80822,-7.77583,0.0],[112.81067,-7.77448,0.0],[112.81293,-7.77484,0.0],[112.81437,-7.77184,0.0],[112.82595,-7.7732,0.0],[112.825,-7.77552,0.0],[112.82981,-7.7757,0.0],[112.8379,-7.781,0.0],[112.85301,-7.78064,0.0],[112.86542,-7.78308,0.0],[112.86598,-7.7786,0.0],[112.86813,-7.77621,0.0],[112.86987,-7.76955,0.0],[112.87175,-7.76682,0.0],[112.87464,-7.76574,0.0],[112.87749,-7.76135,0.0],[112.87697,-7.7597,0.0],[112.87181,-7.7581,0.0],[112.87449,-7.75103,0.0],[112.87963,-7.74622,0.0],[112.88038,-7.7494,0.0],[112.88499,-7.74806,0.0],[112.88708,-7.74329,0.0],[112.88692,-7.74037,0.0],[112.8918,-7.73444,0.0],[112.89375,-7.72668,0.0],[112.89576,-7.72652,0.0],[112.89713,-7.72453,0.0],[112.89579,-7.72806,0.0],[112.89861,-7.72936,0.0],[112.89838,-7.73229,0.0],[112.90189,-7.72954,0.0],[112.90178,-7.72763,0.0],[112.90844,-7.73043,0.0],[112.90953,-7.73264,0.0],[112.90796,-7.73736,0.0],[112.90541,-7.74007,0.0],[112.90902,-7.73868,0.0],[112.90972,-7.74275,0.0],[112.9125,-7.74086,0.0],[112.91075,-7.74654,0.0],[112.90425,-7.75141,0.0],[112.90398,-7.75348,0.0],[112.90505,-7.75394,0.0],[112.90317,-7.75568,0.0],[112.90633,-7.75893,0.0],[112.90241,-7.76461,0.0],[112.90803,-7.76714,0.0],[112.907,-7.7695,0.0],[112.90838,-7.76888,0.0],[112.90979,-7.77318,0.0],[112.91316,-7.77604,0.0],[112.91315,-7.77867,0.0],[112.93442,-7.77911,0.0],[112.93374,-7.78077,0.0],[112.93481,-7.78351,0.0],[112.93052,-7.79289,0.0],[112.93408,-7.79551,0.0],[112.93583,-7.79962,0.0],[112.93396,-7.81052,0.0],[112.93738,-7.82715,0.0],[112.93111,-7.82729,0.0],[112.92006,-7.82978,0.0],[112.9152,-7.82917,0.0],[112.90962,-7.82221,0.0],[112.90252,-7.82276,0.0],[112.9027,-7.82051,0.0],[112.90089,-7.82032,0.0],[112.90082,-7.81847,0.0],[112.89774,-7.81655,0.0],[112.89682,-7.81312,0.0],[112.877,-7.81164,0.0],[112.87358,-7.80759,0.0],[112.86844,-7.80431,0.0],[112.86773,-7.80242,0.0],[112.86629,-7.80223,0.0],[112.86102,-7.80416,0.0],[112.86238,-7.80919,0.0],[112.86079,-7.81065,0.0],[112.86164,-7.8193,0.0],[112.84869,-7.82228,0.0]]]}},{"type":"Feature","properties":{"kecamatan":"Purwosari","kab_kota":"Pasuruan"},"geometry":{"type":"MultiPolygon","coordinates":[[[[112.74033,-7.7852,0.0],[112.73428,-7.7838,0.0],[112.73113,-7.78516,0.0],[112.7194,-7.78534,0.0],[112.70831,-7.78719,0.0],[112.70449,-7.78464,0.0],[112.70617,-7.78173,0.0],[112.7044,-7.78365,0.0],[112.69808,-7.78364,0.0],[112.69337,-7.78587,0.0],[112.69165,-7.78506,0.0],[112.68818,-7.78673,0.0],[112.68131,-7.78752,0.0],[112.67642,-7.78701,0.0],[112.67203,-7.78224,0.0],[112.67024,-7.78265,0.0],[112.65631,-7.77822,0.0],[112.64996,-7.77962,0.0],[112.64253,-7.78438,0.0],[112.6393,-7.78329,0.0],[112.63621,-7.78494,0.0],[112.63268,-7.78366,0.0],[112.62857,-7.78426,0.0],[112.62573,-7.78194,0.0],[112.62424,-7.78262,0.0],[112.61967,-7.77794,0.0],[112.60862,-7.776,0.0],[112.60188,-7.76915,0.0],[112.59279,-7.76477,0.0],[112.60673,-7.75894,0.0],[112.61993,-7.75772,0.0],[112.62479,-7.75988,0.0],[112.62886,-7.7592,0.0],[112.63251,-7.76186,0.0],[112.65269,-7.76392,0.0],[112.65748,-7.76222,0.0],[112.66846,-7.76269,0.0],[112.67347,-7.76027,0.0],[112.68074,-7.76045,0.0],[112.68258,-7.75599,0.0],[112.6821,-7.75149,0.0],[112.68895,-7.74388,0.0],[112.69545,-7.74066,0.0],[112.70254,-7.73271,0.0],[112.70665,-7.73183,0.0],[112.72059,-7.73863,0.0],[112.72459,-7.73774,0.0],[112.73052,-7.73396,0.0],[112.73941,-7.72452,0.0],[112.74112,-7.72669,0.0],[112.74266,-7.72504,0.0],[112.74044,-7.72322,0.0],[112.74425,-7.7195,0.0],[112.75263,-7.71677,0.0],[112.75981,-7.72343,0.0],[112.75945,-7.72665,0.0],[112.75692,-7.72758,0.0],[112.75766,-7.73004,0.0],[112.75673,-7.73073,0.0],[112.7587,-7.73284,0.0],[112.7597,-7.74142,0.0],[112.76956,-7.7435,0.0],[112.76919,-7.7453,0.0],[112.77811,-7.74371,0.0],[112.77349,-7.74777,0.0],[112.77717,-7.7504,0.0],[112.7801,-7.75626,0.0],[112.78375,-7.75985,0.0],[112.77602,-7.76229,0.0],[112.77213,-7.76612,0.0],[112.76725,-7.77548,0.0],[112.76211,-7.78022,0.0],[112.76161,-7.78789,0.0],[112.75921,-7.79057,0.0],[112.75951,-7.79239,0.0],[112.75504,-7.79769,0.0],[112.7515,-7.79877,0.0],[112.74927,-7.80096,0.0],[112.73853,-7.79424,0.0],[112.74033,-7.7852,0.0]]],[[[112.75402,-7.71571,0.0],[112.75472,-7.7145,0.0],[112.7556,-7.71462,0.0],[112.75402,-7.71571,0.0]]]]}},{"type":"Feature","properties":{"kecamatan":"Sukorejo","kab_kota":"Pasuruan"},"geometry":{"type":"Polygon","coordinates":[[[112.73096,-7.73347,0.0],[112.72528,-7.7375,0.0],[112.72116,-7.73862,0.0],[112.70665,-7.73183,0.0],[112.7041,-7.73176,0.0],[112.70024,-7.73484,0.0],[112.69335,-7.72427,0.0],[112.68989,-7.72526,0.0],[112.68835,-7.71314,0.0],[112.69505,-7.70224,0.0],[112.69551,-7.69673,0.0],[112.6988,-7.69422,0.0],[112.69874,-7.69188,0.0],[112.69716,-7.69004,0.0],[112.68584,-7.68532,0.0],[112.68807,-7.68162,0.0],[112.69563,-7.67766,0.0],[112.6966,-7.6745,0.0],[112.70243,-7.67908,0.0],[112.70346,-7.67872,0.0],[112.70326,-7.68043,0.0],[112.70507,-7.6818,0.0],[112.70635,-7.67944,0.0],[112.71284,-7.67608,0.0],[112.71731,-7.67102,0.0],[112.72064,-7.67443,0.0],[112.72523,-7.67672,0.0],[112.73221,-7.66679,0.0],[112.72757,-7.66223,0.0],[112.72984,-7.66097,0.0],[112.72718,-7.65901,0.0],[112.72887,-7.65458,0.0],[112.73851,-7.65224,0.0],[112.74635,-7.64784,0.0],[112.75012,-7.64423,0.0],[112.75331,-7.64456,0.0],[112.75626,-7.64202,0.0],[112.764,-7.65039,0.0],[112.7632,-7.65176,0.0],[112.77303,-7.66452,0.0],[112.77065,-7.66985,0.0],[112.7655,-7.67419,0.0],[112.7632,-7.68351,0.0],[112.76561,-7.68684,0.0],[112.77218,-7.6857,0.0],[112.77234,-7.68918,0.0],[112.76922,-7.69311,0.0],[112.766,-7.69452,0.0],[112.76603,-7.69677,0.0],[112.75673,-7.70133,0.0],[112.7525,-7.71089,0.0],[112.75411,-7.71463,0.0],[112.7535,-7.71701,0.0],[112.75026,-7.71682,0.0],[112.74425,-7.7195,0.0],[112.74044,-7.72322,0.0],[112.74266,-7.72504,0.0],[112.74112,-7.72669,0.0],[112.73941,-7.72452,0.0],[112.73096,-7.73347,0.0]]]}},{"type":"Feature","properties":{"kecamatan":"Beji","kab_kota":"Pasuruan"},"geometry":{"type":"Polygon","coordinates":[[[112.75813,-7.62189,0.0],[112.75039,-7.62887,0.0],[112.74569,-7.62961,0.0],[112.74152,-7.63279,0.0],[112.73833,-7.63239,0.0],[112.72267,-7.63689,0.0],[112.72293,-7.62555,0.0],[112.72816,-7.62249,0.0],[112.72722,-7.6135,0.0],[112.72339,-7.60755,0.0],[112.71409,-7.60754,0.0],[112.7136,-7.60874,0.0],[112.70995,-7.60984,0.0],[112.70983,-7.60709,0.0],[112.70862,-7.60648,0.0],[112.70871,-7.59908,0.0],[112.70648,-7.59286,0.0],[112.71042,-7.58363,0.0],[112.71781,-7.57752,0.0],[112.72387,-7.56892,0.0],[112.72767,-7.57062,0.0],[112.73492,-7.57086,0.0],[112.73901,-7.57323,0.0],[112.74763,-7.57187,0.0],[112.75305,-7.5752,0.0],[112.75643,-7.57324,0.0],[112.77094,-7.5748,0.0],[112.76926,-7.573,0.0],[112.76996,-7.5714,0.0],[112.77484,-7.57076,0.0],[112.77695,-7.57254,0.0],[112.77628,-7.57631,0.0],[112.787,-7.58225,0.0],[112.78494,-7.59047,0.0],[112.77938,-7.58918,0.0],[112.77374,-7.58431,0.0],[112.77096,-7.59576,0.0],[112.76909,-7.59539,0.0],[112.76962,-7.59789,0.0],[112.7716,-7.59779,0.0],[112.76928,-7.60482,0.0],[112.77172,-7.6052,0.0],[112.7705,-7.60812,0.0],[112.77145,-7.60939,0.0],[112.7708,-7.61441,0.0],[112.76864,-7.61785,0.0],[112.76548,-7.61928,0.0],[112.76583,-7.62062,0.0],[112.7587,-7.62286,0.0],[112.75813,-7.62189,0.0]]]}},{"type":"Feature","properties":{"kecamatan":"Bangil","kab_kota":"Pasuruan"},"geometry":{"type":"Polygon","coordinates":[[[112.78441,-7.60662,0.0],[112.78046,-7.6123,0.0],[112.77811,-7.61135,0.0],[112.7769,-7.61615,0.0],[112.77325,-7.61944,0.0],[112.76941,-7.62172,0.0],[112.76583,-7.62062,0.0],[112.76548,-7.61928,0.0],[112.76864,-7.61785,0.0],[112.7708,-7.61441,0.0],[112.77145,-7.60939,0.0],[112.7705,-7.60812,0.0],[112.77172,-7.6052,0.0],[112.76928,-7.60482,0.0],[112.7716,-7.59779,0.0],[112.76962,-7.59789,0.0],[112.76909,-7.59539,0.0],[112.77096,-7.59576,0.0],[112.77374,-7.58431,0.0],[112.78227,-7.59023,0.0],[112.78494,-7.59047,0.0],[112.78641,-7.58748,0.0],[112.787,-7.58225,0.0],[112.77628,-7.57631,0.0],[112.77695,-7.57254,0.0],[112.77484,-7.57076,0.0],[112.78318,-7.56307,0.0],[112.79049,-7.56443,0.0],[112.79625,-7.56044,0.0],[112.79826,-7.56119,0.0],[112.79846,-7.55831,0.0],[112.79973,-7.55896,0.0],[112.79983,-7.56186,0.0],[112.80144,-7.56205,0.0],[112.80236,-7.55905,0.0],[112.80508,-7.55911,0.0],[112.80514,-7.55611,0.0],[112.80684,-7.555,0.0],[112.81164,-7.55459,0.0],[112.8129,-7.55867,0.0],[112.81673,-7.55887,0.0],[112.82691,-7.55353,0.0],[112.83203,-7.55237,0.0],[112.83579,-7.55434,0.0],[112.83486,-7.55847,0.0],[112.83752,-7.5682,0.0],[112.84511,-7.57743,0.0],[112.85395,-7.57454,0.0],[112.85872,-7.57477,0.0],[112.85907,-7.57309,0.0],[112.86196,-7.57434,0.0],[112.86211,-7.57244,0.0],[112.86506,-7.57346,0.0],[112.8696,-7.57163,0.0],[112.86853,-7.57691,0.0],[112.87099,-7.5803,0.0],[112.86976,-7.5815,0.0],[112.86229,-7.58416,0.0],[112.85657,-7.58032,0.0],[112.85312,-7.58708,0.0],[112.83779,-7.60164,0.0],[112.83797,-7.60797,0.0],[112.83904,-7.60823,0.0],[112.84121,-7.60522,0.0],[112.84272,-7.60531,0.0],[112.84167,-7.60711,0.0],[112.84356,-7.60896,0.0],[112.84345,-7.61332,0.0],[112.8419,-7.61264,0.0],[112.84104,-7.61511,0.0],[112.82982,-7.61316,0.0],[112.82343,-7.61345,0.0],[112.82322,-7.61034,0.0],[112.82472,-7.60741,0.0],[112.81939,-7.60766,0.0],[112.81902,-7.60536,0.0],[112.81209,-7.60604,0.0],[112.81151,-7.60224,0.0],[112.80875,-7.6017,0.0],[112.80884,-7.60578,0.0],[112.80353,-7.60619,0.0],[112.80059,-7.61398,0.0],[112.79889,-7.61468,0.0],[112.79856,-7.61139,0.0],[112.79577,-7.61149,0.0],[112.79537,-7.61404,0.0],[112.79651,-7.61576,0.0],[112.7956,-7.6187,0.0],[112.79213,-7.61983,0.0],[112.78941,-7.61816,0.0],[112.79312,-7.61484,0.0],[112.79385,-7.61178,0.0],[112.79027,-7.61276,0.0],[112.78972,-7.60964,0.0],[112.78441,-7.60662,0.0]]]}},{"type":"Feature","properties":{"kecamatan":"Pandaan","kab_kota":"Pasuruan"},"geometry":{"type":"Polygon","coordinates":[[[112.6966,-7.6745,0.0],[112.69408,-7.67903,0.0],[112.68734,-7.6822,0.0],[112.68584,-7.68532,0.0],[112.67484,-7.67952,0.0],[112.66959,-7.66666,0.0],[112.67378,-7.65947,0.0],[112.67204,-7.65741,0.0],[112.66844,-7.65805,0.0],[112.66737,-7.65626,0.0],[112.67225,-7.65261,0.0],[112.67225,-7.6479,0.0],[112.67088,-7.64665,0.0],[112.66906,-7.64791,0.0],[112.66332,-7.64687,0.0],[112.66405,-7.64144,0.0],[112.66732,-7.63878,0.0],[112.67336,-7.64306,0.0],[112.67598,-7.64308,0.0],[112.68046,-7.63269,0.0],[112.68175,-7.63176,0.0],[112.68489,-7.63283,0.0],[112.68661,-7.62977,0.0],[112.69167,-7.6269,0.0],[112.69698,-7.62677,0.0],[112.69915,-7.62185,0.0],[112.70383,-7.62468,0.0],[112.70793,-7.62982,0.0],[112.7114,-7.62904,0.0],[112.71392,-7.625,0.0],[112.71475,-7.61997,0.0],[112.71312,-7.61944,0.0],[112.71872,-7.6114,0.0],[112.72339,-7.60755,0.0],[112.72722,-7.6135,0.0],[112.72844,-7.62052,0.0],[112.72801,-7.62307,0.0],[112.72293,-7.62555,0.0],[112.72267,-7.63689,0.0],[112.73833,-7.63239,0.0],[112.74152,-7.63279,0.0],[112.74569,-7.62961,0.0],[112.75039,-7.62887,0.0],[112.75608,-7.6229,0.0],[112.76259,-7.62098,0.0],[112.7622,-7.62529,0.0],[112.76075,-7.62654,0.0],[112.76172,-7.62697,0.0],[112.7602,-7.62904,0.0],[112.76096,-7.63233,0.0],[112.7594,-7.63279,0.0],[112.7572,-7.63688,0.0],[112.75626,-7.64202,0.0],[112.75331,-7.64456,0.0],[112.75012,-7.64423,0.0],[112.74635,-7.64784,0.0],[112.73851,-7.65224,0.0],[112.72887,-7.65458,0.0],[112.72718,-7.65901,0.0],[112.72984,-7.66097,0.0],[112.72757,-7.66223,0.0],[112.73221,-7.66679,0.0],[112.72523,-7.67672,0.0],[112.72064,-7.67443,0.0],[112.71731,-7.67102,0.0],[112.71284,-7.67608,0.0],[112.70635,-7.67944,0.0],[112.70507,-7.6818,0.0],[112.70326,-7.68043,0.0],[112.70346,-7.67872,0.0],[112.70225,-7.67895,0.0],[112.69781,-7.67474,0.0],[112.6966,-7.6745,0.0]]]}},{"type":"Feature","properties":{"kecamatan":"Gempol","kab_kota":"Pasuruan"},"geometry":{"type":"Polygon","coordinates":[[[112.68159,-7.63229,0.0],[112.6781,-7.63628,0.0],[112.67849,-7.63842,0.0],[112.67637,-7.64268,0.0],[112.67408,-7.6434,0.0],[112.66732,-7.63878,0.0],[112.66979,-7.63545,0.0],[112.66991,-7.63283,0.0],[112.64018,-7.62933,0.0],[112.63515,-7.62381,0.0],[112.63214,-7.62247,0.0],[112.62871,-7.61718,0.0],[112.63609,-7.61271,0.0],[112.6464,-7.60178,0.0],[112.65226,-7.59768,0.0],[112.65471,-7.59246,0.0],[112.65354,-7.59179,0.0],[112.65593,-7.5855,0.0],[112.65425,-7.58133,0.0],[112.65687,-7.56895,0.0],[112.66078,-7.56654,0.0],[112.66311,-7.56019,0.0],[112.66632,-7.5601,0.0],[112.66611,-7.56115,0.0],[112.67025,-7.5625,0.0],[112.67083,-7.55934,0.0],[112.67414,-7.55861,0.0],[112.67658,-7.55274,0.0],[112.67361,-7.55175,0.0],[112.67405,-7.55037,0.0],[112.67924,-7.54931,0.0],[112.68396,-7.54665,0.0],[112.68562,-7.54839,0.0],[112.68518,-7.5507,0.0],[112.6892,-7.55167,0.0],[112.69099,-7.54628,0.0],[112.7057,-7.54504,0.0],[112.71001,-7.54861,0.0],[112.71189,-7.55737,0.0],[112.71922,-7.56101,0.0],[112.72387,-7.56892,0.0],[112.71781,-7.57752,0.0],[112.71191,-7.58202,0.0],[112.70829,-7.58727,0.0],[112.70648,-7.59286,0.0],[112.70871,-7.59908,0.0],[112.70862,-7.60648,0.0],[112.70983,-7.60709,0.0],[112.70995,-7.60984,0.0],[112.7136,-7.60874,0.0],[112.71409,-7.60754,0.0],[112.72335,-7.60785,0.0],[112.71872,-7.6114,0.0],[112.71312,-7.61944,0.0],[112.71475,-7.61997,0.0],[112.71392,-7.625,0.0],[112.7114,-7.62904,0.0],[112.70793,-7.62982,0.0],[112.70383,-7.62468,0.0],[112.69915,-7.62185,0.0],[112.69698,-7.62677,0.0],[112.69167,-7.6269,0.0],[112.68661,-7.62977,0.0],[112.68489,-7.63283,0.0],[112.68159,-7.63229,0.0]]]}},{"type":"Feature","properties":{"kecamatan":"Pohjentrek","kab_kota":"Pasuruan"},"geometry":{"type":"Polygon","coordinates":[[[112.88603,-7.67947,0.0],[112.88586,-7.68632,0.0],[112.88878,-7.6871,0.0],[112.88784,-7.6916,0.0],[112.88435,-7.69179,0.0],[112.87839,-7.68976,0.0],[112.87835,-7.68801,0.0],[112.87548,-7.68693,0.0],[112.87164,-7.68672,0.0],[112.87048,-7.68793,0.0],[112.87002,-7.68557,0.0],[112.86737,-7.68591,0.0],[112.86403,-7.68377,0.0],[112.86649,-7.678,0.0],[112.86444,-7.67785,0.0],[112.86796,-7.67478,0.0],[112.87063,-7.66886,0.0],[112.87018,-7.66728,0.0],[112.86643,-7.66818,0.0],[112.86548,-7.66679,0.0],[112.86383,-7.66246,0.0],[112.86572,-7.66007,0.0],[112.86515,-7.65779,0.0],[112.8628,-7.65713,0.0],[112.86045,-7.65884,0.0],[112.85379,-7.65892,0.0],[112.85349,-7.65711,0.0],[112.84222,-7.65389,0.0],[112.84381,-7.65002,0.0],[112.84834,-7.65174,0.0],[112.85686,-7.64645,0.0],[112.86025,-7.64759,0.0],[112.86162,-7.64644,0.0],[112.86471,-7.64187,0.0],[112.86169,-7.63935,0.0],[112.86188,-7.63713,0.0],[112.86349,-7.63674,0.0],[112.8656,-7.63343,0.0],[112.86382,-7.63235,0.0],[112.87089,-7.63559,0.0],[112.87549,-7.63445,0.0],[112.87414,-7.63658,0.0],[112.87521,-7.63661,0.0],[112.87598,-7.63946,0.0],[112.8714,-7.65091,0.0],[112.87378,-7.6529,0.0],[112.87236,-7.6556,0.0],[112.87218,-7.66255,0.0],[112.87565,-7.6582,0.0],[112.87706,-7.65872,0.0],[112.87834,-7.65526,0.0],[112.88698,-7.66008,0.0],[112.88692,-7.66244,0.0],[112.88277,-7.66076,0.0],[112.88141,-7.66463,0.0],[112.88647,-7.66732,0.0],[112.8847,-7.67059,0.0],[112.88113,-7.67186,0.0],[112.88469,-7.67398,0.0],[112.8859,-7.67287,0.0],[112.89142,-7.67397,0.0],[112.8894,-7.67527,0.0],[112.88765,-7.67988,0.0],[112.88603,-7.67947,0.0]]]}},{"type":"Feature","properties":{"kecamatan":"Gondangwetan","kab_kota":"Pasuruan"},"geometry":{"type":"Polygon","coordinates":[[[112.91686,-7.72945,0.0],[112.9157,-7.73181,0.0],[112.9164,-7.7343,0.0],[112.92401,-7.73316,0.0],[112.92949,-7.73566,0.0],[112.92846,-7.7382,0.0],[112.9276,-7.73886,0.0],[112.92612,-7.73767,0.0],[112.92324,-7.74222,0.0],[112.91955,-7.74277,0.0],[112.91667,-7.73993,0.0],[112.91379,-7.7393,0.0],[112.90972,-7.74275,0.0],[112.90902,-7.73868,0.0],[112.90592,-7.74051,0.0],[112.9052,-7.73941,0.0],[112.90796,-7.73736,0.0],[112.90953,-7.73264,0.0],[112.90844,-7.73043,0.0],[112.90178,-7.72763,0.0],[112.90189,-7.72954,0.0],[112.89838,-7.73229,0.0],[112.89861,-7.72936,0.0],[112.89579,-7.72806,0.0],[112.89713,-7.72453,0.0],[112.89576,-7.72652,0.0],[112.89366,-7.72669,0.0],[112.89001,-7.72488,0.0],[112.89223,-7.71941,0.0],[112.89018,-7.71811,0.0],[112.88829,-7.71893,0.0],[112.88988,-7.70748,0.0],[112.888,-7.70659,0.0],[112.88995,-7.70274,0.0],[112.8927,-7.70351,0.0],[112.89391,-7.69985,0.0],[112.889,-7.69689,0.0],[112.89111,-7.69405,0.0],[112.88902,-7.69297,0.0],[112.88972,-7.69135,0.0],[112.88799,-7.69031,0.0],[112.88861,-7.68684,0.0],[112.88544,-7.68547,0.0],[112.88639,-7.68401,0.0],[112.88603,-7.67947,0.0],[112.88765,-7.67988,0.0],[112.89016,-7.67452,0.0],[112.89442,-7.67628,0.0],[112.89591,-7.68152,0.0],[112.89523,-7.68492,0.0],[112.90106,-7.6863,0.0],[112.90778,-7.67925,0.0],[112.91088,-7.68016,0.0],[112.90948,-7.68267,0.0],[112.91351,-7.68475,0.0],[112.91687,-7.68556,0.0],[112.91796,-7.68436,0.0],[112.91985,-7.68544,0.0],[112.9216,-7.68466,0.0],[112.92527,-7.68604,0.0],[112.92804,-7.69021,0.0],[112.93298,-7.69132,0.0],[112.93159,-7.69433,0.0],[112.9297,-7.69439,0.0],[112.93417,-7.69664,0.0],[112.93344,-7.69801,0.0],[112.93637,-7.699,0.0],[112.93751,-7.70211,0.0],[112.93327,-7.70834,0.0],[112.93159,-7.70745,0.0],[112.9302,-7.71011,0.0],[112.93281,-7.71147,0.0],[112.93265,-7.71287,0.0],[112.93632,-7.71282,0.0],[112.93734,-7.71151,0.0],[112.94075,-7.71347,0.0],[112.9388,-7.71405,0.0],[112.93684,-7.71684,0.0],[112.9392,-7.71888,0.0],[112.93627,-7.71973,0.0],[112.93474,-7.72182,0.0],[112.93659,-7.72275,0.0],[112.93356,-7.72714,0.0],[112.93452,-7.72779,0.0],[112.93328,-7.73027,0.0],[112.9289,-7.72888,0.0],[112.92324,-7.73062,0.0],[112.92007,-7.72892,0.0],[112.91686,-7.72945,0.0]]]}},{"type":"Feature","properties":{"kecamatan":"Rembang","kab_kota":"Pasuruan"},"geometry":{"type":"Polygon","coordinates":[[[112.80241,-7.68486,0.0],[112.79901,-7.68711,0.0],[112.79229,-7.68478,0.0],[112.79187,-7.68575,0.0],[112.78728,-7.68609,0.0],[112.78052,-7.68513,0.0],[112.77208,-7.68968,0.0],[112.77177,-7.68546,0.0],[112.76561,-7.68684,0.0],[112.7632,-7.68351,0.0],[112.7655,-7.67419,0.0],[112.77065,-7.66985,0.0],[112.77303,-7.66452,0.0],[112.7632,-7.65176,0.0],[112.764,-7.65039,0.0],[112.75626,-7.64202,0.0],[112.75596,-7.64003,0.0],[112.7594,-7.63279,0.0],[112.76096,-7.63233,0.0],[112.7602,-7.62904,0.0],[112.76172,-7.62697,0.0],[112.76075,-7.62654,0.0],[112.7622,-7.62529,0.0],[112.76259,-7.62098,0.0],[112.76648,-7.62037,0.0],[112.76941,-7.62172,0.0],[112.77325,-7.61944,0.0],[112.7769,-7.61615,0.0],[112.77811,-7.61135,0.0],[112.78046,-7.6123,0.0],[112.78441,-7.60662,0.0],[112.78972,-7.60964,0.0],[112.79027,-7.61276,0.0],[112.79385,-7.61178,0.0],[112.79312,-7.61484,0.0],[112.78941,-7.61816,0.0],[112.79128,-7.6196,0.0],[112.79423,-7.61963,0.0],[112.79651,-7.61576,0.0],[112.79537,-7.61404,0.0],[112.79577,-7.61149,0.0],[112.79856,-7.61139,0.0],[112.79889,-7.61468,0.0],[112.80059,-7.61398,0.0],[112.80353,-7.60619,0.0],[112.80884,-7.60578,0.0],[112.80875,-7.6017,0.0],[112.81001,-7.60161,0.0],[112.81151,-7.60224,0.0],[112.81209,-7.60604,0.0],[112.81902,-7.60536,0.0],[112.81939,-7.60766,0.0],[112.82472,-7.60741,0.0],[112.82322,-7.61034,0.0],[112.82343,-7.61345,0.0],[112.82982,-7.61316,0.0],[112.84104,-7.61511,0.0],[112.8377,-7.62202,0.0],[112.83729,-7.62427,0.0],[112.83941,-7.62393,0.0],[112.83996,-7.62586,0.0],[112.83811,-7.62953,0.0],[112.83403,-7.63183,0.0],[112.81927,-7.63563,0.0],[112.82039,-7.6403,0.0],[112.81815,-7.64236,0.0],[112.81971,-7.64794,0.0],[112.82756,-7.6495,0.0],[112.82883,-7.65705,0.0],[112.82799,-7.65782,0.0],[112.83036,-7.65869,0.0],[112.82612,-7.66376,0.0],[112.82624,-7.66747,0.0],[112.82444,-7.66758,0.0],[112.81971,-7.67125,0.0],[112.82067,-7.67295,0.0],[112.81788,-7.67616,0.0],[112.8139,-7.67793,0.0],[112.81377,-7.68053,0.0],[112.80937,-7.68177,0.0],[112.80907,-7.68348,0.0],[112.80398,-7.68602,0.0],[112.80241,-7.68486,0.0]]]}},{"type":"Feature","properties":{"kecamatan":"Kraton","kab_kota":"Pasuruan"},"geometry":{"type":"Polygon","coordinates":[[[112.86161,-7.69963,0.0],[112.83685,-7.69941,0.0],[112.83054,-7.70177,0.0],[112.83298,-7.69826,0.0],[112.83435,-7.69831,0.0],[112.83553,-7.69437,0.0],[112.82976,-7.69225,0.0],[112.82795,-7.69514,0.0],[112.82344,-7.69514,0.0],[112.82321,-7.69206,0.0],[112.82655,-7.68482,0.0],[112.81527,-7.68024,0.0],[112.81318,-7.68116,0.0],[112.8139,-7.67793,0.0],[112.81788,-7.67616,0.0],[112.82067,-7.67295,0.0],[112.81971,-7.67125,0.0],[112.82444,-7.66758,0.0],[112.82614,-7.66764,0.0],[112.82612,-7.66376,0.0],[112.83036,-7.65869,0.0],[112.82799,-7.65782,0.0],[112.82883,-7.65705,0.0],[112.82756,-7.6495,0.0],[112.81971,-7.64794,0.0],[112.81815,-7.64236,0.0],[112.82039,-7.6403,0.0],[112.81927,-7.63563,0.0],[112.83403,-7.63183,0.0],[112.83842,-7.62914,0.0],[112.83995,-7.62572,0.0],[112.83941,-7.62393,0.0],[112.83729,-7.62427,0.0],[112.8377,-7.62202,0.0],[112.8419,-7.61264,0.0],[112.84345,-7.61332,0.0],[112.8439,-7.61049,0.0],[112.84167,-7.60711,0.0],[112.84208,-7.60498,0.0],[112.83904,-7.60823,0.0],[112.83797,-7.60797,0.0],[112.83739,-7.60238,0.0],[112.85312,-7.58708,0.0],[112.85657,-7.58032,0.0],[112.86229,-7.58416,0.0],[112.86742,-7.58285,0.0],[112.87099,-7.5803,0.0],[112.87348,-7.58132,0.0],[112.87553,-7.58447,0.0],[112.8759,-7.58925,0.0],[112.8785,-7.59607,0.0],[112.88094,-7.59907,0.0],[112.88293,-7.60686,0.0],[112.8877,-7.6131,0.0],[112.88836,-7.61604,0.0],[112.8908,-7.61659,0.0],[112.89313,-7.61973,0.0],[112.89519,-7.61995,0.0],[112.8966,-7.62228,0.0],[112.90257,-7.62525,0.0],[112.90123,-7.62893,0.0],[112.89841,-7.6282,0.0],[112.89411,-7.62454,0.0],[112.89155,-7.62646,0.0],[112.8859,-7.62341,0.0],[112.88458,-7.62743,0.0],[112.88601,-7.62812,0.0],[112.88434,-7.63186,0.0],[112.8789,-7.63043,0.0],[112.87753,-7.62793,0.0],[112.87467,-7.62679,0.0],[112.8737,-7.63189,0.0],[112.87153,-7.63527,0.0],[112.86382,-7.63235,0.0],[112.8656,-7.63343,0.0],[112.86349,-7.63674,0.0],[112.86188,-7.63713,0.0],[112.86169,-7.63935,0.0],[112.86471,-7.64187,0.0],[112.86025,-7.64759,0.0],[112.85686,-7.64645,0.0],[112.84834,-7.65174,0.0],[112.84381,-7.65002,0.0],[112.84228,-7.65396,0.0],[112.85349,-7.65711,0.0],[112.85328,-7.65883,0.0],[112.86019,-7.65889,0.0],[112.8628,-7.65713,0.0],[112.86515,-7.65779,0.0],[112.86572,-7.66007,0.0],[112.86383,-7.66246,0.0],[112.86548,-7.66679,0.0],[112.86643,-7.66818,0.0],[112.87018,-7.66728,0.0],[112.87063,-7.66886,0.0],[112.86796,-7.67478,0.0],[112.86444,-7.67785,0.0],[112.86649,-7.678,0.0],[112.86365,-7.68349,0.0],[112.86737,-7.68591,0.0],[112.87024,-7.68571,0.0],[112.87014,-7.69109,0.0],[112.87344,-7.69241,0.0],[112.87157,-7.69696,0.0],[112.86655,-7.69938,0.0],[112.86314,-7.69837,0.0],[112.86161,-7.69963,0.0]]]}},{"type":"Feature","properties":{"kecamatan":"Prigen","kab_kota":"Pasuruan"},"geometry":{"type":"Polygon","coordinates":[[[112.62844,-7.75918,0.0],[112.62479,-7.75988,0.0],[112.62009,-7.75772,0.0],[112.60673,-7.75894,0.0],[112.59002,-7.76538,0.0],[112.58771,-7.76248,0.0],[112.58756,-7.75355,0.0],[112.58199,-7.75146,0.0],[112.57781,-7.73708,0.0],[112.57481,-7.73252,0.0],[112.58565,-7.72069,0.0],[112.58933,-7.71393,0.0],[112.58926,-7.70986,0.0],[112.59172,-7.70684,0.0],[112.59338,-7.7014,0.0],[112.59546,-7.70093,0.0],[112.59754,-7.69793,0.0],[112.59819,-7.69438,0.0],[112.60207,-7.68997,0.0],[112.60893,-7.68711,0.0],[112.61441,-7.68168,0.0],[112.62359,-7.66681,0.0],[112.62217,-7.66137,0.0],[112.62529,-7.6583,0.0],[112.62782,-7.65291,0.0],[112.62579,-7.649,0.0],[112.62871,-7.64322,0.0],[112.6269,-7.63699,0.0],[112.62258,-7.633,0.0],[112.62034,-7.62278,0.0],[112.62077,-7.61522,0.0],[112.62871,-7.61718,0.0],[112.63214,-7.62247,0.0],[112.63515,-7.62381,0.0],[112.64018,-7.62933,0.0],[112.67012,-7.63303,0.0],[112.6695,-7.63596,0.0],[112.66381,-7.64188,0.0],[112.66324,-7.64658,0.0],[112.66895,-7.64791,0.0],[112.67088,-7.64665,0.0],[112.67225,-7.6479,0.0],[112.67225,-7.65261,0.0],[112.66735,-7.65586,0.0],[112.66844,-7.65805,0.0],[112.67204,-7.65741,0.0],[112.67378,-7.65947,0.0],[112.66962,-7.66589,0.0],[112.67216,-7.6744,0.0],[112.67623,-7.68069,0.0],[112.69716,-7.69004,0.0],[112.69875,-7.69201,0.0],[112.6988,-7.69422,0.0],[112.69551,-7.69673,0.0],[112.69505,-7.70224,0.0],[112.68835,-7.71314,0.0],[112.68989,-7.72526,0.0],[112.69335,-7.72427,0.0],[112.70024,-7.73484,0.0],[112.69545,-7.74066,0.0],[112.68895,-7.74388,0.0],[112.6821,-7.75149,0.0],[112.68258,-7.75599,0.0],[112.68074,-7.76045,0.0],[112.67347,-7.76027,0.0],[112.66846,-7.76269,0.0],[112.65748,-7.76222,0.0],[112.65269,-7.76392,0.0],[112.63251,-7.76186,0.0],[112.62844,-7.75918,0.0]]]}},{"type":"Feature","properties":{"kecamatan":"Winongan","kab_kota":"Pasuruan"},"geometry":{"type":"Polygon","coordinates":[[[112.91272,-7.7781,0.0],[112.91316,-7.77604,0.0],[112.90979,-7.77318,0.0],[112.90838,-7.76888,0.0],[112.907,-7.7695,0.0],[112.90803,-7.76714,0.0],[112.90241,-7.76461,0.0],[112.90633,-7.75893,0.0],[112.90317,-7.75568,0.0],[112.90505,-7.75394,0.0],[112.90398,-7.75348,0.0],[112.90414,-7.75169,0.0],[112.91075,-7.74654,0.0],[112.91364,-7.73933,0.0],[112.91667,-7.73993,0.0],[112.91955,-7.74277,0.0],[112.92324,-7.74222,0.0],[112.92495,-7.73858,0.0],[112.92652,-7.73751,0.0],[112.92777,-7.73885,0.0],[112.92951,-7.73582,0.0],[112.92339,-7.73303,0.0],[112.92246,-7.73414,0.0],[112.9164,-7.7343,0.0],[112.9157,-7.73181,0.0],[112.9169,-7.72913,0.0],[112.92007,-7.72892,0.0],[112.92324,-7.73062,0.0],[112.9289,-7.72888,0.0],[112.93328,-7.73027,0.0],[112.93452,-7.72779,0.0],[112.93356,-7.72714,0.0],[112.93659,-7.72275,0.0],[112.93474,-7.72182,0.0],[112.93627,-7.71973,0.0],[112.9392,-7.71888,0.0],[112.9368,-7.7171,0.0],[112.93795,-7.7151,0.0],[112.94075,-7.71347,0.0],[112.94372,-7.71454,0.0],[112.94681,-7.71209,0.0],[112.95494,-7.71505,0.0],[112.95701,-7.71369,0.0],[112.96157,-7.71468,0.0],[112.96326,-7.71584,0.0],[112.96252,-7.71796,0.0],[112.96994,-7.72029,0.0],[112.97211,-7.72016,0.0],[112.97276,-7.71758,0.0],[112.97497,-7.71885,0.0],[112.97581,-7.72025,0.0],[112.9749,-7.72263,0.0],[112.97341,-7.72161,0.0],[112.97253,-7.72296,0.0],[112.97401,-7.72781,0.0],[112.98259,-7.73113,0.0],[112.98261,-7.73677,0.0],[112.98119,-7.73759,0.0],[112.97769,-7.7364,0.0],[112.97703,-7.73316,0.0],[112.97308,-7.72949,0.0],[112.96849,-7.73104,0.0],[112.96807,-7.73224,0.0],[112.96957,-7.73268,0.0],[112.96894,-7.73496,0.0],[112.96648,-7.73537,0.0],[112.96674,-7.7399,0.0],[112.96837,-7.74077,0.0],[112.9688,-7.7438,0.0],[112.98509,-7.74731,0.0],[112.98196,-7.75176,0.0],[112.98182,-7.75486,0.0],[112.97878,-7.76098,0.0],[112.98086,-7.77449,0.0],[112.98445,-7.77566,0.0],[112.9848,-7.77388,0.0],[112.98738,-7.77765,0.0],[112.96409,-7.7751,0.0],[112.96487,-7.76494,0.0],[112.96138,-7.76338,0.0],[112.95377,-7.76417,0.0],[112.95105,-7.76625,0.0],[112.94615,-7.76615,0.0],[112.94471,-7.77649,0.0],[112.94133,-7.777,0.0],[112.94044,-7.77982,0.0],[112.9341,-7.78043,0.0],[112.93393,-7.77864,0.0],[112.91272,-7.7781,0.0]]]}},{"type":"Feature","properties":{"kecamatan":"Tosari","kab_kota":"Pasuruan"},"geometry":{"type":"Polygon","coordinates":[[[112.93669,-7.95144,0.0],[112.93467,-7.95623,0.0],[112.92058,-7.95471,0.0],[112.91527,-7.95133,0.0],[112.9122,-7.94529,0.0],[112.90599,-7.94076,0.0],[112.8928,-7.9389,0.0],[112.88585,-7.92848,0.0],[112.88406,-7.92039,0.0],[112.87101,-7.91603,0.0],[112.86771,-7.91326,0.0],[112.86319,-7.91254,0.0],[112.86219,-7.90838,0.0],[112.85761,-7.90437,0.0],[112.85587,-7.90072,0.0],[112.85023,-7.89463,0.0],[112.85689,-7.89108,0.0],[112.8594,-7.88668,0.0],[112.85338,-7.87887,0.0],[112.85435,-7.87499,0.0],[112.87455,-7.85828,0.0],[112.87787,-7.85677,0.0],[112.88618,-7.84601,0.0],[112.88846,-7.84578,0.0],[112.88942,-7.84299,0.0],[112.89592,-7.84282,0.0],[112.90261,-7.83376,0.0],[112.9042,-7.83388,0.0],[112.90598,-7.83668,0.0],[112.91,-7.83672,0.0],[112.91244,-7.84065,0.0],[112.91216,-7.8466,0.0],[112.91396,-7.84947,0.0],[112.91164,-7.85451,0.0],[112.91396,-7.85695,0.0],[112.9122,-7.8593,0.0],[112.91471,-7.86273,0.0],[112.91376,-7.86731,0.0],[112.91768,-7.87213,0.0],[112.92493,-7.87561,0.0],[112.93096,-7.88372,0.0],[112.9338,-7.89295,0.0],[112.93565,-7.90542,0.0],[112.94838,-7.90828,0.0],[112.94743,-7.90879,0.0],[112.95661,-7.91658,0.0],[112.95256,-7.92879,0.0],[112.95256,-7.94545,0.0],[112.94983,-7.94534,0.0],[112.94495,-7.94948,0.0],[112.94033,-7.94867,0.0],[112.93669,-7.95144,0.0]]]}},{"type":"Feature","properties":{"kecamatan":"Lekok","kab_kota":"Pasuruan"},"geometry":{"type":"Polygon","coordinates":[[[112.98648,-7.70193,0.0],[112.98356,-7.70174,0.0],[112.98392,-7.69922,0.0],[112.98225,-7.69871,0.0],[112.9813,-7.69657,0.0],[112.97682,-7.69535,0.0],[112.97912,-7.6892,0.0],[112.97814,-7.68791,0.0],[112.97953,-7.68617,0.0],[112.97754,-7.68539,0.0],[112.97984,-7.67664,0.0],[112.9787,-7.675,0.0],[112.9795,-7.67285,0.0],[112.974,-7.66947,0.0],[112.96822,-7.66945,0.0],[112.96614,-7.6678,0.0],[112.96588,-7.66445,0.0],[112.96443,-7.66403,0.0],[112.96364,-7.66068,0.0],[112.96006,-7.65776,0.0],[112.9602,-7.65503,0.0],[112.9576,-7.65334,0.0],[112.95964,-7.65092,0.0],[112.96228,-7.65083,0.0],[112.95881,-7.65064,0.0],[112.95887,-7.64931,0.0],[112.95682,-7.64824,0.0],[112.95765,-7.64391,0.0],[112.95594,-7.64357,0.0],[112.95738,-7.63819,0.0],[112.96075,-7.63547,0.0],[112.96073,-7.63312,0.0],[112.96941,-7.64555,0.0],[112.96837,-7.64683,0.0],[112.97065,-7.64794,0.0],[112.97033,-7.64885,0.0],[112.97636,-7.65334,0.0],[112.98474,-7.65637,0.0],[112.98835,-7.6572,0.0],[112.99028,-7.65554,0.0],[112.99083,-7.65737,0.0],[112.99272,-7.65755,0.0],[112.99865,-7.65496,0.0],[113.01714,-7.65152,0.0],[113.02106,-7.64872,0.0],[113.02297,-7.64909,0.0],[113.02205,-7.6443,0.0],[113.0267,-7.64451,0.0],[113.02692,-7.64118,0.0],[113.028,-7.64126,0.0],[113.02867,-7.64866,0.0],[113.04515,-7.65489,0.0],[113.05583,-7.66203,0.0],[113.05185,-7.6655,0.0],[113.05237,-7.66813,0.0],[113.05079,-7.66938,0.0],[113.05183,-7.67157,0.0],[113.04659,-7.67782,0.0],[113.04761,-7.68078,0.0],[113.04543,-7.68152,0.0],[113.04487,-7.68342,0.0],[113.04463,-7.68566,0.0],[113.04938,-7.68794,0.0],[113.04759,-7.6919,0.0],[113.04378,-7.69229,0.0],[113.04112,-7.70003,0.0],[113.03435,-7.70188,0.0],[113.03154,-7.70032,0.0],[113.03065,-7.70211,0.0],[113.03271,-7.70423,0.0],[113.03145,-7.70676,0.0],[113.02749,-7.70378,0.0],[113.02352,-7.70349,0.0],[113.0239,-7.70238,0.0],[113.02261,-7.70164,0.0],[113.01879,-7.70438,0.0],[113.01418,-7.70187,0.0],[113.01127,-7.70575,0.0],[113.01003,-7.71121,0.0],[112.99688,-7.70745,0.0],[112.98648,-7.70193,0.0]]]}},{"type":"Feature","properties":{"kecamatan":"Rejoso","kab_kota":"Pasuruan"},"geometry":{"type":"Polygon","coordinates":[[[112.94681,-7.71209,0.0],[112.94372,-7.71454,0.0],[112.93734,-7.71151,0.0],[112.93632,-7.71282,0.0],[112.93232,-7.71272,0.0],[112.93281,-7.71147,0.0],[112.9302,-7.71011,0.0],[112.93091,-7.70836,0.0],[112.93159,-7.70745,0.0],[112.93327,-7.70834,0.0],[112.93751,-7.70211,0.0],[112.93637,-7.699,0.0],[112.93344,-7.69801,0.0],[112.93417,-7.69664,0.0],[112.9297,-7.69439,0.0],[112.93159,-7.69433,0.0],[112.93298,-7.69132,0.0],[112.92804,-7.69021,0.0],[112.92527,-7.68604,0.0],[112.9216,-7.68466,0.0],[112.91571,-7.68544,0.0],[112.90948,-7.68267,0.0],[112.91075,-7.67849,0.0],[112.91403,-7.6795,0.0],[112.91526,-7.67706,0.0],[112.91685,-7.67819,0.0],[112.9186,-7.67392,0.0],[112.92256,-7.67576,0.0],[112.92608,-7.66987,0.0],[112.92806,-7.66853,0.0],[112.93136,-7.66871,0.0],[112.93637,-7.66146,0.0],[112.93494,-7.6596,0.0],[112.93677,-7.65812,0.0],[112.93621,-7.65653,0.0],[112.94301,-7.65557,0.0],[112.94311,-7.65284,0.0],[112.94525,-7.65134,0.0],[112.94535,-7.64792,0.0],[112.94246,-7.64658,0.0],[112.94427,-7.64475,0.0],[112.94617,-7.63781,0.0],[112.9519,-7.63328,0.0],[112.95314,-7.6218,0.0],[112.95436,-7.62114,0.0],[112.95825,-7.62263,0.0],[112.96076,-7.63328,0.0],[112.96075,-7.63547,0.0],[112.95738,-7.63819,0.0],[112.95594,-7.64357,0.0],[112.95765,-7.64391,0.0],[112.95682,-7.64824,0.0],[112.95887,-7.64931,0.0],[112.95881,-7.65064,0.0],[112.96228,-7.65083,0.0],[112.95964,-7.65092,0.0],[112.9576,-7.65334,0.0],[112.9602,-7.65503,0.0],[112.96006,-7.65776,0.0],[112.96364,-7.66068,0.0],[112.96443,-7.66403,0.0],[112.96588,-7.66445,0.0],[112.96614,-7.6678,0.0],[112.96822,-7.66945,0.0],[112.974,-7.66947,0.0],[112.9795,-7.67285,0.0],[112.9787,-7.675,0.0],[112.97984,-7.67664,0.0],[112.97754,-7.68539,0.0],[112.97953,-7.68617,0.0],[112.97814,-7.68791,0.0],[112.97912,-7.6892,0.0],[112.97682,-7.69535,0.0],[112.9813,-7.69657,0.0],[112.98225,-7.69871,0.0],[112.98392,-7.69922,0.0],[112.98356,-7.70174,0.0],[112.975,-7.6986,0.0],[112.97353,-7.70366,0.0],[112.96776,-7.70096,0.0],[112.96297,-7.71572,0.0],[112.95701,-7.71369,0.0],[112.95494,-7.71505,0.0],[112.94681,-7.71209,0.0]]]}},{"type":"Feature","properties":{"kecamatan":"Grati","kab_kota":"Pasuruan"},"geometry":{"type":"Polygon","coordinates":[[[112.9901,-7.77109,0.0],[112.98863,-7.77662,0.0],[112.98738,-7.77765,0.0],[112.9848,-7.77388,0.0],[112.98445,-7.77566,0.0],[112.98164,-7.77526,0.0],[112.97966,-7.77154,0.0],[112.98037,-7.76632,0.0],[112.97891,-7.75941,0.0],[112.98509,-7.74731,0.0],[112.9688,-7.7438,0.0],[112.96837,-7.74077,0.0],[112.96674,-7.7399,0.0],[112.96648,-7.73537,0.0],[112.96894,-7.73496,0.0],[112.96957,-7.73268,0.0],[112.96807,-7.73224,0.0],[112.96902,-7.73058,0.0],[112.9735,-7.72961,0.0],[112.97703,-7.73316,0.0],[112.97744,-7.73617,0.0],[112.98119,-7.73759,0.0],[112.98275,-7.73635,0.0],[112.98259,-7.73113,0.0],[112.97401,-7.72781,0.0],[112.97253,-7.72296,0.0],[112.97341,-7.72161,0.0],[112.9749,-7.72263,0.0],[112.97581,-7.72025,0.0],[112.97497,-7.71885,0.0],[112.97276,-7.71758,0.0],[112.97211,-7.72016,0.0],[112.96994,-7.72029,0.0],[112.96252,-7.71796,0.0],[112.96452,-7.70867,0.0],[112.96522,-7.7067,0.0],[112.96641,-7.70698,0.0],[112.96776,-7.70096,0.0],[112.97353,-7.70366,0.0],[112.975,-7.6986,0.0],[112.98564,-7.7025,0.0],[112.98724,-7.70185,0.0],[112.98837,-7.70374,0.0],[112.99688,-7.70745,0.0],[113.00975,-7.71111,0.0],[113.00609,-7.71416,0.0],[113.01578,-7.71652,0.0],[113.01737,-7.71503,0.0],[113.02456,-7.71605,0.0],[113.03515,-7.71423,0.0],[113.03471,-7.71547,0.0],[113.0359,-7.71621,0.0],[113.03411,-7.72147,0.0],[113.03213,-7.72035,0.0],[113.03102,-7.72482,0.0],[113.03503,-7.72542,0.0],[113.03751,-7.72821,0.0],[113.03396,-7.72884,0.0],[113.0333,-7.73096,0.0],[113.03681,-7.73251,0.0],[113.03467,-7.74153,0.0],[113.03725,-7.74246,0.0],[113.03555,-7.74955,0.0],[113.04014,-7.75105,0.0],[113.04003,-7.75254,0.0],[113.04275,-7.75384,0.0],[113.04045,-7.75615,0.0],[113.04174,-7.76518,0.0],[113.03677,-7.76591,0.0],[113.03796,-7.77209,0.0],[113.01235,-7.76537,0.0],[113.01027,-7.76955,0.0],[112.99869,-7.76909,0.0],[112.9901,-7.77109,0.0]]]}},{"type":"Feature","properties":{"kecamatan":"Nguling","kab_kota":"Pasuruan"},"geometry":{"type":"Polygon","coordinates":[[[113.05643,-7.76431,0.0],[113.05317,-7.76705,0.0],[113.05017,-7.7759,0.0],[113.05283,-7.77951,0.0],[113.0537,-7.78528,0.0],[113.05176,-7.79063,0.0],[113.05283,-7.79607,0.0],[113.05143,-7.80052,0.0],[113.04949,-7.7997,0.0],[113.04805,-7.79666,0.0],[113.04823,-7.78846,0.0],[113.04086,-7.78094,0.0],[113.04132,-7.77875,0.0],[113.03991,-7.77436,0.0],[113.0381,-7.77291,0.0],[113.037,-7.76781,0.0],[113.03677,-7.76591,0.0],[113.04174,-7.76518,0.0],[113.04045,-7.75615,0.0],[113.04275,-7.75384,0.0],[113.04003,-7.75254,0.0],[113.04014,-7.75105,0.0],[113.03555,-7.74955,0.0],[113.03725,-7.74246,0.0],[113.03467,-7.74153,0.0],[113.03681,-7.73251,0.0],[113.0333,-7.73096,0.0],[113.03396,-7.72884,0.0],[113.03751,-7.72821,0.0],[113.03503,-7.72542,0.0],[113.03102,-7.72482,0.0],[113.03213,-7.72035,0.0],[113.03387,-7.7217,0.0],[113.03587,-7.71736,0.0],[113.03515,-7.71423,0.0],[113.02456,-7.71605,0.0],[113.01737,-7.71503,0.0],[113.01578,-7.71652,0.0],[113.00609,-7.71416,0.0],[113.01003,-7.71121,0.0],[113.01127,-7.70575,0.0],[113.01418,-7.70187,0.0],[113.01879,-7.70438,0.0],[113.02261,-7.70164,0.0],[113.0239,-7.70238,0.0],[113.02352,-7.70349,0.0],[113.02749,-7.70378,0.0],[113.03145,-7.70676,0.0],[113.03271,-7.70423,0.0],[113.03065,-7.70211,0.0],[113.03154,-7.70032,0.0],[113.03478,-7.70186,0.0],[113.04144,-7.69978,0.0],[113.04378,-7.69229,0.0],[113.04759,-7.6919,0.0],[113.04917,-7.68897,0.0],[113.04814,-7.68653,0.0],[113.04463,-7.68566,0.0],[113.04487,-7.68342,0.0],[113.04543,-7.68152,0.0],[113.04761,-7.68078,0.0],[113.04659,-7.67782,0.0],[113.05183,-7.67157,0.0],[113.05079,-7.66938,0.0],[113.05237,-7.66813,0.0],[113.05185,-7.6655,0.0],[113.05583,-7.66203,0.0],[113.06662,-7.67315,0.0],[113.07877,-7.69349,0.0],[113.08186,-7.69689,0.0],[113.08318,-7.69603,0.0],[113.08476,-7.69684,0.0],[113.08389,-7.69772,0.0],[113.08482,-7.70049,0.0],[113.08683,-7.70024,0.0],[113.08614,-7.70142,0.0],[113.08767,-7.7033,0.0],[113.09171,-7.70253,0.0],[113.09565,-7.70407,0.0],[113.10021,-7.70194,0.0],[113.09778,-7.70518,0.0],[113.09329,-7.708,0.0],[113.08812,-7.70742,0.0],[113.08642,-7.70999,0.0],[113.08503,-7.70976,0.0],[113.08217,-7.71349,0.0],[113.08258,-7.71453,0.0],[113.08094,-7.71466,0.0],[113.08127,-7.71646,0.0],[113.07843,-7.72137,0.0],[113.07577,-7.72106,0.0],[113.07622,-7.72326,0.0],[113.07306,-7.72496,0.0],[113.07103,-7.73318,0.0],[113.07007,-7.73278,0.0],[113.06921,-7.73541,0.0],[113.06617,-7.73798,0.0],[113.06484,-7.73747,0.0],[113.0645,-7.73957,0.0],[113.06012,-7.74181,0.0],[113.0566,-7.74542,0.0],[113.05468,-7.74827,0.0],[113.05596,-7.75292,0.0],[113.05542,-7.75677,0.0],[113.05708,-7.75943,0.0],[113.05643,-7.76431,0.0]]]}}]}