{"type":"FeatureCollection","features":[{"type":"Feature","properties":{"kecamatan":"Silo","kab_kota":"Jember"},"geometry":{"type":"Polygon","coordinates":[[[113.93078,-8.28471,0.0],[113.92901,-8.29222,0.0],[113.92538,-8.29423,0.0],[113.92458,-8.29981,0.0],[113.92249,-8.30283,0.0],[113.92115,-8.30845,0.0],[113.92366,-8.31015,0.0],[113.92558,-8.31767,0.0],[113.92837,-8.31996,0.0],[113.92572,-8.32337,0.0],[113.9264,-8.32653,0.0],[113.92406,-8.33141,0.0],[113.92422,-8.33491,0.0],[113.91333,-8.33994,0.0],[113.91004,-8.34658,0.0],[113.90839,-8.34373,0.0],[113.90375,-8.34247,0.0],[113.90139,-8.34391,0.0],[113.90185,-8.34526,0.0],[113.90035,-8.3469,0.0],[113.89779,-8.34684,0.0],[113.89844,-8.34516,0.0],[113.89661,-8.34434,0.0],[113.89429,-8.34617,0.0],[113.88876,-8.34668,0.0],[113.8867,-8.3435,0.0],[113.88265,-8.34521,0.0],[113.88162,-8.34341,0.0],[113.87922,-8.34447,0.0],[113.87862,-8.34223,0.0],[113.87732,-8.34191,0.0],[113.87399,-8.34531,0.0],[113.87134,-8.34526,0.0],[113.87012,-8.35244,0.0],[113.86555,-8.35587,0.0],[113.86887,-8.35743,0.0],[113.86372,-8.36131,0.0],[113.86172,-8.36136,0.0],[113.85889,-8.3671,0.0],[113.85702,-8.36765,0.0],[113.85831,-8.37519,0.0],[113.85189,-8.3801,0.0],[113.84703,-8.3812,0.0],[113.84694,-8.37871,0.0],[113.84335,-8.37832,0.0],[113.83917,-8.37377,0.0],[113.84012,-8.37045,0.0],[113.83835,-8.36766,0.0],[113.83874,-8.36509,0.0],[113.83275,-8.36335,0.0],[113.82952,-8.35645,0.0],[113.8265,-8.35811,0.0],[113.82437,-8.36237,0.0],[113.81777,-8.35951,0.0],[113.81017,-8.36302,0.0],[113.80534,-8.36116,0.0],[113.79763,-8.36522,0.0],[113.78906,-8.36553,0.0],[113.78821,-8.36316,0.0],[113.78926,-8.36121,0.0],[113.78684,-8.35728,0.0],[113.78689,-8.35087,0.0],[113.78548,-8.34958,0.0],[113.78344,-8.33552,0.0],[113.78554,-8.32945,0.0],[113.7822,-8.32495,0.0],[113.77005,-8.32482,0.0],[113.76887,-8.32775,0.0],[113.76305,-8.33193,0.0],[113.7592,-8.33275,0.0],[113.75842,-8.33165,0.0],[113.75509,-8.3338,0.0],[113.75667,-8.33186,0.0],[113.75589,-8.33058,0.0],[113.7538,-8.33144,0.0],[113.75239,-8.33431,0.0],[113.75191,-8.33193,0.0],[113.74978,-8.33205,0.0],[113.74752,-8.33285,0.0],[113.74675,-8.3349,0.0],[113.7426,-8.33492,0.0],[113.74274,-8.331,0.0],[113.73602,-8.33201,0.0],[113.73692,-8.32828,0.0],[113.73541,-8.32697,0.0],[113.73809,-8.32322,0.0],[113.73287,-8.32471,0.0],[113.7273,-8.31834,0.0],[113.72484,-8.31861,0.0],[113.72602,-8.30665,0.0],[113.73104,-8.30193,0.0],[113.73229,-8.30511,0.0],[113.73887,-8.30222,0.0],[113.74169,-8.30454,0.0],[113.74145,-8.30029,0.0],[113.74246,-8.29815,0.0],[113.74413,-8.29868,0.0],[113.74428,-8.29577,0.0],[113.74642,-8.29696,0.0],[113.74907,-8.29544,0.0],[113.75052,-8.30008,0.0],[113.7543,-8.30263,0.0],[113.75427,-8.29919,0.0],[113.75713,-8.29928,0.0],[113.75778,-8.29818,0.0],[113.76289,-8.30089,0.0],[113.76833,-8.30488,0.0],[113.76934,-8.3093,0.0],[113.77957,-8.30125,0.0],[113.78307,-8.2919,0.0],[113.78259,-8.2839,0.0],[113.78074,-8.27766,0.0],[113.78422,-8.26987,0.0],[113.78682,-8.25502,0.0],[113.78535,-8.25061,0.0],[113.78637,-8.24851,0.0],[113.78579,-8.24461,0.0],[113.80481,-8.24025,0.0],[113.80704,-8.238,0.0],[113.80901,-8.23809,0.0],[113.81396,-8.23527,0.0],[113.81718,-8.23078,0.0],[113.82459,-8.22673,0.0],[113.831,-8.22751,0.0],[113.83303,-8.22654,0.0],[113.83545,-8.22253,0.0],[113.83528,-8.21923,0.0],[113.84055,-8.21608,0.0],[113.84191,-8.2131,0.0],[113.84371,-8.21285,0.0],[113.84759,-8.20529,0.0],[113.84711,-8.19913,0.0],[113.84813,-8.19635,0.0],[113.84506,-8.18807,0.0],[113.84981,-8.1842,0.0],[113.85048,-8.17743,0.0],[113.85315,-8.17995,0.0],[113.86369,-8.17771,0.0],[113.87176,-8.18185,0.0],[113.87176,-8.17976,0.0],[113.87015,-8.17831,0.0],[113.88071,-8.18014,0.0],[113.88394,-8.17585,0.0],[113.88762,-8.17451,0.0],[113.89247,-8.17557,0.0],[113.89456,-8.17336,0.0],[113.89708,-8.17347,0.0],[113.89881,-8.17104,0.0],[113.90734,-8.17485,0.0],[113.91148,-8.17479,0.0],[113.91376,-8.17307,0.0],[113.91611,-8.17322,0.0],[113.91893,-8.16961,0.0],[113.93061,-8.16432,0.0],[113.93681,-8.16737,0.0],[113.94614,-8.16709,0.0],[113.94707,-8.16917,0.0],[113.94982,-8.16831,0.0],[113.95559,-8.17143,0.0],[113.9591,-8.16996,0.0],[113.96696,-8.17197,0.0],[113.97502,-8.16894,0.0],[113.98255,-8.16164,0.0],[113.98954,-8.15963,0.0],[113.99409,-8.15451,0.0],[114.00002,-8.1509,0.0],[114.00811,-8.14889,0.0],[114.01736,-8.14072,0.0],[114.02456,-8.14008,0.0],[114.01768,-8.14635,0.0],[114.0065,-8.16079,0.0],[114.00424,-8.16219,0.0],[114.0039,-8.16549,0.0],[114.00009,-8.16917,0.0],[113.99645,-8.1765,0.0],[113.99028,-8.18295,0.0],[113.98083,-8.18748,0.0],[113.97075,-8.18959,0.0],[113.96431,-8.20038,0.0],[113.95787,-8.20585,0.0],[113.95762,-8.20702,0.0],[113.96005,-8.20822,0.0],[113.96537,-8.21844,0.0],[113.96812,-8.22061,0.0],[113.96531,-8.22553,0.0],[113.9667,-8.23227,0.0],[113.96285,-8.24042,0.0],[113.9536,-8.24884,0.0],[113.94977,-8.26072,0.0],[113.941,-8.26857,0.0],[113.935,-8.2708,0.0],[113.93382,-8.27582,0.0],[113.93436,-8.28136,0.0],[113.93078,-8.28471,0.0]]]}},{"type":"Feature","properties":{"kecamatan":"Sumberjambe","kab_kota":"Jember"},"geometry":{"type":"Polygon","coordinates":[[[114.03988,-8.11351,0.0],[114.04569,-8.12318,0.0],[114.03609,-8.12399,0.0],[114.02628,-8.1216,0.0],[114.01126,-8.12158,0.0],[114.00397,-8.12311,0.0],[113.99293,-8.11552,0.0],[113.98318,-8.11429,0.0],[113.96835,-8.11746,0.0],[113.95916,-8.11615,0.0],[113.9509,-8.11807,0.0],[113.94162,-8.1156,0.0],[113.93305,-8.11819,0.0],[113.92836,-8.11679,0.0],[113.92009,-8.11818,0.0],[113.91657,-8.11689,0.0],[113.914,-8.11824,0.0],[113.90843,-8.11522,0.0],[113.90572,-8.11602,0.0],[113.89685,-8.11057,0.0],[113.89359,-8.11087,0.0],[113.88669,-8.10837,0.0],[113.88164,-8.10467,0.0],[113.87903,-8.10425,0.0],[113.87744,-8.10208,0.0],[113.87317,-8.10086,0.0],[113.86858,-8.10159,0.0],[113.86509,-8.09833,0.0],[113.85831,-8.09607,0.0],[113.85918,-8.08289,0.0],[113.86109,-8.07632,0.0],[113.88729,-8.07995,0.0],[113.88787,-8.07504,0.0],[113.88466,-8.0736,0.0],[113.88277,-8.07605,0.0],[113.87932,-8.07509,0.0],[113.87802,-8.07293,0.0],[113.87324,-8.07051,0.0],[113.87337,-8.06854,0.0],[113.87037,-8.06777,0.0],[113.86851,-8.06311,0.0],[113.86597,-8.06105,0.0],[113.86403,-8.06119,0.0],[113.86395,-8.05678,0.0],[113.86742,-8.05422,0.0],[113.86736,-8.05177,0.0],[113.86513,-8.04916,0.0],[113.86488,-8.04617,0.0],[113.86119,-8.04486,0.0],[113.8612,-8.04274,0.0],[113.85802,-8.04124,0.0],[113.86116,-8.04129,0.0],[113.86127,-8.03937,0.0],[113.86322,-8.03938,0.0],[113.86652,-8.03078,0.0],[113.87203,-8.03253,0.0],[113.87279,-8.02782,0.0],[113.88497,-8.0299,0.0],[113.88643,-8.02606,0.0],[113.88367,-8.02459,0.0],[113.88544,-8.01899,0.0],[113.88736,-8.01774,0.0],[113.88696,-8.01643,0.0],[113.88945,-8.01545,0.0],[113.89499,-8.01594,0.0],[113.89617,-8.01831,0.0],[113.90276,-8.01831,0.0],[113.9037,-8.02024,0.0],[113.90687,-8.02059,0.0],[113.90835,-8.02265,0.0],[113.91013,-8.02231,0.0],[113.91317,-8.0247,0.0],[113.91861,-8.02497,0.0],[113.92513,-8.03122,0.0],[113.92859,-8.03228,0.0],[113.92883,-8.03454,0.0],[113.93764,-8.03912,0.0],[113.93865,-8.04236,0.0],[113.94788,-8.04488,0.0],[113.95051,-8.04686,0.0],[113.9534,-8.05185,0.0],[113.95865,-8.05507,0.0],[113.96247,-8.05608,0.0],[113.97085,-8.0552,0.0],[113.97846,-8.06204,0.0],[113.98922,-8.06712,0.0],[113.99156,-8.07003,0.0],[114.00285,-8.0743,0.0],[114.01473,-8.08691,0.0],[114.01557,-8.09311,0.0],[114.01937,-8.09628,0.0],[114.02164,-8.1012,0.0],[114.02535,-8.10491,0.0],[114.02525,-8.10872,0.0],[114.02763,-8.1127,0.0],[114.03382,-8.11413,0.0],[114.03988,-8.11351,0.0]]]}},{"type":"Feature","properties":{"kecamatan":"Puger","kab_kota":"Jember"},"geometry":{"type":"MultiPolygon","coordinates":[[[[113.31438,-8.50792,0.0],[113.31496,-8.50785,0.0],[113.31456,-8.50837,0.0],[113.31438,-8.50792,0.0]]],[[[113.29865,-8.50636,0.0],[113.29845,-8.50496,0.0],[113.29857,-8.50482,0.0],[113.29924,-8.50562,0.0],[113.29865,-8.50636,0.0]]],[[[113.3331,-8.5043,0.0],[113.3335,-8.50409,0.0],[113.33327,-8.50449,0.0],[113.3331,-8.5043,0.0]]],[[[113.27882,-8.50202,0.0],[113.27762,-8.50219,0.0],[113.27787,-8.50106,0.0],[113.27841,-8.50088,0.0],[113.27882,-8.50202,0.0]]],[[[113.27425,-8.49836,0.0],[113.27438,-8.49864,0.0],[113.27427,-8.49873,0.0],[113.27425,-8.49836,0.0]]],[[[113.40461,-8.49349,0.0],[113.40489,-8.49397,0.0],[113.40425,-8.49352,0.0],[113.40461,-8.49349,0.0]]],[[[113.26915,-8.49323,0.0],[113.26824,-8.49428,0.0],[113.26735,-8.49188,0.0],[113.26893,-8.49204,0.0],[113.26927,-8.4909,0.0],[113.26915,-8.49323,0.0]]],[[[113.29713,-8.44447,0.0],[113.3011,-8.446,0.0],[113.30102,-8.44804,0.0],[113.30327,-8.44842,0.0],[113.30361,-8.44984,0.0],[113.30803,-8.45078,0.0],[113.3102,-8.4495,0.0],[113.3165,-8.45278,0.0],[113.32588,-8.45285,0.0],[113.32864,-8.449,0.0],[113.33218,-8.44849,0.0],[113.33513,-8.4526,0.0],[113.34034,-8.45368,0.0],[113.34251,-8.45802,0.0],[113.34456,-8.45757,0.0],[113.34549,-8.45543,0.0],[113.34955,-8.45484,0.0],[113.35017,-8.45162,0.0],[113.35318,-8.44911,0.0],[113.35942,-8.45303,0.0],[113.36492,-8.45253,0.0],[113.36808,-8.45055,0.0],[113.36815,-8.45495,0.0],[113.37174,-8.45863,0.0],[113.37326,-8.45729,0.0],[113.37624,-8.45901,0.0],[113.37862,-8.45657,0.0],[113.38251,-8.45856,0.0],[113.3855,-8.45702,0.0],[113.38743,-8.45831,0.0],[113.39029,-8.45378,0.0],[113.39262,-8.45416,0.0],[113.39394,-8.45591,0.0],[113.39735,-8.45505,0.0],[113.3989,-8.45788,0.0],[113.40055,-8.45738,0.0],[113.40246,-8.46001,0.0],[113.40338,-8.46703,0.0],[113.4064,-8.46582,0.0],[113.40588,-8.46945,0.0],[113.40381,-8.4703,0.0],[113.40428,-8.47201,0.0],[113.41091,-8.46705,0.0],[113.41359,-8.47049,0.0],[113.41604,-8.47028,0.0],[113.41656,-8.46798,0.0],[113.42024,-8.46907,0.0],[113.42025,-8.47021,0.0],[113.41618,-8.47481,0.0],[113.41366,-8.47218,0.0],[113.41235,-8.47275,0.0],[113.4126,-8.47529,0.0],[113.41059,-8.47678,0.0],[113.41027,-8.48607,0.0],[113.40883,-8.48727,0.0],[113.4104,-8.49069,0.0],[113.4073,-8.49273,0.0],[113.40416,-8.49082,0.0],[113.40433,-8.48906,0.0],[113.40312,-8.48897,0.0],[113.40348,-8.49016,0.0],[113.40191,-8.48923,0.0],[113.40425,-8.49339,0.0],[113.4032,-8.49298,0.0],[113.40248,-8.49431,0.0],[113.40117,-8.49328,0.0],[113.40163,-8.49525,0.0],[113.39934,-8.49634,0.0],[113.3949,-8.49347,0.0],[113.39325,-8.49528,0.0],[113.39095,-8.49406,0.0],[113.39013,-8.49585,0.0],[113.38683,-8.49613,0.0],[113.38623,-8.49473,0.0],[113.3847,-8.49639,0.0],[113.38216,-8.49627,0.0],[113.38028,-8.49505,0.0],[113.381,-8.49659,0.0],[113.37737,-8.49696,0.0],[113.37585,-8.49858,0.0],[113.375,-8.49598,0.0],[113.37453,-8.49769,0.0],[113.37261,-8.49814,0.0],[113.37377,-8.49893,0.0],[113.37038,-8.49919,0.0],[113.36905,-8.50062,0.0],[113.36758,-8.49796,0.0],[113.36566,-8.49975,0.0],[113.36529,-8.49902,0.0],[113.36555,-8.50103,0.0],[113.36447,-8.50182,0.0],[113.36127,-8.49854,0.0],[113.35756,-8.50134,0.0],[113.3517,-8.50256,0.0],[113.35193,-8.50468,0.0],[113.35093,-8.50507,0.0],[113.34966,-8.50238,0.0],[113.34799,-8.50335,0.0],[113.34263,-8.50176,0.0],[113.34141,-8.50016,0.0],[113.33779,-8.50221,0.0],[113.33714,-8.50129,0.0],[113.33536,-8.50201,0.0],[113.33502,-8.50094,0.0],[113.33088,-8.50356,0.0],[113.33047,-8.50224,0.0],[113.3289,-8.50355,0.0],[113.32722,-8.50181,0.0],[113.32732,-8.50372,0.0],[113.32436,-8.50267,0.0],[113.32148,-8.505,0.0],[113.31628,-8.50657,0.0],[113.31435,-8.50534,0.0],[113.31341,-8.50687,0.0],[113.31164,-8.50664,0.0],[113.3119,-8.5086,0.0],[113.3102,-8.50927,0.0],[113.31045,-8.5059,0.0],[113.31207,-8.50495,0.0],[113.3118,-8.50248,0.0],[113.31449,-8.50101,0.0],[113.31259,-8.49926,0.0],[113.31225,-8.50107,0.0],[113.30947,-8.50194,0.0],[113.30996,-8.50384,0.0],[113.30713,-8.50906,0.0],[113.3056,-8.50744,0.0],[113.30342,-8.50839,0.0],[113.30277,-8.5066,0.0],[113.30436,-8.50667,0.0],[113.3044,-8.50492,0.0],[113.30295,-8.50381,0.0],[113.30125,-8.50482,0.0],[113.29956,-8.50245,0.0],[113.29698,-8.50371,0.0],[113.29756,-8.50528,0.0],[113.29598,-8.50783,0.0],[113.29418,-8.50804,0.0],[113.29528,-8.50521,0.0],[113.29308,-8.5054,0.0],[113.29201,-8.50404,0.0],[113.29014,-8.50576,0.0],[113.29014,-8.50383,0.0],[113.28925,-8.50424,0.0],[113.29054,-8.50225,0.0],[113.28921,-8.50166,0.0],[113.28801,-8.50299,0.0],[113.28785,-8.50079,0.0],[113.28645,-8.50236,0.0],[113.28664,-8.49882,0.0],[113.28248,-8.49798,0.0],[113.28215,-8.49991,0.0],[113.28001,-8.49872,0.0],[113.27914,-8.50037,0.0],[113.27553,-8.4968,0.0],[113.27155,-8.49777,0.0],[113.27054,-8.49555,0.0],[113.26899,-8.49689,0.0],[113.2685,-8.49523,0.0],[113.27059,-8.49016,0.0],[113.26537,-8.48946,0.0],[113.2633,-8.48659,0.0],[113.27004,-8.47004,0.0],[113.26889,-8.46756,0.0],[113.27504,-8.4637,0.0],[113.28463,-8.46335,0.0],[113.28785,-8.46148,0.0],[113.29094,-8.45794,0.0],[113.29298,-8.45105,0.0],[113.29429,-8.45108,0.0],[113.29336,-8.44753,0.0],[113.29075,-8.44742,0.0],[113.29122,-8.44572,0.0],[113.29713,-8.44447,0.0]]],[[[113.41396,-8.47435,0.0],[113.41518,-8.47435,0.0],[113.41591,-8.47496,0.0],[113.41558,-8.47499,0.0],[113.41396,-8.47435,0.0]]],[[[113.26777,-8.46926,0.0],[113.26834,-8.46882,0.0],[113.26799,-8.46932,0.0],[113.26777,-8.46926,0.0]]],[[[113.43534,-8.37839,0.0],[113.41868,-8.38278,0.0],[113.4082,-8.38924,0.0],[113.4072,-8.37143,0.0],[113.4084,-8.36782,0.0],[113.41388,-8.36618,0.0],[113.41423,-8.35922,0.0],[113.42169,-8.35951,0.0],[113.42773,-8.34916,0.0],[113.43017,-8.34789,0.0],[113.43473,-8.34169,0.0],[113.43378,-8.34484,0.0],[113.43688,-8.34326,0.0],[113.43695,-8.3413,0.0],[113.43968,-8.34496,0.0],[113.44173,-8.34377,0.0],[113.44226,-8.34561,0.0],[113.44432,-8.34596,0.0],[113.44361,-8.34802,0.0],[113.44593,-8.34713,0.0],[113.44492,-8.33979,0.0],[113.44782,-8.33423,0.0],[113.44374,-8.32114,0.0],[113.44352,-8.3136,0.0],[113.44543,-8.30325,0.0],[113.44454,-8.30253,0.0],[113.44727,-8.29242,0.0],[113.44773,-8.29127,0.0],[113.45539,-8.28905,0.0],[113.45701,-8.28654,0.0],[113.46233,-8.28665,0.0],[113.46274,-8.28489,0.0],[113.46457,-8.284,0.0],[113.46679,-8.27622,0.0],[113.47024,-8.27295,0.0],[113.47105,-8.26917,0.0],[113.47489,-8.26692,0.0],[113.48477,-8.27533,0.0],[113.48744,-8.27618,0.0],[113.4885,-8.27856,0.0],[113.49102,-8.27939,0.0],[113.49071,-8.2822,0.0],[113.49293,-8.28243,0.0],[113.49256,-8.2839,0.0],[113.50772,-8.28783,0.0],[113.50696,-8.28826,0.0],[113.51335,-8.29761,0.0],[113.5069,-8.31231,0.0],[113.52138,-8.32045,0.0],[113.51809,-8.32481,0.0],[113.51131,-8.32596,0.0],[113.50698,-8.33059,0.0],[113.50362,-8.33147,0.0],[113.50183,-8.33463,0.0],[113.49906,-8.33532,0.0],[113.49689,-8.34658,0.0],[113.49358,-8.34883,0.0],[113.49274,-8.35577,0.0],[113.49473,-8.35749,0.0],[113.48934,-8.364,0.0],[113.48974,-8.36705,0.0],[113.48795,-8.37138,0.0],[113.48255,-8.3704,0.0],[113.48159,-8.3728,0.0],[113.48324,-8.37668,0.0],[113.47588,-8.37909,0.0],[113.47389,-8.38099,0.0],[113.47392,-8.38224,0.0],[113.47731,-8.38443,0.0],[113.47751,-8.38739,0.0],[113.47585,-8.38607,0.0],[113.4747,-8.38683,0.0],[113.47557,-8.38538,0.0],[113.47326,-8.38369,0.0],[113.45793,-8.37897,0.0],[113.44728,-8.37768,0.0],[113.43534,-8.37839,0.0]]]]}},{"type":"Feature","properties":{"kecamatan":"Bangsalsari","kab_kota":"Jember"},"geometry":{"type":"Polygon","coordinates":[[[113.50007,-8.2537,0.0],[113.49793,-8.25707,0.0],[113.49011,-8.25619,0.0],[113.48868,-8.25783,0.0],[113.48629,-8.25785,0.0],[113.48495,-8.25608,0.0],[113.48838,-8.2549,0.0],[113.49044,-8.25208,0.0],[113.49406,-8.25219,0.0],[113.49496,-8.24841,0.0],[113.49393,-8.24676,0.0],[113.49539,-8.2457,0.0],[113.49454,-8.24455,0.0],[113.49726,-8.23677,0.0],[113.49942,-8.23578,0.0],[113.50068,-8.23148,0.0],[113.50373,-8.22959,0.0],[113.5124,-8.21788,0.0],[113.49313,-8.21298,0.0],[113.48945,-8.21537,0.0],[113.48318,-8.21517,0.0],[113.48748,-8.20353,0.0],[113.49449,-8.19714,0.0],[113.49701,-8.19139,0.0],[113.49734,-8.1865,0.0],[113.49996,-8.18479,0.0],[113.5045,-8.17538,0.0],[113.51088,-8.16829,0.0],[113.51163,-8.163,0.0],[113.51434,-8.16011,0.0],[113.51855,-8.15014,0.0],[113.52281,-8.14755,0.0],[113.52931,-8.13859,0.0],[113.53618,-8.13349,0.0],[113.53834,-8.12677,0.0],[113.53642,-8.12633,0.0],[113.53686,-8.12102,0.0],[113.54151,-8.11773,0.0],[113.54396,-8.11149,0.0],[113.54511,-8.11142,0.0],[113.54577,-8.1076,0.0],[113.54875,-8.10489,0.0],[113.55031,-8.09839,0.0],[113.54996,-8.09204,0.0],[113.54858,-8.09028,0.0],[113.54837,-8.08295,0.0],[113.55046,-8.07438,0.0],[113.54934,-8.06738,0.0],[113.55081,-8.0569,0.0],[113.55391,-8.04809,0.0],[113.5528,-8.04245,0.0],[113.55787,-8.03048,0.0],[113.56006,-8.02931,0.0],[113.55756,-8.02439,0.0],[113.55972,-8.01157,0.0],[113.56221,-8.00721,0.0],[113.56534,-8.00639,0.0],[113.566,-8.00236,0.0],[113.57082,-7.99659,0.0],[113.56937,-7.98838,0.0],[113.57132,-7.98126,0.0],[113.57331,-7.98008,0.0],[113.57731,-7.98065,0.0],[113.57874,-7.98375,0.0],[113.58252,-7.98446,0.0],[113.58444,-7.98275,0.0],[113.59079,-7.98328,0.0],[113.59143,-7.97625,0.0],[113.59333,-7.97712,0.0],[113.59527,-7.97603,0.0],[113.59969,-7.97901,0.0],[113.60164,-7.97748,0.0],[113.6038,-7.98747,0.0],[113.59587,-7.99452,0.0],[113.59317,-7.99877,0.0],[113.59039,-7.99905,0.0],[113.58806,-8.00117,0.0],[113.58849,-8.00692,0.0],[113.58715,-8.01143,0.0],[113.58588,-8.01174,0.0],[113.58167,-8.01868,0.0],[113.57952,-8.01982,0.0],[113.579,-8.02216,0.0],[113.57671,-8.02241,0.0],[113.57287,-8.027,0.0],[113.57329,-8.03485,0.0],[113.57766,-8.04222,0.0],[113.57967,-8.04261,0.0],[113.57552,-8.05441,0.0],[113.576,-8.05693,0.0],[113.57363,-8.0583,0.0],[113.57585,-8.06006,0.0],[113.57854,-8.06912,0.0],[113.57572,-8.07755,0.0],[113.57374,-8.07804,0.0],[113.57204,-8.0813,0.0],[113.57011,-8.08187,0.0],[113.56901,-8.08501,0.0],[113.57044,-8.08515,0.0],[113.57002,-8.09047,0.0],[113.57378,-8.09801,0.0],[113.57731,-8.09949,0.0],[113.58002,-8.10384,0.0],[113.58684,-8.10976,0.0],[113.58941,-8.11539,0.0],[113.59059,-8.12486,0.0],[113.59254,-8.1285,0.0],[113.59168,-8.13148,0.0],[113.59353,-8.13595,0.0],[113.59275,-8.13847,0.0],[113.59367,-8.1414,0.0],[113.59598,-8.14266,0.0],[113.59575,-8.1477,0.0],[113.59295,-8.15118,0.0],[113.59377,-8.15368,0.0],[113.59256,-8.15538,0.0],[113.5936,-8.15636,0.0],[113.5906,-8.16225,0.0],[113.59166,-8.16343,0.0],[113.58863,-8.16683,0.0],[113.59079,-8.1745,0.0],[113.5938,-8.17678,0.0],[113.59329,-8.17826,0.0],[113.59548,-8.1814,0.0],[113.59266,-8.18776,0.0],[113.59371,-8.19101,0.0],[113.59196,-8.1953,0.0],[113.58842,-8.19806,0.0],[113.58683,-8.20449,0.0],[113.58481,-8.20546,0.0],[113.58641,-8.21312,0.0],[113.58087,-8.22055,0.0],[113.57727,-8.21937,0.0],[113.57405,-8.22683,0.0],[113.57606,-8.22942,0.0],[113.57322,-8.23182,0.0],[113.56812,-8.23132,0.0],[113.56758,-8.23252,0.0],[113.56618,-8.2317,0.0],[113.56559,-8.2325,0.0],[113.56179,-8.23096,0.0],[113.55821,-8.22727,0.0],[113.55372,-8.22618,0.0],[113.54696,-8.23041,0.0],[113.53595,-8.24077,0.0],[113.52928,-8.24098,0.0],[113.52607,-8.24455,0.0],[113.5254,-8.2419,0.0],[113.52327,-8.24251,0.0],[113.52152,-8.24686,0.0],[113.51545,-8.25185,0.0],[113.51274,-8.25815,0.0],[113.50975,-8.26031,0.0],[113.50747,-8.25987,0.0],[113.50546,-8.25521,0.0],[113.50007,-8.2537,0.0]]]}},{"type":"Feature","properties":{"kecamatan":"Tanggul","kab_kota":"Jember"},"geometry":{"type":"Polygon","coordinates":[[[113.5045,-8.17538,0.0],[113.49996,-8.18479,0.0],[113.49707,-8.18707,0.0],[113.49701,-8.19139,0.0],[113.49449,-8.19714,0.0],[113.48748,-8.20353,0.0],[113.48118,-8.2191,0.0],[113.47835,-8.22034,0.0],[113.47396,-8.21984,0.0],[113.47215,-8.21569,0.0],[113.46243,-8.21339,0.0],[113.46741,-8.19568,0.0],[113.45346,-8.19088,0.0],[113.45844,-8.17812,0.0],[113.44541,-8.17444,0.0],[113.44491,-8.17583,0.0],[113.44276,-8.17487,0.0],[113.44073,-8.17564,0.0],[113.43793,-8.17184,0.0],[113.43745,-8.16954,0.0],[113.44074,-8.16102,0.0],[113.43952,-8.15923,0.0],[113.43342,-8.15684,0.0],[113.43006,-8.15143,0.0],[113.43313,-8.14834,0.0],[113.43028,-8.14397,0.0],[113.43095,-8.14214,0.0],[113.42957,-8.14117,0.0],[113.43138,-8.13861,0.0],[113.43076,-8.13735,0.0],[113.43219,-8.1371,0.0],[113.43075,-8.13652,0.0],[113.43198,-8.13463,0.0],[113.43298,-8.13548,0.0],[113.43466,-8.13391,0.0],[113.44233,-8.13265,0.0],[113.44483,-8.12865,0.0],[113.44473,-8.12496,0.0],[113.44865,-8.12214,0.0],[113.45159,-8.11798,0.0],[113.45031,-8.11449,0.0],[113.45227,-8.11222,0.0],[113.45001,-8.10683,0.0],[113.4526,-8.10532,0.0],[113.45432,-8.0972,0.0],[113.45664,-8.09571,0.0],[113.45726,-8.09003,0.0],[113.4607,-8.08367,0.0],[113.46415,-8.06957,0.0],[113.46353,-8.04996,0.0],[113.46832,-8.03972,0.0],[113.47089,-8.02617,0.0],[113.47591,-8.02549,0.0],[113.47507,-8.02033,0.0],[113.48157,-8.0095,0.0],[113.48026,-7.99736,0.0],[113.48182,-7.99425,0.0],[113.48293,-7.99646,0.0],[113.49026,-7.99708,0.0],[113.49053,-7.99936,0.0],[113.49227,-7.9988,0.0],[113.49283,-8.00151,0.0],[113.49471,-8.00221,0.0],[113.49463,-8.00496,0.0],[113.49933,-8.00213,0.0],[113.50044,-8.00362,0.0],[113.50597,-8.00367,0.0],[113.50729,-8.00542,0.0],[113.51465,-8.0015,0.0],[113.52022,-8.00542,0.0],[113.52188,-8.00372,0.0],[113.52467,-8.0043,0.0],[113.52667,-8.0084,0.0],[113.52936,-8.00899,0.0],[113.53051,-8.00801,0.0],[113.5331,-8.00917,0.0],[113.53441,-8.00665,0.0],[113.53564,-8.0076,0.0],[113.5365,-8.00641,0.0],[113.53979,-8.00661,0.0],[113.53946,-8.00509,0.0],[113.54133,-8.0047,0.0],[113.54284,-8.00046,0.0],[113.54432,-8.00108,0.0],[113.54566,-7.99937,0.0],[113.55107,-7.99921,0.0],[113.55749,-7.99483,0.0],[113.55949,-7.99469,0.0],[113.56212,-7.98346,0.0],[113.56869,-7.98342,0.0],[113.57132,-7.98126,0.0],[113.56937,-7.98838,0.0],[113.57082,-7.99659,0.0],[113.566,-8.00236,0.0],[113.56534,-8.00639,0.0],[113.56221,-8.00721,0.0],[113.55972,-8.01157,0.0],[113.55756,-8.02439,0.0],[113.56006,-8.02931,0.0],[113.55787,-8.03048,0.0],[113.5528,-8.04245,0.0],[113.55391,-8.04809,0.0],[113.55081,-8.0569,0.0],[113.54934,-8.06738,0.0],[113.55046,-8.07438,0.0],[113.54837,-8.08295,0.0],[113.54858,-8.09028,0.0],[113.54996,-8.09204,0.0],[113.55031,-8.09839,0.0],[113.54875,-8.10489,0.0],[113.54577,-8.1076,0.0],[113.54511,-8.11142,0.0],[113.54396,-8.11149,0.0],[113.54151,-8.11773,0.0],[113.53686,-8.12102,0.0],[113.53642,-8.12633,0.0],[113.53834,-8.12677,0.0],[113.53618,-8.13349,0.0],[113.52931,-8.13859,0.0],[113.52281,-8.14755,0.0],[113.51855,-8.15014,0.0],[113.51434,-8.16011,0.0],[113.51163,-8.163,0.0],[113.51088,-8.16829,0.0],[113.5045,-8.17538,0.0]]]}},{"type":"Feature","properties":{"kecamatan":"Semboro","kab_kota":"Jember"},"geometry":{"type":"Polygon","coordinates":[[[113.45421,-8.19109,0.0],[113.46741,-8.19568,0.0],[113.46243,-8.21339,0.0],[113.47215,-8.21569,0.0],[113.47396,-8.21984,0.0],[113.46957,-8.22129,0.0],[113.46763,-8.22391,0.0],[113.46514,-8.23104,0.0],[113.46166,-8.2345,0.0],[113.4551,-8.25288,0.0],[113.45141,-8.25069,0.0],[113.45332,-8.24626,0.0],[113.45295,-8.23475,0.0],[113.45441,-8.2284,0.0],[113.45677,-8.22435,0.0],[113.44927,-8.22005,0.0],[113.44267,-8.21864,0.0],[113.43965,-8.22197,0.0],[113.43618,-8.22139,0.0],[113.43526,-8.22027,0.0],[113.43673,-8.21647,0.0],[113.43409,-8.21538,0.0],[113.43318,-8.21281,0.0],[113.42942,-8.21148,0.0],[113.42717,-8.20731,0.0],[113.42715,-8.20381,0.0],[113.42051,-8.20532,0.0],[113.41939,-8.2071,0.0],[113.40765,-8.20457,0.0],[113.40329,-8.19959,0.0],[113.40941,-8.18819,0.0],[113.41192,-8.18578,0.0],[113.40613,-8.18076,0.0],[113.40749,-8.17588,0.0],[113.40286,-8.17545,0.0],[113.40098,-8.17249,0.0],[113.40764,-8.16612,0.0],[113.41351,-8.16253,0.0],[113.41912,-8.14486,0.0],[113.42362,-8.13764,0.0],[113.42337,-8.13185,0.0],[113.41798,-8.12816,0.0],[113.41785,-8.12505,0.0],[113.41915,-8.12344,0.0],[113.42324,-8.12301,0.0],[113.42595,-8.12069,0.0],[113.43199,-8.12098,0.0],[113.43511,-8.11851,0.0],[113.43931,-8.11781,0.0],[113.43914,-8.11432,0.0],[113.44195,-8.1109,0.0],[113.44383,-8.10486,0.0],[113.45035,-8.10678,0.0],[113.45227,-8.11222,0.0],[113.45031,-8.11449,0.0],[113.45159,-8.11798,0.0],[113.44865,-8.12214,0.0],[113.44473,-8.12496,0.0],[113.44483,-8.12865,0.0],[113.44233,-8.13265,0.0],[113.43466,-8.13391,0.0],[113.43298,-8.13548,0.0],[113.43167,-8.13484,0.0],[113.43075,-8.13652,0.0],[113.43219,-8.1371,0.0],[113.43076,-8.13735,0.0],[113.43138,-8.13861,0.0],[113.42951,-8.14085,0.0],[113.43313,-8.14834,0.0],[113.42997,-8.15114,0.0],[113.43342,-8.15684,0.0],[113.44059,-8.16042,0.0],[113.43739,-8.17005,0.0],[113.44073,-8.17564,0.0],[113.44276,-8.17487,0.0],[113.44491,-8.17583,0.0],[113.44541,-8.17444,0.0],[113.45844,-8.17812,0.0],[113.45421,-8.19109,0.0]]]}},{"type":"Feature","properties":{"kecamatan":"Jombang","kab_kota":"Jember"},"geometry":{"type":"Polygon","coordinates":[[[113.34786,-8.26872,0.0],[113.3493,-8.26966,0.0],[113.34765,-8.27363,0.0],[113.34743,-8.27521,0.0],[113.34863,-8.27562,0.0],[113.34775,-8.2778,0.0],[113.34535,-8.27503,0.0],[113.3432,-8.27597,0.0],[113.34095,-8.27507,0.0],[113.34082,-8.27372,0.0],[113.34534,-8.27309,0.0],[113.34239,-8.27037,0.0],[113.33575,-8.26706,0.0],[113.33248,-8.26892,0.0],[113.32962,-8.26603,0.0],[113.32931,-8.26396,0.0],[113.3264,-8.26435,0.0],[113.32237,-8.26119,0.0],[113.32007,-8.26233,0.0],[113.31539,-8.24868,0.0],[113.31558,-8.23822,0.0],[113.31393,-8.23501,0.0],[113.31173,-8.23372,0.0],[113.31306,-8.22883,0.0],[113.31736,-8.22754,0.0],[113.31777,-8.22608,0.0],[113.32014,-8.22664,0.0],[113.32289,-8.22324,0.0],[113.32684,-8.22126,0.0],[113.32773,-8.2173,0.0],[113.33136,-8.21549,0.0],[113.33059,-8.21261,0.0],[113.33337,-8.20827,0.0],[113.33871,-8.20618,0.0],[113.3416,-8.20608,0.0],[113.34444,-8.20782,0.0],[113.34814,-8.20734,0.0],[113.35296,-8.20387,0.0],[113.354,-8.19834,0.0],[113.36072,-8.18934,0.0],[113.36329,-8.18946,0.0],[113.36789,-8.1853,0.0],[113.3689,-8.18118,0.0],[113.37044,-8.18053,0.0],[113.37435,-8.18277,0.0],[113.37803,-8.18257,0.0],[113.37989,-8.18415,0.0],[113.38557,-8.18485,0.0],[113.39074,-8.17438,0.0],[113.39762,-8.17521,0.0],[113.40098,-8.17249,0.0],[113.40286,-8.17545,0.0],[113.40749,-8.17588,0.0],[113.40613,-8.18076,0.0],[113.41192,-8.18578,0.0],[113.40941,-8.18819,0.0],[113.38781,-8.22594,0.0],[113.38234,-8.23338,0.0],[113.37485,-8.231,0.0],[113.368,-8.23715,0.0],[113.3587,-8.24048,0.0],[113.35435,-8.25418,0.0],[113.35765,-8.25707,0.0],[113.35714,-8.25869,0.0],[113.35452,-8.25684,0.0],[113.35109,-8.26499,0.0],[113.34981,-8.26466,0.0],[113.34786,-8.26872,0.0]]]}},{"type":"Feature","properties":{"kecamatan":"Gumukmas","kab_kota":"Jember"},"geometry":{"type":"Polygon","coordinates":[[[113.41423,-8.35922,0.0],[113.41388,-8.36618,0.0],[113.4084,-8.36782,0.0],[113.4072,-8.37143,0.0],[113.4082,-8.38924,0.0],[113.39362,-8.39941,0.0],[113.38864,-8.40031,0.0],[113.36973,-8.36466,0.0],[113.3598,-8.35122,0.0],[113.346,-8.33717,0.0],[113.34907,-8.33432,0.0],[113.34633,-8.33119,0.0],[113.3477,-8.32826,0.0],[113.34508,-8.32641,0.0],[113.34524,-8.32516,0.0],[113.34135,-8.32506,0.0],[113.33974,-8.32193,0.0],[113.34222,-8.31907,0.0],[113.34534,-8.32115,0.0],[113.34667,-8.31944,0.0],[113.34458,-8.31617,0.0],[113.34771,-8.3183,0.0],[113.34999,-8.31282,0.0],[113.35363,-8.31192,0.0],[113.35655,-8.31727,0.0],[113.37468,-8.33425,0.0],[113.37856,-8.33635,0.0],[113.38466,-8.32886,0.0],[113.37036,-8.31713,0.0],[113.38058,-8.30524,0.0],[113.38289,-8.29952,0.0],[113.38813,-8.30318,0.0],[113.3947,-8.29184,0.0],[113.40045,-8.2872,0.0],[113.40404,-8.28201,0.0],[113.40357,-8.27388,0.0],[113.40532,-8.26953,0.0],[113.42704,-8.26946,0.0],[113.42727,-8.26854,0.0],[113.43287,-8.26792,0.0],[113.44011,-8.26946,0.0],[113.44937,-8.27497,0.0],[113.46163,-8.27908,0.0],[113.46035,-8.28339,0.0],[113.45688,-8.28542,0.0],[113.45579,-8.28876,0.0],[113.44773,-8.29127,0.0],[113.44464,-8.30197,0.0],[113.44543,-8.30325,0.0],[113.44353,-8.31331,0.0],[113.44374,-8.32114,0.0],[113.44782,-8.33423,0.0],[113.44492,-8.33979,0.0],[113.44598,-8.34702,0.0],[113.44361,-8.34802,0.0],[113.44432,-8.34596,0.0],[113.44226,-8.34561,0.0],[113.44173,-8.34377,0.0],[113.43968,-8.34496,0.0],[113.43695,-8.3413,0.0],[113.43688,-8.34326,0.0],[113.43378,-8.34484,0.0],[113.43473,-8.34169,0.0],[113.43017,-8.34789,0.0],[113.42773,-8.34916,0.0],[113.42169,-8.35951,0.0],[113.41423,-8.35922,0.0]],[[113.34552,-8.32531,0.0],[113.34953,-8.32357,0.0],[113.3475,-8.32035,0.0],[113.34598,-8.3222,0.0],[113.34552,-8.32531,0.0]]]}},{"type":"Feature","properties":{"kecamatan":"Umbulsari","kab_kota":"Jember"},"geometry":{"type":"Polygon","coordinates":[[[113.44011,-8.26946,0.0],[113.42727,-8.26854,0.0],[113.42704,-8.26946,0.0],[113.40584,-8.26967,0.0],[113.40356,-8.26531,0.0],[113.38983,-8.25406,0.0],[113.38506,-8.25197,0.0],[113.38436,-8.25345,0.0],[113.37746,-8.25159,0.0],[113.38152,-8.23477,0.0],[113.40329,-8.19959,0.0],[113.40765,-8.20457,0.0],[113.41344,-8.20542,0.0],[113.4142,-8.20676,0.0],[113.41939,-8.2071,0.0],[113.42051,-8.20532,0.0],[113.42715,-8.20381,0.0],[113.42717,-8.20731,0.0],[113.42942,-8.21148,0.0],[113.43318,-8.21281,0.0],[113.43409,-8.21538,0.0],[113.43673,-8.21647,0.0],[113.43526,-8.22027,0.0],[113.43618,-8.22139,0.0],[113.43965,-8.22197,0.0],[113.44267,-8.21864,0.0],[113.44927,-8.22005,0.0],[113.45677,-8.22435,0.0],[113.45441,-8.2284,0.0],[113.45295,-8.23475,0.0],[113.45332,-8.24626,0.0],[113.45141,-8.25069,0.0],[113.4551,-8.25288,0.0],[113.46166,-8.2345,0.0],[113.46514,-8.23104,0.0],[113.46763,-8.22391,0.0],[113.47041,-8.22076,0.0],[113.47982,-8.21994,0.0],[113.48318,-8.21517,0.0],[113.48945,-8.21537,0.0],[113.49313,-8.21298,0.0],[113.5124,-8.21788,0.0],[113.50373,-8.22959,0.0],[113.50068,-8.23148,0.0],[113.49942,-8.23578,0.0],[113.49726,-8.23677,0.0],[113.49454,-8.24455,0.0],[113.49539,-8.2457,0.0],[113.49393,-8.24676,0.0],[113.49493,-8.24949,0.0],[113.49371,-8.25268,0.0],[113.49044,-8.25208,0.0],[113.48838,-8.2549,0.0],[113.48495,-8.25608,0.0],[113.4855,-8.2571,0.0],[113.48101,-8.2605,0.0],[113.47995,-8.26321,0.0],[113.47772,-8.26301,0.0],[113.47694,-8.26459,0.0],[113.48131,-8.26698,0.0],[113.48127,-8.27241,0.0],[113.47489,-8.26692,0.0],[113.47231,-8.26768,0.0],[113.47024,-8.27295,0.0],[113.46679,-8.27622,0.0],[113.46457,-8.284,0.0],[113.46274,-8.28489,0.0],[113.46233,-8.28665,0.0],[113.45669,-8.28597,0.0],[113.46035,-8.28339,0.0],[113.46163,-8.27908,0.0],[113.44937,-8.27497,0.0],[113.44011,-8.26946,0.0]]]}},{"type":"Feature","properties":{"kecamatan":"Kencong","kab_kota":"Jember"},"geometry":{"type":"MultiPolygon","coordinates":[[[[113.34575,-8.32569,0.0],[113.3475,-8.32035,0.0],[113.34962,-8.32316,0.0],[113.34575,-8.32569,0.0]]],[[[113.34524,-8.32516,0.0],[113.3477,-8.32826,0.0],[113.34645,-8.33163,0.0],[113.34907,-8.33432,0.0],[113.346,-8.33717,0.0],[113.33499,-8.32683,0.0],[113.31737,-8.31465,0.0],[113.31589,-8.31144,0.0],[113.31441,-8.31073,0.0],[113.31242,-8.31196,0.0],[113.30354,-8.30721,0.0],[113.30912,-8.29961,0.0],[113.31525,-8.28382,0.0],[113.32007,-8.26233,0.0],[113.32237,-8.26119,0.0],[113.3264,-8.26435,0.0],[113.32931,-8.26396,0.0],[113.32962,-8.26603,0.0],[113.33248,-8.26892,0.0],[113.33575,-8.26706,0.0],[113.34148,-8.26986,0.0],[113.34543,-8.27266,0.0],[113.34425,-8.27402,0.0],[113.34082,-8.27372,0.0],[113.34111,-8.27528,0.0],[113.34352,-8.27595,0.0],[113.34535,-8.27503,0.0],[113.34798,-8.27773,0.0],[113.34863,-8.27562,0.0],[113.34743,-8.27521,0.0],[113.34765,-8.27363,0.0],[113.3493,-8.26966,0.0],[113.34775,-8.26901,0.0],[113.34856,-8.2666,0.0],[113.34981,-8.26466,0.0],[113.35109,-8.26499,0.0],[113.35452,-8.25684,0.0],[113.35714,-8.25869,0.0],[113.35765,-8.25707,0.0],[113.35435,-8.25418,0.0],[113.35859,-8.24059,0.0],[113.368,-8.23715,0.0],[113.37485,-8.231,0.0],[113.3818,-8.23309,0.0],[113.37746,-8.25159,0.0],[113.38436,-8.25345,0.0],[113.38506,-8.25197,0.0],[113.38813,-8.25307,0.0],[113.39724,-8.25928,0.0],[113.40409,-8.26589,0.0],[113.40603,-8.26884,0.0],[113.4036,-8.27365,0.0],[113.404,-8.28212,0.0],[113.40045,-8.2872,0.0],[113.3947,-8.29184,0.0],[113.38813,-8.30318,0.0],[113.38289,-8.29952,0.0],[113.38058,-8.30524,0.0],[113.37036,-8.31713,0.0],[113.38466,-8.32886,0.0],[113.37856,-8.33635,0.0],[113.37468,-8.33425,0.0],[113.35655,-8.31727,0.0],[113.3547,-8.31241,0.0],[113.35296,-8.3117,0.0],[113.34999,-8.31282,0.0],[113.34771,-8.3183,0.0],[113.34458,-8.31617,0.0],[113.34667,-8.31944,0.0],[113.34534,-8.32115,0.0],[113.34222,-8.31907,0.0],[113.33974,-8.32193,0.0],[113.34135,-8.32506,0.0],[113.34524,-8.32516,0.0]]]]}},{"type":"Feature","properties":{"kecamatan":"Sumberbaru","kab_kota":"Jember"},"geometry":{"type":"Polygon","coordinates":[[[113.41324,-8.16288,0.0],[113.40764,-8.16612,0.0],[113.398,-8.17511,0.0],[113.39016,-8.17469,0.0],[113.38582,-8.18479,0.0],[113.37989,-8.18415,0.0],[113.37777,-8.18253,0.0],[113.37435,-8.18277,0.0],[113.37044,-8.18053,0.0],[113.36863,-8.18135,0.0],[113.36624,-8.17425,0.0],[113.36696,-8.17038,0.0],[113.36592,-8.16856,0.0],[113.36843,-8.16808,0.0],[113.36832,-8.16644,0.0],[113.37257,-8.16678,0.0],[113.37272,-8.16479,0.0],[113.37495,-8.16503,0.0],[113.3746,-8.16339,0.0],[113.37578,-8.16333,0.0],[113.37626,-8.16147,0.0],[113.37758,-8.16179,0.0],[113.37953,-8.15776,0.0],[113.37944,-8.14983,0.0],[113.37891,-8.14849,0.0],[113.37612,-8.14916,0.0],[113.37236,-8.14637,0.0],[113.37295,-8.1414,0.0],[113.37656,-8.13558,0.0],[113.3759,-8.13083,0.0],[113.37015,-8.12775,0.0],[113.36752,-8.12209,0.0],[113.36749,-8.12011,0.0],[113.36241,-8.11849,0.0],[113.36294,-8.1159,0.0],[113.36503,-8.11389,0.0],[113.36618,-8.1146,0.0],[113.36837,-8.11087,0.0],[113.36514,-8.1048,0.0],[113.36379,-8.10439,0.0],[113.36348,-8.10166,0.0],[113.36193,-8.10072,0.0],[113.36416,-8.10078,0.0],[113.36451,-8.09627,0.0],[113.36298,-8.09148,0.0],[113.36543,-8.09023,0.0],[113.36555,-8.08688,0.0],[113.36674,-8.0859,0.0],[113.36488,-8.08391,0.0],[113.36177,-8.08377,0.0],[113.36206,-8.08073,0.0],[113.36039,-8.08117,0.0],[113.35717,-8.07843,0.0],[113.35822,-8.07638,0.0],[113.35725,-8.07591,0.0],[113.35734,-8.07256,0.0],[113.35408,-8.07068,0.0],[113.35368,-8.06671,0.0],[113.35007,-8.06342,0.0],[113.34991,-8.06095,0.0],[113.35123,-8.06062,0.0],[113.34868,-8.05489,0.0],[113.35186,-8.05082,0.0],[113.35117,-8.04898,0.0],[113.35245,-8.04466,0.0],[113.35468,-8.04297,0.0],[113.35604,-8.03762,0.0],[113.35508,-8.0352,0.0],[113.3567,-8.03485,0.0],[113.36091,-8.0296,0.0],[113.36104,-8.02781,0.0],[113.36666,-8.0277,0.0],[113.36664,-8.02587,0.0],[113.36941,-8.02532,0.0],[113.36976,-8.0227,0.0],[113.37196,-8.02332,0.0],[113.37185,-8.02142,0.0],[113.37249,-8.02243,0.0],[113.37446,-8.02174,0.0],[113.37531,-8.02319,0.0],[113.37598,-8.02156,0.0],[113.37893,-8.02046,0.0],[113.37869,-8.01891,0.0],[113.37982,-8.0187,0.0],[113.37867,-8.0178,0.0],[113.3823,-8.01111,0.0],[113.38696,-8.00699,0.0],[113.39098,-7.99717,0.0],[113.39631,-8.00027,0.0],[113.39727,-8.00362,0.0],[113.39997,-8.00402,0.0],[113.40316,-8.00267,0.0],[113.405,-8.00346,0.0],[113.40663,-8.008,0.0],[113.41219,-8.00517,0.0],[113.41719,-8.00938,0.0],[113.42027,-8.00857,0.0],[113.42193,-8.00998,0.0],[113.42277,-8.00779,0.0],[113.44021,-8.01522,0.0],[113.44225,-8.0226,0.0],[113.44485,-8.02518,0.0],[113.44926,-8.02606,0.0],[113.45038,-8.01998,0.0],[113.45403,-8.01954,0.0],[113.45657,-8.0228,0.0],[113.4592,-8.0231,0.0],[113.46506,-8.02736,0.0],[113.47089,-8.02617,0.0],[113.46876,-8.03829,0.0],[113.46337,-8.0507,0.0],[113.46441,-8.06687,0.0],[113.46253,-8.07695,0.0],[113.4606,-8.08393,0.0],[113.45726,-8.09003,0.0],[113.45664,-8.09571,0.0],[113.45432,-8.0972,0.0],[113.4526,-8.10532,0.0],[113.45001,-8.10683,0.0],[113.44383,-8.10486,0.0],[113.44195,-8.1109,0.0],[113.43914,-8.11432,0.0],[113.43931,-8.11781,0.0],[113.43511,-8.11851,0.0],[113.43199,-8.12098,0.0],[113.42714,-8.12031,0.0],[113.42324,-8.12301,0.0],[113.41842,-8.1242,0.0],[113.41798,-8.12816,0.0],[113.42337,-8.13185,0.0],[113.42362,-8.13764,0.0],[113.41912,-8.14486,0.0],[113.41324,-8.16288,0.0]],[[113.36846,-8.12342,0.0],[113.36846,-8.12342,0.0],[113.36846,-8.12342,0.0],[113.36846,-8.12342,0.0]]]}},{"type":"Feature","properties":{"kecamatan":"Kaliwates","kab_kota":"Jember"},"geometry":{"type":"Polygon","coordinates":[[[113.70197,-8.19481,0.0],[113.71233,-8.19577,0.0],[113.71156,-8.20249,0.0],[113.7054,-8.20216,0.0],[113.69665,-8.20773,0.0],[113.69493,-8.21018,0.0],[113.69397,-8.20973,0.0],[113.69191,-8.21265,0.0],[113.68766,-8.21396,0.0],[113.68035,-8.21444,0.0],[113.68359,-8.20884,0.0],[113.68135,-8.20825,0.0],[113.68004,-8.20449,0.0],[113.67629,-8.20327,0.0],[113.67419,-8.20063,0.0],[113.67424,-8.19858,0.0],[113.67219,-8.19705,0.0],[113.66549,-8.19973,0.0],[113.66234,-8.19529,0.0],[113.66069,-8.19791,0.0],[113.65505,-8.19976,0.0],[113.65464,-8.19628,0.0],[113.65268,-8.19867,0.0],[113.6509,-8.19746,0.0],[113.65139,-8.20064,0.0],[113.64904,-8.20323,0.0],[113.64432,-8.20148,0.0],[113.64157,-8.20535,0.0],[113.63967,-8.20479,0.0],[113.63965,-8.20018,0.0],[113.64473,-8.19385,0.0],[113.64138,-8.18909,0.0],[113.64312,-8.18647,0.0],[113.64175,-8.18512,0.0],[113.64179,-8.18158,0.0],[113.65207,-8.18451,0.0],[113.6556,-8.17757,0.0],[113.67097,-8.17409,0.0],[113.66944,-8.1618,0.0],[113.67166,-8.1589,0.0],[113.66968,-8.15483,0.0],[113.66988,-8.15156,0.0],[113.66771,-8.14867,0.0],[113.66881,-8.14558,0.0],[113.6663,-8.14422,0.0],[113.66743,-8.14033,0.0],[113.66538,-8.13692,0.0],[113.67235,-8.1326,0.0],[113.67416,-8.13751,0.0],[113.67302,-8.14119,0.0],[113.67455,-8.14504,0.0],[113.67364,-8.14773,0.0],[113.6772,-8.15284,0.0],[113.67596,-8.15432,0.0],[113.67637,-8.15678,0.0],[113.68116,-8.15891,0.0],[113.68126,-8.16385,0.0],[113.675,-8.17293,0.0],[113.68416,-8.17251,0.0],[113.68425,-8.17337,0.0],[113.68848,-8.16988,0.0],[113.68905,-8.16748,0.0],[113.69445,-8.16979,0.0],[113.69871,-8.16781,0.0],[113.70153,-8.17077,0.0],[113.70549,-8.17116,0.0],[113.70549,-8.17288,0.0],[113.70705,-8.17399,0.0],[113.70615,-8.17631,0.0],[113.69647,-8.18225,0.0],[113.69303,-8.18237,0.0],[113.69207,-8.18402,0.0],[113.69381,-8.18672,0.0],[113.69213,-8.19065,0.0],[113.70161,-8.19183,0.0],[113.70197,-8.19481,0.0]]]}},{"type":"Feature","properties":{"kecamatan":"Ajung","kab_kota":"Jember"},"geometry":{"type":"MultiPolygon","coordinates":[[[[113.64864,-8.25388,0.0],[113.64778,-8.25903,0.0],[113.64511,-8.26084,0.0],[113.64471,-8.26352,0.0],[113.64186,-8.2657,0.0],[113.63914,-8.27277,0.0],[113.63706,-8.27341,0.0],[113.63308,-8.27823,0.0],[113.63233,-8.28144,0.0],[113.62811,-8.27859,0.0],[113.6269,-8.281,0.0],[113.62807,-8.2816,0.0],[113.62784,-8.28507,0.0],[113.62207,-8.28501,0.0],[113.61351,-8.27818,0.0],[113.60807,-8.28196,0.0],[113.60086,-8.28276,0.0],[113.60298,-8.27973,0.0],[113.60288,-8.27707,0.0],[113.60415,-8.27707,0.0],[113.60719,-8.26656,0.0],[113.60929,-8.26464,0.0],[113.6126,-8.26476,0.0],[113.61337,-8.25988,0.0],[113.59487,-8.25883,0.0],[113.59536,-8.25204,0.0],[113.59885,-8.2529,0.0],[113.62073,-8.246,0.0],[113.62069,-8.23857,0.0],[113.62232,-8.23803,0.0],[113.6225,-8.23667,0.0],[113.62102,-8.23111,0.0],[113.62317,-8.22037,0.0],[113.62519,-8.21935,0.0],[113.63076,-8.22109,0.0],[113.63564,-8.22015,0.0],[113.63548,-8.21857,0.0],[113.63742,-8.21762,0.0],[113.63846,-8.21073,0.0],[113.64174,-8.20753,0.0],[113.6396,-8.20712,0.0],[113.63968,-8.20479,0.0],[113.64157,-8.20535,0.0],[113.64432,-8.20148,0.0],[113.64904,-8.20323,0.0],[113.65139,-8.20064,0.0],[113.65111,-8.19733,0.0],[113.65268,-8.19867,0.0],[113.65515,-8.19636,0.0],[113.65471,-8.19963,0.0],[113.65752,-8.19973,0.0],[113.6627,-8.19528,0.0],[113.66375,-8.19838,0.0],[113.66576,-8.19973,0.0],[113.66674,-8.19839,0.0],[113.6724,-8.19711,0.0],[113.67629,-8.20327,0.0],[113.68004,-8.20449,0.0],[113.68135,-8.20825,0.0],[113.68359,-8.20884,0.0],[113.67965,-8.21511,0.0],[113.68428,-8.2174,0.0],[113.68596,-8.21753,0.0],[113.68828,-8.21466,0.0],[113.69198,-8.2132,0.0],[113.69397,-8.20973,0.0],[113.71348,-8.21277,0.0],[113.71506,-8.20973,0.0],[113.71804,-8.21025,0.0],[113.72336,-8.20694,0.0],[113.73227,-8.20814,0.0],[113.73099,-8.21144,0.0],[113.72884,-8.21231,0.0],[113.73005,-8.21536,0.0],[113.72377,-8.217,0.0],[113.72289,-8.21864,0.0],[113.72168,-8.21714,0.0],[113.72023,-8.21745,0.0],[113.7174,-8.22205,0.0],[113.71236,-8.22264,0.0],[113.70414,-8.22694,0.0],[113.70314,-8.23051,0.0],[113.70392,-8.23373,0.0],[113.70131,-8.23561,0.0],[113.69941,-8.24181,0.0],[113.69643,-8.24284,0.0],[113.69636,-8.24618,0.0],[113.69096,-8.24614,0.0],[113.69089,-8.24438,0.0],[113.68554,-8.24425,0.0],[113.68563,-8.24315,0.0],[113.68408,-8.24316,0.0],[113.68367,-8.2463,0.0],[113.67964,-8.2495,0.0],[113.66208,-8.24794,0.0],[113.66066,-8.25032,0.0],[113.65778,-8.25088,0.0],[113.65487,-8.25412,0.0],[113.64864,-8.25388,0.0]]],[[[113.63967,-8.20469,0.0],[113.63962,-8.20452,0.0],[113.63969,-8.20451,0.0],[113.63967,-8.20469,0.0]]]]}},{"type":"Feature","properties":{"kecamatan":"Tempurejo","kab_kota":"Jember"},"geometry":{"type":"MultiPolygon","coordinates":[[[[113.63427,-8.50409,0.0],[113.63323,-8.50455,0.0],[113.63284,-8.5033,0.0],[113.63367,-8.50299,0.0],[113.63427,-8.50409,0.0]]],[[[113.66189,-8.5012,0.0],[113.66046,-8.50344,0.0],[113.66149,-8.49988,0.0],[113.66189,-8.5012,0.0]]],[[[113.66449,-8.50013,0.0],[113.66523,-8.50034,0.0],[113.66456,-8.50034,0.0],[113.66449,-8.50013,0.0]]],[[[113.61582,-8.50048,0.0],[113.61618,-8.49964,0.0],[113.61631,-8.49962,0.0],[113.61582,-8.50048,0.0]]],[[[113.6177,-8.49954,0.0],[113.6174,-8.50021,0.0],[113.61728,-8.49931,0.0],[113.6177,-8.49954,0.0]]],[[[113.61509,-8.49947,0.0],[113.6146,-8.49964,0.0],[113.61444,-8.49949,0.0],[113.61509,-8.49947,0.0]]],[[[113.61608,-8.4994,0.0],[113.61605,-8.49952,0.0],[113.616,-8.49949,0.0],[113.61608,-8.4994,0.0]]],[[[113.61425,-8.49939,0.0],[113.61437,-8.4995,0.0],[113.61419,-8.49952,0.0],[113.61425,-8.49939,0.0]]],[[[113.61616,-8.49937,0.0],[113.61632,-8.49936,0.0],[113.61622,-8.49946,0.0],[113.61616,-8.49937,0.0]]],[[[113.61647,-8.49908,0.0],[113.61665,-8.49941,0.0],[113.61631,-8.49929,0.0],[113.61647,-8.49908,0.0]]],[[[113.66144,-8.49976,0.0],[113.66248,-8.49868,0.0],[113.66262,-8.49884,0.0],[113.66144,-8.49976,0.0]]],[[[113.61682,-8.49905,0.0],[113.61682,-8.49915,0.0],[113.61677,-8.49913,0.0],[113.61682,-8.49905,0.0]]],[[[113.6173,-8.49878,0.0],[113.61749,-8.49889,0.0],[113.6173,-8.49896,0.0],[113.6173,-8.49878,0.0]]],[[[113.61923,-8.49823,0.0],[113.61779,-8.4986,0.0],[113.61758,-8.49825,0.0],[113.61852,-8.49679,0.0],[113.61923,-8.49823,0.0]]],[[[113.64541,-8.49613,0.0],[113.64504,-8.49563,0.0],[113.64545,-8.49573,0.0],[113.64541,-8.49613,0.0]]],[[[113.64612,-8.49584,0.0],[113.64574,-8.49599,0.0],[113.64588,-8.49561,0.0],[113.64612,-8.49584,0.0]]],[[[113.62364,-8.47286,0.0],[113.62374,-8.47186,0.0],[113.62399,-8.47291,0.0],[113.62364,-8.47286,0.0]]],[[[113.62336,-8.47181,0.0],[113.62344,-8.4713,0.0],[113.62376,-8.47166,0.0],[113.62336,-8.47181,0.0]]],[[[113.62382,-8.46964,0.0],[113.62391,-8.4695,0.0],[113.62411,-8.46956,0.0],[113.62382,-8.46964,0.0]]],[[[113.74285,-8.54627,0.0],[113.7443,-8.5453,0.0],[113.74291,-8.54664,0.0],[113.74285,-8.54627,0.0]]],[[[113.74696,-8.54438,0.0],[113.7449,-8.54483,0.0],[113.74424,-8.54465,0.0],[113.74691,-8.54262,0.0],[113.74696,-8.54438,0.0]]],[[[113.7059,-8.53102,0.0],[113.7096,-8.53213,0.0],[113.70957,-8.53354,0.0],[113.70726,-8.53219,0.0],[113.70386,-8.53273,0.0],[113.7059,-8.53102,0.0]]],[[[113.70347,-8.53171,0.0],[113.70211,-8.53204,0.0],[113.70275,-8.53157,0.0],[113.70347,-8.53171,0.0]]],[[[113.71261,-8.52838,0.0],[113.71269,-8.52877,0.0],[113.71262,-8.5288,0.0],[113.71261,-8.52838,0.0]]],[[[113.75569,-8.52233,0.0],[113.75585,-8.52263,0.0],[113.75557,-8.52241,0.0],[113.75569,-8.52233,0.0]]],[[[113.75508,-8.52071,0.0],[113.75535,-8.52124,0.0],[113.75479,-8.52091,0.0],[113.75508,-8.52071,0.0]]],[[[113.78867,-8.51464,0.0],[113.78957,-8.51353,0.0],[113.79116,-8.51313,0.0],[113.79041,-8.51444,0.0],[113.78867,-8.51464,0.0]]],[[[113.66534,-8.5067,0.0],[113.66472,-8.50673,0.0],[113.6653,-8.50647,0.0],[113.66534,-8.5067,0.0]]],[[[113.68724,-8.50493,0.0],[113.68766,-8.50463,0.0],[113.68751,-8.50533,0.0],[113.68724,-8.50493,0.0]]],[[[113.66578,-8.50384,0.0],[113.66638,-8.50433,0.0],[113.66605,-8.50466,0.0],[113.66578,-8.50384,0.0]]],[[[113.71498,-8.50445,0.0],[113.71321,-8.50473,0.0],[113.7152,-8.50343,0.0],[113.71498,-8.50445,0.0]]],[[[113.67692,-8.49122,0.0],[113.67328,-8.49188,0.0],[113.67038,-8.49401,0.0],[113.66947,-8.49788,0.0],[113.66541,-8.49675,0.0],[113.66083,-8.49776,0.0],[113.66016,-8.49507,0.0],[113.65637,-8.49337,0.0],[113.64654,-8.4944,0.0],[113.64633,-8.49091,0.0],[113.64454,-8.48999,0.0],[113.648,-8.48892,0.0],[113.64989,-8.48591,0.0],[113.64877,-8.48045,0.0],[113.64482,-8.47699,0.0],[113.63801,-8.47524,0.0],[113.63674,-8.47035,0.0],[113.64295,-8.46578,0.0],[113.64331,-8.46303,0.0],[113.64148,-8.45755,0.0],[113.63895,-8.45455,0.0],[113.63342,-8.45644,0.0],[113.63262,-8.45518,0.0],[113.63006,-8.45612,0.0],[113.62583,-8.45378,0.0],[113.62476,-8.45433,0.0],[113.6302,-8.44974,0.0],[113.63137,-8.44706,0.0],[113.63432,-8.44745,0.0],[113.6372,-8.4451,0.0],[113.63983,-8.44649,0.0],[113.64142,-8.44116,0.0],[113.63933,-8.43804,0.0],[113.64045,-8.43314,0.0],[113.63625,-8.42991,0.0],[113.63182,-8.4125,0.0],[113.63181,-8.40563,0.0],[113.62741,-8.4014,0.0],[113.63647,-8.39237,0.0],[113.64537,-8.38678,0.0],[113.65774,-8.38081,0.0],[113.66668,-8.38063,0.0],[113.67017,-8.37695,0.0],[113.66983,-8.37435,0.0],[113.66539,-8.37069,0.0],[113.66431,-8.36778,0.0],[113.64381,-8.36515,0.0],[113.64471,-8.36071,0.0],[113.65305,-8.36192,0.0],[113.65562,-8.34279,0.0],[113.66219,-8.34305,0.0],[113.66356,-8.33296,0.0],[113.67109,-8.33649,0.0],[113.67033,-8.33115,0.0],[113.67369,-8.32728,0.0],[113.67175,-8.32434,0.0],[113.67146,-8.31703,0.0],[113.67263,-8.31513,0.0],[113.67029,-8.30782,0.0],[113.67439,-8.30193,0.0],[113.67581,-8.29515,0.0],[113.68206,-8.29079,0.0],[113.68597,-8.29258,0.0],[113.68903,-8.2902,0.0],[113.69265,-8.28954,0.0],[113.69339,-8.2879,0.0],[113.69848,-8.28787,0.0],[113.70009,-8.28619,0.0],[113.70372,-8.28645,0.0],[113.70473,-8.28432,0.0],[113.70803,-8.28528,0.0],[113.71206,-8.28308,0.0],[113.71341,-8.28385,0.0],[113.71408,-8.28981,0.0],[113.72375,-8.29331,0.0],[113.72323,-8.3051,0.0],[113.7283,-8.30528,0.0],[113.72585,-8.30694,0.0],[113.72484,-8.31861,0.0],[113.7273,-8.31834,0.0],[113.73287,-8.32471,0.0],[113.73809,-8.32322,0.0],[113.73541,-8.32697,0.0],[113.73692,-8.32828,0.0],[113.73602,-8.33201,0.0],[113.74274,-8.331,0.0],[113.74219,-8.33466,0.0],[113.74628,-8.33502,0.0],[113.74795,-8.33245,0.0],[113.75191,-8.33193,0.0],[113.75199,-8.33439,0.0],[113.7538,-8.33144,0.0],[113.75589,-8.33058,0.0],[113.75667,-8.33186,0.0],[113.75509,-8.3338,0.0],[113.75842,-8.33165,0.0],[113.7592,-8.33275,0.0],[113.76305,-8.33193,0.0],[113.76887,-8.32775,0.0],[113.77005,-8.32482,0.0],[113.7822,-8.32495,0.0],[113.78554,-8.32945,0.0],[113.78344,-8.33552,0.0],[113.78548,-8.34958,0.0],[113.78689,-8.35087,0.0],[113.78684,-8.35728,0.0],[113.78926,-8.36121,0.0],[113.78821,-8.36316,0.0],[113.78906,-8.36553,0.0],[113.79763,-8.36522,0.0],[113.80534,-8.36116,0.0],[113.81017,-8.36302,0.0],[113.81777,-8.35951,0.0],[113.82437,-8.36237,0.0],[113.8265,-8.35811,0.0],[113.82952,-8.35645,0.0],[113.83275,-8.36335,0.0],[113.83874,-8.36509,0.0],[113.83835,-8.36766,0.0],[113.84012,-8.37045,0.0],[113.83917,-8.37377,0.0],[113.84335,-8.37832,0.0],[113.84694,-8.37871,0.0],[113.84677,-8.38119,0.0],[113.85189,-8.3801,0.0],[113.85831,-8.37519,0.0],[113.85702,-8.36765,0.0],[113.85889,-8.3671,0.0],[113.86172,-8.36136,0.0],[113.86372,-8.36131,0.0],[113.86887,-8.35743,0.0],[113.86555,-8.35587,0.0],[113.87012,-8.35244,0.0],[113.87134,-8.34526,0.0],[113.87399,-8.34531,0.0],[113.87732,-8.34191,0.0],[113.87862,-8.34223,0.0],[113.87922,-8.34447,0.0],[113.88162,-8.34341,0.0],[113.88265,-8.34521,0.0],[113.8867,-8.3435,0.0],[113.88752,-8.34592,0.0],[113.8908,-8.34689,0.0],[113.89429,-8.34617,0.0],[113.89609,-8.34434,0.0],[113.89844,-8.34516,0.0],[113.89779,-8.34684,0.0],[113.90066,-8.34686,0.0],[113.90139,-8.34391,0.0],[113.90351,-8.34249,0.0],[113.90812,-8.34356,0.0],[113.90909,-8.34698,0.0],[113.91156,-8.34788,0.0],[113.91151,-8.35002,0.0],[113.91582,-8.34812,0.0],[113.91686,-8.35053,0.0],[113.9159,-8.35317,0.0],[113.919,-8.35369,0.0],[113.92122,-8.35732,0.0],[113.91871,-8.35849,0.0],[113.92253,-8.36346,0.0],[113.92141,-8.36437,0.0],[113.92237,-8.36722,0.0],[113.92165,-8.3699,0.0],[113.92379,-8.37199,0.0],[113.92443,-8.37508,0.0],[113.92716,-8.3752,0.0],[113.92775,-8.37671,0.0],[113.92651,-8.37912,0.0],[113.92721,-8.38003,0.0],[113.92349,-8.38399,0.0],[113.92531,-8.38634,0.0],[113.93042,-8.38885,0.0],[113.93301,-8.3888,0.0],[113.93596,-8.39288,0.0],[113.94427,-8.39739,0.0],[113.94513,-8.40025,0.0],[113.94727,-8.40168,0.0],[113.93744,-8.40913,0.0],[113.93442,-8.42324,0.0],[113.91027,-8.44197,0.0],[113.90542,-8.44006,0.0],[113.89924,-8.43443,0.0],[113.89898,-8.4318,0.0],[113.90102,-8.42667,0.0],[113.90033,-8.42397,0.0],[113.8942,-8.41346,0.0],[113.89041,-8.4104,0.0],[113.88196,-8.41727,0.0],[113.87437,-8.41642,0.0],[113.85465,-8.42998,0.0],[113.84819,-8.45456,0.0],[113.84828,-8.46237,0.0],[113.84488,-8.47516,0.0],[113.84221,-8.49446,0.0],[113.84314,-8.50353,0.0],[113.84738,-8.50906,0.0],[113.85552,-8.51553,0.0],[113.85512,-8.51963,0.0],[113.85302,-8.52616,0.0],[113.84714,-8.53334,0.0],[113.8439,-8.5459,0.0],[113.83759,-8.55368,0.0],[113.83448,-8.55039,0.0],[113.83741,-8.54734,0.0],[113.83489,-8.54517,0.0],[113.83562,-8.54431,0.0],[113.83413,-8.54136,0.0],[113.83602,-8.54041,0.0],[113.83692,-8.53682,0.0],[113.83872,-8.53622,0.0],[113.8379,-8.53338,0.0],[113.83529,-8.53373,0.0],[113.83737,-8.52987,0.0],[113.83451,-8.52758,0.0],[113.82964,-8.52721,0.0],[113.82748,-8.52813,0.0],[113.8274,-8.53185,0.0],[113.82528,-8.53713,0.0],[113.82541,-8.54265,0.0],[113.82364,-8.54144,0.0],[113.82223,-8.54309,0.0],[113.82177,-8.54161,0.0],[113.8201,-8.54484,0.0],[113.8156,-8.54613,0.0],[113.8163,-8.55037,0.0],[113.81543,-8.55159,0.0],[113.81671,-8.55416,0.0],[113.81474,-8.55837,0.0],[113.81119,-8.55764,0.0],[113.8122,-8.55613,0.0],[113.81121,-8.55518,0.0],[113.81031,-8.55635,0.0],[113.80763,-8.55611,0.0],[113.80804,-8.55382,0.0],[113.80588,-8.55427,0.0],[113.80744,-8.54736,0.0],[113.81037,-8.54755,0.0],[113.81279,-8.54539,0.0],[113.81216,-8.54238,0.0],[113.81496,-8.54157,0.0],[113.81513,-8.54028,0.0],[113.81288,-8.53804,0.0],[113.81655,-8.53619,0.0],[113.81514,-8.5334,0.0],[113.81151,-8.53415,0.0],[113.81177,-8.53332,0.0],[113.80904,-8.5332,0.0],[113.80935,-8.53167,0.0],[113.80797,-8.53098,0.0],[113.80959,-8.52875,0.0],[113.80817,-8.52859,0.0],[113.80913,-8.52677,0.0],[113.80786,-8.52679,0.0],[113.80849,-8.52539,0.0],[113.80744,-8.52529,0.0],[113.80858,-8.52327,0.0],[113.80732,-8.52217,0.0],[113.80815,-8.52042,0.0],[113.80736,-8.51933,0.0],[113.80589,-8.52089,0.0],[113.80445,-8.5204,0.0],[113.80674,-8.51738,0.0],[113.80901,-8.51808,0.0],[113.81032,-8.51695,0.0],[113.81087,-8.51306,0.0],[113.80861,-8.51213,0.0],[113.80824,-8.5093,0.0],[113.80583,-8.5093,0.0],[113.8059,-8.50764,0.0],[113.80768,-8.50521,0.0],[113.81074,-8.50518,0.0],[113.81244,-8.50231,0.0],[113.8116,-8.49905,0.0],[113.80796,-8.49568,0.0],[113.79612,-8.4894,0.0],[113.79202,-8.48873,0.0],[113.79204,-8.48773,0.0],[113.78663,-8.49272,0.0],[113.78781,-8.49856,0.0],[113.78635,-8.49868,0.0],[113.78696,-8.49633,0.0],[113.78515,-8.49515,0.0],[113.78352,-8.49656,0.0],[113.78083,-8.49552,0.0],[113.77624,-8.49822,0.0],[113.77444,-8.50082,0.0],[113.77259,-8.50051,0.0],[113.77166,-8.50324,0.0],[113.76935,-8.50327,0.0],[113.76798,-8.50466,0.0],[113.76501,-8.50039,0.0],[113.76286,-8.50069,0.0],[113.76174,-8.50348,0.0],[113.75887,-8.50218,0.0],[113.75563,-8.50617,0.0],[113.75505,-8.51002,0.0],[113.75754,-8.5122,0.0],[113.76062,-8.51246,0.0],[113.76178,-8.51453,0.0],[113.76025,-8.51585,0.0],[113.75927,-8.51475,0.0],[113.75607,-8.51859,0.0],[113.7541,-8.51942,0.0],[113.74977,-8.51811,0.0],[113.74918,-8.52049,0.0],[113.74421,-8.52071,0.0],[113.74327,-8.52279,0.0],[113.7389,-8.52385,0.0],[113.7398,-8.52471,0.0],[113.73873,-8.52606,0.0],[113.73481,-8.52574,0.0],[113.73332,-8.52386,0.0],[113.7347,-8.5201,0.0],[113.73427,-8.51691,0.0],[113.73183,-8.51481,0.0],[113.7272,-8.51718,0.0],[113.72725,-8.51897,0.0],[113.72559,-8.5206,0.0],[113.72404,-8.517,0.0],[113.72154,-8.51775,0.0],[113.71795,-8.52115,0.0],[113.71878,-8.52237,0.0],[113.71656,-8.52328,0.0],[113.7163,-8.52706,0.0],[113.71272,-8.52825,0.0],[113.71157,-8.52682,0.0],[113.71217,-8.52395,0.0],[113.71081,-8.52257,0.0],[113.71408,-8.51994,0.0],[113.71306,-8.51509,0.0],[113.71973,-8.51203,0.0],[113.71984,-8.51066,0.0],[113.71742,-8.50989,0.0],[113.71714,-8.50843,0.0],[113.71846,-8.50435,0.0],[113.72083,-8.50232,0.0],[113.72136,-8.50069,0.0],[113.72011,-8.49947,0.0],[113.72223,-8.49667,0.0],[113.71869,-8.48996,0.0],[113.71955,-8.48743,0.0],[113.71836,-8.48507,0.0],[113.71026,-8.48153,0.0],[113.70315,-8.48251,0.0],[113.701,-8.48464,0.0],[113.70071,-8.48686,0.0],[113.7034,-8.48917,0.0],[113.70325,-8.49046,0.0],[113.69504,-8.4951,0.0],[113.69386,-8.49943,0.0],[113.6953,-8.49991,0.0],[113.69157,-8.50195,0.0],[113.68957,-8.50502,0.0],[113.68633,-8.50176,0.0],[113.6877,-8.49724,0.0],[113.68625,-8.49643,0.0],[113.68663,-8.49346,0.0],[113.68537,-8.49166,0.0],[113.68278,-8.49126,0.0],[113.6812,-8.49347,0.0],[113.67692,-8.49122,0.0]]],[[[113.81788,-8.56213,0.0],[113.81815,-8.56209,0.0],[113.81802,-8.5624,0.0],[113.81788,-8.56213,0.0]]],[[[113.81157,-8.56133,0.0],[113.81142,-8.56163,0.0],[113.81131,-8.56151,0.0],[113.81157,-8.56133,0.0]]],[[[113.8132,-8.56128,0.0],[113.81311,-8.56146,0.0],[113.8131,-8.56123,0.0],[113.8132,-8.56128,0.0]]],[[[113.81367,-8.55979,0.0],[113.81392,-8.56004,0.0],[113.81361,-8.56027,0.0],[113.81367,-8.55979,0.0]]],[[[113.80076,-8.56033,0.0],[113.80058,-8.55898,0.0],[113.80103,-8.55885,0.0],[113.80076,-8.56033,0.0]]],[[[113.81715,-8.55997,0.0],[113.81674,-8.55893,0.0],[113.81742,-8.55916,0.0],[113.81715,-8.55997,0.0]]],[[[113.81588,-8.55944,0.0],[113.81649,-8.55916,0.0],[113.81609,-8.55964,0.0],[113.81588,-8.55944,0.0]]],[[[113.81779,-8.55861,0.0],[113.81748,-8.55848,0.0],[113.81768,-8.5584,0.0],[113.81779,-8.55861,0.0]]],[[[113.80683,-8.55825,0.0],[113.80732,-8.55839,0.0],[113.80716,-8.55879,0.0],[113.80683,-8.55825,0.0]]],[[[113.80672,-8.5573,0.0],[113.80703,-8.55744,0.0],[113.80676,-8.55755,0.0],[113.80672,-8.5573,0.0]]],[[[113.80834,-8.55701,0.0],[113.80921,-8.55716,0.0],[113.80862,-8.55739,0.0],[113.80834,-8.55701,0.0]]],[[[113.8042,-8.55356,0.0],[113.80353,-8.55336,0.0],[113.80379,-8.5531,0.0],[113.8042,-8.55356,0.0]]],[[[113.8007,-8.55033,0.0],[113.80103,-8.54911,0.0],[113.80158,-8.54961,0.0],[113.8007,-8.55033,0.0]]],[[[113.82355,-8.54313,0.0],[113.82382,-8.54354,0.0],[113.82359,-8.54361,0.0],[113.82355,-8.54313,0.0]]],[[[113.83485,-8.5389,0.0],[113.8349,-8.5398,0.0],[113.83411,-8.53939,0.0],[113.83485,-8.5389,0.0]]],[[[113.83086,-8.53436,0.0],[113.83044,-8.53467,0.0],[113.83058,-8.53406,0.0],[113.83086,-8.53436,0.0]]]]}},{"type":"Feature","properties":{"kecamatan":"Wuluhan","kab_kota":"Jember"},"geometry":{"type":"MultiPolygon","coordinates":[[[[113.53571,-8.43169,0.0],[113.53731,-8.43271,0.0],[113.53698,-8.4337,0.0],[113.53571,-8.43169,0.0]]],[[[113.53517,-8.43223,0.0],[113.53585,-8.4324,0.0],[113.53521,-8.43266,0.0],[113.53517,-8.43223,0.0]]],[[[113.5352,-8.43021,0.0],[113.53552,-8.43069,0.0],[113.53477,-8.43055,0.0],[113.5352,-8.43021,0.0]]],[[[113.52751,-8.43057,0.0],[113.52784,-8.43003,0.0],[113.5279,-8.43037,0.0],[113.52751,-8.43057,0.0]]],[[[113.52959,-8.42955,0.0],[113.53007,-8.429,0.0],[113.53008,-8.42969,0.0],[113.52959,-8.42955,0.0]]],[[[113.51616,-8.42593,0.0],[113.51645,-8.42569,0.0],[113.51653,-8.42581,0.0],[113.51616,-8.42593,0.0]]],[[[113.50374,-8.42392,0.0],[113.50421,-8.42375,0.0],[113.50423,-8.42381,0.0],[113.50374,-8.42392,0.0]]],[[[113.4804,-8.41431,0.0],[113.4805,-8.41393,0.0],[113.48064,-8.41407,0.0],[113.4804,-8.41431,0.0]]],[[[113.47869,-8.4104,0.0],[113.47846,-8.40969,0.0],[113.479,-8.40993,0.0],[113.47869,-8.4104,0.0]]],[[[113.47445,-8.39788,0.0],[113.47475,-8.39742,0.0],[113.47483,-8.39762,0.0],[113.47445,-8.39788,0.0]]],[[[113.47452,-8.39602,0.0],[113.47477,-8.39624,0.0],[113.47466,-8.39641,0.0],[113.47452,-8.39602,0.0]]],[[[113.54831,-8.38157,0.0],[113.54639,-8.38574,0.0],[113.54538,-8.38974,0.0],[113.54884,-8.38537,0.0],[113.54908,-8.39236,0.0],[113.55915,-8.39482,0.0],[113.56555,-8.39397,0.0],[113.56987,-8.39595,0.0],[113.57203,-8.39932,0.0],[113.57692,-8.39949,0.0],[113.57885,-8.40226,0.0],[113.58262,-8.40403,0.0],[113.58243,-8.40514,0.0],[113.57321,-8.41017,0.0],[113.57108,-8.4171,0.0],[113.56013,-8.41834,0.0],[113.5594,-8.42334,0.0],[113.56067,-8.4261,0.0],[113.55747,-8.42664,0.0],[113.55372,-8.42976,0.0],[113.55323,-8.43622,0.0],[113.54987,-8.43288,0.0],[113.54946,-8.43017,0.0],[113.54038,-8.42878,0.0],[113.53475,-8.42976,0.0],[113.52979,-8.42695,0.0],[113.52913,-8.42925,0.0],[113.5231,-8.42886,0.0],[113.5202,-8.42543,0.0],[113.51473,-8.42509,0.0],[113.51214,-8.42137,0.0],[113.51021,-8.42197,0.0],[113.50862,-8.41998,0.0],[113.50776,-8.42236,0.0],[113.50484,-8.42297,0.0],[113.50503,-8.41928,0.0],[113.49877,-8.41724,0.0],[113.4981,-8.41439,0.0],[113.49482,-8.41279,0.0],[113.48582,-8.41565,0.0],[113.48042,-8.41106,0.0],[113.48022,-8.40713,0.0],[113.47842,-8.40397,0.0],[113.48007,-8.40311,0.0],[113.47971,-8.40157,0.0],[113.4753,-8.39808,0.0],[113.47638,-8.39658,0.0],[113.47535,-8.38961,0.0],[113.47784,-8.38629,0.0],[113.47389,-8.38099,0.0],[113.47588,-8.37909,0.0],[113.48324,-8.37668,0.0],[113.48159,-8.3728,0.0],[113.48255,-8.3704,0.0],[113.48795,-8.37138,0.0],[113.48974,-8.36705,0.0],[113.48934,-8.364,0.0],[113.49473,-8.35749,0.0],[113.49274,-8.35577,0.0],[113.49358,-8.34883,0.0],[113.49689,-8.34658,0.0],[113.49906,-8.33532,0.0],[113.50183,-8.33463,0.0],[113.50362,-8.33147,0.0],[113.50698,-8.33059,0.0],[113.51131,-8.32596,0.0],[113.51809,-8.32481,0.0],[113.52178,-8.32005,0.0],[113.52306,-8.31571,0.0],[113.5261,-8.31581,0.0],[113.52937,-8.31254,0.0],[113.53335,-8.3022,0.0],[113.53612,-8.3014,0.0],[113.53562,-8.30312,0.0],[113.53703,-8.30291,0.0],[113.53976,-8.3019,0.0],[113.53986,-8.30039,0.0],[113.5477,-8.29786,0.0],[113.54878,-8.28872,0.0],[113.55078,-8.28907,0.0],[113.55266,-8.27942,0.0],[113.55694,-8.27257,0.0],[113.55995,-8.27002,0.0],[113.57983,-8.28277,0.0],[113.58828,-8.28435,0.0],[113.58069,-8.29381,0.0],[113.57898,-8.29774,0.0],[113.5799,-8.29845,0.0],[113.57954,-8.30147,0.0],[113.58523,-8.30433,0.0],[113.58586,-8.30671,0.0],[113.59495,-8.30577,0.0],[113.59983,-8.30799,0.0],[113.59948,-8.30999,0.0],[113.60248,-8.31264,0.0],[113.60441,-8.31756,0.0],[113.60921,-8.32123,0.0],[113.60603,-8.32276,0.0],[113.60395,-8.32571,0.0],[113.59832,-8.32792,0.0],[113.5976,-8.33073,0.0],[113.59478,-8.32979,0.0],[113.5944,-8.33808,0.0],[113.59295,-8.33826,0.0],[113.59223,-8.34085,0.0],[113.5927,-8.3439,0.0],[113.59074,-8.35419,0.0],[113.59073,-8.35609,0.0],[113.59355,-8.35767,0.0],[113.59164,-8.36865,0.0],[113.58067,-8.37064,0.0],[113.5751,-8.36906,0.0],[113.56929,-8.37089,0.0],[113.55999,-8.37138,0.0],[113.56107,-8.37814,0.0],[113.55277,-8.38167,0.0],[113.54831,-8.38157,0.0]],[[113.59059,-8.30777,0.0],[113.58522,-8.30947,0.0],[113.58511,-8.31112,0.0],[113.59409,-8.30981,0.0],[113.59421,-8.30804,0.0],[113.59059,-8.30777,0.0]]],[[[113.54934,-8.4397,0.0],[113.54918,-8.43956,0.0],[113.54937,-8.43965,0.0],[113.54934,-8.4397,0.0]]],[[[113.54901,-8.43962,0.0],[113.54886,-8.43949,0.0],[113.54886,-8.43941,0.0],[113.54901,-8.43962,0.0]]],[[[113.54999,-8.4384,0.0],[113.54969,-8.43871,0.0],[113.5494,-8.4386,0.0],[113.54999,-8.4384,0.0]]],[[[113.55076,-8.43783,0.0],[113.5514,-8.43824,0.0],[113.55047,-8.43819,0.0],[113.55076,-8.43783,0.0]]],[[[113.55219,-8.437,0.0],[113.55256,-8.43729,0.0],[113.55203,-8.43728,0.0],[113.55219,-8.437,0.0]]],[[[113.55414,-8.43623,0.0],[113.55399,-8.43594,0.0],[113.55426,-8.43605,0.0],[113.55414,-8.43623,0.0]]],[[[113.54745,-8.43391,0.0],[113.54778,-8.43352,0.0],[113.5478,-8.43389,0.0],[113.54745,-8.43391,0.0]]],[[[113.5472,-8.43263,0.0],[113.54733,-8.43236,0.0],[113.54786,-8.43258,0.0],[113.5472,-8.43263,0.0]]],[[[113.53971,-8.4325,0.0],[113.53979,-8.4318,0.0],[113.54007,-8.43242,0.0],[113.53971,-8.4325,0.0]]]]}},{"type":"Feature","properties":{"kecamatan":"Ambulu","kab_kota":"Jember"},"geometry":{"type":"MultiPolygon","coordinates":[[[[113.583,-8.4449,0.0],[113.58262,-8.44453,0.0],[113.58336,-8.44453,0.0],[113.583,-8.4449,0.0]]],[[[113.57954,-8.44453,0.0],[113.58004,-8.44465,0.0],[113.57954,-8.44464,0.0],[113.57954,-8.44453,0.0]]],[[[113.58996,-8.44371,0.0],[113.58967,-8.44309,0.0],[113.59024,-8.44348,0.0],[113.58996,-8.44371,0.0]]],[[[113.5894,-8.44315,0.0],[113.58951,-8.44268,0.0],[113.58961,-8.44312,0.0],[113.5894,-8.44315,0.0]]],[[[113.57966,-8.4404,0.0],[113.58021,-8.44168,0.0],[113.5781,-8.44129,0.0],[113.57966,-8.4404,0.0]]],[[[113.55524,-8.43693,0.0],[113.55461,-8.4367,0.0],[113.55483,-8.4364,0.0],[113.55524,-8.43693,0.0]]],[[[113.55603,-8.43625,0.0],[113.55603,-8.43592,0.0],[113.55623,-8.43598,0.0],[113.55603,-8.43625,0.0]]],[[[113.55847,-8.43514,0.0],[113.55805,-8.43583,0.0],[113.55771,-8.43577,0.0],[113.55847,-8.43514,0.0]]],[[[113.55704,-8.4346,0.0],[113.55616,-8.43508,0.0],[113.55588,-8.43469,0.0],[113.55704,-8.4346,0.0]]],[[[113.58607,-8.44091,0.0],[113.58685,-8.44285,0.0],[113.58265,-8.44402,0.0],[113.58216,-8.44238,0.0],[113.58392,-8.44049,0.0],[113.58149,-8.43799,0.0],[113.57971,-8.43804,0.0],[113.58141,-8.43655,0.0],[113.58202,-8.43339,0.0],[113.57918,-8.42973,0.0],[113.57083,-8.42562,0.0],[113.56067,-8.42514,0.0],[113.5594,-8.42334,0.0],[113.56013,-8.41834,0.0],[113.57108,-8.4171,0.0],[113.57321,-8.41017,0.0],[113.58243,-8.40514,0.0],[113.58262,-8.40403,0.0],[113.57885,-8.40226,0.0],[113.57692,-8.39949,0.0],[113.57203,-8.39932,0.0],[113.56987,-8.39595,0.0],[113.56555,-8.39397,0.0],[113.55915,-8.39482,0.0],[113.55238,-8.39244,0.0],[113.54944,-8.39259,0.0],[113.54839,-8.39111,0.0],[113.54968,-8.3883,0.0],[113.54884,-8.38537,0.0],[113.54565,-8.38976,0.0],[113.54541,-8.38874,0.0],[113.54839,-8.38123,0.0],[113.55277,-8.38167,0.0],[113.56107,-8.37814,0.0],[113.55999,-8.37138,0.0],[113.56929,-8.37089,0.0],[113.5751,-8.36906,0.0],[113.58067,-8.37064,0.0],[113.59164,-8.36865,0.0],[113.59355,-8.35767,0.0],[113.59073,-8.35609,0.0],[113.59074,-8.35419,0.0],[113.5927,-8.3439,0.0],[113.59223,-8.34085,0.0],[113.59295,-8.33826,0.0],[113.5944,-8.33808,0.0],[113.59478,-8.32979,0.0],[113.5976,-8.33073,0.0],[113.59832,-8.32792,0.0],[113.60395,-8.32571,0.0],[113.60603,-8.32276,0.0],[113.60921,-8.32123,0.0],[113.60441,-8.31756,0.0],[113.60248,-8.31264,0.0],[113.59948,-8.30999,0.0],[113.5997,-8.30827,0.0],[113.60246,-8.30719,0.0],[113.60988,-8.30737,0.0],[113.62208,-8.31227,0.0],[113.62148,-8.31704,0.0],[113.62824,-8.32049,0.0],[113.62744,-8.32502,0.0],[113.63453,-8.32825,0.0],[113.64074,-8.33538,0.0],[113.64048,-8.33391,0.0],[113.64405,-8.33146,0.0],[113.66355,-8.33299,0.0],[113.66219,-8.34305,0.0],[113.65562,-8.34279,0.0],[113.65305,-8.36192,0.0],[113.64471,-8.36071,0.0],[113.64381,-8.36515,0.0],[113.66431,-8.36778,0.0],[113.66539,-8.37069,0.0],[113.66983,-8.37435,0.0],[113.67023,-8.37664,0.0],[113.66668,-8.38063,0.0],[113.65774,-8.38081,0.0],[113.64537,-8.38678,0.0],[113.63647,-8.39237,0.0],[113.62741,-8.4014,0.0],[113.63181,-8.40563,0.0],[113.63182,-8.4125,0.0],[113.63625,-8.42991,0.0],[113.64045,-8.43314,0.0],[113.63933,-8.43804,0.0],[113.64142,-8.44116,0.0],[113.63983,-8.44649,0.0],[113.6372,-8.4451,0.0],[113.63432,-8.44745,0.0],[113.63137,-8.44706,0.0],[113.6302,-8.44974,0.0],[113.62769,-8.45103,0.0],[113.62584,-8.44755,0.0],[113.6199,-8.44355,0.0],[113.5991,-8.43541,0.0],[113.59282,-8.43631,0.0],[113.58933,-8.44042,0.0],[113.58607,-8.44091,0.0]]],[[[113.59409,-8.30981,0.0],[113.58681,-8.31108,0.0],[113.58511,-8.31112,0.0],[113.58522,-8.30947,0.0],[113.59026,-8.30775,0.0],[113.59421,-8.30804,0.0],[113.59409,-8.30981,0.0]]],[[[113.60457,-8.44371,0.0],[113.60369,-8.44341,0.0],[113.6051,-8.44295,0.0],[113.60457,-8.44371,0.0]]],[[[113.59197,-8.4425,0.0],[113.59052,-8.4431,0.0],[113.59004,-8.44278,0.0],[113.59197,-8.4425,0.0]]],[[[113.59283,-8.44244,0.0],[113.5923,-8.44256,0.0],[113.59212,-8.44226,0.0],[113.59283,-8.44244,0.0]]],[[[113.58981,-8.44167,0.0],[113.59029,-8.44181,0.0],[113.58977,-8.442,0.0],[113.58981,-8.44167,0.0]]]]}},{"type":"Feature","properties":{"kecamatan":"Balung","kab_kota":"Jember"},"geometry":{"type":"Polygon","coordinates":[[[113.53296,-8.30336,0.0],[113.52937,-8.31254,0.0],[113.5261,-8.31581,0.0],[113.52324,-8.31552,0.0],[113.52138,-8.32045,0.0],[113.50781,-8.31301,0.0],[113.5069,-8.31231,0.0],[113.51335,-8.29738,0.0],[113.50696,-8.28826,0.0],[113.50772,-8.28783,0.0],[113.49256,-8.2839,0.0],[113.49293,-8.28243,0.0],[113.49071,-8.2822,0.0],[113.49102,-8.27939,0.0],[113.48127,-8.27241,0.0],[113.48131,-8.26698,0.0],[113.47695,-8.26452,0.0],[113.47779,-8.26297,0.0],[113.47995,-8.26321,0.0],[113.48101,-8.2605,0.0],[113.48394,-8.25916,0.0],[113.48409,-8.25747,0.0],[113.48601,-8.2568,0.0],[113.48629,-8.25785,0.0],[113.48868,-8.25783,0.0],[113.49011,-8.25619,0.0],[113.49793,-8.25707,0.0],[113.50061,-8.25358,0.0],[113.50546,-8.25521,0.0],[113.50747,-8.25987,0.0],[113.50975,-8.26031,0.0],[113.51274,-8.25815,0.0],[113.51545,-8.25185,0.0],[113.52152,-8.24686,0.0],[113.52327,-8.24251,0.0],[113.5254,-8.2419,0.0],[113.52607,-8.24455,0.0],[113.52928,-8.24098,0.0],[113.53595,-8.24077,0.0],[113.55041,-8.22784,0.0],[113.55372,-8.22618,0.0],[113.55794,-8.22717,0.0],[113.56179,-8.23096,0.0],[113.56765,-8.23256,0.0],[113.56054,-8.23895,0.0],[113.56199,-8.24118,0.0],[113.56455,-8.24218,0.0],[113.56348,-8.24481,0.0],[113.56903,-8.25628,0.0],[113.56441,-8.26156,0.0],[113.55927,-8.26245,0.0],[113.55931,-8.26785,0.0],[113.56056,-8.26871,0.0],[113.55266,-8.27942,0.0],[113.55078,-8.28907,0.0],[113.54878,-8.28872,0.0],[113.5477,-8.29786,0.0],[113.53986,-8.30039,0.0],[113.53875,-8.30234,0.0],[113.53562,-8.30312,0.0],[113.53612,-8.3014,0.0],[113.53296,-8.30336,0.0]]]}},{"type":"Feature","properties":{"kecamatan":"Sukorambi","kab_kota":"Jember"},"geometry":{"type":"Polygon","coordinates":[[[113.64176,-8.18184,0.0],[113.64175,-8.18512,0.0],[113.64312,-8.18647,0.0],[113.64138,-8.18909,0.0],[113.64473,-8.19385,0.0],[113.63965,-8.20018,0.0],[113.63951,-8.20692,0.0],[113.64174,-8.20753,0.0],[113.63846,-8.21073,0.0],[113.63742,-8.21762,0.0],[113.63548,-8.21857,0.0],[113.63564,-8.22015,0.0],[113.63076,-8.22109,0.0],[113.63245,-8.21999,0.0],[113.63441,-8.21422,0.0],[113.6311,-8.21013,0.0],[113.63152,-8.20825,0.0],[113.63016,-8.20796,0.0],[113.62955,-8.20551,0.0],[113.62744,-8.20532,0.0],[113.62717,-8.2039,0.0],[113.63161,-8.19915,0.0],[113.63221,-8.19276,0.0],[113.63134,-8.1908,0.0],[113.63429,-8.18343,0.0],[113.63462,-8.1799,0.0],[113.63284,-8.17859,0.0],[113.63441,-8.17324,0.0],[113.63241,-8.17192,0.0],[113.63241,-8.16589,0.0],[113.64149,-8.16596,0.0],[113.64341,-8.1672,0.0],[113.64496,-8.16574,0.0],[113.64534,-8.16803,0.0],[113.65034,-8.16754,0.0],[113.65044,-8.16492,0.0],[113.64822,-8.16317,0.0],[113.64848,-8.15985,0.0],[113.65506,-8.15269,0.0],[113.65419,-8.14049,0.0],[113.65131,-8.13417,0.0],[113.65244,-8.13002,0.0],[113.64985,-8.12591,0.0],[113.65149,-8.12041,0.0],[113.65036,-8.11074,0.0],[113.64805,-8.10348,0.0],[113.64396,-8.0974,0.0],[113.64575,-8.0861,0.0],[113.65054,-8.08313,0.0],[113.66147,-8.08431,0.0],[113.66416,-8.08207,0.0],[113.65179,-8.06207,0.0],[113.65098,-8.05793,0.0],[113.65393,-8.05321,0.0],[113.6711,-8.03614,0.0],[113.67247,-8.04294,0.0],[113.67869,-8.04847,0.0],[113.67738,-8.05204,0.0],[113.67776,-8.05623,0.0],[113.67568,-8.05725,0.0],[113.67661,-8.05973,0.0],[113.67493,-8.0613,0.0],[113.67572,-8.06552,0.0],[113.68008,-8.07307,0.0],[113.68317,-8.07464,0.0],[113.68231,-8.07695,0.0],[113.68452,-8.08007,0.0],[113.67922,-8.083,0.0],[113.67885,-8.08788,0.0],[113.68099,-8.09016,0.0],[113.68024,-8.09341,0.0],[113.69019,-8.10509,0.0],[113.69106,-8.10941,0.0],[113.69325,-8.11112,0.0],[113.69224,-8.11452,0.0],[113.6944,-8.11552,0.0],[113.69544,-8.1184,0.0],[113.6941,-8.12338,0.0],[113.68736,-8.12237,0.0],[113.68642,-8.11736,0.0],[113.68133,-8.11496,0.0],[113.67708,-8.11494,0.0],[113.6726,-8.10616,0.0],[113.67075,-8.10665,0.0],[113.66956,-8.11593,0.0],[113.67235,-8.1326,0.0],[113.66514,-8.13738,0.0],[113.66739,-8.14017,0.0],[113.6663,-8.14422,0.0],[113.66881,-8.14558,0.0],[113.66771,-8.14867,0.0],[113.66988,-8.15156,0.0],[113.66968,-8.15483,0.0],[113.67166,-8.1589,0.0],[113.66944,-8.1618,0.0],[113.67097,-8.17409,0.0],[113.6556,-8.17757,0.0],[113.65207,-8.18451,0.0],[113.64176,-8.18184,0.0]]]}},{"type":"Feature","properties":{"kecamatan":"Jenggawah","kab_kota":"Jember"},"geometry":{"type":"Polygon","coordinates":[[[113.67221,-8.32498,0.0],[113.67369,-8.32756,0.0],[113.67041,-8.33088,0.0],[113.67074,-8.337,0.0],[113.6604,-8.33197,0.0],[113.64405,-8.33146,0.0],[113.64048,-8.33391,0.0],[113.64105,-8.33552,0.0],[113.63453,-8.32825,0.0],[113.62744,-8.32502,0.0],[113.62824,-8.32049,0.0],[113.62148,-8.31704,0.0],[113.62208,-8.31227,0.0],[113.60988,-8.30737,0.0],[113.6001,-8.30815,0.0],[113.59495,-8.30577,0.0],[113.58586,-8.30671,0.0],[113.58523,-8.30433,0.0],[113.57954,-8.30147,0.0],[113.5799,-8.29845,0.0],[113.57898,-8.29774,0.0],[113.58069,-8.29381,0.0],[113.58828,-8.28435,0.0],[113.59761,-8.28578,0.0],[113.60073,-8.28279,0.0],[113.60807,-8.28196,0.0],[113.61351,-8.27818,0.0],[113.62207,-8.28501,0.0],[113.62784,-8.28507,0.0],[113.62807,-8.2816,0.0],[113.6269,-8.281,0.0],[113.62811,-8.27859,0.0],[113.63233,-8.28144,0.0],[113.63308,-8.27823,0.0],[113.63706,-8.27341,0.0],[113.63914,-8.27277,0.0],[113.64186,-8.2657,0.0],[113.64471,-8.26352,0.0],[113.64511,-8.26084,0.0],[113.64778,-8.25903,0.0],[113.64864,-8.25388,0.0],[113.65487,-8.25412,0.0],[113.65778,-8.25088,0.0],[113.66066,-8.25032,0.0],[113.66118,-8.24813,0.0],[113.66716,-8.24763,0.0],[113.67202,-8.24959,0.0],[113.67211,-8.24853,0.0],[113.67907,-8.24964,0.0],[113.68367,-8.2463,0.0],[113.68408,-8.24316,0.0],[113.68563,-8.24315,0.0],[113.68554,-8.24425,0.0],[113.69089,-8.24438,0.0],[113.69096,-8.24614,0.0],[113.69636,-8.24618,0.0],[113.69643,-8.24284,0.0],[113.69829,-8.24292,0.0],[113.69904,-8.24914,0.0],[113.69713,-8.25106,0.0],[113.69793,-8.25649,0.0],[113.69641,-8.25847,0.0],[113.69607,-8.26236,0.0],[113.69094,-8.26249,0.0],[113.67805,-8.275,0.0],[113.67614,-8.28205,0.0],[113.67949,-8.28583,0.0],[113.67939,-8.28782,0.0],[113.67581,-8.29515,0.0],[113.67354,-8.30385,0.0],[113.67029,-8.30782,0.0],[113.67263,-8.31513,0.0],[113.67146,-8.31703,0.0],[113.67221,-8.32498,0.0]]]}},{"type":"Feature","properties":{"kecamatan":"Rambipuji","kab_kota":"Jember"},"geometry":{"type":"Polygon","coordinates":[[[113.59536,-8.25204,0.0],[113.59487,-8.25883,0.0],[113.61337,-8.25988,0.0],[113.61276,-8.26457,0.0],[113.60929,-8.26464,0.0],[113.60737,-8.26629,0.0],[113.60415,-8.27707,0.0],[113.60288,-8.27707,0.0],[113.60298,-8.27973,0.0],[113.59798,-8.28566,0.0],[113.59219,-8.28567,0.0],[113.58695,-8.28361,0.0],[113.57983,-8.28277,0.0],[113.55995,-8.27002,0.0],[113.55927,-8.26245,0.0],[113.56441,-8.26156,0.0],[113.56903,-8.25628,0.0],[113.56348,-8.24481,0.0],[113.56455,-8.24218,0.0],[113.56199,-8.24118,0.0],[113.56054,-8.23895,0.0],[113.56297,-8.23571,0.0],[113.56632,-8.23426,0.0],[113.56806,-8.23136,0.0],[113.57285,-8.23199,0.0],[113.57606,-8.22942,0.0],[113.57405,-8.22683,0.0],[113.57559,-8.22192,0.0],[113.57727,-8.21937,0.0],[113.58087,-8.22055,0.0],[113.58597,-8.21422,0.0],[113.58526,-8.21034,0.0],[113.58619,-8.20818,0.0],[113.58477,-8.2056,0.0],[113.58683,-8.20449,0.0],[113.58842,-8.19806,0.0],[113.59196,-8.1953,0.0],[113.59358,-8.19155,0.0],[113.59266,-8.18776,0.0],[113.59548,-8.18127,0.0],[113.59236,-8.17525,0.0],[113.59502,-8.17494,0.0],[113.59787,-8.17507,0.0],[113.60081,-8.17756,0.0],[113.60751,-8.17661,0.0],[113.60762,-8.17817,0.0],[113.61215,-8.17866,0.0],[113.61209,-8.18099,0.0],[113.61474,-8.18111,0.0],[113.61554,-8.18415,0.0],[113.62159,-8.18456,0.0],[113.62534,-8.18637,0.0],[113.63318,-8.18607,0.0],[113.63134,-8.1908,0.0],[113.63221,-8.19276,0.0],[113.63161,-8.19915,0.0],[113.62742,-8.2026,0.0],[113.6272,-8.20461,0.0],[113.62955,-8.20551,0.0],[113.63016,-8.20796,0.0],[113.63152,-8.20825,0.0],[113.6311,-8.21013,0.0],[113.63441,-8.21422,0.0],[113.63245,-8.21999,0.0],[113.63077,-8.22108,0.0],[113.62519,-8.21935,0.0],[113.62317,-8.22037,0.0],[113.62102,-8.23111,0.0],[113.6225,-8.23667,0.0],[113.62232,-8.23803,0.0],[113.62069,-8.23857,0.0],[113.62073,-8.246,0.0],[113.59885,-8.2529,0.0],[113.59536,-8.25204,0.0]]]}},{"type":"Feature","properties":{"kecamatan":"Panti","kab_kota":"Jember"},"geometry":{"type":"Polygon","coordinates":[[[113.63441,-8.17324,0.0],[113.63309,-8.17964,0.0],[113.63462,-8.1799,0.0],[113.63339,-8.18582,0.0],[113.62534,-8.18637,0.0],[113.62159,-8.18456,0.0],[113.61554,-8.18415,0.0],[113.61474,-8.18111,0.0],[113.61209,-8.18099,0.0],[113.61215,-8.17866,0.0],[113.60762,-8.17817,0.0],[113.60751,-8.17661,0.0],[113.60081,-8.17756,0.0],[113.59787,-8.17507,0.0],[113.59079,-8.1745,0.0],[113.58863,-8.16683,0.0],[113.59166,-8.16343,0.0],[113.59076,-8.16163,0.0],[113.5936,-8.15636,0.0],[113.59256,-8.15538,0.0],[113.59377,-8.15368,0.0],[113.59295,-8.15118,0.0],[113.59551,-8.14823,0.0],[113.59603,-8.14491,0.0],[113.59598,-8.14266,0.0],[113.59367,-8.1414,0.0],[113.59275,-8.13847,0.0],[113.59353,-8.13595,0.0],[113.59168,-8.13148,0.0],[113.59254,-8.1285,0.0],[113.58981,-8.1215,0.0],[113.59031,-8.11863,0.0],[113.58452,-8.10672,0.0],[113.57268,-8.09638,0.0],[113.57279,-8.09462,0.0],[113.57002,-8.09047,0.0],[113.57044,-8.08515,0.0],[113.56901,-8.08509,0.0],[113.57011,-8.08187,0.0],[113.57204,-8.0813,0.0],[113.57374,-8.07804,0.0],[113.57572,-8.07755,0.0],[113.57854,-8.06912,0.0],[113.57585,-8.06006,0.0],[113.57363,-8.0583,0.0],[113.576,-8.05693,0.0],[113.57552,-8.05441,0.0],[113.57967,-8.04261,0.0],[113.57766,-8.04222,0.0],[113.57329,-8.03485,0.0],[113.5728,-8.02736,0.0],[113.57671,-8.02241,0.0],[113.579,-8.02216,0.0],[113.57952,-8.01982,0.0],[113.58167,-8.01868,0.0],[113.58588,-8.01174,0.0],[113.58715,-8.01143,0.0],[113.58849,-8.00692,0.0],[113.58806,-8.00117,0.0],[113.59039,-7.99905,0.0],[113.59317,-7.99877,0.0],[113.59587,-7.99452,0.0],[113.6038,-7.98747,0.0],[113.60705,-7.99075,0.0],[113.61157,-7.99028,0.0],[113.61371,-7.98876,0.0],[113.61397,-7.99214,0.0],[113.61563,-7.98981,0.0],[113.61912,-7.98832,0.0],[113.62005,-7.9834,0.0],[113.62384,-7.98209,0.0],[113.62423,-7.98009,0.0],[113.62622,-7.98092,0.0],[113.62704,-7.97725,0.0],[113.62887,-7.97566,0.0],[113.63432,-7.97473,0.0],[113.63839,-7.97197,0.0],[113.64603,-7.97415,0.0],[113.64846,-7.97368,0.0],[113.65054,-7.97017,0.0],[113.65808,-7.96796,0.0],[113.66042,-7.9689,0.0],[113.66143,-7.96637,0.0],[113.66259,-7.96824,0.0],[113.67013,-7.96798,0.0],[113.66933,-7.97447,0.0],[113.67075,-7.98283,0.0],[113.67265,-7.9845,0.0],[113.67121,-7.98801,0.0],[113.67131,-7.99205,0.0],[113.67511,-7.99856,0.0],[113.67819,-8.00964,0.0],[113.67391,-8.02929,0.0],[113.6711,-8.03614,0.0],[113.65393,-8.05321,0.0],[113.65098,-8.05793,0.0],[113.65179,-8.06207,0.0],[113.66416,-8.08207,0.0],[113.66147,-8.08431,0.0],[113.6529,-8.08274,0.0],[113.64914,-8.08363,0.0],[113.64575,-8.0861,0.0],[113.6448,-8.09053,0.0],[113.64405,-8.09777,0.0],[113.64805,-8.10348,0.0],[113.65036,-8.11074,0.0],[113.65149,-8.12041,0.0],[113.64985,-8.12591,0.0],[113.65244,-8.13002,0.0],[113.65131,-8.13417,0.0],[113.65419,-8.14049,0.0],[113.65506,-8.15269,0.0],[113.64848,-8.15985,0.0],[113.64822,-8.16317,0.0],[113.65044,-8.16492,0.0],[113.65034,-8.16754,0.0],[113.64534,-8.16803,0.0],[113.64496,-8.16574,0.0],[113.64341,-8.1672,0.0],[113.64149,-8.16596,0.0],[113.63241,-8.16589,0.0],[113.63241,-8.17192,0.0],[113.63441,-8.17324,0.0]]]}},{"type":"Feature","properties":{"kecamatan":"Ledokombo","kab_kota":"Jember"},"geometry":{"type":"Polygon","coordinates":[[[113.86491,-8.17815,0.0],[113.85315,-8.17995,0.0],[113.85159,-8.17758,0.0],[113.84888,-8.17658,0.0],[113.84713,-8.17752,0.0],[113.84438,-8.17685,0.0],[113.84154,-8.17848,0.0],[113.83579,-8.17155,0.0],[113.83225,-8.16974,0.0],[113.82498,-8.17075,0.0],[113.8188,-8.16837,0.0],[113.81273,-8.16954,0.0],[113.81235,-8.17127,0.0],[113.80649,-8.173,0.0],[113.80813,-8.16702,0.0],[113.81345,-8.16517,0.0],[113.81445,-8.16218,0.0],[113.82114,-8.16088,0.0],[113.8255,-8.15466,0.0],[113.83019,-8.15169,0.0],[113.83071,-8.14755,0.0],[113.83401,-8.1426,0.0],[113.83825,-8.1428,0.0],[113.84483,-8.13658,0.0],[113.84956,-8.13664,0.0],[113.8517,-8.13522,0.0],[113.84777,-8.13072,0.0],[113.84778,-8.12917,0.0],[113.84611,-8.12914,0.0],[113.84532,-8.12681,0.0],[113.84636,-8.1222,0.0],[113.84268,-8.12246,0.0],[113.83948,-8.1208,0.0],[113.84074,-8.11924,0.0],[113.83728,-8.11602,0.0],[113.83679,-8.10915,0.0],[113.83509,-8.10796,0.0],[113.83491,-8.10532,0.0],[113.83284,-8.10256,0.0],[113.83299,-8.09881,0.0],[113.8382,-8.09752,0.0],[113.84546,-8.09818,0.0],[113.84635,-8.09479,0.0],[113.84961,-8.09273,0.0],[113.85565,-8.09315,0.0],[113.85844,-8.09452,0.0],[113.85831,-8.09607,0.0],[113.86509,-8.09833,0.0],[113.86858,-8.10159,0.0],[113.87317,-8.10086,0.0],[113.87744,-8.10208,0.0],[113.87903,-8.10425,0.0],[113.88164,-8.10467,0.0],[113.88669,-8.10837,0.0],[113.89359,-8.11087,0.0],[113.89685,-8.11057,0.0],[113.90572,-8.11602,0.0],[113.90843,-8.11522,0.0],[113.91363,-8.11819,0.0],[113.91691,-8.11686,0.0],[113.92009,-8.11818,0.0],[113.92836,-8.11679,0.0],[113.93305,-8.11819,0.0],[113.94162,-8.1156,0.0],[113.9509,-8.11807,0.0],[113.95916,-8.11615,0.0],[113.96835,-8.11746,0.0],[113.98318,-8.11429,0.0],[113.99293,-8.11552,0.0],[114.00397,-8.12311,0.0],[114.01126,-8.12158,0.0],[114.02628,-8.1216,0.0],[114.03609,-8.12399,0.0],[114.04569,-8.12318,0.0],[114.04685,-8.12425,0.0],[114.04216,-8.13584,0.0],[114.03697,-8.14056,0.0],[114.02768,-8.1394,0.0],[114.01803,-8.14037,0.0],[114.00811,-8.14889,0.0],[114.00002,-8.1509,0.0],[113.99409,-8.15451,0.0],[113.98954,-8.15963,0.0],[113.98255,-8.16164,0.0],[113.97502,-8.16894,0.0],[113.96696,-8.17197,0.0],[113.9591,-8.16996,0.0],[113.95559,-8.17143,0.0],[113.94982,-8.16831,0.0],[113.94707,-8.16917,0.0],[113.94614,-8.16709,0.0],[113.93681,-8.16737,0.0],[113.93061,-8.16432,0.0],[113.91893,-8.16961,0.0],[113.91611,-8.17322,0.0],[113.91376,-8.17307,0.0],[113.91148,-8.17479,0.0],[113.90734,-8.17485,0.0],[113.89881,-8.17104,0.0],[113.89708,-8.17347,0.0],[113.89456,-8.17336,0.0],[113.89247,-8.17557,0.0],[113.88762,-8.17451,0.0],[113.88394,-8.17585,0.0],[113.88071,-8.18014,0.0],[113.87015,-8.17831,0.0],[113.87176,-8.17976,0.0],[113.87176,-8.18185,0.0],[113.8647,-8.17904,0.0],[113.86491,-8.17815,0.0]]]}},{"type":"Feature","properties":{"kecamatan":"Sukowono","kab_kota":"Jember"},"geometry":{"type":"Polygon","coordinates":[[[113.82217,-8.09136,0.0],[113.8169,-8.09356,0.0],[113.81564,-8.0929,0.0],[113.81516,-8.09428,0.0],[113.80686,-8.0958,0.0],[113.8081,-8.09039,0.0],[113.80695,-8.08683,0.0],[113.80451,-8.08654,0.0],[113.80492,-8.08142,0.0],[113.80059,-8.08206,0.0],[113.79786,-8.08413,0.0],[113.79736,-8.08207,0.0],[113.79581,-8.08172,0.0],[113.7962,-8.08051,0.0],[113.79393,-8.08122,0.0],[113.79541,-8.07637,0.0],[113.7971,-8.07569,0.0],[113.79657,-8.07443,0.0],[113.79174,-8.07375,0.0],[113.78991,-8.07657,0.0],[113.78556,-8.07299,0.0],[113.78721,-8.06941,0.0],[113.78134,-8.06432,0.0],[113.78307,-8.05866,0.0],[113.7848,-8.05755,0.0],[113.78781,-8.05063,0.0],[113.79237,-8.0516,0.0],[113.79561,-8.05555,0.0],[113.79998,-8.05523,0.0],[113.80219,-8.05767,0.0],[113.80568,-8.05649,0.0],[113.80735,-8.05413,0.0],[113.80755,-8.05021,0.0],[113.80988,-8.04981,0.0],[113.80965,-8.04847,0.0],[113.81259,-8.04613,0.0],[113.81367,-8.04697,0.0],[113.8168,-8.04545,0.0],[113.82414,-8.04535,0.0],[113.82986,-8.0479,0.0],[113.83561,-8.04601,0.0],[113.8441,-8.04726,0.0],[113.84989,-8.04565,0.0],[113.85139,-8.04318,0.0],[113.85388,-8.04414,0.0],[113.85703,-8.04169,0.0],[113.85832,-8.03894,0.0],[113.85128,-8.03378,0.0],[113.8503,-8.03199,0.0],[113.85154,-8.03091,0.0],[113.84741,-8.03053,0.0],[113.84362,-8.02079,0.0],[113.85328,-8.02415,0.0],[113.8552,-8.01933,0.0],[113.85796,-8.01872,0.0],[113.85853,-8.02428,0.0],[113.8601,-8.02537,0.0],[113.85948,-8.02714,0.0],[113.86652,-8.03078,0.0],[113.86322,-8.03938,0.0],[113.86127,-8.03937,0.0],[113.86116,-8.04129,0.0],[113.85802,-8.04124,0.0],[113.8612,-8.04274,0.0],[113.86119,-8.04486,0.0],[113.86488,-8.04617,0.0],[113.86513,-8.04916,0.0],[113.86736,-8.05177,0.0],[113.86742,-8.05422,0.0],[113.86395,-8.05678,0.0],[113.86403,-8.06119,0.0],[113.86597,-8.06105,0.0],[113.86851,-8.06311,0.0],[113.87037,-8.06777,0.0],[113.87337,-8.06854,0.0],[113.87324,-8.07051,0.0],[113.87802,-8.07293,0.0],[113.87932,-8.07509,0.0],[113.88277,-8.07605,0.0],[113.88466,-8.0736,0.0],[113.88784,-8.07497,0.0],[113.88729,-8.07995,0.0],[113.86109,-8.07632,0.0],[113.85918,-8.08289,0.0],[113.85854,-8.09441,0.0],[113.84961,-8.09273,0.0],[113.84635,-8.09479,0.0],[113.84546,-8.09818,0.0],[113.8382,-8.09752,0.0],[113.83066,-8.09861,0.0],[113.83159,-8.09717,0.0],[113.83112,-8.09297,0.0],[113.82711,-8.09067,0.0],[113.82427,-8.09198,0.0],[113.82217,-8.09136,0.0]]]}},{"type":"Feature","properties":{"kecamatan":"Arjasa","kab_kota":"Jember"},"geometry":{"type":"Polygon","coordinates":[[[113.77084,-8.09845,0.0],[113.7701,-8.10214,0.0],[113.77231,-8.10212,0.0],[113.77183,-8.1052,0.0],[113.77619,-8.10645,0.0],[113.77977,-8.11161,0.0],[113.77643,-8.11213,0.0],[113.77692,-8.11458,0.0],[113.7741,-8.11519,0.0],[113.77497,-8.11747,0.0],[113.77276,-8.11943,0.0],[113.77033,-8.11982,0.0],[113.77042,-8.12075,0.0],[113.76958,-8.119,0.0],[113.76828,-8.11908,0.0],[113.76778,-8.121,0.0],[113.76661,-8.11895,0.0],[113.76542,-8.12145,0.0],[113.76426,-8.12019,0.0],[113.76389,-8.12258,0.0],[113.76245,-8.12131,0.0],[113.75631,-8.12373,0.0],[113.75634,-8.12053,0.0],[113.75391,-8.11593,0.0],[113.7512,-8.1148,0.0],[113.74968,-8.11696,0.0],[113.75005,-8.11973,0.0],[113.74783,-8.12061,0.0],[113.74685,-8.1229,0.0],[113.74384,-8.12338,0.0],[113.74283,-8.12554,0.0],[113.73576,-8.12336,0.0],[113.73518,-8.12778,0.0],[113.73319,-8.12895,0.0],[113.72684,-8.12458,0.0],[113.72167,-8.12596,0.0],[113.71685,-8.12175,0.0],[113.71395,-8.12342,0.0],[113.71193,-8.12253,0.0],[113.71059,-8.11936,0.0],[113.70469,-8.11456,0.0],[113.70561,-8.11233,0.0],[113.7042,-8.10906,0.0],[113.69956,-8.10686,0.0],[113.69806,-8.10077,0.0],[113.69562,-8.09709,0.0],[113.6928,-8.09605,0.0],[113.69125,-8.09045,0.0],[113.68805,-8.08801,0.0],[113.68431,-8.07976,0.0],[113.68893,-8.07652,0.0],[113.69581,-8.07526,0.0],[113.70173,-8.0787,0.0],[113.70362,-8.07522,0.0],[113.70594,-8.07473,0.0],[113.70557,-8.07885,0.0],[113.7073,-8.08008,0.0],[113.70932,-8.07957,0.0],[113.72456,-8.08329,0.0],[113.73546,-8.0835,0.0],[113.73889,-8.0852,0.0],[113.74094,-8.08397,0.0],[113.74379,-8.08661,0.0],[113.74632,-8.08712,0.0],[113.74614,-8.08161,0.0],[113.74933,-8.0855,0.0],[113.74968,-8.0892,0.0],[113.75208,-8.0919,0.0],[113.75676,-8.09107,0.0],[113.75799,-8.08648,0.0],[113.76851,-8.08833,0.0],[113.76997,-8.09137,0.0],[113.76893,-8.09599,0.0],[113.77084,-8.09845,0.0]]]}},{"type":"Feature","properties":{"kecamatan":"Mumbulsari","kab_kota":"Jember"},"geometry":{"type":"Polygon","coordinates":[[[113.75778,-8.29818,0.0],[113.75713,-8.29928,0.0],[113.75427,-8.29919,0.0],[113.7543,-8.30263,0.0],[113.75052,-8.30008,0.0],[113.74907,-8.29544,0.0],[113.74642,-8.29696,0.0],[113.74428,-8.29577,0.0],[113.74413,-8.29868,0.0],[113.74246,-8.29815,0.0],[113.74145,-8.30029,0.0],[113.74169,-8.30454,0.0],[113.73887,-8.30222,0.0],[113.73229,-8.30511,0.0],[113.73104,-8.30193,0.0],[113.7283,-8.30528,0.0],[113.72471,-8.30572,0.0],[113.72323,-8.3051,0.0],[113.72375,-8.29331,0.0],[113.71408,-8.28981,0.0],[113.71341,-8.28385,0.0],[113.71206,-8.28308,0.0],[113.70803,-8.28528,0.0],[113.70473,-8.28432,0.0],[113.70372,-8.28645,0.0],[113.70009,-8.28619,0.0],[113.69848,-8.28787,0.0],[113.69339,-8.2879,0.0],[113.69265,-8.28954,0.0],[113.68903,-8.2902,0.0],[113.68597,-8.29258,0.0],[113.68206,-8.29079,0.0],[113.67651,-8.29491,0.0],[113.67949,-8.28583,0.0],[113.67663,-8.2834,0.0],[113.67618,-8.28122,0.0],[113.67871,-8.27393,0.0],[113.69094,-8.26249,0.0],[113.69607,-8.26236,0.0],[113.69641,-8.25847,0.0],[113.69793,-8.25649,0.0],[113.69713,-8.25106,0.0],[113.69904,-8.24914,0.0],[113.69816,-8.24323,0.0],[113.70123,-8.23832,0.0],[113.70131,-8.23561,0.0],[113.70392,-8.23373,0.0],[113.70314,-8.23051,0.0],[113.70414,-8.22694,0.0],[113.71236,-8.22264,0.0],[113.7174,-8.22205,0.0],[113.71996,-8.21758,0.0],[113.72168,-8.21714,0.0],[113.72289,-8.21864,0.0],[113.72412,-8.21684,0.0],[113.73061,-8.22659,0.0],[113.73683,-8.22634,0.0],[113.74008,-8.22216,0.0],[113.74813,-8.21634,0.0],[113.74937,-8.21276,0.0],[113.75558,-8.20761,0.0],[113.75748,-8.20796,0.0],[113.7592,-8.20609,0.0],[113.76079,-8.20673,0.0],[113.76567,-8.20304,0.0],[113.76872,-8.20496,0.0],[113.77526,-8.20185,0.0],[113.77713,-8.20411,0.0],[113.77614,-8.21008,0.0],[113.77972,-8.21284,0.0],[113.78476,-8.21415,0.0],[113.78543,-8.21817,0.0],[113.77923,-8.23048,0.0],[113.78222,-8.23401,0.0],[113.78283,-8.23902,0.0],[113.78627,-8.24601,0.0],[113.78535,-8.25061,0.0],[113.78682,-8.25502,0.0],[113.78506,-8.26582,0.0],[113.78074,-8.27766,0.0],[113.78259,-8.2839,0.0],[113.78307,-8.2919,0.0],[113.77957,-8.30125,0.0],[113.76934,-8.3093,0.0],[113.76804,-8.30454,0.0],[113.75778,-8.29818,0.0]]]}},{"type":"Feature","properties":{"kecamatan":"Patrang","kab_kota":"Jember"},"geometry":{"type":"Polygon","coordinates":[[[113.71248,-8.15672,0.0],[113.71202,-8.16176,0.0],[113.70758,-8.16451,0.0],[113.70569,-8.16897,0.0],[113.70775,-8.17039,0.0],[113.70718,-8.17171,0.0],[113.70153,-8.17077,0.0],[113.69871,-8.16781,0.0],[113.69445,-8.16979,0.0],[113.68905,-8.16748,0.0],[113.68848,-8.16988,0.0],[113.68425,-8.17337,0.0],[113.68416,-8.17251,0.0],[113.675,-8.17293,0.0],[113.68126,-8.16385,0.0],[113.68138,-8.16059,0.0],[113.68087,-8.15848,0.0],[113.67655,-8.15709,0.0],[113.67596,-8.15432,0.0],[113.67716,-8.15264,0.0],[113.67364,-8.14773,0.0],[113.67455,-8.14504,0.0],[113.67302,-8.14119,0.0],[113.67416,-8.13751,0.0],[113.67089,-8.12746,0.0],[113.67161,-8.12484,0.0],[113.66935,-8.11131,0.0],[113.67006,-8.10747,0.0],[113.6726,-8.10616,0.0],[113.67708,-8.11494,0.0],[113.68133,-8.11496,0.0],[113.68585,-8.11686,0.0],[113.68729,-8.11853,0.0],[113.68736,-8.12237,0.0],[113.6941,-8.12338,0.0],[113.6955,-8.11808,0.0],[113.6944,-8.11552,0.0],[113.69224,-8.11452,0.0],[113.69325,-8.11112,0.0],[113.69106,-8.10941,0.0],[113.69019,-8.10509,0.0],[113.68024,-8.09341,0.0],[113.68099,-8.09016,0.0],[113.67885,-8.08788,0.0],[113.67922,-8.083,0.0],[113.68413,-8.0803,0.0],[113.68754,-8.08502,0.0],[113.68805,-8.08801,0.0],[113.69125,-8.09045,0.0],[113.6928,-8.09605,0.0],[113.69562,-8.09709,0.0],[113.69796,-8.10059,0.0],[113.69956,-8.10686,0.0],[113.7042,-8.10906,0.0],[113.70561,-8.11233,0.0],[113.70469,-8.11456,0.0],[113.71059,-8.11936,0.0],[113.71221,-8.12276,0.0],[113.71395,-8.12342,0.0],[113.71685,-8.12175,0.0],[113.72167,-8.12596,0.0],[113.72684,-8.12458,0.0],[113.73319,-8.12895,0.0],[113.73518,-8.12778,0.0],[113.73576,-8.12336,0.0],[113.74297,-8.12561,0.0],[113.74304,-8.12796,0.0],[113.7383,-8.13192,0.0],[113.7405,-8.13476,0.0],[113.73906,-8.13611,0.0],[113.73904,-8.1384,0.0],[113.73725,-8.13696,0.0],[113.73519,-8.13921,0.0],[113.73328,-8.1452,0.0],[113.73106,-8.14343,0.0],[113.7311,-8.14557,0.0],[113.72863,-8.14508,0.0],[113.72646,-8.14702,0.0],[113.72662,-8.15011,0.0],[113.72369,-8.14914,0.0],[113.72361,-8.15066,0.0],[113.72547,-8.15148,0.0],[113.72287,-8.15213,0.0],[113.72114,-8.15075,0.0],[113.72079,-8.1526,0.0],[113.72237,-8.15343,0.0],[113.72127,-8.15482,0.0],[113.71985,-8.15477,0.0],[113.72021,-8.15319,0.0],[113.71753,-8.15398,0.0],[113.71621,-8.15569,0.0],[113.71248,-8.15672,0.0]]]}},{"type":"Feature","properties":{"kecamatan":"Sumbersari","kab_kota":"Jember"},"geometry":{"type":"MultiPolygon","coordinates":[[[[113.69207,-8.21251,0.0],[113.68582,-8.21756,0.0],[113.67965,-8.21511,0.0],[113.69207,-8.21251,0.0]]],[[[113.74449,-8.16729,0.0],[113.75011,-8.16744,0.0],[113.75134,-8.16839,0.0],[113.75046,-8.17521,0.0],[113.75368,-8.18084,0.0],[113.75388,-8.19264,0.0],[113.74552,-8.20163,0.0],[113.74393,-8.2017,0.0],[113.7454,-8.20596,0.0],[113.73806,-8.20718,0.0],[113.73483,-8.21255,0.0],[113.73109,-8.21016,0.0],[113.73224,-8.20809,0.0],[113.72892,-8.20719,0.0],[113.72336,-8.20694,0.0],[113.71804,-8.21025,0.0],[113.71506,-8.20973,0.0],[113.71348,-8.21277,0.0],[113.69503,-8.21004,0.0],[113.69665,-8.20773,0.0],[113.70598,-8.20189,0.0],[113.71156,-8.20249,0.0],[113.71233,-8.19577,0.0],[113.7037,-8.19526,0.0],[113.70197,-8.19481,0.0],[113.70161,-8.19183,0.0],[113.69213,-8.19065,0.0],[113.69381,-8.18672,0.0],[113.69207,-8.18402,0.0],[113.69303,-8.18237,0.0],[113.69647,-8.18225,0.0],[113.70615,-8.17631,0.0],[113.70705,-8.17399,0.0],[113.70541,-8.17172,0.0],[113.70792,-8.17094,0.0],[113.70569,-8.16897,0.0],[113.70758,-8.16451,0.0],[113.71202,-8.16176,0.0],[113.71218,-8.15708,0.0],[113.71967,-8.15322,0.0],[113.72053,-8.15351,0.0],[113.71985,-8.15477,0.0],[113.72127,-8.15482,0.0],[113.72237,-8.15343,0.0],[113.72079,-8.1526,0.0],[113.72092,-8.15093,0.0],[113.72287,-8.15213,0.0],[113.72518,-8.1517,0.0],[113.72361,-8.15066,0.0],[113.72369,-8.14914,0.0],[113.72662,-8.15011,0.0],[113.72646,-8.14702,0.0],[113.72863,-8.14508,0.0],[113.7311,-8.14557,0.0],[113.73106,-8.14343,0.0],[113.73328,-8.1452,0.0],[113.73519,-8.13921,0.0],[113.73725,-8.13696,0.0],[113.73904,-8.1384,0.0],[113.73906,-8.13611,0.0],[113.7405,-8.13476,0.0],[113.74734,-8.14099,0.0],[113.74822,-8.14037,0.0],[113.75222,-8.14268,0.0],[113.7588,-8.14415,0.0],[113.76007,-8.14582,0.0],[113.75947,-8.14722,0.0],[113.76162,-8.14824,0.0],[113.75629,-8.15156,0.0],[113.75389,-8.15143,0.0],[113.75329,-8.15457,0.0],[113.74859,-8.15549,0.0],[113.74449,-8.16729,0.0]]]]}},{"type":"Feature","properties":{"kecamatan":"Mayang","kab_kota":"Jember"},"geometry":{"type":"Polygon","coordinates":[[[113.84522,-8.18809,0.0],[113.84813,-8.19635,0.0],[113.84711,-8.19913,0.0],[113.84811,-8.20227,0.0],[113.84376,-8.21279,0.0],[113.84191,-8.2131,0.0],[113.84055,-8.21608,0.0],[113.83528,-8.21923,0.0],[113.83545,-8.22253,0.0],[113.83292,-8.22663,0.0],[113.831,-8.22751,0.0],[113.82459,-8.22673,0.0],[113.821,-8.22832,0.0],[113.81985,-8.23003,0.0],[113.81718,-8.23078,0.0],[113.81396,-8.23527,0.0],[113.80901,-8.23809,0.0],[113.80704,-8.238,0.0],[113.80458,-8.24032,0.0],[113.78579,-8.24461,0.0],[113.78402,-8.24242,0.0],[113.78222,-8.23401,0.0],[113.77923,-8.23048,0.0],[113.78541,-8.21847,0.0],[113.78486,-8.21425,0.0],[113.77972,-8.21284,0.0],[113.77614,-8.21008,0.0],[113.77713,-8.20411,0.0],[113.77526,-8.20185,0.0],[113.76872,-8.20496,0.0],[113.76567,-8.20304,0.0],[113.76079,-8.20673,0.0],[113.7592,-8.20609,0.0],[113.75748,-8.20796,0.0],[113.75558,-8.20761,0.0],[113.74937,-8.21276,0.0],[113.74813,-8.21634,0.0],[113.74008,-8.22216,0.0],[113.73683,-8.22634,0.0],[113.73061,-8.22659,0.0],[113.72441,-8.21788,0.0],[113.7304,-8.21502,0.0],[113.72884,-8.21231,0.0],[113.73099,-8.21144,0.0],[113.73109,-8.21016,0.0],[113.73483,-8.21255,0.0],[113.73806,-8.20718,0.0],[113.7454,-8.20596,0.0],[113.74393,-8.2017,0.0],[113.74552,-8.20163,0.0],[113.75375,-8.19266,0.0],[113.76017,-8.18945,0.0],[113.765,-8.18941,0.0],[113.7662,-8.18781,0.0],[113.76934,-8.18906,0.0],[113.77832,-8.18814,0.0],[113.77874,-8.1866,0.0],[113.78216,-8.18584,0.0],[113.78617,-8.18201,0.0],[113.78968,-8.17465,0.0],[113.79464,-8.17326,0.0],[113.79884,-8.17362,0.0],[113.79957,-8.17545,0.0],[113.81183,-8.17154,0.0],[113.81273,-8.16954,0.0],[113.81596,-8.16863,0.0],[113.81908,-8.16843,0.0],[113.82498,-8.17075,0.0],[113.83198,-8.16965,0.0],[113.83579,-8.17155,0.0],[113.84154,-8.17848,0.0],[113.84438,-8.17685,0.0],[113.85048,-8.17744,0.0],[113.84981,-8.1842,0.0],[113.84522,-8.18809,0.0]]]}},{"type":"Feature","properties":{"kecamatan":"Kalisat","kab_kota":"Jember"},"geometry":{"type":"Polygon","coordinates":[[[113.79658,-8.15414,0.0],[113.79841,-8.14972,0.0],[113.7973,-8.14931,0.0],[113.79873,-8.14793,0.0],[113.79612,-8.1467,0.0],[113.79621,-8.14555,0.0],[113.78907,-8.14366,0.0],[113.78764,-8.14431,0.0],[113.78363,-8.14112,0.0],[113.7801,-8.14125,0.0],[113.77642,-8.1385,0.0],[113.76521,-8.13424,0.0],[113.76663,-8.13317,0.0],[113.7662,-8.13133,0.0],[113.76806,-8.12975,0.0],[113.77027,-8.1225,0.0],[113.77497,-8.11747,0.0],[113.77397,-8.11535,0.0],[113.77673,-8.11486,0.0],[113.77643,-8.11213,0.0],[113.77977,-8.11161,0.0],[113.77619,-8.10645,0.0],[113.77227,-8.10541,0.0],[113.77601,-8.10245,0.0],[113.77673,-8.10039,0.0],[113.77931,-8.09928,0.0],[113.78138,-8.09578,0.0],[113.78284,-8.07653,0.0],[113.78556,-8.07299,0.0],[113.78991,-8.07657,0.0],[113.79174,-8.07375,0.0],[113.79657,-8.07443,0.0],[113.7971,-8.07569,0.0],[113.79541,-8.07637,0.0],[113.79393,-8.08122,0.0],[113.7962,-8.08051,0.0],[113.79581,-8.08172,0.0],[113.79736,-8.08207,0.0],[113.79786,-8.08413,0.0],[113.80059,-8.08206,0.0],[113.80492,-8.08142,0.0],[113.80451,-8.08654,0.0],[113.80695,-8.08683,0.0],[113.8081,-8.09039,0.0],[113.80677,-8.0945,0.0],[113.80744,-8.09623,0.0],[113.82278,-8.09094,0.0],[113.82427,-8.09198,0.0],[113.82711,-8.09067,0.0],[113.83112,-8.09297,0.0],[113.83159,-8.09717,0.0],[113.83063,-8.09857,0.0],[113.83299,-8.09881,0.0],[113.83294,-8.10353,0.0],[113.83491,-8.10532,0.0],[113.83509,-8.10796,0.0],[113.83606,-8.10781,0.0],[113.83744,-8.11158,0.0],[113.83728,-8.11602,0.0],[113.84077,-8.11932,0.0],[113.83948,-8.1208,0.0],[113.84268,-8.12246,0.0],[113.84636,-8.1222,0.0],[113.84532,-8.12681,0.0],[113.84611,-8.12914,0.0],[113.84778,-8.12917,0.0],[113.84777,-8.13072,0.0],[113.85176,-8.13502,0.0],[113.84956,-8.13664,0.0],[113.84483,-8.13658,0.0],[113.83825,-8.1428,0.0],[113.83401,-8.1426,0.0],[113.83071,-8.14755,0.0],[113.83039,-8.15147,0.0],[113.8255,-8.15466,0.0],[113.82181,-8.16027,0.0],[113.81367,-8.16262,0.0],[113.81345,-8.16517,0.0],[113.80708,-8.16817,0.0],[113.80615,-8.17333,0.0],[113.79985,-8.17541,0.0],[113.79907,-8.17375,0.0],[113.79685,-8.1735,0.0],[113.80016,-8.17208,0.0],[113.79914,-8.16122,0.0],[113.80046,-8.1599,0.0],[113.79684,-8.15889,0.0],[113.79658,-8.15414,0.0]]]}},{"type":"Feature","properties":{"kecamatan":"Pakusari","kab_kota":"Jember"},"geometry":{"type":"Polygon","coordinates":[[[113.7662,-8.18781,0.0],[113.765,-8.18941,0.0],[113.76017,-8.18945,0.0],[113.75388,-8.19264,0.0],[113.75368,-8.18084,0.0],[113.75046,-8.17521,0.0],[113.75134,-8.16839,0.0],[113.74445,-8.16744,0.0],[113.74859,-8.15549,0.0],[113.75329,-8.15457,0.0],[113.75389,-8.15143,0.0],[113.75629,-8.15156,0.0],[113.7616,-8.14837,0.0],[113.75947,-8.14722,0.0],[113.76007,-8.14582,0.0],[113.7588,-8.14415,0.0],[113.75222,-8.14268,0.0],[113.74822,-8.14037,0.0],[113.74734,-8.14099,0.0],[113.74178,-8.13675,0.0],[113.7383,-8.13192,0.0],[113.74304,-8.12796,0.0],[113.74256,-8.126,0.0],[113.74384,-8.12338,0.0],[113.74685,-8.1229,0.0],[113.74783,-8.12061,0.0],[113.75005,-8.11973,0.0],[113.74968,-8.11696,0.0],[113.7512,-8.1148,0.0],[113.75391,-8.11593,0.0],[113.75634,-8.12053,0.0],[113.75631,-8.12373,0.0],[113.76245,-8.12131,0.0],[113.76389,-8.12258,0.0],[113.76426,-8.12019,0.0],[113.76542,-8.12145,0.0],[113.76661,-8.11895,0.0],[113.76778,-8.121,0.0],[113.76828,-8.11908,0.0],[113.76958,-8.119,0.0],[113.77042,-8.12075,0.0],[113.77033,-8.11982,0.0],[113.77238,-8.1196,0.0],[113.76778,-8.12832,0.0],[113.76806,-8.12975,0.0],[113.7663,-8.13106,0.0],[113.76663,-8.13317,0.0],[113.76521,-8.13424,0.0],[113.77642,-8.1385,0.0],[113.7801,-8.14125,0.0],[113.78363,-8.14112,0.0],[113.78764,-8.14431,0.0],[113.78907,-8.14366,0.0],[113.79621,-8.14555,0.0],[113.79612,-8.1467,0.0],[113.79873,-8.14793,0.0],[113.7973,-8.14931,0.0],[113.79841,-8.14972,0.0],[113.79654,-8.15363,0.0],[113.79684,-8.15889,0.0],[113.80046,-8.1599,0.0],[113.79914,-8.16122,0.0],[113.80059,-8.16964,0.0],[113.79995,-8.17258,0.0],[113.78968,-8.17465,0.0],[113.78617,-8.18201,0.0],[113.78216,-8.18584,0.0],[113.77874,-8.1866,0.0],[113.77832,-8.18814,0.0],[113.76934,-8.18906,0.0],[113.7662,-8.18781,0.0]]]}},{"type":"Feature","properties":{"kecamatan":"Jelbuk","kab_kota":"Jember"},"geometry":{"type":"Polygon","coordinates":[[[113.78721,-8.06941,0.0],[113.78284,-8.07653,0.0],[113.78138,-8.09578,0.0],[113.77931,-8.09928,0.0],[113.77673,-8.10039,0.0],[113.77601,-8.10245,0.0],[113.77227,-8.10541,0.0],[113.77223,-8.10192,0.0],[113.77007,-8.10205,0.0],[113.77084,-8.09845,0.0],[113.76893,-8.09599,0.0],[113.76997,-8.09137,0.0],[113.76851,-8.08833,0.0],[113.75799,-8.08648,0.0],[113.75676,-8.09107,0.0],[113.75208,-8.0919,0.0],[113.74968,-8.0892,0.0],[113.74933,-8.0855,0.0],[113.74614,-8.08161,0.0],[113.74632,-8.08712,0.0],[113.74379,-8.08661,0.0],[113.74094,-8.08397,0.0],[113.73889,-8.0852,0.0],[113.73546,-8.0835,0.0],[113.72456,-8.08329,0.0],[113.70932,-8.07957,0.0],[113.7073,-8.08008,0.0],[113.70557,-8.07885,0.0],[113.70594,-8.07473,0.0],[113.70362,-8.07522,0.0],[113.70173,-8.0787,0.0],[113.69581,-8.07526,0.0],[113.68893,-8.07652,0.0],[113.68431,-8.07976,0.0],[113.6834,-8.07931,0.0],[113.68227,-8.07623,0.0],[113.68317,-8.07464,0.0],[113.67828,-8.07052,0.0],[113.67493,-8.06141,0.0],[113.67661,-8.05973,0.0],[113.67568,-8.05725,0.0],[113.67776,-8.05623,0.0],[113.67738,-8.05204,0.0],[113.67869,-8.04847,0.0],[113.67247,-8.04294,0.0],[113.6711,-8.03614,0.0],[113.67391,-8.02929,0.0],[113.67824,-8.0088,0.0],[113.67511,-7.99856,0.0],[113.67171,-7.99359,0.0],[113.67132,-7.98771,0.0],[113.67213,-7.98702,0.0],[113.6788,-7.99646,0.0],[113.68113,-7.99772,0.0],[113.68239,-8.00159,0.0],[113.68643,-8.00688,0.0],[113.68724,-8.01151,0.0],[113.69559,-8.01039,0.0],[113.70379,-8.01178,0.0],[113.71019,-8.01122,0.0],[113.72024,-8.02168,0.0],[113.72619,-8.02357,0.0],[113.72853,-8.02717,0.0],[113.72801,-8.02825,0.0],[113.7333,-8.03362,0.0],[113.73551,-8.03965,0.0],[113.73897,-8.04212,0.0],[113.73961,-8.04679,0.0],[113.74612,-8.05134,0.0],[113.74515,-8.05471,0.0],[113.74655,-8.06119,0.0],[113.74753,-8.06155,0.0],[113.74738,-8.0649,0.0],[113.74892,-8.06535,0.0],[113.75189,-8.06083,0.0],[113.74925,-8.04943,0.0],[113.75161,-8.04932,0.0],[113.75298,-8.0526,0.0],[113.7563,-8.04738,0.0],[113.76022,-8.05079,0.0],[113.76437,-8.04353,0.0],[113.77101,-8.0397,0.0],[113.77252,-8.03693,0.0],[113.77501,-8.03783,0.0],[113.77492,-8.04033,0.0],[113.77958,-8.04398,0.0],[113.7819,-8.05014,0.0],[113.78745,-8.05132,0.0],[113.7848,-8.05755,0.0],[113.78307,-8.05866,0.0],[113.78134,-8.06432,0.0],[113.78721,-8.06941,0.0]]]}}]}