{"type":"FeatureCollection","features":[{"type":"Feature","properties":{"kecamatan":"Gading","kab_kota":"Probolinggo"},"geometry":{"type":"Polygon","coordinates":[[[113.4007,-7.8761,0.0],[113.39992,-7.8788,0.0],[113.3954,-7.87931,0.0],[113.39405,-7.88138,0.0],[113.39629,-7.88272,0.0],[113.3999,-7.88262,0.0],[113.39991,-7.88618,0.0],[113.39608,-7.88725,0.0],[113.39254,-7.88603,0.0],[113.38913,-7.88839,0.0],[113.38635,-7.88862,0.0],[113.38477,-7.88604,0.0],[113.3821,-7.88958,0.0],[113.3804,-7.88769,0.0],[113.37669,-7.88763,0.0],[113.37699,-7.88568,0.0],[113.37392,-7.88176,0.0],[113.37661,-7.87391,0.0],[113.3748,-7.8724,0.0],[113.37517,-7.8712,0.0],[113.36843,-7.8699,0.0],[113.367,-7.86629,0.0],[113.38295,-7.86634,0.0],[113.38412,-7.87022,0.0],[113.38765,-7.87007,0.0],[113.38954,-7.86949,0.0],[113.39498,-7.86296,0.0],[113.39488,-7.8602,0.0],[113.39204,-7.85443,0.0],[113.38698,-7.84932,0.0],[113.3861,-7.84357,0.0],[113.38294,-7.84484,0.0],[113.38095,-7.84238,0.0],[113.37773,-7.84305,0.0],[113.37737,-7.84023,0.0],[113.37522,-7.83902,0.0],[113.37448,-7.83411,0.0],[113.37645,-7.83369,0.0],[113.37659,-7.83208,0.0],[113.38043,-7.83221,0.0],[113.38264,-7.83387,0.0],[113.38777,-7.83463,0.0],[113.38841,-7.83768,0.0],[113.39146,-7.84134,0.0],[113.39692,-7.84262,0.0],[113.40009,-7.8377,0.0],[113.39992,-7.83207,0.0],[113.40864,-7.83052,0.0],[113.40934,-7.82881,0.0],[113.4113,-7.82887,0.0],[113.413,-7.82443,0.0],[113.41533,-7.82427,0.0],[113.41449,-7.82232,0.0],[113.4171,-7.82013,0.0],[113.41717,-7.81802,0.0],[113.41996,-7.81851,0.0],[113.42426,-7.82181,0.0],[113.42473,-7.81999,0.0],[113.42931,-7.822,0.0],[113.4322,-7.82192,0.0],[113.43163,-7.8209,0.0],[113.43562,-7.82259,0.0],[113.44346,-7.82204,0.0],[113.44456,-7.82291,0.0],[113.44405,-7.82117,0.0],[113.4481,-7.81818,0.0],[113.45214,-7.80918,0.0],[113.45515,-7.80896,0.0],[113.45678,-7.81109,0.0],[113.46024,-7.81241,0.0],[113.48608,-7.81792,0.0],[113.4866,-7.82121,0.0],[113.4842,-7.82525,0.0],[113.48536,-7.83025,0.0],[113.48782,-7.83261,0.0],[113.48757,-7.84032,0.0],[113.48897,-7.84325,0.0],[113.49024,-7.84302,0.0],[113.49871,-7.85174,0.0],[113.50409,-7.85315,0.0],[113.50787,-7.84917,0.0],[113.51269,-7.85132,0.0],[113.51541,-7.85465,0.0],[113.52754,-7.85871,0.0],[113.53229,-7.85842,0.0],[113.53656,-7.86071,0.0],[113.54786,-7.85918,0.0],[113.55631,-7.86061,0.0],[113.56089,-7.85895,0.0],[113.56444,-7.85952,0.0],[113.5679,-7.86223,0.0],[113.56954,-7.86186,0.0],[113.56908,-7.86361,0.0],[113.57171,-7.86683,0.0],[113.57293,-7.8669,0.0],[113.57523,-7.86387,0.0],[113.58222,-7.86642,0.0],[113.58849,-7.86644,0.0],[113.59399,-7.87047,0.0],[113.59472,-7.87376,0.0],[113.59875,-7.87665,0.0],[113.59885,-7.8781,0.0],[113.60132,-7.87874,0.0],[113.6071,-7.88418,0.0],[113.61532,-7.88749,0.0],[113.62268,-7.89389,0.0],[113.62389,-7.8993,0.0],[113.62222,-7.90694,0.0],[113.62627,-7.91645,0.0],[113.62601,-7.92025,0.0],[113.61382,-7.92378,0.0],[113.60549,-7.9313,0.0],[113.59868,-7.93302,0.0],[113.59686,-7.93477,0.0],[113.59295,-7.93088,0.0],[113.58772,-7.92907,0.0],[113.58464,-7.92475,0.0],[113.57372,-7.91995,0.0],[113.56971,-7.91519,0.0],[113.56508,-7.91437,0.0],[113.55734,-7.90964,0.0],[113.55329,-7.90312,0.0],[113.54809,-7.89888,0.0],[113.54733,-7.89633,0.0],[113.54478,-7.89639,0.0],[113.54117,-7.89364,0.0],[113.53821,-7.89537,0.0],[113.53652,-7.89303,0.0],[113.53563,-7.89501,0.0],[113.53369,-7.89311,0.0],[113.53163,-7.89264,0.0],[113.5306,-7.89367,0.0],[113.53048,-7.89121,0.0],[113.52882,-7.89031,0.0],[113.52507,-7.89192,0.0],[113.51612,-7.88454,0.0],[113.5138,-7.8859,0.0],[113.50464,-7.88431,0.0],[113.50088,-7.88013,0.0],[113.49874,-7.87909,0.0],[113.49781,-7.87985,0.0],[113.49191,-7.87491,0.0],[113.48439,-7.87868,0.0],[113.48082,-7.87736,0.0],[113.48132,-7.87981,0.0],[113.48557,-7.8846,0.0],[113.48468,-7.89015,0.0],[113.48239,-7.88937,0.0],[113.48241,-7.89034,0.0],[113.47933,-7.88832,0.0],[113.47837,-7.8895,0.0],[113.47356,-7.88812,0.0],[113.47189,-7.88936,0.0],[113.47022,-7.88851,0.0],[113.47016,-7.8866,0.0],[113.46909,-7.88863,0.0],[113.46559,-7.88961,0.0],[113.4598,-7.88584,0.0],[113.45715,-7.88551,0.0],[113.45582,-7.88361,0.0],[113.44981,-7.88395,0.0],[113.44659,-7.88008,0.0],[113.43708,-7.87677,0.0],[113.43664,-7.87407,0.0],[113.43453,-7.87254,0.0],[113.43347,-7.86827,0.0],[113.43199,-7.8673,0.0],[113.4207,-7.87036,0.0],[113.41723,-7.8779,0.0],[113.41816,-7.8798,0.0],[113.41678,-7.88437,0.0],[113.41483,-7.88477,0.0],[113.41427,-7.88333,0.0],[113.41092,-7.88297,0.0],[113.40964,-7.87887,0.0],[113.4007,-7.8761,0.0]]]}},{"type":"Feature","properties":{"kecamatan":"Tiris","kab_kota":"Probolinggo"},"geometry":{"type":"Polygon","coordinates":[[[113.39095,-7.9973,0.0],[113.38696,-8.00699,0.0],[113.3823,-8.01111,0.0],[113.37867,-8.0178,0.0],[113.37982,-8.0187,0.0],[113.37869,-8.01891,0.0],[113.37893,-8.02046,0.0],[113.37598,-8.02156,0.0],[113.37531,-8.02319,0.0],[113.37446,-8.02174,0.0],[113.37249,-8.02243,0.0],[113.37185,-8.02142,0.0],[113.37196,-8.02332,0.0],[113.36976,-8.0227,0.0],[113.36941,-8.02532,0.0],[113.36664,-8.02587,0.0],[113.36666,-8.0277,0.0],[113.36145,-8.02782,0.0],[113.36049,-8.02014,0.0],[113.35805,-8.0162,0.0],[113.35775,-8.00428,0.0],[113.35875,-7.99971,0.0],[113.35319,-7.99025,0.0],[113.34817,-7.9844,0.0],[113.34792,-7.97652,0.0],[113.3458,-7.97521,0.0],[113.34687,-7.97212,0.0],[113.34626,-7.96252,0.0],[113.34106,-7.94897,0.0],[113.34167,-7.943,0.0],[113.33527,-7.93998,0.0],[113.33351,-7.94031,0.0],[113.33241,-7.94282,0.0],[113.33059,-7.94263,0.0],[113.32766,-7.93967,0.0],[113.32876,-7.93561,0.0],[113.31432,-7.93144,0.0],[113.31399,-7.92864,0.0],[113.30658,-7.92644,0.0],[113.30659,-7.92359,0.0],[113.30332,-7.92113,0.0],[113.29995,-7.916,0.0],[113.30048,-7.91013,0.0],[113.29624,-7.90767,0.0],[113.29569,-7.90595,0.0],[113.29488,-7.90257,0.0],[113.30104,-7.90075,0.0],[113.30095,-7.89229,0.0],[113.30634,-7.89007,0.0],[113.31345,-7.89069,0.0],[113.31565,-7.88944,0.0],[113.31547,-7.88799,0.0],[113.31013,-7.88487,0.0],[113.30928,-7.88054,0.0],[113.31302,-7.86229,0.0],[113.31555,-7.86175,0.0],[113.32127,-7.86338,0.0],[113.32138,-7.87166,0.0],[113.32352,-7.87517,0.0],[113.32284,-7.88036,0.0],[113.33331,-7.87775,0.0],[113.33633,-7.88035,0.0],[113.33661,-7.88447,0.0],[113.33998,-7.89146,0.0],[113.34822,-7.89119,0.0],[113.35328,-7.88892,0.0],[113.36589,-7.89146,0.0],[113.37057,-7.88883,0.0],[113.37321,-7.88338,0.0],[113.37699,-7.88568,0.0],[113.37676,-7.88769,0.0],[113.3804,-7.88769,0.0],[113.3821,-7.88958,0.0],[113.38477,-7.88604,0.0],[113.38635,-7.88862,0.0],[113.38913,-7.88839,0.0],[113.39254,-7.88603,0.0],[113.39464,-7.88677,0.0],[113.39626,-7.88823,0.0],[113.4032,-7.90491,0.0],[113.40656,-7.90495,0.0],[113.4061,-7.90687,0.0],[113.40956,-7.9102,0.0],[113.41072,-7.91291,0.0],[113.40893,-7.91442,0.0],[113.41436,-7.92287,0.0],[113.41509,-7.92621,0.0],[113.41853,-7.93004,0.0],[113.41993,-7.92983,0.0],[113.41898,-7.93132,0.0],[113.42103,-7.93397,0.0],[113.41981,-7.9351,0.0],[113.42204,-7.9352,0.0],[113.4224,-7.93642,0.0],[113.4216,-7.9371,0.0],[113.42245,-7.93802,0.0],[113.42061,-7.93928,0.0],[113.42371,-7.94497,0.0],[113.42459,-7.95163,0.0],[113.42757,-7.95673,0.0],[113.4284,-7.96183,0.0],[113.43489,-7.97337,0.0],[113.43867,-7.97478,0.0],[113.44159,-7.97836,0.0],[113.44446,-7.98421,0.0],[113.44497,-7.98874,0.0],[113.45122,-7.99111,0.0],[113.45523,-7.98993,0.0],[113.45764,-7.99057,0.0],[113.46034,-7.9949,0.0],[113.46475,-7.99671,0.0],[113.47018,-7.99381,0.0],[113.47258,-7.99453,0.0],[113.47317,-7.99153,0.0],[113.47732,-7.99041,0.0],[113.4822,-7.99401,0.0],[113.48026,-7.99736,0.0],[113.48197,-8.00608,0.0],[113.48157,-8.0095,0.0],[113.47507,-8.02033,0.0],[113.47582,-8.02557,0.0],[113.46543,-8.0275,0.0],[113.4592,-8.0231,0.0],[113.45657,-8.0228,0.0],[113.45403,-8.01954,0.0],[113.45129,-8.01951,0.0],[113.44981,-8.0211,0.0],[113.44926,-8.02606,0.0],[113.44485,-8.02518,0.0],[113.44225,-8.0226,0.0],[113.44021,-8.01522,0.0],[113.42277,-8.00779,0.0],[113.42193,-8.00998,0.0],[113.42027,-8.00857,0.0],[113.41719,-8.00938,0.0],[113.41219,-8.00517,0.0],[113.40663,-8.008,0.0],[113.405,-8.00346,0.0],[113.40316,-8.00267,0.0],[113.39997,-8.00402,0.0],[113.39727,-8.00362,0.0],[113.39631,-8.00027,0.0],[113.39095,-7.9973,0.0]]]}},{"type":"Feature","properties":{"kecamatan":"Krucil","kab_kota":"Probolinggo"},"geometry":{"type":"Polygon","coordinates":[[[113.50548,-8.00362,0.0],[113.50044,-8.00362,0.0],[113.49933,-8.00213,0.0],[113.49463,-8.00496,0.0],[113.49471,-8.00221,0.0],[113.49283,-8.00151,0.0],[113.49227,-7.9988,0.0],[113.49053,-7.99936,0.0],[113.49026,-7.99708,0.0],[113.48293,-7.99646,0.0],[113.48169,-7.99314,0.0],[113.47732,-7.99041,0.0],[113.47317,-7.99153,0.0],[113.47258,-7.99453,0.0],[113.47018,-7.99381,0.0],[113.46475,-7.99671,0.0],[113.46034,-7.9949,0.0],[113.45764,-7.99057,0.0],[113.45523,-7.98993,0.0],[113.45122,-7.99111,0.0],[113.44497,-7.98874,0.0],[113.44446,-7.98421,0.0],[113.44159,-7.97836,0.0],[113.43867,-7.97478,0.0],[113.43489,-7.97337,0.0],[113.4284,-7.96183,0.0],[113.42757,-7.95673,0.0],[113.42459,-7.95163,0.0],[113.42371,-7.94497,0.0],[113.42061,-7.93928,0.0],[113.42245,-7.93802,0.0],[113.42215,-7.93536,0.0],[113.41981,-7.9351,0.0],[113.42103,-7.93397,0.0],[113.41898,-7.93132,0.0],[113.41993,-7.92983,0.0],[113.41853,-7.93004,0.0],[113.41509,-7.92621,0.0],[113.41436,-7.92287,0.0],[113.40893,-7.91442,0.0],[113.41072,-7.91291,0.0],[113.40956,-7.9102,0.0],[113.4061,-7.90687,0.0],[113.40656,-7.90495,0.0],[113.4032,-7.90491,0.0],[113.39626,-7.88823,0.0],[113.39464,-7.88704,0.0],[113.39748,-7.88722,0.0],[113.40053,-7.88532,0.0],[113.3999,-7.88262,0.0],[113.39456,-7.88226,0.0],[113.3954,-7.87931,0.0],[113.39992,-7.8788,0.0],[113.40111,-7.87619,0.0],[113.40964,-7.87887,0.0],[113.41092,-7.88297,0.0],[113.41427,-7.88333,0.0],[113.41483,-7.88477,0.0],[113.41678,-7.88437,0.0],[113.41816,-7.8798,0.0],[113.41723,-7.8779,0.0],[113.4207,-7.87036,0.0],[113.43199,-7.8673,0.0],[113.43347,-7.86827,0.0],[113.43453,-7.87254,0.0],[113.43664,-7.87407,0.0],[113.43708,-7.87677,0.0],[113.44659,-7.88008,0.0],[113.44981,-7.88395,0.0],[113.45582,-7.88361,0.0],[113.45715,-7.88551,0.0],[113.4598,-7.88584,0.0],[113.46559,-7.88961,0.0],[113.46909,-7.88863,0.0],[113.47016,-7.8866,0.0],[113.47022,-7.88851,0.0],[113.47189,-7.88936,0.0],[113.47356,-7.88812,0.0],[113.47837,-7.8895,0.0],[113.47933,-7.88832,0.0],[113.48241,-7.89034,0.0],[113.48239,-7.88937,0.0],[113.48468,-7.89015,0.0],[113.48557,-7.8846,0.0],[113.48132,-7.87981,0.0],[113.48082,-7.87736,0.0],[113.48439,-7.87868,0.0],[113.49191,-7.87491,0.0],[113.49781,-7.87985,0.0],[113.49874,-7.87909,0.0],[113.50088,-7.88013,0.0],[113.50464,-7.88431,0.0],[113.5138,-7.8859,0.0],[113.51612,-7.88454,0.0],[113.52507,-7.89192,0.0],[113.52882,-7.89031,0.0],[113.53048,-7.89121,0.0],[113.5306,-7.89367,0.0],[113.53163,-7.89264,0.0],[113.53369,-7.89311,0.0],[113.53563,-7.89501,0.0],[113.53652,-7.89303,0.0],[113.53821,-7.89537,0.0],[113.54117,-7.89364,0.0],[113.54478,-7.89639,0.0],[113.54733,-7.89633,0.0],[113.54809,-7.89888,0.0],[113.55329,-7.90312,0.0],[113.55734,-7.90964,0.0],[113.56508,-7.91437,0.0],[113.56971,-7.91519,0.0],[113.57372,-7.91995,0.0],[113.58464,-7.92475,0.0],[113.58772,-7.92907,0.0],[113.59295,-7.93088,0.0],[113.59661,-7.93472,0.0],[113.59868,-7.93302,0.0],[113.60549,-7.9313,0.0],[113.61382,-7.92378,0.0],[113.62601,-7.92025,0.0],[113.62484,-7.92535,0.0],[113.6199,-7.92726,0.0],[113.61842,-7.92945,0.0],[113.61703,-7.9346,0.0],[113.61869,-7.93892,0.0],[113.61506,-7.94181,0.0],[113.61113,-7.95012,0.0],[113.6147,-7.95314,0.0],[113.62233,-7.95244,0.0],[113.62123,-7.95505,0.0],[113.61577,-7.95684,0.0],[113.61566,-7.95815,0.0],[113.62378,-7.96146,0.0],[113.6235,-7.96252,0.0],[113.62611,-7.96397,0.0],[113.62667,-7.96671,0.0],[113.62927,-7.96741,0.0],[113.62849,-7.97011,0.0],[113.62952,-7.97246,0.0],[113.63567,-7.96558,0.0],[113.64356,-7.97312,0.0],[113.63815,-7.97201,0.0],[113.63432,-7.97473,0.0],[113.62843,-7.97591,0.0],[113.62622,-7.98092,0.0],[113.62423,-7.98009,0.0],[113.62384,-7.98209,0.0],[113.62005,-7.9834,0.0],[113.61912,-7.98832,0.0],[113.61563,-7.98981,0.0],[113.61397,-7.99214,0.0],[113.61371,-7.98876,0.0],[113.61135,-7.99032,0.0],[113.60539,-7.98999,0.0],[113.6035,-7.98698,0.0],[113.6022,-7.97794,0.0],[113.60098,-7.97751,0.0],[113.59969,-7.97901,0.0],[113.59393,-7.97591,0.0],[113.59333,-7.97712,0.0],[113.59116,-7.97639,0.0],[113.59033,-7.9834,0.0],[113.58444,-7.98275,0.0],[113.58252,-7.98446,0.0],[113.58028,-7.98443,0.0],[113.57815,-7.9831,0.0],[113.57731,-7.98065,0.0],[113.57462,-7.98008,0.0],[113.57252,-7.98034,0.0],[113.56869,-7.98342,0.0],[113.56284,-7.98271,0.0],[113.55949,-7.99469,0.0],[113.55749,-7.99483,0.0],[113.55107,-7.99921,0.0],[113.54566,-7.99937,0.0],[113.54432,-8.00108,0.0],[113.54284,-8.00046,0.0],[113.54133,-8.0047,0.0],[113.53946,-8.00509,0.0],[113.53979,-8.00661,0.0],[113.5365,-8.00641,0.0],[113.53564,-8.0076,0.0],[113.53441,-8.00665,0.0],[113.5331,-8.00917,0.0],[113.53051,-8.00801,0.0],[113.52936,-8.00899,0.0],[113.52667,-8.0084,0.0],[113.52467,-8.0043,0.0],[113.52188,-8.00372,0.0],[113.52022,-8.00542,0.0],[113.51465,-8.0015,0.0],[113.50729,-8.00542,0.0],[113.50548,-8.00362,0.0]]]}},{"type":"Feature","properties":{"kecamatan":"Paiton","kab_kota":"Probolinggo"},"geometry":{"type":"Polygon","coordinates":[[[113.50309,-7.76216,0.0],[113.49557,-7.76541,0.0],[113.49404,-7.76122,0.0],[113.49023,-7.75875,0.0],[113.48242,-7.75961,0.0],[113.48259,-7.7499,0.0],[113.48136,-7.74971,0.0],[113.48127,-7.74802,0.0],[113.47904,-7.74786,0.0],[113.47694,-7.7439,0.0],[113.46783,-7.74287,0.0],[113.46482,-7.73463,0.0],[113.46116,-7.73731,0.0],[113.46013,-7.73494,0.0],[113.45964,-7.72843,0.0],[113.46132,-7.726,0.0],[113.46116,-7.72061,0.0],[113.46482,-7.71824,0.0],[113.46474,-7.71709,0.0],[113.46946,-7.71533,0.0],[113.46824,-7.71378,0.0],[113.46887,-7.71225,0.0],[113.46828,-7.71261,0.0],[113.46767,-7.71252,0.0],[113.47173,-7.7097,0.0],[113.47067,-7.70899,0.0],[113.47112,-7.70671,0.0],[113.48239,-7.70171,0.0],[113.48559,-7.69894,0.0],[113.50139,-7.69886,0.0],[113.51421,-7.7023,0.0],[113.51572,-7.7044,0.0],[113.52047,-7.705,0.0],[113.5225,-7.70654,0.0],[113.52291,-7.70649,0.0],[113.5236,-7.70506,0.0],[113.52501,-7.70366,0.0],[113.52315,-7.70608,0.0],[113.52552,-7.70738,0.0],[113.52703,-7.70598,0.0],[113.52596,-7.70524,0.0],[113.5255,-7.70361,0.0],[113.52708,-7.70585,0.0],[113.52689,-7.70863,0.0],[113.52802,-7.70934,0.0],[113.52904,-7.70865,0.0],[113.53204,-7.71099,0.0],[113.53957,-7.71016,0.0],[113.54542,-7.7135,0.0],[113.55068,-7.71368,0.0],[113.55258,-7.71176,0.0],[113.55365,-7.71313,0.0],[113.56404,-7.71398,0.0],[113.56483,-7.71328,0.0],[113.56329,-7.71139,0.0],[113.56512,-7.71322,0.0],[113.56375,-7.71142,0.0],[113.56518,-7.71296,0.0],[113.56533,-7.71049,0.0],[113.57201,-7.70915,0.0],[113.57281,-7.71022,0.0],[113.57322,-7.70884,0.0],[113.5752,-7.71027,0.0],[113.57697,-7.70678,0.0],[113.58183,-7.70904,0.0],[113.58288,-7.71152,0.0],[113.59766,-7.71507,0.0],[113.59658,-7.71717,0.0],[113.59071,-7.7166,0.0],[113.59054,-7.72373,0.0],[113.58828,-7.72653,0.0],[113.58625,-7.72721,0.0],[113.57967,-7.72581,0.0],[113.57794,-7.72743,0.0],[113.57845,-7.73242,0.0],[113.57328,-7.73878,0.0],[113.57324,-7.74439,0.0],[113.55612,-7.74321,0.0],[113.55366,-7.74063,0.0],[113.55218,-7.74102,0.0],[113.55069,-7.73919,0.0],[113.54967,-7.73996,0.0],[113.54605,-7.73226,0.0],[113.54616,-7.72196,0.0],[113.54507,-7.72176,0.0],[113.54027,-7.72651,0.0],[113.54217,-7.73341,0.0],[113.53984,-7.73328,0.0],[113.53844,-7.73651,0.0],[113.53179,-7.73693,0.0],[113.53218,-7.73929,0.0],[113.53036,-7.73789,0.0],[113.52586,-7.73758,0.0],[113.52612,-7.73094,0.0],[113.52053,-7.7306,0.0],[113.52055,-7.72891,0.0],[113.5186,-7.7297,0.0],[113.51679,-7.73646,0.0],[113.51903,-7.74482,0.0],[113.5164,-7.74539,0.0],[113.51704,-7.74837,0.0],[113.51522,-7.75075,0.0],[113.51726,-7.75195,0.0],[113.51204,-7.76164,0.0],[113.50309,-7.76216,0.0]]]}},{"type":"Feature","properties":{"kecamatan":"Besuk","kab_kota":"Probolinggo"},"geometry":{"type":"Polygon","coordinates":[[[113.48386,-7.81676,0.0],[113.47323,-7.81565,0.0],[113.45678,-7.81109,0.0],[113.45528,-7.80924,0.0],[113.45599,-7.80032,0.0],[113.45264,-7.7953,0.0],[113.44942,-7.79379,0.0],[113.44775,-7.7913,0.0],[113.44839,-7.78596,0.0],[113.44731,-7.78187,0.0],[113.44203,-7.78056,0.0],[113.44207,-7.77594,0.0],[113.44537,-7.77163,0.0],[113.45209,-7.77261,0.0],[113.45202,-7.77444,0.0],[113.45799,-7.7755,0.0],[113.46704,-7.77969,0.0],[113.46846,-7.78231,0.0],[113.47262,-7.78126,0.0],[113.47264,-7.7782,0.0],[113.47155,-7.77778,0.0],[113.47234,-7.77537,0.0],[113.47078,-7.77637,0.0],[113.46955,-7.77516,0.0],[113.46945,-7.77106,0.0],[113.46636,-7.76686,0.0],[113.46399,-7.76628,0.0],[113.46195,-7.76084,0.0],[113.45679,-7.7577,0.0],[113.45603,-7.75471,0.0],[113.45842,-7.75279,0.0],[113.4593,-7.75012,0.0],[113.46975,-7.75,0.0],[113.46824,-7.74302,0.0],[113.47694,-7.7439,0.0],[113.47904,-7.74786,0.0],[113.48127,-7.74802,0.0],[113.48136,-7.74971,0.0],[113.48259,-7.7499,0.0],[113.48242,-7.75961,0.0],[113.49023,-7.75875,0.0],[113.49404,-7.76122,0.0],[113.49611,-7.76638,0.0],[113.49506,-7.76767,0.0],[113.49551,-7.77449,0.0],[113.4976,-7.77732,0.0],[113.49732,-7.78231,0.0],[113.50064,-7.78189,0.0],[113.49903,-7.78544,0.0],[113.5007,-7.78852,0.0],[113.50047,-7.79204,0.0],[113.50244,-7.79358,0.0],[113.50161,-7.80001,0.0],[113.50601,-7.8088,0.0],[113.50327,-7.81321,0.0],[113.49981,-7.81344,0.0],[113.49734,-7.81647,0.0],[113.49971,-7.81815,0.0],[113.49838,-7.82258,0.0],[113.49965,-7.82455,0.0],[113.49911,-7.82719,0.0],[113.50239,-7.83154,0.0],[113.49926,-7.8342,0.0],[113.49684,-7.83389,0.0],[113.49144,-7.83616,0.0],[113.48978,-7.84343,0.0],[113.48752,-7.84006,0.0],[113.48777,-7.83241,0.0],[113.48536,-7.83025,0.0],[113.48422,-7.82542,0.0],[113.4866,-7.82121,0.0],[113.48645,-7.8185,0.0],[113.48386,-7.81676,0.0]]]}},{"type":"Feature","properties":{"kecamatan":"Pakuniran","kab_kota":"Probolinggo"},"geometry":{"type":"Polygon","coordinates":[[[113.51269,-7.85132,0.0],[113.50787,-7.84917,0.0],[113.50409,-7.85315,0.0],[113.49871,-7.85174,0.0],[113.49143,-7.84499,0.0],[113.48978,-7.84074,0.0],[113.49177,-7.83587,0.0],[113.49684,-7.83389,0.0],[113.49926,-7.8342,0.0],[113.50239,-7.83154,0.0],[113.49911,-7.82719,0.0],[113.49965,-7.82455,0.0],[113.49838,-7.82258,0.0],[113.49971,-7.81815,0.0],[113.49734,-7.81647,0.0],[113.49981,-7.81344,0.0],[113.50327,-7.81321,0.0],[113.50601,-7.8088,0.0],[113.50161,-7.80001,0.0],[113.50244,-7.79358,0.0],[113.50047,-7.79204,0.0],[113.5007,-7.78852,0.0],[113.49903,-7.78544,0.0],[113.50064,-7.78189,0.0],[113.49732,-7.78231,0.0],[113.4976,-7.77732,0.0],[113.49551,-7.77449,0.0],[113.49554,-7.76546,0.0],[113.50309,-7.76216,0.0],[113.51083,-7.76247,0.0],[113.5145,-7.7561,0.0],[113.51673,-7.76931,0.0],[113.51976,-7.77077,0.0],[113.52021,-7.77321,0.0],[113.52574,-7.77682,0.0],[113.52573,-7.77801,0.0],[113.53613,-7.78026,0.0],[113.53633,-7.78221,0.0],[113.55173,-7.78579,0.0],[113.56204,-7.78409,0.0],[113.57025,-7.789,0.0],[113.57264,-7.78946,0.0],[113.57535,-7.78697,0.0],[113.57835,-7.78769,0.0],[113.58812,-7.79168,0.0],[113.58907,-7.79364,0.0],[113.59518,-7.79719,0.0],[113.60609,-7.79894,0.0],[113.6016,-7.80225,0.0],[113.59339,-7.80375,0.0],[113.59215,-7.80541,0.0],[113.60251,-7.81351,0.0],[113.6076,-7.82206,0.0],[113.61173,-7.82405,0.0],[113.61022,-7.83179,0.0],[113.60827,-7.83509,0.0],[113.60606,-7.83626,0.0],[113.60292,-7.84307,0.0],[113.60519,-7.84915,0.0],[113.60934,-7.85311,0.0],[113.60804,-7.85459,0.0],[113.60874,-7.86026,0.0],[113.612,-7.86479,0.0],[113.61262,-7.86798,0.0],[113.61472,-7.86814,0.0],[113.61674,-7.87114,0.0],[113.61831,-7.88023,0.0],[113.61567,-7.88276,0.0],[113.61532,-7.88749,0.0],[113.61278,-7.88681,0.0],[113.60623,-7.88366,0.0],[113.60132,-7.87874,0.0],[113.59885,-7.8781,0.0],[113.59875,-7.87665,0.0],[113.59472,-7.87376,0.0],[113.59399,-7.87047,0.0],[113.58816,-7.86632,0.0],[113.58222,-7.86642,0.0],[113.57523,-7.86387,0.0],[113.57293,-7.8669,0.0],[113.57171,-7.86683,0.0],[113.56908,-7.86361,0.0],[113.56954,-7.86186,0.0],[113.5679,-7.86223,0.0],[113.56444,-7.85952,0.0],[113.56089,-7.85895,0.0],[113.55631,-7.86061,0.0],[113.54786,-7.85918,0.0],[113.53656,-7.86071,0.0],[113.53229,-7.85842,0.0],[113.52754,-7.85871,0.0],[113.51541,-7.85465,0.0],[113.51269,-7.85132,0.0]]]}},{"type":"Feature","properties":{"kecamatan":"Kotaanyar","kab_kota":"Probolinggo"},"geometry":{"type":"Polygon","coordinates":[[[113.53613,-7.78026,0.0],[113.52565,-7.77797,0.0],[113.52574,-7.77682,0.0],[113.52021,-7.77321,0.0],[113.51976,-7.77077,0.0],[113.51673,-7.76931,0.0],[113.5145,-7.7561,0.0],[113.5173,-7.75183,0.0],[113.51522,-7.75075,0.0],[113.51704,-7.74837,0.0],[113.5164,-7.74539,0.0],[113.51903,-7.74482,0.0],[113.51709,-7.73866,0.0],[113.51711,-7.73263,0.0],[113.52033,-7.72888,0.0],[113.52053,-7.7306,0.0],[113.52612,-7.73094,0.0],[113.52586,-7.73758,0.0],[113.53036,-7.73789,0.0],[113.53218,-7.73929,0.0],[113.53179,-7.73693,0.0],[113.53844,-7.73651,0.0],[113.53984,-7.73328,0.0],[113.54217,-7.73341,0.0],[113.54027,-7.72651,0.0],[113.54517,-7.72174,0.0],[113.54616,-7.72196,0.0],[113.5461,-7.73247,0.0],[113.54957,-7.73987,0.0],[113.55069,-7.73919,0.0],[113.55218,-7.74102,0.0],[113.55366,-7.74063,0.0],[113.55612,-7.74321,0.0],[113.57324,-7.74439,0.0],[113.57623,-7.75,0.0],[113.57639,-7.7562,0.0],[113.59049,-7.76354,0.0],[113.59841,-7.77104,0.0],[113.60266,-7.78187,0.0],[113.60178,-7.78889,0.0],[113.60319,-7.79118,0.0],[113.60405,-7.79821,0.0],[113.59518,-7.79719,0.0],[113.58907,-7.79364,0.0],[113.58812,-7.79168,0.0],[113.57835,-7.78769,0.0],[113.57535,-7.78697,0.0],[113.57264,-7.78946,0.0],[113.56606,-7.78703,0.0],[113.56204,-7.78409,0.0],[113.55173,-7.78579,0.0],[113.53633,-7.78221,0.0],[113.53613,-7.78026,0.0]]]}},{"type":"Feature","properties":{"kecamatan":"Pejarakan","kab_kota":"Probolinggo"},"geometry":{"type":"Polygon","coordinates":[[[113.3736,-7.81921,0.0],[113.3716,-7.81843,0.0],[113.37079,-7.82078,0.0],[113.36754,-7.82105,0.0],[113.36801,-7.81261,0.0],[113.37128,-7.80289,0.0],[113.36984,-7.79921,0.0],[113.36589,-7.79875,0.0],[113.36399,-7.79291,0.0],[113.35941,-7.78941,0.0],[113.35841,-7.78576,0.0],[113.35525,-7.78412,0.0],[113.35006,-7.78362,0.0],[113.34779,-7.78169,0.0],[113.34763,-7.77489,0.0],[113.3449,-7.77312,0.0],[113.34466,-7.77104,0.0],[113.34661,-7.76849,0.0],[113.35346,-7.76455,0.0],[113.35521,-7.76136,0.0],[113.3679,-7.75538,0.0],[113.37037,-7.75204,0.0],[113.37246,-7.75164,0.0],[113.37297,-7.74697,0.0],[113.37632,-7.74229,0.0],[113.37604,-7.74069,0.0],[113.38224,-7.73636,0.0],[113.38303,-7.73953,0.0],[113.38535,-7.7423,0.0],[113.38788,-7.74273,0.0],[113.38977,-7.74636,0.0],[113.39085,-7.74893,0.0],[113.38956,-7.75068,0.0],[113.39763,-7.75281,0.0],[113.39655,-7.76462,0.0],[113.39162,-7.76524,0.0],[113.39067,-7.76871,0.0],[113.38698,-7.76875,0.0],[113.38717,-7.77184,0.0],[113.38521,-7.77627,0.0],[113.37717,-7.78645,0.0],[113.37489,-7.79376,0.0],[113.37654,-7.79624,0.0],[113.37594,-7.79786,0.0],[113.37819,-7.79934,0.0],[113.37791,-7.80388,0.0],[113.38145,-7.80785,0.0],[113.38305,-7.8141,0.0],[113.38112,-7.8233,0.0],[113.37484,-7.8225,0.0],[113.3736,-7.81921,0.0]]]}},{"type":"Feature","properties":{"kecamatan":"Maron","kab_kota":"Probolinggo"},"geometry":{"type":"Polygon","coordinates":[[[113.36589,-7.89146,0.0],[113.35237,-7.88897,0.0],[113.34834,-7.89117,0.0],[113.34908,-7.88746,0.0],[113.34337,-7.87929,0.0],[113.34183,-7.875,0.0],[113.34185,-7.87074,0.0],[113.34674,-7.85834,0.0],[113.34597,-7.85589,0.0],[113.34337,-7.85703,0.0],[113.34172,-7.86418,0.0],[113.33139,-7.86328,0.0],[113.32905,-7.85297,0.0],[113.33152,-7.85345,0.0],[113.332,-7.84792,0.0],[113.33449,-7.84563,0.0],[113.33861,-7.84702,0.0],[113.34259,-7.84613,0.0],[113.34305,-7.84338,0.0],[113.34168,-7.84121,0.0],[113.33852,-7.84192,0.0],[113.32675,-7.83649,0.0],[113.32493,-7.82896,0.0],[113.32711,-7.82937,0.0],[113.32937,-7.82278,0.0],[113.33176,-7.82181,0.0],[113.3305,-7.81875,0.0],[113.32585,-7.81623,0.0],[113.32566,-7.81436,0.0],[113.32616,-7.8085,0.0],[113.33462,-7.80863,0.0],[113.33377,-7.80283,0.0],[113.34307,-7.80445,0.0],[113.34833,-7.80727,0.0],[113.34838,-7.80034,0.0],[113.35689,-7.80053,0.0],[113.35822,-7.79426,0.0],[113.36327,-7.79231,0.0],[113.36589,-7.79875,0.0],[113.36971,-7.79911,0.0],[113.37128,-7.80289,0.0],[113.36801,-7.81261,0.0],[113.36754,-7.82105,0.0],[113.37079,-7.82078,0.0],[113.37127,-7.8186,0.0],[113.37272,-7.81847,0.0],[113.37484,-7.8225,0.0],[113.38092,-7.8234,0.0],[113.38275,-7.8156,0.0],[113.38529,-7.81641,0.0],[113.38895,-7.81472,0.0],[113.3915,-7.81838,0.0],[113.39601,-7.82094,0.0],[113.39542,-7.82226,0.0],[113.39786,-7.82539,0.0],[113.39744,-7.8273,0.0],[113.39935,-7.82681,0.0],[113.40112,-7.82889,0.0],[113.39982,-7.83073,0.0],[113.40009,-7.8377,0.0],[113.39692,-7.84262,0.0],[113.39146,-7.84134,0.0],[113.38841,-7.83768,0.0],[113.38777,-7.83463,0.0],[113.38264,-7.83387,0.0],[113.38043,-7.83221,0.0],[113.37659,-7.83208,0.0],[113.37645,-7.83369,0.0],[113.37448,-7.83411,0.0],[113.37522,-7.83902,0.0],[113.37737,-7.84023,0.0],[113.37773,-7.84305,0.0],[113.38095,-7.84238,0.0],[113.38294,-7.84484,0.0],[113.3861,-7.84357,0.0],[113.38698,-7.84932,0.0],[113.39261,-7.85524,0.0],[113.39498,-7.86296,0.0],[113.38954,-7.86949,0.0],[113.38765,-7.87007,0.0],[113.38412,-7.87022,0.0],[113.38295,-7.86634,0.0],[113.367,-7.86629,0.0],[113.36843,-7.8699,0.0],[113.37517,-7.8712,0.0],[113.3748,-7.8724,0.0],[113.37661,-7.87391,0.0],[113.37392,-7.88154,0.0],[113.37456,-7.88346,0.0],[113.37257,-7.88402,0.0],[113.37057,-7.88883,0.0],[113.36589,-7.89146,0.0]]]}},{"type":"Feature","properties":{"kecamatan":"Kraksaan","kab_kota":"Probolinggo"},"geometry":{"type":"Polygon","coordinates":[[[113.39375,-7.78339,0.0],[113.39504,-7.78429,0.0],[113.39454,-7.78561,0.0],[113.38836,-7.78523,0.0],[113.3885,-7.78899,0.0],[113.38536,-7.79002,0.0],[113.37697,-7.78759,0.0],[113.38521,-7.77627,0.0],[113.38717,-7.77184,0.0],[113.38698,-7.76875,0.0],[113.39067,-7.76871,0.0],[113.39162,-7.76524,0.0],[113.39655,-7.76462,0.0],[113.39763,-7.75281,0.0],[113.38982,-7.75093,0.0],[113.39085,-7.74893,0.0],[113.38849,-7.74462,0.0],[113.38932,-7.74322,0.0],[113.39123,-7.74368,0.0],[113.39235,-7.74301,0.0],[113.39316,-7.73875,0.0],[113.39433,-7.74026,0.0],[113.39541,-7.73826,0.0],[113.39699,-7.73804,0.0],[113.39995,-7.74038,0.0],[113.40312,-7.73995,0.0],[113.40695,-7.7362,0.0],[113.40994,-7.73546,0.0],[113.40936,-7.73496,0.0],[113.40945,-7.73463,0.0],[113.41631,-7.73352,0.0],[113.42857,-7.7362,0.0],[113.43141,-7.73548,0.0],[113.43252,-7.73375,0.0],[113.43886,-7.73457,0.0],[113.44112,-7.7316,0.0],[113.44665,-7.72942,0.0],[113.45098,-7.72536,0.0],[113.45417,-7.7248,0.0],[113.4552,-7.7258,0.0],[113.46116,-7.72061,0.0],[113.46132,-7.726,0.0],[113.45964,-7.72843,0.0],[113.46013,-7.73494,0.0],[113.46116,-7.73731,0.0],[113.46482,-7.73463,0.0],[113.46556,-7.73562,0.0],[113.46975,-7.75,0.0],[113.4593,-7.75012,0.0],[113.45842,-7.75279,0.0],[113.45612,-7.7538,0.0],[113.45623,-7.75634,0.0],[113.46195,-7.76084,0.0],[113.46399,-7.76628,0.0],[113.46636,-7.76686,0.0],[113.46945,-7.77106,0.0],[113.46955,-7.77516,0.0],[113.47078,-7.77637,0.0],[113.47234,-7.77537,0.0],[113.47155,-7.77778,0.0],[113.47283,-7.77886,0.0],[113.47241,-7.78149,0.0],[113.46846,-7.78231,0.0],[113.46704,-7.77969,0.0],[113.45799,-7.7755,0.0],[113.45202,-7.77444,0.0],[113.45209,-7.77261,0.0],[113.44537,-7.77163,0.0],[113.44207,-7.77594,0.0],[113.442,-7.78308,0.0],[113.43907,-7.78259,0.0],[113.43786,-7.78103,0.0],[113.43751,-7.77373,0.0],[113.43369,-7.77339,0.0],[113.42882,-7.77541,0.0],[113.42874,-7.77323,0.0],[113.42771,-7.7732,0.0],[113.42339,-7.77406,0.0],[113.41761,-7.77991,0.0],[113.4189,-7.78415,0.0],[113.41324,-7.78332,0.0],[113.41178,-7.7813,0.0],[113.41053,-7.78522,0.0],[113.40893,-7.78601,0.0],[113.40557,-7.78372,0.0],[113.40911,-7.78088,0.0],[113.41033,-7.77815,0.0],[113.40605,-7.77435,0.0],[113.40841,-7.76784,0.0],[113.40417,-7.76738,0.0],[113.40391,-7.76893,0.0],[113.4022,-7.76857,0.0],[113.39916,-7.77233,0.0],[113.39831,-7.78,0.0],[113.39419,-7.78111,0.0],[113.39375,-7.78339,0.0]]]}},{"type":"Feature","properties":{"kecamatan":"Krejengan","kab_kota":"Probolinggo"},"geometry":{"type":"Polygon","coordinates":[[[113.41842,-7.81777,0.0],[113.41449,-7.82232,0.0],[113.41533,-7.82427,0.0],[113.413,-7.82443,0.0],[113.4113,-7.82887,0.0],[113.40934,-7.82881,0.0],[113.40864,-7.83052,0.0],[113.40239,-7.83082,0.0],[113.40043,-7.83204,0.0],[113.39982,-7.83073,0.0],[113.40108,-7.82853,0.0],[113.39935,-7.82681,0.0],[113.3974,-7.82725,0.0],[113.3979,-7.82549,0.0],[113.39579,-7.82343,0.0],[113.39653,-7.82248,0.0],[113.39547,-7.82241,0.0],[113.39607,-7.82111,0.0],[113.3946,-7.81943,0.0],[113.39236,-7.81913,0.0],[113.38895,-7.81472,0.0],[113.38529,-7.81641,0.0],[113.38275,-7.8156,0.0],[113.38145,-7.80785,0.0],[113.37791,-7.80388,0.0],[113.37819,-7.79934,0.0],[113.37594,-7.79786,0.0],[113.37654,-7.79624,0.0],[113.37489,-7.79376,0.0],[113.37697,-7.78759,0.0],[113.38536,-7.79002,0.0],[113.3885,-7.78899,0.0],[113.38836,-7.78523,0.0],[113.39454,-7.78561,0.0],[113.39419,-7.78111,0.0],[113.39831,-7.78,0.0],[113.39916,-7.77233,0.0],[113.4022,-7.76857,0.0],[113.40391,-7.76893,0.0],[113.40417,-7.76738,0.0],[113.40841,-7.76784,0.0],[113.40605,-7.77435,0.0],[113.41033,-7.77815,0.0],[113.40911,-7.78088,0.0],[113.40557,-7.78372,0.0],[113.40893,-7.78601,0.0],[113.41053,-7.78522,0.0],[113.41178,-7.7813,0.0],[113.41324,-7.78332,0.0],[113.4189,-7.78415,0.0],[113.41761,-7.77991,0.0],[113.42339,-7.77406,0.0],[113.42867,-7.77321,0.0],[113.42882,-7.77541,0.0],[113.43181,-7.77378,0.0],[113.43726,-7.77365,0.0],[113.43817,-7.77474,0.0],[113.43689,-7.77704,0.0],[113.43859,-7.7822,0.0],[113.442,-7.78308,0.0],[113.44203,-7.78056,0.0],[113.44731,-7.78187,0.0],[113.44839,-7.78596,0.0],[113.44775,-7.7913,0.0],[113.44942,-7.79379,0.0],[113.45264,-7.7953,0.0],[113.45599,-7.80032,0.0],[113.4554,-7.80914,0.0],[113.45214,-7.80918,0.0],[113.4481,-7.81818,0.0],[113.44405,-7.82117,0.0],[113.44509,-7.82274,0.0],[113.43562,-7.82259,0.0],[113.43163,-7.8209,0.0],[113.4322,-7.82192,0.0],[113.42931,-7.822,0.0],[113.42473,-7.81999,0.0],[113.42426,-7.82181,0.0],[113.41842,-7.81777,0.0]]]}},{"type":"Feature","properties":{"kecamatan":"Gending","kab_kota":"Probolinggo"},"geometry":{"type":"Polygon","coordinates":[[[113.31588,-7.82345,0.0],[113.30427,-7.82346,0.0],[113.30512,-7.82182,0.0],[113.3026,-7.82027,0.0],[113.30037,-7.82321,0.0],[113.29494,-7.82286,0.0],[113.29372,-7.82509,0.0],[113.29065,-7.8239,0.0],[113.2895,-7.82534,0.0],[113.28571,-7.82382,0.0],[113.28524,-7.8254,0.0],[113.2832,-7.82549,0.0],[113.28223,-7.81981,0.0],[113.27984,-7.81676,0.0],[113.28242,-7.81348,0.0],[113.27943,-7.80457,0.0],[113.28102,-7.79906,0.0],[113.27596,-7.79129,0.0],[113.27261,-7.78308,0.0],[113.27367,-7.77829,0.0],[113.27421,-7.77938,0.0],[113.27519,-7.77818,0.0],[113.2766,-7.77938,0.0],[113.27731,-7.78257,0.0],[113.28253,-7.7836,0.0],[113.28443,-7.78258,0.0],[113.28712,-7.78372,0.0],[113.28934,-7.77586,0.0],[113.29078,-7.77645,0.0],[113.29087,-7.77547,0.0],[113.29742,-7.7727,0.0],[113.29628,-7.77235,0.0],[113.30743,-7.76826,0.0],[113.31086,-7.76903,0.0],[113.31113,-7.76817,0.0],[113.31815,-7.77094,0.0],[113.31787,-7.7754,0.0],[113.32056,-7.77417,0.0],[113.32413,-7.77622,0.0],[113.32662,-7.77456,0.0],[113.3283,-7.77533,0.0],[113.32946,-7.77381,0.0],[113.33328,-7.7749,0.0],[113.3361,-7.77291,0.0],[113.33962,-7.77332,0.0],[113.34453,-7.77101,0.0],[113.3449,-7.77312,0.0],[113.34763,-7.77489,0.0],[113.34779,-7.78169,0.0],[113.35006,-7.78362,0.0],[113.35525,-7.78412,0.0],[113.35841,-7.78576,0.0],[113.35941,-7.78941,0.0],[113.36249,-7.79244,0.0],[113.35822,-7.79426,0.0],[113.35689,-7.80053,0.0],[113.34838,-7.80034,0.0],[113.34833,-7.80727,0.0],[113.34307,-7.80445,0.0],[113.33377,-7.80283,0.0],[113.33462,-7.80863,0.0],[113.32616,-7.8085,0.0],[113.32593,-7.81186,0.0],[113.32073,-7.81143,0.0],[113.31931,-7.8159,0.0],[113.31847,-7.81521,0.0],[113.31537,-7.81973,0.0],[113.31588,-7.82345,0.0]]]}},{"type":"Feature","properties":{"kecamatan":"Dringu","kab_kota":"Probolinggo"},"geometry":{"type":"Polygon","coordinates":[[[113.25454,-7.81712,0.0],[113.25407,-7.81632,0.0],[113.25144,-7.81713,0.0],[113.25093,-7.8262,0.0],[113.24881,-7.82749,0.0],[113.24628,-7.82504,0.0],[113.24689,-7.81853,0.0],[113.2392,-7.8156,0.0],[113.23891,-7.80881,0.0],[113.24031,-7.80777,0.0],[113.23869,-7.80346,0.0],[113.2425,-7.79455,0.0],[113.23852,-7.79365,0.0],[113.2372,-7.78923,0.0],[113.2354,-7.78793,0.0],[113.23734,-7.78164,0.0],[113.23395,-7.77984,0.0],[113.23467,-7.77809,0.0],[113.23589,-7.77822,0.0],[113.23737,-7.77311,0.0],[113.23465,-7.77147,0.0],[113.23449,-7.7664,0.0],[113.23599,-7.76263,0.0],[113.23497,-7.76215,0.0],[113.23527,-7.75928,0.0],[113.23419,-7.7589,0.0],[113.23467,-7.75668,0.0],[113.23186,-7.756,0.0],[113.23439,-7.75035,0.0],[113.2375,-7.74914,0.0],[113.23812,-7.74736,0.0],[113.23665,-7.74629,0.0],[113.23647,-7.7393,0.0],[113.23772,-7.73938,0.0],[113.23855,-7.74239,0.0],[113.23925,-7.7413,0.0],[113.2417,-7.74177,0.0],[113.24407,-7.74428,0.0],[113.24865,-7.74518,0.0],[113.2499,-7.74329,0.0],[113.25221,-7.74314,0.0],[113.25376,-7.73769,0.0],[113.25612,-7.73539,0.0],[113.25727,-7.73813,0.0],[113.25456,-7.74208,0.0],[113.25482,-7.74896,0.0],[113.25773,-7.75602,0.0],[113.26368,-7.76399,0.0],[113.26327,-7.76499,0.0],[113.26575,-7.76669,0.0],[113.27152,-7.77709,0.0],[113.27369,-7.77756,0.0],[113.27248,-7.78266,0.0],[113.27596,-7.79129,0.0],[113.28102,-7.79906,0.0],[113.27943,-7.80457,0.0],[113.28245,-7.81233,0.0],[113.27984,-7.81676,0.0],[113.28152,-7.81849,0.0],[113.27414,-7.82195,0.0],[113.27296,-7.83059,0.0],[113.26149,-7.83079,0.0],[113.26222,-7.82364,0.0],[113.2567,-7.82036,0.0],[113.25649,-7.81581,0.0],[113.25454,-7.81712,0.0]]]}},{"type":"Feature","properties":{"kecamatan":"Tongas","kab_kota":"Probolinggo"},"geometry":{"type":"Polygon","coordinates":[[[113.10341,-7.77941,0.0],[113.09383,-7.7877,0.0],[113.09248,-7.78771,0.0],[113.09146,-7.79023,0.0],[113.08865,-7.79106,0.0],[113.08453,-7.80171,0.0],[113.07917,-7.80711,0.0],[113.07654,-7.80524,0.0],[113.07106,-7.80412,0.0],[113.06929,-7.80002,0.0],[113.0669,-7.80417,0.0],[113.06487,-7.81266,0.0],[113.06145,-7.81231,0.0],[113.06,-7.81083,0.0],[113.05827,-7.8179,0.0],[113.05428,-7.81203,0.0],[113.05359,-7.80806,0.0],[113.04942,-7.81013,0.0],[113.05124,-7.80592,0.0],[113.05081,-7.80454,0.0],[113.04895,-7.80408,0.0],[113.05283,-7.79607,0.0],[113.05176,-7.79063,0.0],[113.0537,-7.78528,0.0],[113.05283,-7.77951,0.0],[113.05017,-7.7759,0.0],[113.05317,-7.76705,0.0],[113.05634,-7.76492,0.0],[113.05694,-7.76206,0.0],[113.05471,-7.74815,0.0],[113.06012,-7.74181,0.0],[113.0645,-7.73957,0.0],[113.06484,-7.73747,0.0],[113.06629,-7.73791,0.0],[113.0694,-7.73518,0.0],[113.07007,-7.73278,0.0],[113.07103,-7.73318,0.0],[113.07306,-7.72496,0.0],[113.07622,-7.72326,0.0],[113.07577,-7.72106,0.0],[113.07843,-7.72137,0.0],[113.08127,-7.71646,0.0],[113.08094,-7.71466,0.0],[113.08258,-7.71453,0.0],[113.08217,-7.71349,0.0],[113.08503,-7.70976,0.0],[113.08642,-7.70999,0.0],[113.08812,-7.70742,0.0],[113.09329,-7.708,0.0],[113.10065,-7.70232,0.0],[113.0996,-7.7068,0.0],[113.10191,-7.71358,0.0],[113.10793,-7.72057,0.0],[113.10998,-7.7191,0.0],[113.10962,-7.72082,0.0],[113.11432,-7.72498,0.0],[113.12053,-7.72583,0.0],[113.12392,-7.72466,0.0],[113.12575,-7.72235,0.0],[113.12633,-7.72405,0.0],[113.13594,-7.72559,0.0],[113.13607,-7.7272,0.0],[113.13273,-7.72894,0.0],[113.13298,-7.73175,0.0],[113.13441,-7.73204,0.0],[113.13101,-7.74394,0.0],[113.13225,-7.74534,0.0],[113.1319,-7.75093,0.0],[113.13555,-7.7517,0.0],[113.1368,-7.75334,0.0],[113.1379,-7.75273,0.0],[113.13707,-7.75453,0.0],[113.13947,-7.75844,0.0],[113.13603,-7.76131,0.0],[113.1369,-7.76461,0.0],[113.13566,-7.76698,0.0],[113.1266,-7.77306,0.0],[113.1268,-7.77484,0.0],[113.13482,-7.78092,0.0],[113.13343,-7.78313,0.0],[113.13405,-7.7885,0.0],[113.12995,-7.79364,0.0],[113.12713,-7.79455,0.0],[113.12349,-7.7992,0.0],[113.12411,-7.8019,0.0],[113.11773,-7.80669,0.0],[113.11709,-7.80862,0.0],[113.11524,-7.80894,0.0],[113.10247,-7.79795,0.0],[113.10449,-7.7972,0.0],[113.10577,-7.79377,0.0],[113.10757,-7.79357,0.0],[113.11021,-7.78319,0.0],[113.113,-7.78133,0.0],[113.10792,-7.77909,0.0],[113.10528,-7.7761,0.0],[113.10341,-7.77941,0.0]]]}},{"type":"Feature","properties":{"kecamatan":"Lumbang","kab_kota":"Probolinggo"},"geometry":{"type":"Polygon","coordinates":[[[113.11112,-7.82456,0.0],[113.11945,-7.82894,0.0],[113.12202,-7.82586,0.0],[113.12498,-7.82521,0.0],[113.12576,-7.82614,0.0],[113.12521,-7.84166,0.0],[113.12642,-7.8469,0.0],[113.12605,-7.85119,0.0],[113.12412,-7.85399,0.0],[113.11897,-7.8559,0.0],[113.1169,-7.85819,0.0],[113.10824,-7.85983,0.0],[113.10759,-7.85894,0.0],[113.10184,-7.85901,0.0],[113.10041,-7.86045,0.0],[113.08157,-7.86379,0.0],[113.07496,-7.86682,0.0],[113.06694,-7.86582,0.0],[113.06168,-7.86197,0.0],[113.03979,-7.85607,0.0],[113.03558,-7.85893,0.0],[113.03547,-7.86097,0.0],[113.0372,-7.86253,0.0],[113.03702,-7.86411,0.0],[113.03864,-7.86285,0.0],[113.03993,-7.86504,0.0],[113.04145,-7.86432,0.0],[113.038,-7.87464,0.0],[113.03423,-7.88006,0.0],[113.0311,-7.88311,0.0],[113.023,-7.88536,0.0],[113.02056,-7.88867,0.0],[113.01782,-7.88948,0.0],[113.01448,-7.89308,0.0],[113.0071,-7.89631,0.0],[113.0015,-7.9033,0.0],[113.00057,-7.90707,0.0],[112.99792,-7.9061,0.0],[112.99633,-7.90323,0.0],[112.99382,-7.90173,0.0],[112.98882,-7.90133,0.0],[112.98226,-7.89778,0.0],[112.96718,-7.89644,0.0],[112.96926,-7.88774,0.0],[112.97506,-7.88623,0.0],[112.9792,-7.88072,0.0],[112.9848,-7.87894,0.0],[112.99001,-7.8696,0.0],[112.99669,-7.86623,0.0],[112.99783,-7.86386,0.0],[113.00477,-7.85902,0.0],[113.00925,-7.8527,0.0],[113.0139,-7.85025,0.0],[113.0139,-7.8483,0.0],[113.01553,-7.84829,0.0],[113.01794,-7.84393,0.0],[113.0252,-7.83826,0.0],[113.02462,-7.83723,0.0],[113.02663,-7.83649,0.0],[113.02737,-7.83388,0.0],[113.03087,-7.83355,0.0],[113.03083,-7.83241,0.0],[113.0334,-7.83139,0.0],[113.03309,-7.82994,0.0],[113.03864,-7.82812,0.0],[113.04105,-7.82455,0.0],[113.04526,-7.82228,0.0],[113.04525,-7.82026,0.0],[113.04723,-7.81997,0.0],[113.04841,-7.81685,0.0],[113.0476,-7.81143,0.0],[113.05359,-7.80806,0.0],[113.05428,-7.81203,0.0],[113.05849,-7.81785,0.0],[113.06,-7.81083,0.0],[113.06145,-7.81231,0.0],[113.06487,-7.81266,0.0],[113.0669,-7.80417,0.0],[113.06929,-7.80002,0.0],[113.07106,-7.80412,0.0],[113.07654,-7.80524,0.0],[113.07917,-7.80711,0.0],[113.08453,-7.80171,0.0],[113.08865,-7.79106,0.0],[113.09146,-7.79023,0.0],[113.09248,-7.78771,0.0],[113.09556,-7.78623,0.0],[113.0988,-7.78189,0.0],[113.10259,-7.78017,0.0],[113.10528,-7.7761,0.0],[113.10792,-7.77909,0.0],[113.113,-7.78133,0.0],[113.11021,-7.78319,0.0],[113.10757,-7.79357,0.0],[113.10577,-7.79377,0.0],[113.10449,-7.7972,0.0],[113.10247,-7.79795,0.0],[113.11541,-7.80906,0.0],[113.10756,-7.81352,0.0],[113.10225,-7.81466,0.0],[113.10193,-7.81639,0.0],[113.11112,-7.82456,0.0]]]}},{"type":"Feature","properties":{"kecamatan":"Sumberasih","kab_kota":"Probolinggo"},"geometry":{"type":"MultiPolygon","coordinates":[[[[113.16397,-7.77925,0.0],[113.16899,-7.78057,0.0],[113.16991,-7.77946,0.0],[113.16957,-7.78074,0.0],[113.17904,-7.7833,0.0],[113.17702,-7.78848,0.0],[113.18172,-7.78916,0.0],[113.18164,-7.79032,0.0],[113.18307,-7.79067,0.0],[113.17859,-7.81015,0.0],[113.17136,-7.81019,0.0],[113.1582,-7.80611,0.0],[113.15935,-7.80288,0.0],[113.1529,-7.80122,0.0],[113.15383,-7.79815,0.0],[113.15204,-7.79737,0.0],[113.15284,-7.79127,0.0],[113.15018,-7.78963,0.0],[113.14664,-7.7919,0.0],[113.13929,-7.79272,0.0],[113.13406,-7.79565,0.0],[113.12658,-7.79629,0.0],[113.12728,-7.79439,0.0],[113.12995,-7.79364,0.0],[113.13396,-7.78867,0.0],[113.13343,-7.78313,0.0],[113.13482,-7.78092,0.0],[113.1268,-7.77484,0.0],[113.12668,-7.7728,0.0],[113.13566,-7.76698,0.0],[113.1369,-7.76461,0.0],[113.13603,-7.76131,0.0],[113.13947,-7.75844,0.0],[113.13707,-7.75453,0.0],[113.1379,-7.75273,0.0],[113.1368,-7.75334,0.0],[113.13555,-7.7517,0.0],[113.1319,-7.75093,0.0],[113.13225,-7.74534,0.0],[113.13101,-7.74394,0.0],[113.13441,-7.73204,0.0],[113.13298,-7.73175,0.0],[113.13273,-7.72894,0.0],[113.13607,-7.7272,0.0],[113.13594,-7.72559,0.0],[113.14013,-7.72557,0.0],[113.14217,-7.72693,0.0],[113.14498,-7.73316,0.0],[113.15108,-7.74103,0.0],[113.15214,-7.7393,0.0],[113.15759,-7.74118,0.0],[113.15807,-7.74003,0.0],[113.16044,-7.74106,0.0],[113.16233,-7.73958,0.0],[113.16324,-7.7419,0.0],[113.16579,-7.73923,0.0],[113.16794,-7.73891,0.0],[113.16975,-7.73543,0.0],[113.16946,-7.73336,0.0],[113.16759,-7.73337,0.0],[113.16754,-7.72788,0.0],[113.17243,-7.72779,0.0],[113.17479,-7.72593,0.0],[113.17376,-7.72501,0.0],[113.17789,-7.72703,0.0],[113.1793,-7.73057,0.0],[113.17802,-7.73389,0.0],[113.1805,-7.74376,0.0],[113.17486,-7.7494,0.0],[113.17603,-7.75069,0.0],[113.17645,-7.74968,0.0],[113.17782,-7.75015,0.0],[113.17765,-7.75208,0.0],[113.17538,-7.7516,0.0],[113.17425,-7.755,0.0],[113.17415,-7.7524,0.0],[113.17303,-7.75214,0.0],[113.17231,-7.75489,0.0],[113.1699,-7.75443,0.0],[113.16906,-7.76268,0.0],[113.16618,-7.76836,0.0],[113.16312,-7.77083,0.0],[113.16381,-7.77329,0.0],[113.16557,-7.77369,0.0],[113.16397,-7.77925,0.0]]],[[[113.26177,-7.67713,0.0],[113.26054,-7.67952,0.0],[113.25661,-7.6811,0.0],[113.24277,-7.68037,0.0],[113.25112,-7.6772,0.0],[113.261,-7.67618,0.0],[113.26177,-7.67713,0.0]]]]}},{"type":"Feature","properties":{"kecamatan":"Wonomerto","kab_kota":"Probolinggo"},"geometry":{"type":"Polygon","coordinates":[[[113.17508,-7.8499,0.0],[113.17364,-7.84977,0.0],[113.17256,-7.85211,0.0],[113.17338,-7.85441,0.0],[113.17178,-7.85429,0.0],[113.17325,-7.85542,0.0],[113.16979,-7.85815,0.0],[113.17144,-7.86168,0.0],[113.16937,-7.86138,0.0],[113.16654,-7.86478,0.0],[113.15747,-7.86409,0.0],[113.15234,-7.86528,0.0],[113.14801,-7.86792,0.0],[113.14527,-7.86603,0.0],[113.14192,-7.86817,0.0],[113.1382,-7.86475,0.0],[113.13575,-7.867,0.0],[113.1322,-7.86689,0.0],[113.132,-7.86331,0.0],[113.12883,-7.86119,0.0],[113.12847,-7.85599,0.0],[113.12586,-7.85198,0.0],[113.12576,-7.82614,0.0],[113.12498,-7.82521,0.0],[113.12202,-7.82586,0.0],[113.11945,-7.82894,0.0],[113.11743,-7.82821,0.0],[113.11003,-7.82366,0.0],[113.10193,-7.81639,0.0],[113.10199,-7.815,0.0],[113.10756,-7.81352,0.0],[113.10954,-7.81159,0.0],[113.11709,-7.80862,0.0],[113.11773,-7.80669,0.0],[113.12411,-7.8019,0.0],[113.12349,-7.7992,0.0],[113.12682,-7.79612,0.0],[113.13406,-7.79565,0.0],[113.13929,-7.79272,0.0],[113.14664,-7.7919,0.0],[113.15018,-7.78963,0.0],[113.15284,-7.79127,0.0],[113.15194,-7.79449,0.0],[113.1521,-7.79749,0.0],[113.15383,-7.79815,0.0],[113.1532,-7.80164,0.0],[113.15935,-7.80288,0.0],[113.15866,-7.80638,0.0],[113.16876,-7.80957,0.0],[113.20027,-7.81255,0.0],[113.2051,-7.80425,0.0],[113.20829,-7.80445,0.0],[113.20814,-7.80634,0.0],[113.20645,-7.80679,0.0],[113.20822,-7.80722,0.0],[113.20775,-7.80861,0.0],[113.2062,-7.80817,0.0],[113.20486,-7.80954,0.0],[113.20528,-7.81163,0.0],[113.20408,-7.81271,0.0],[113.20539,-7.81379,0.0],[113.20659,-7.81266,0.0],[113.20647,-7.81697,0.0],[113.20441,-7.81973,0.0],[113.19956,-7.81803,0.0],[113.19821,-7.82062,0.0],[113.19538,-7.82005,0.0],[113.19078,-7.82686,0.0],[113.18429,-7.82578,0.0],[113.18272,-7.82754,0.0],[113.18357,-7.82902,0.0],[113.18105,-7.83078,0.0],[113.18158,-7.83473,0.0],[113.18075,-7.83535,0.0],[113.18058,-7.83399,0.0],[113.17922,-7.83473,0.0],[113.1778,-7.83364,0.0],[113.17783,-7.8349,0.0],[113.17565,-7.83632,0.0],[113.17359,-7.83988,0.0],[113.17454,-7.84385,0.0],[113.17349,-7.84562,0.0],[113.17508,-7.8499,0.0]]]}},{"type":"Feature","properties":{"kecamatan":"Tegalsiwalan","kab_kota":"Probolinggo"},"geometry":{"type":"Polygon","coordinates":[[[113.26253,-7.89591,0.0],[113.26174,-7.89904,0.0],[113.25689,-7.90014,0.0],[113.25551,-7.89474,0.0],[113.25634,-7.89094,0.0],[113.25559,-7.88259,0.0],[113.25206,-7.87445,0.0],[113.2412,-7.86523,0.0],[113.23747,-7.86624,0.0],[113.23521,-7.86179,0.0],[113.23603,-7.85781,0.0],[113.24076,-7.85863,0.0],[113.23999,-7.85272,0.0],[113.24287,-7.85245,0.0],[113.24391,-7.84901,0.0],[113.24399,-7.84793,0.0],[113.23879,-7.84506,0.0],[113.24157,-7.84226,0.0],[113.2415,-7.83759,0.0],[113.24361,-7.83546,0.0],[113.24386,-7.82982,0.0],[113.24183,-7.82752,0.0],[113.24202,-7.82608,0.0],[113.23887,-7.82376,0.0],[113.23767,-7.82466,0.0],[113.22614,-7.8216,0.0],[113.22592,-7.81711,0.0],[113.23932,-7.81584,0.0],[113.24637,-7.81822,0.0],[113.24628,-7.82504,0.0],[113.24881,-7.82749,0.0],[113.25093,-7.8262,0.0],[113.25144,-7.81713,0.0],[113.25567,-7.81686,0.0],[113.25649,-7.81581,0.0],[113.2567,-7.82036,0.0],[113.26222,-7.82364,0.0],[113.26149,-7.83079,0.0],[113.27296,-7.83059,0.0],[113.27446,-7.82143,0.0],[113.28152,-7.81849,0.0],[113.28214,-7.81959,0.0],[113.28334,-7.82511,0.0],[113.28079,-7.83421,0.0],[113.2781,-7.83454,0.0],[113.27809,-7.83887,0.0],[113.27879,-7.84047,0.0],[113.28127,-7.84114,0.0],[113.28271,-7.84589,0.0],[113.28718,-7.85055,0.0],[113.28594,-7.85342,0.0],[113.28638,-7.85942,0.0],[113.28879,-7.86824,0.0],[113.28987,-7.8686,0.0],[113.29031,-7.87383,0.0],[113.28713,-7.88151,0.0],[113.28778,-7.88596,0.0],[113.28585,-7.89127,0.0],[113.2878,-7.90093,0.0],[113.28649,-7.91403,0.0],[113.28768,-7.91451,0.0],[113.29048,-7.92114,0.0],[113.29494,-7.9247,0.0],[113.29498,-7.92801,0.0],[113.27472,-7.92531,0.0],[113.27402,-7.91867,0.0],[113.26799,-7.91774,0.0],[113.26795,-7.90308,0.0],[113.26253,-7.89591,0.0]]]}},{"type":"Feature","properties":{"kecamatan":"Sukapura","kab_kota":"Probolinggo"},"geometry":{"type":"Polygon","coordinates":[[[112.94441,-7.97491,0.0],[112.93974,-7.97483,0.0],[112.93431,-7.97298,0.0],[112.92641,-7.96686,0.0],[112.92643,-7.96261,0.0],[112.92749,-7.96003,0.0],[112.93521,-7.95601,0.0],[112.93571,-7.95242,0.0],[112.93831,-7.94965,0.0],[112.94089,-7.94858,0.0],[112.94495,-7.94948,0.0],[112.94983,-7.94534,0.0],[112.95256,-7.94545,0.0],[112.95256,-7.92879,0.0],[112.95672,-7.91723,0.0],[112.95556,-7.91484,0.0],[112.94743,-7.90879,0.0],[112.94961,-7.90535,0.0],[112.95362,-7.90305,0.0],[112.95404,-7.90005,0.0],[112.95624,-7.89926,0.0],[112.96817,-7.90054,0.0],[112.96858,-7.89729,0.0],[112.9816,-7.89764,0.0],[112.98882,-7.90133,0.0],[112.99382,-7.90173,0.0],[112.99633,-7.90323,0.0],[112.99792,-7.9061,0.0],[113.00057,-7.90707,0.0],[113.0015,-7.9033,0.0],[113.0071,-7.89631,0.0],[113.01448,-7.89308,0.0],[113.01782,-7.88948,0.0],[113.02056,-7.88867,0.0],[113.023,-7.88536,0.0],[113.0311,-7.88311,0.0],[113.03423,-7.88006,0.0],[113.038,-7.87464,0.0],[113.04145,-7.86432,0.0],[113.03993,-7.86504,0.0],[113.03864,-7.86285,0.0],[113.03684,-7.864,0.0],[113.03558,-7.85893,0.0],[113.04011,-7.85599,0.0],[113.05085,-7.8598,0.0],[113.06168,-7.86197,0.0],[113.06933,-7.86642,0.0],[113.07496,-7.86682,0.0],[113.08347,-7.86329,0.0],[113.08444,-7.86664,0.0],[113.08937,-7.86786,0.0],[113.08954,-7.86972,0.0],[113.08765,-7.8703,0.0],[113.08797,-7.87237,0.0],[113.08593,-7.87256,0.0],[113.07414,-7.88075,0.0],[113.06919,-7.88741,0.0],[113.06995,-7.88898,0.0],[113.07744,-7.8914,0.0],[113.09079,-7.89274,0.0],[113.08927,-7.89408,0.0],[113.08859,-7.89933,0.0],[113.08668,-7.90037,0.0],[113.08335,-7.90826,0.0],[113.08299,-7.91194,0.0],[113.08088,-7.91353,0.0],[113.08078,-7.91607,0.0],[113.07582,-7.9253,0.0],[113.07638,-7.92732,0.0],[113.06907,-7.9352,0.0],[113.06612,-7.94026,0.0],[113.05645,-7.94562,0.0],[113.05591,-7.93099,0.0],[113.05466,-7.92853,0.0],[113.05167,-7.92676,0.0],[113.04674,-7.93036,0.0],[113.04466,-7.9335,0.0],[113.04149,-7.93443,0.0],[113.03835,-7.93274,0.0],[113.03568,-7.93368,0.0],[113.03239,-7.93868,0.0],[113.02194,-7.94396,0.0],[113.01459,-7.94618,0.0],[113.00432,-7.94635,0.0],[113.00205,-7.94834,0.0],[112.99536,-7.94933,0.0],[112.99553,-7.95948,0.0],[112.99284,-7.96018,0.0],[112.99233,-7.96237,0.0],[112.98416,-7.9711,0.0],[112.97927,-7.97445,0.0],[112.97598,-7.97923,0.0],[112.97245,-7.981,0.0],[112.97128,-7.98029,0.0],[112.96663,-7.98173,0.0],[112.95925,-7.98525,0.0],[112.94671,-7.9867,0.0],[112.94242,-7.98464,0.0],[112.94073,-7.98194,0.0],[112.94566,-7.97974,0.0],[112.94441,-7.97491,0.0]]]}},{"type":"Feature","properties":{"kecamatan":"Sumber","kab_kota":"Probolinggo"},"geometry":{"type":"Polygon","coordinates":[[[113.10587,-7.98432,0.0],[113.07875,-7.98416,0.0],[113.065,-7.99926,0.0],[113.0624,-8.00988,0.0],[113.05913,-8.01045,0.0],[113.0569,-8.00653,0.0],[113.05239,-8.00357,0.0],[113.05044,-7.99911,0.0],[113.04411,-7.99395,0.0],[113.04261,-7.98854,0.0],[113.03614,-7.98056,0.0],[113.03177,-7.97923,0.0],[113.02265,-7.9695,0.0],[113.01452,-7.96889,0.0],[113.00896,-7.96339,0.0],[113.00082,-7.96298,0.0],[112.99417,-7.96037,0.0],[112.99566,-7.95926,0.0],[112.99529,-7.94941,0.0],[113.00211,-7.94832,0.0],[113.00432,-7.94635,0.0],[113.01459,-7.94618,0.0],[113.02194,-7.94396,0.0],[113.03239,-7.93868,0.0],[113.03568,-7.93368,0.0],[113.03835,-7.93274,0.0],[113.04149,-7.93443,0.0],[113.04466,-7.9335,0.0],[113.04674,-7.93036,0.0],[113.05193,-7.92674,0.0],[113.05591,-7.93099,0.0],[113.05645,-7.94562,0.0],[113.06612,-7.94026,0.0],[113.06907,-7.9352,0.0],[113.07351,-7.93129,0.0],[113.07644,-7.9272,0.0],[113.07582,-7.9253,0.0],[113.07998,-7.91698,0.0],[113.08846,-7.92319,0.0],[113.09304,-7.92109,0.0],[113.09605,-7.92375,0.0],[113.0991,-7.92234,0.0],[113.10294,-7.91785,0.0],[113.10712,-7.91683,0.0],[113.1081,-7.91374,0.0],[113.11511,-7.90782,0.0],[113.11895,-7.90065,0.0],[113.12945,-7.90014,0.0],[113.1325,-7.90428,0.0],[113.13158,-7.92157,0.0],[113.14108,-7.92485,0.0],[113.14491,-7.93486,0.0],[113.14744,-7.93697,0.0],[113.15411,-7.93845,0.0],[113.15987,-7.93514,0.0],[113.16104,-7.93555,0.0],[113.16307,-7.95065,0.0],[113.16956,-7.96204,0.0],[113.16692,-7.96301,0.0],[113.16589,-7.96556,0.0],[113.1633,-7.96573,0.0],[113.16118,-7.96832,0.0],[113.15361,-7.97163,0.0],[113.15343,-7.97413,0.0],[113.14953,-7.97976,0.0],[113.13598,-7.97646,0.0],[113.13163,-7.98063,0.0],[113.12764,-7.98269,0.0],[113.12576,-7.98241,0.0],[113.12093,-7.99128,0.0],[113.11263,-7.99525,0.0],[113.10587,-7.98432,0.0]]]}},{"type":"Feature","properties":{"kecamatan":"Leces","kab_kota":"Probolinggo"},"geometry":{"type":"Polygon","coordinates":[[[113.251,-7.87331,0.0],[113.25559,-7.88259,0.0],[113.25562,-7.89579,0.0],[113.25799,-7.90241,0.0],[113.25663,-7.90692,0.0],[113.25045,-7.90645,0.0],[113.24849,-7.90774,0.0],[113.24844,-7.90652,0.0],[113.23565,-7.90351,0.0],[113.22806,-7.90271,0.0],[113.22807,-7.90399,0.0],[113.22364,-7.90201,0.0],[113.22352,-7.90301,0.0],[113.21838,-7.90278,0.0],[113.2163,-7.90131,0.0],[113.21469,-7.90189,0.0],[113.20738,-7.89988,0.0],[113.20795,-7.89331,0.0],[113.21059,-7.88919,0.0],[113.21116,-7.87928,0.0],[113.21706,-7.877,0.0],[113.21825,-7.87351,0.0],[113.22125,-7.87443,0.0],[113.22029,-7.8674,0.0],[113.22261,-7.86356,0.0],[113.22068,-7.86224,0.0],[113.19859,-7.85807,0.0],[113.19841,-7.85283,0.0],[113.20001,-7.85096,0.0],[113.20193,-7.85128,0.0],[113.20308,-7.84793,0.0],[113.20479,-7.84831,0.0],[113.20525,-7.84422,0.0],[113.20857,-7.84085,0.0],[113.20747,-7.83976,0.0],[113.20765,-7.83417,0.0],[113.21009,-7.83026,0.0],[113.2133,-7.8289,0.0],[113.21475,-7.82665,0.0],[113.21376,-7.82551,0.0],[113.21552,-7.82379,0.0],[113.21475,-7.82038,0.0],[113.21717,-7.82009,0.0],[113.21594,-7.81808,0.0],[113.21792,-7.81638,0.0],[113.21692,-7.81548,0.0],[113.21876,-7.8158,0.0],[113.21811,-7.81346,0.0],[113.22006,-7.81347,0.0],[113.21967,-7.81179,0.0],[113.22183,-7.81059,0.0],[113.22126,-7.80874,0.0],[113.22611,-7.80473,0.0],[113.22593,-7.80164,0.0],[113.23312,-7.80396,0.0],[113.23351,-7.80751,0.0],[113.23707,-7.80824,0.0],[113.23504,-7.80401,0.0],[113.23585,-7.79756,0.0],[113.23903,-7.7976,0.0],[113.2403,-7.79953,0.0],[113.23862,-7.80399,0.0],[113.24031,-7.80777,0.0],[113.23891,-7.80881,0.0],[113.23932,-7.81584,0.0],[113.22592,-7.81711,0.0],[113.22614,-7.8216,0.0],[113.23767,-7.82466,0.0],[113.23887,-7.82376,0.0],[113.24213,-7.82623,0.0],[113.24397,-7.83048,0.0],[113.24361,-7.83546,0.0],[113.24159,-7.83722,0.0],[113.24157,-7.84226,0.0],[113.23879,-7.84506,0.0],[113.24399,-7.84793,0.0],[113.24391,-7.84901,0.0],[113.24287,-7.85245,0.0],[113.23999,-7.85272,0.0],[113.24076,-7.85863,0.0],[113.23603,-7.85781,0.0],[113.23521,-7.86179,0.0],[113.23747,-7.86624,0.0],[113.2412,-7.86523,0.0],[113.251,-7.87331,0.0]]]}},{"type":"Feature","properties":{"kecamatan":"Banyuanyar","kab_kota":"Probolinggo"},"geometry":{"type":"Polygon","coordinates":[[[113.30049,-7.89347,0.0],[113.30104,-7.90075,0.0],[113.29488,-7.90257,0.0],[113.29624,-7.90767,0.0],[113.30048,-7.91013,0.0],[113.29995,-7.916,0.0],[113.30332,-7.92113,0.0],[113.30659,-7.92359,0.0],[113.30652,-7.92639,0.0],[113.29222,-7.92292,0.0],[113.28651,-7.91413,0.0],[113.2878,-7.90093,0.0],[113.28585,-7.89127,0.0],[113.28778,-7.88596,0.0],[113.28713,-7.88151,0.0],[113.2903,-7.87403,0.0],[113.28992,-7.86882,0.0],[113.28879,-7.86824,0.0],[113.28651,-7.86033,0.0],[113.28594,-7.85342,0.0],[113.28718,-7.85055,0.0],[113.28271,-7.84589,0.0],[113.28127,-7.84114,0.0],[113.27858,-7.84027,0.0],[113.2781,-7.83454,0.0],[113.28079,-7.83421,0.0],[113.28223,-7.82724,0.0],[113.28571,-7.82382,0.0],[113.2895,-7.82534,0.0],[113.29065,-7.8239,0.0],[113.29372,-7.82509,0.0],[113.29494,-7.82286,0.0],[113.30037,-7.82321,0.0],[113.3026,-7.82027,0.0],[113.30512,-7.82182,0.0],[113.30427,-7.82346,0.0],[113.31588,-7.82345,0.0],[113.31537,-7.81973,0.0],[113.31847,-7.81521,0.0],[113.31931,-7.8159,0.0],[113.32073,-7.81143,0.0],[113.32593,-7.81186,0.0],[113.32585,-7.81623,0.0],[113.3305,-7.81875,0.0],[113.33176,-7.82181,0.0],[113.32937,-7.82278,0.0],[113.32711,-7.82937,0.0],[113.32493,-7.82896,0.0],[113.32675,-7.83649,0.0],[113.33852,-7.84192,0.0],[113.34168,-7.84121,0.0],[113.34305,-7.84338,0.0],[113.34259,-7.84613,0.0],[113.33861,-7.84702,0.0],[113.33449,-7.84563,0.0],[113.332,-7.84792,0.0],[113.33152,-7.85345,0.0],[113.32905,-7.85297,0.0],[113.33123,-7.86285,0.0],[113.34172,-7.86418,0.0],[113.34337,-7.85703,0.0],[113.34597,-7.85589,0.0],[113.34674,-7.85834,0.0],[113.34227,-7.86932,0.0],[113.34175,-7.87425,0.0],[113.34337,-7.87929,0.0],[113.34908,-7.88746,0.0],[113.34834,-7.89117,0.0],[113.33972,-7.89135,0.0],[113.33661,-7.88447,0.0],[113.33633,-7.88035,0.0],[113.33331,-7.87775,0.0],[113.32284,-7.88036,0.0],[113.32352,-7.87517,0.0],[113.32138,-7.87166,0.0],[113.32127,-7.86338,0.0],[113.31519,-7.86173,0.0],[113.31285,-7.86262,0.0],[113.30928,-7.88054,0.0],[113.31013,-7.88487,0.0],[113.31547,-7.88799,0.0],[113.31565,-7.88944,0.0],[113.31345,-7.89069,0.0],[113.30496,-7.8904,0.0],[113.30049,-7.89347,0.0]]]}},{"type":"Feature","properties":{"kecamatan":"Kuripan","kab_kota":"Probolinggo"},"geometry":{"type":"Polygon","coordinates":[[[113.17931,-7.90795,0.0],[113.19421,-7.92174,0.0],[113.20064,-7.92485,0.0],[113.20265,-7.92785,0.0],[113.19852,-7.93079,0.0],[113.19711,-7.93525,0.0],[113.19467,-7.93728,0.0],[113.19035,-7.94506,0.0],[113.18751,-7.9448,0.0],[113.18686,-7.94608,0.0],[113.18514,-7.94605,0.0],[113.18562,-7.94713,0.0],[113.18194,-7.94836,0.0],[113.17554,-7.95822,0.0],[113.16956,-7.96204,0.0],[113.16307,-7.95065,0.0],[113.16104,-7.93555,0.0],[113.15987,-7.93514,0.0],[113.15411,-7.93845,0.0],[113.14744,-7.93697,0.0],[113.14491,-7.93486,0.0],[113.14108,-7.92485,0.0],[113.13158,-7.92157,0.0],[113.13256,-7.90525,0.0],[113.13081,-7.90102,0.0],[113.12893,-7.90009,0.0],[113.11907,-7.90058,0.0],[113.11511,-7.90782,0.0],[113.1081,-7.91374,0.0],[113.10712,-7.91683,0.0],[113.10294,-7.91785,0.0],[113.0991,-7.92234,0.0],[113.09605,-7.92375,0.0],[113.09304,-7.92109,0.0],[113.08846,-7.92319,0.0],[113.07998,-7.91698,0.0],[113.08088,-7.91353,0.0],[113.08307,-7.91176,0.0],[113.08668,-7.90037,0.0],[113.08868,-7.89913,0.0],[113.08927,-7.89408,0.0],[113.09079,-7.89274,0.0],[113.07744,-7.8914,0.0],[113.06907,-7.8879,0.0],[113.07414,-7.88075,0.0],[113.08593,-7.87256,0.0],[113.0878,-7.87253,0.0],[113.08779,-7.87004,0.0],[113.08954,-7.86972,0.0],[113.08937,-7.86786,0.0],[113.08431,-7.86653,0.0],[113.08347,-7.86329,0.0],[113.10041,-7.86045,0.0],[113.10327,-7.85876,0.0],[113.10824,-7.85983,0.0],[113.11382,-7.85796,0.0],[113.11613,-7.85847,0.0],[113.11897,-7.8559,0.0],[113.12412,-7.85399,0.0],[113.12537,-7.85147,0.0],[113.12847,-7.85599,0.0],[113.12883,-7.86119,0.0],[113.132,-7.86331,0.0],[113.1322,-7.86689,0.0],[113.13575,-7.867,0.0],[113.1382,-7.86475,0.0],[113.14192,-7.86817,0.0],[113.14453,-7.86744,0.0],[113.14143,-7.87429,0.0],[113.14199,-7.87735,0.0],[113.15236,-7.87948,0.0],[113.15955,-7.88739,0.0],[113.16576,-7.88825,0.0],[113.16898,-7.88658,0.0],[113.16984,-7.88299,0.0],[113.17437,-7.88077,0.0],[113.17558,-7.88125,0.0],[113.17822,-7.87916,0.0],[113.18752,-7.88274,0.0],[113.187,-7.89198,0.0],[113.18575,-7.89147,0.0],[113.18652,-7.89275,0.0],[113.18321,-7.89651,0.0],[113.17901,-7.90627,0.0],[113.17931,-7.90795,0.0]]]}},{"type":"Feature","properties":{"kecamatan":"Bantaran","kab_kota":"Probolinggo"},"geometry":{"type":"Polygon","coordinates":[[[113.21116,-7.87928,0.0],[113.21059,-7.88919,0.0],[113.20795,-7.89331,0.0],[113.20707,-7.89859,0.0],[113.20862,-7.9016,0.0],[113.20887,-7.90747,0.0],[113.21081,-7.90781,0.0],[113.21185,-7.9112,0.0],[113.21052,-7.915,0.0],[113.20751,-7.91597,0.0],[113.20604,-7.91943,0.0],[113.207,-7.92194,0.0],[113.20619,-7.92561,0.0],[113.20265,-7.92785,0.0],[113.20006,-7.92436,0.0],[113.19046,-7.91862,0.0],[113.17893,-7.90726,0.0],[113.18321,-7.89651,0.0],[113.18652,-7.89275,0.0],[113.18565,-7.89162,0.0],[113.187,-7.89198,0.0],[113.18752,-7.88274,0.0],[113.17822,-7.87916,0.0],[113.17558,-7.88125,0.0],[113.17437,-7.88077,0.0],[113.16984,-7.88299,0.0],[113.16889,-7.88667,0.0],[113.16359,-7.88872,0.0],[113.15826,-7.88664,0.0],[113.15236,-7.87948,0.0],[113.14292,-7.87795,0.0],[113.14131,-7.875,0.0],[113.14513,-7.86608,0.0],[113.14801,-7.86792,0.0],[113.15234,-7.86528,0.0],[113.15747,-7.86409,0.0],[113.16612,-7.86489,0.0],[113.16836,-7.86384,0.0],[113.16937,-7.86138,0.0],[113.17128,-7.86192,0.0],[113.16979,-7.85815,0.0],[113.17325,-7.85542,0.0],[113.17178,-7.85429,0.0],[113.17338,-7.85441,0.0],[113.17256,-7.85211,0.0],[113.17364,-7.84977,0.0],[113.17508,-7.8499,0.0],[113.17349,-7.84562,0.0],[113.17454,-7.84385,0.0],[113.17359,-7.83988,0.0],[113.17565,-7.83632,0.0],[113.17783,-7.8349,0.0],[113.1778,-7.83364,0.0],[113.17922,-7.83473,0.0],[113.18058,-7.83399,0.0],[113.18075,-7.83535,0.0],[113.18158,-7.83473,0.0],[113.18069,-7.832,0.0],[113.18228,-7.829,0.0],[113.18357,-7.82902,0.0],[113.18272,-7.82754,0.0],[113.18406,-7.82593,0.0],[113.19078,-7.82686,0.0],[113.19538,-7.82005,0.0],[113.19821,-7.82062,0.0],[113.19956,-7.81803,0.0],[113.20441,-7.81973,0.0],[113.20779,-7.8145,0.0],[113.20927,-7.8149,0.0],[113.20792,-7.81727,0.0],[113.21506,-7.81992,0.0],[113.21552,-7.82379,0.0],[113.21382,-7.82535,0.0],[113.21483,-7.8265,0.0],[113.21361,-7.82854,0.0],[113.21009,-7.83026,0.0],[113.20765,-7.83417,0.0],[113.20747,-7.83976,0.0],[113.20853,-7.84098,0.0],[113.20525,-7.84422,0.0],[113.20469,-7.84849,0.0],[113.20308,-7.84793,0.0],[113.20193,-7.85128,0.0],[113.20001,-7.85096,0.0],[113.19841,-7.85283,0.0],[113.1979,-7.856,0.0],[113.19905,-7.85696,0.0],[113.19817,-7.85763,0.0],[113.22068,-7.86224,0.0],[113.22261,-7.86356,0.0],[113.22029,-7.8674,0.0],[113.22125,-7.87443,0.0],[113.21738,-7.87393,0.0],[113.21706,-7.877,0.0],[113.21116,-7.87928,0.0]]]}}]}