{"type":"FeatureCollection","features":[{"type":"Feature","properties":{"kecamatan":"Kabuh","kab_kota":"Jombang"},"geometry":{"type":"Polygon","coordinates":[[[112.22862,-7.42096,0.0],[112.22384,-7.4176,0.0],[112.22293,-7.42387,0.0],[112.22025,-7.42312,0.0],[112.21791,-7.41993,0.0],[112.21701,-7.42186,0.0],[112.21863,-7.42655,0.0],[112.21697,-7.42678,0.0],[112.21513,-7.42992,0.0],[112.21542,-7.42634,0.0],[112.21088,-7.42428,0.0],[112.20916,-7.42582,0.0],[112.20583,-7.42445,0.0],[112.20487,-7.4235,0.0],[112.20542,-7.42163,0.0],[112.20163,-7.41994,0.0],[112.20233,-7.41833,0.0],[112.20042,-7.41629,0.0],[112.18215,-7.41462,0.0],[112.17943,-7.41606,0.0],[112.17924,-7.41437,0.0],[112.17688,-7.41328,0.0],[112.16782,-7.41908,0.0],[112.16703,-7.41831,0.0],[112.16454,-7.42089,0.0],[112.16445,-7.41937,0.0],[112.15878,-7.419,0.0],[112.1454,-7.42361,0.0],[112.14516,-7.42188,0.0],[112.14672,-7.42022,0.0],[112.1463,-7.41696,0.0],[112.14391,-7.41621,0.0],[112.14165,-7.41192,0.0],[112.13914,-7.41223,0.0],[112.13895,-7.41108,0.0],[112.14068,-7.408,0.0],[112.14564,-7.40705,0.0],[112.14507,-7.40364,0.0],[112.14046,-7.40414,0.0],[112.14429,-7.40192,0.0],[112.14123,-7.39972,0.0],[112.14301,-7.39673,0.0],[112.14154,-7.39401,0.0],[112.14309,-7.39042,0.0],[112.14155,-7.38508,0.0],[112.14287,-7.3775,0.0],[112.14155,-7.37605,0.0],[112.14241,-7.36845,0.0],[112.14383,-7.36731,0.0],[112.15297,-7.36658,0.0],[112.16381,-7.36161,0.0],[112.16402,-7.3603,0.0],[112.16969,-7.35718,0.0],[112.17908,-7.35636,0.0],[112.18712,-7.35218,0.0],[112.19043,-7.35349,0.0],[112.199,-7.35219,0.0],[112.20039,-7.35336,0.0],[112.20314,-7.35178,0.0],[112.203,-7.34998,0.0],[112.2073,-7.35075,0.0],[112.21136,-7.34857,0.0],[112.22183,-7.35113,0.0],[112.22726,-7.35043,0.0],[112.2346,-7.35298,0.0],[112.23999,-7.35542,0.0],[112.24168,-7.35803,0.0],[112.24622,-7.35967,0.0],[112.25067,-7.36329,0.0],[112.26419,-7.36197,0.0],[112.27385,-7.35765,0.0],[112.27345,-7.36028,0.0],[112.27257,-7.35992,0.0],[112.27069,-7.3637,0.0],[112.27066,-7.3682,0.0],[112.27197,-7.3687,0.0],[112.27429,-7.37557,0.0],[112.28014,-7.38476,0.0],[112.27891,-7.38812,0.0],[112.27283,-7.39354,0.0],[112.27189,-7.39619,0.0],[112.26842,-7.4226,0.0],[112.2699,-7.42317,0.0],[112.26982,-7.42726,0.0],[112.26184,-7.42542,0.0],[112.26246,-7.42201,0.0],[112.25833,-7.42155,0.0],[112.25865,-7.41618,0.0],[112.25078,-7.41422,0.0],[112.23963,-7.41431,0.0],[112.23789,-7.41571,0.0],[112.23773,-7.41916,0.0],[112.22906,-7.41874,0.0],[112.22862,-7.42096,0.0]]]}},{"type":"Feature","properties":{"kecamatan":"Kudu","kab_kota":"Jombang"},"geometry":{"type":"Polygon","coordinates":[[[112.29395,-7.43763,0.0],[112.29121,-7.4345,0.0],[112.28806,-7.43368,0.0],[112.28176,-7.43774,0.0],[112.28015,-7.43578,0.0],[112.28074,-7.43197,0.0],[112.27141,-7.43231,0.0],[112.26954,-7.42806,0.0],[112.2699,-7.42317,0.0],[112.26842,-7.42274,0.0],[112.27242,-7.39414,0.0],[112.27867,-7.38844,0.0],[112.28007,-7.38411,0.0],[112.28279,-7.38084,0.0],[112.29272,-7.38244,0.0],[112.29575,-7.387,0.0],[112.29844,-7.38791,0.0],[112.30548,-7.38641,0.0],[112.30993,-7.38832,0.0],[112.31443,-7.3867,0.0],[112.31735,-7.39,0.0],[112.31651,-7.39489,0.0],[112.31844,-7.39604,0.0],[112.31867,-7.39799,0.0],[112.3205,-7.3975,0.0],[112.32007,-7.40102,0.0],[112.31725,-7.40349,0.0],[112.31539,-7.40877,0.0],[112.31472,-7.41804,0.0],[112.31525,-7.41962,0.0],[112.32208,-7.42051,0.0],[112.32186,-7.42513,0.0],[112.32445,-7.42522,0.0],[112.32456,-7.42983,0.0],[112.32822,-7.43009,0.0],[112.32708,-7.43466,0.0],[112.32246,-7.43401,0.0],[112.31946,-7.44612,0.0],[112.30833,-7.44296,0.0],[112.30361,-7.44318,0.0],[112.29395,-7.43763,0.0]]]}},{"type":"Feature","properties":{"kecamatan":"Ploso","kab_kota":"Jombang"},"geometry":{"type":"Polygon","coordinates":[[[112.22171,-7.46472,0.0],[112.20727,-7.47103,0.0],[112.20508,-7.46901,0.0],[112.20125,-7.46169,0.0],[112.20754,-7.45279,0.0],[112.20802,-7.45176,0.0],[112.20649,-7.4504,0.0],[112.20836,-7.44731,0.0],[112.20506,-7.44548,0.0],[112.20598,-7.44201,0.0],[112.19994,-7.44066,0.0],[112.20131,-7.43774,0.0],[112.20538,-7.43425,0.0],[112.20555,-7.43206,0.0],[112.20779,-7.43388,0.0],[112.20919,-7.42728,0.0],[112.2112,-7.42961,0.0],[112.2146,-7.43032,0.0],[112.21697,-7.42678,0.0],[112.21863,-7.42655,0.0],[112.21701,-7.42186,0.0],[112.21791,-7.41993,0.0],[112.22025,-7.42312,0.0],[112.22293,-7.42387,0.0],[112.22425,-7.41717,0.0],[112.22862,-7.42096,0.0],[112.22906,-7.41874,0.0],[112.23773,-7.41916,0.0],[112.23789,-7.41571,0.0],[112.23963,-7.41431,0.0],[112.25078,-7.41422,0.0],[112.25853,-7.41607,0.0],[112.25841,-7.42178,0.0],[112.26246,-7.42201,0.0],[112.26184,-7.42542,0.0],[112.26971,-7.4273,0.0],[112.27141,-7.43231,0.0],[112.28074,-7.43197,0.0],[112.28015,-7.43578,0.0],[112.28175,-7.43775,0.0],[112.26171,-7.4466,0.0],[112.25291,-7.4453,0.0],[112.24927,-7.45187,0.0],[112.2452,-7.45512,0.0],[112.24077,-7.45503,0.0],[112.23671,-7.45263,0.0],[112.23392,-7.45278,0.0],[112.23148,-7.45635,0.0],[112.22171,-7.46472,0.0]]]}},{"type":"Feature","properties":{"kecamatan":"Plandaan","kab_kota":"Jombang"},"geometry":{"type":"Polygon","coordinates":[[[112.18202,-7.48722,0.0],[112.17865,-7.48705,0.0],[112.16892,-7.49067,0.0],[112.16784,-7.4883,0.0],[112.16435,-7.48986,0.0],[112.16601,-7.48545,0.0],[112.1639,-7.48446,0.0],[112.16505,-7.48209,0.0],[112.1643,-7.47854,0.0],[112.16229,-7.47739,0.0],[112.16241,-7.47991,0.0],[112.15936,-7.47919,0.0],[112.16074,-7.47725,0.0],[112.15783,-7.47658,0.0],[112.15907,-7.47649,0.0],[112.15843,-7.47503,0.0],[112.15978,-7.47423,0.0],[112.15713,-7.47192,0.0],[112.15923,-7.47067,0.0],[112.15603,-7.46776,0.0],[112.15703,-7.46581,0.0],[112.15479,-7.46482,0.0],[112.15485,-7.46325,0.0],[112.15298,-7.46385,0.0],[112.15359,-7.46469,0.0],[112.15224,-7.46602,0.0],[112.15092,-7.46205,0.0],[112.1435,-7.46153,0.0],[112.14268,-7.46007,0.0],[112.14127,-7.46133,0.0],[112.13991,-7.45891,0.0],[112.13841,-7.46063,0.0],[112.1344,-7.46082,0.0],[112.13393,-7.4588,0.0],[112.12794,-7.45798,0.0],[112.12762,-7.45326,0.0],[112.12519,-7.45207,0.0],[112.12344,-7.45487,0.0],[112.1242,-7.45852,0.0],[112.1225,-7.4594,0.0],[112.12357,-7.46243,0.0],[112.12001,-7.46201,0.0],[112.11662,-7.45934,0.0],[112.11433,-7.46389,0.0],[112.11256,-7.46255,0.0],[112.11241,-7.46518,0.0],[112.1105,-7.46215,0.0],[112.10658,-7.46242,0.0],[112.10448,-7.45983,0.0],[112.10385,-7.46323,0.0],[112.10175,-7.46225,0.0],[112.10058,-7.46323,0.0],[112.09985,-7.46122,0.0],[112.09813,-7.46098,0.0],[112.09828,-7.46401,0.0],[112.09512,-7.46547,0.0],[112.093,-7.46507,0.0],[112.09464,-7.46736,0.0],[112.09359,-7.46925,0.0],[112.09109,-7.46867,0.0],[112.09155,-7.47036,0.0],[112.08663,-7.47078,0.0],[112.08685,-7.4726,0.0],[112.08356,-7.47468,0.0],[112.07948,-7.47359,0.0],[112.07879,-7.46288,0.0],[112.07616,-7.46011,0.0],[112.08089,-7.45221,0.0],[112.0777,-7.44906,0.0],[112.0785,-7.44777,0.0],[112.07727,-7.44644,0.0],[112.07741,-7.44356,0.0],[112.07315,-7.44122,0.0],[112.074,-7.43642,0.0],[112.06827,-7.43566,0.0],[112.06921,-7.43099,0.0],[112.06777,-7.42653,0.0],[112.06529,-7.42558,0.0],[112.06334,-7.42155,0.0],[112.06263,-7.41733,0.0],[112.07159,-7.4062,0.0],[112.07079,-7.40383,0.0],[112.06874,-7.40322,0.0],[112.07019,-7.40056,0.0],[112.07233,-7.39957,0.0],[112.06922,-7.39716,0.0],[112.07128,-7.39135,0.0],[112.0754,-7.38792,0.0],[112.07561,-7.38395,0.0],[112.08015,-7.38398,0.0],[112.08203,-7.38254,0.0],[112.08613,-7.38442,0.0],[112.08658,-7.38235,0.0],[112.08962,-7.38159,0.0],[112.0916,-7.38371,0.0],[112.09714,-7.38482,0.0],[112.10155,-7.38464,0.0],[112.1025,-7.38317,0.0],[112.10645,-7.38382,0.0],[112.10698,-7.38143,0.0],[112.11063,-7.382,0.0],[112.1112,-7.38052,0.0],[112.11826,-7.37745,0.0],[112.12302,-7.37348,0.0],[112.13349,-7.37108,0.0],[112.13776,-7.36793,0.0],[112.14383,-7.36731,0.0],[112.14241,-7.36845,0.0],[112.14182,-7.37225,0.0],[112.14155,-7.37605,0.0],[112.14287,-7.3775,0.0],[112.14155,-7.38508,0.0],[112.14309,-7.39042,0.0],[112.14154,-7.39401,0.0],[112.14301,-7.39673,0.0],[112.14123,-7.39972,0.0],[112.14429,-7.40192,0.0],[112.14046,-7.40414,0.0],[112.14507,-7.40364,0.0],[112.14562,-7.40724,0.0],[112.14068,-7.408,0.0],[112.13895,-7.41108,0.0],[112.13914,-7.41223,0.0],[112.14165,-7.41192,0.0],[112.14391,-7.41621,0.0],[112.1463,-7.41696,0.0],[112.14672,-7.42022,0.0],[112.14516,-7.42188,0.0],[112.1454,-7.42361,0.0],[112.15878,-7.419,0.0],[112.16445,-7.41937,0.0],[112.16454,-7.42089,0.0],[112.16703,-7.41831,0.0],[112.16782,-7.41908,0.0],[112.17688,-7.41328,0.0],[112.17924,-7.41437,0.0],[112.17943,-7.41606,0.0],[112.18215,-7.41462,0.0],[112.20039,-7.41627,0.0],[112.20233,-7.41833,0.0],[112.20163,-7.41994,0.0],[112.20542,-7.42163,0.0],[112.20487,-7.4235,0.0],[112.20583,-7.42445,0.0],[112.20916,-7.42582,0.0],[112.21088,-7.42428,0.0],[112.21542,-7.42634,0.0],[112.2146,-7.43032,0.0],[112.2112,-7.42961,0.0],[112.20919,-7.42728,0.0],[112.20779,-7.43388,0.0],[112.20555,-7.43206,0.0],[112.20538,-7.43425,0.0],[112.20009,-7.43935,0.0],[112.19997,-7.44072,0.0],[112.20194,-7.4417,0.0],[112.20598,-7.44201,0.0],[112.20506,-7.44548,0.0],[112.20836,-7.44731,0.0],[112.20649,-7.4504,0.0],[112.20802,-7.45176,0.0],[112.20754,-7.45279,0.0],[112.20127,-7.4616,0.0],[112.20727,-7.47103,0.0],[112.20419,-7.47429,0.0],[112.20171,-7.48127,0.0],[112.19057,-7.49161,0.0],[112.18875,-7.49166,0.0],[112.18202,-7.48722,0.0]]]}},{"type":"Feature","properties":{"kecamatan":"Bandarkedungmulyo","kab_kota":"Jombang"},"geometry":{"type":"Polygon","coordinates":[[[112.14839,-7.61115,0.0],[112.13973,-7.60971,0.0],[112.13918,-7.61163,0.0],[112.13592,-7.61091,0.0],[112.12734,-7.60675,0.0],[112.1215,-7.60674,0.0],[112.11661,-7.60372,0.0],[112.11703,-7.6024,0.0],[112.11048,-7.59315,0.0],[112.1134,-7.58936,0.0],[112.11522,-7.57958,0.0],[112.11134,-7.56669,0.0],[112.11433,-7.56374,0.0],[112.11931,-7.55302,0.0],[112.12681,-7.54722,0.0],[112.13173,-7.54115,0.0],[112.1349,-7.53471,0.0],[112.13801,-7.53403,0.0],[112.14029,-7.53536,0.0],[112.14421,-7.53535,0.0],[112.15121,-7.52821,0.0],[112.15883,-7.52603,0.0],[112.16902,-7.52513,0.0],[112.1735,-7.5284,0.0],[112.17533,-7.5318,0.0],[112.17338,-7.54083,0.0],[112.16764,-7.54958,0.0],[112.1713,-7.55107,0.0],[112.17164,-7.5525,0.0],[112.16769,-7.55833,0.0],[112.16711,-7.56361,0.0],[112.16382,-7.56353,0.0],[112.16425,-7.5606,0.0],[112.16245,-7.56006,0.0],[112.16313,-7.55731,0.0],[112.15691,-7.5565,0.0],[112.15326,-7.56358,0.0],[112.14648,-7.56165,0.0],[112.14509,-7.56148,0.0],[112.14345,-7.56834,0.0],[112.14346,-7.5726,0.0],[112.14637,-7.57442,0.0],[112.14501,-7.57732,0.0],[112.14411,-7.57709,0.0],[112.14254,-7.58212,0.0],[112.14666,-7.58303,0.0],[112.14485,-7.58944,0.0],[112.14614,-7.59091,0.0],[112.14676,-7.59619,0.0],[112.15779,-7.60134,0.0],[112.15662,-7.60459,0.0],[112.15366,-7.6033,0.0],[112.15342,-7.60742,0.0],[112.15184,-7.61025,0.0],[112.14839,-7.61115,0.0]]]}},{"type":"Feature","properties":{"kecamatan":"Jogoroto","kab_kota":"Jombang"},"geometry":{"type":"Polygon","coordinates":[[[112.28104,-7.60381,0.0],[112.27768,-7.60855,0.0],[112.2774,-7.61203,0.0],[112.26836,-7.61031,0.0],[112.269,-7.60391,0.0],[112.26409,-7.60314,0.0],[112.2649,-7.59788,0.0],[112.26619,-7.59648,0.0],[112.26538,-7.59083,0.0],[112.26618,-7.58826,0.0],[112.26821,-7.58797,0.0],[112.26456,-7.58081,0.0],[112.26096,-7.57917,0.0],[112.26234,-7.57429,0.0],[112.25991,-7.57348,0.0],[112.2598,-7.57169,0.0],[112.25102,-7.56955,0.0],[112.24804,-7.5711,0.0],[112.2477,-7.56871,0.0],[112.24997,-7.56383,0.0],[112.24606,-7.56074,0.0],[112.247,-7.55854,0.0],[112.24495,-7.55695,0.0],[112.24812,-7.55409,0.0],[112.25013,-7.54814,0.0],[112.26258,-7.55164,0.0],[112.26536,-7.54626,0.0],[112.27131,-7.54903,0.0],[112.27204,-7.54751,0.0],[112.27419,-7.5473,0.0],[112.27528,-7.54499,0.0],[112.27743,-7.5452,0.0],[112.28334,-7.5482,0.0],[112.28493,-7.54374,0.0],[112.30568,-7.55579,0.0],[112.30436,-7.5585,0.0],[112.3065,-7.55925,0.0],[112.30771,-7.55686,0.0],[112.31051,-7.55818,0.0],[112.31034,-7.56461,0.0],[112.30798,-7.56704,0.0],[112.30387,-7.56574,0.0],[112.3003,-7.57365,0.0],[112.30507,-7.57451,0.0],[112.30502,-7.57597,0.0],[112.30894,-7.57729,0.0],[112.30769,-7.58213,0.0],[112.30398,-7.58107,0.0],[112.30108,-7.58631,0.0],[112.28449,-7.58339,0.0],[112.28422,-7.58455,0.0],[112.2898,-7.58959,0.0],[112.28771,-7.59548,0.0],[112.29111,-7.59703,0.0],[112.29032,-7.59886,0.0],[112.29121,-7.59967,0.0],[112.2908,-7.60091,0.0],[112.2892,-7.59934,0.0],[112.28514,-7.5985,0.0],[112.28415,-7.60279,0.0],[112.28104,-7.60381,0.0]]]}},{"type":"Feature","properties":{"kecamatan":"Kesamben","kab_kota":"Jombang"},"geometry":{"type":"Polygon","coordinates":[[[112.32363,-7.49407,0.0],[112.32316,-7.49539,0.0],[112.3198,-7.49454,0.0],[112.31895,-7.49317,0.0],[112.31756,-7.49467,0.0],[112.3157,-7.49399,0.0],[112.31448,-7.49582,0.0],[112.31168,-7.49359,0.0],[112.31118,-7.49075,0.0],[112.30951,-7.49048,0.0],[112.30982,-7.48867,0.0],[112.30677,-7.48827,0.0],[112.30523,-7.48639,0.0],[112.30388,-7.48865,0.0],[112.30189,-7.48786,0.0],[112.30147,-7.49049,0.0],[112.29656,-7.4901,0.0],[112.29534,-7.49145,0.0],[112.29273,-7.49111,0.0],[112.29241,-7.48997,0.0],[112.29108,-7.49256,0.0],[112.28705,-7.49152,0.0],[112.28832,-7.48812,0.0],[112.28531,-7.48731,0.0],[112.28612,-7.47781,0.0],[112.28817,-7.47399,0.0],[112.27975,-7.47131,0.0],[112.28188,-7.45788,0.0],[112.28004,-7.45745,0.0],[112.27932,-7.45904,0.0],[112.27702,-7.45681,0.0],[112.27724,-7.45544,0.0],[112.27006,-7.45534,0.0],[112.27412,-7.44079,0.0],[112.28923,-7.43375,0.0],[112.3,-7.44185,0.0],[112.30361,-7.44318,0.0],[112.30833,-7.44296,0.0],[112.31458,-7.44552,0.0],[112.31946,-7.44612,0.0],[112.31974,-7.44526,0.0],[112.32287,-7.44843,0.0],[112.32384,-7.45549,0.0],[112.32549,-7.45786,0.0],[112.33267,-7.45399,0.0],[112.34137,-7.45978,0.0],[112.35117,-7.45486,0.0],[112.35775,-7.45724,0.0],[112.36947,-7.45649,0.0],[112.38125,-7.4589,0.0],[112.39827,-7.4576,0.0],[112.40147,-7.4581,0.0],[112.40221,-7.4602,0.0],[112.40489,-7.46132,0.0],[112.40293,-7.46261,0.0],[112.40326,-7.46699,0.0],[112.39967,-7.46483,0.0],[112.39296,-7.46701,0.0],[112.3903,-7.47011,0.0],[112.39096,-7.47279,0.0],[112.38892,-7.48097,0.0],[112.38446,-7.47897,0.0],[112.38192,-7.48012,0.0],[112.37866,-7.48311,0.0],[112.3762,-7.48363,0.0],[112.3757,-7.48701,0.0],[112.37063,-7.49006,0.0],[112.36798,-7.49045,0.0],[112.36227,-7.48859,0.0],[112.3596,-7.48362,0.0],[112.35755,-7.48434,0.0],[112.35527,-7.48271,0.0],[112.35398,-7.48373,0.0],[112.35381,-7.48799,0.0],[112.3486,-7.48753,0.0],[112.34773,-7.49658,0.0],[112.34976,-7.50042,0.0],[112.34843,-7.50354,0.0],[112.34695,-7.50361,0.0],[112.3472,-7.50252,0.0],[112.34497,-7.50197,0.0],[112.344,-7.50034,0.0],[112.3417,-7.50013,0.0],[112.34196,-7.50205,0.0],[112.33332,-7.50209,0.0],[112.33066,-7.5005,0.0],[112.33245,-7.4994,0.0],[112.32679,-7.49791,0.0],[112.32687,-7.49483,0.0],[112.32363,-7.49407,0.0]]]}},{"type":"Feature","properties":{"kecamatan":"Tembelang","kab_kota":"Jombang"},"geometry":{"type":"Polygon","coordinates":[[[112.2419,-7.51258,0.0],[112.23492,-7.51093,0.0],[112.23324,-7.51589,0.0],[112.23146,-7.51665,0.0],[112.22009,-7.51417,0.0],[112.21817,-7.51143,0.0],[112.2242,-7.49806,0.0],[112.22736,-7.49478,0.0],[112.22456,-7.49204,0.0],[112.22447,-7.48932,0.0],[112.22724,-7.48823,0.0],[112.22641,-7.4837,0.0],[112.22769,-7.48102,0.0],[112.22653,-7.48067,0.0],[112.22861,-7.47395,0.0],[112.2312,-7.474,0.0],[112.22752,-7.46538,0.0],[112.2229,-7.46356,0.0],[112.23148,-7.45635,0.0],[112.23392,-7.45278,0.0],[112.23671,-7.45263,0.0],[112.24077,-7.45503,0.0],[112.2452,-7.45512,0.0],[112.24927,-7.45187,0.0],[112.25291,-7.4453,0.0],[112.26132,-7.44669,0.0],[112.27412,-7.44079,0.0],[112.27006,-7.45534,0.0],[112.27724,-7.45544,0.0],[112.27702,-7.45681,0.0],[112.27932,-7.45904,0.0],[112.28004,-7.45745,0.0],[112.28188,-7.45788,0.0],[112.27975,-7.47131,0.0],[112.28817,-7.47399,0.0],[112.28716,-7.47711,0.0],[112.27703,-7.47762,0.0],[112.27738,-7.47885,0.0],[112.2757,-7.479,0.0],[112.27597,-7.48018,0.0],[112.27336,-7.48018,0.0],[112.27251,-7.47896,0.0],[112.27056,-7.48697,0.0],[112.26775,-7.48751,0.0],[112.26598,-7.48957,0.0],[112.26617,-7.49379,0.0],[112.26394,-7.49797,0.0],[112.26273,-7.49751,0.0],[112.26202,-7.49888,0.0],[112.25998,-7.49819,0.0],[112.2592,-7.50364,0.0],[112.25722,-7.50261,0.0],[112.25395,-7.5045,0.0],[112.25118,-7.50767,0.0],[112.2513,-7.51132,0.0],[112.24305,-7.51216,0.0],[112.2418,-7.51518,0.0],[112.2419,-7.51258,0.0]]]}},{"type":"Feature","properties":{"kecamatan":"Peterongan","kab_kota":"Jombang"},"geometry":{"type":"Polygon","coordinates":[[[112.27186,-7.54767,0.0],[112.27111,-7.54901,0.0],[112.26536,-7.54626,0.0],[112.26258,-7.55164,0.0],[112.25307,-7.54878,0.0],[112.25354,-7.5465,0.0],[112.252,-7.54605,0.0],[112.25377,-7.53769,0.0],[112.2507,-7.53795,0.0],[112.25157,-7.53517,0.0],[112.25045,-7.53405,0.0],[112.25119,-7.53265,0.0],[112.25322,-7.53312,0.0],[112.25406,-7.52973,0.0],[112.2531,-7.52955,0.0],[112.25633,-7.51723,0.0],[112.25243,-7.51585,0.0],[112.25357,-7.51381,0.0],[112.25138,-7.51169,0.0],[112.25097,-7.5085,0.0],[112.25632,-7.50286,0.0],[112.2592,-7.50364,0.0],[112.25998,-7.49819,0.0],[112.26202,-7.49888,0.0],[112.26273,-7.49751,0.0],[112.26394,-7.49797,0.0],[112.26617,-7.49379,0.0],[112.26598,-7.48957,0.0],[112.26775,-7.48751,0.0],[112.27056,-7.48697,0.0],[112.27251,-7.47896,0.0],[112.27336,-7.48018,0.0],[112.27597,-7.48018,0.0],[112.2757,-7.479,0.0],[112.27738,-7.47885,0.0],[112.27703,-7.47762,0.0],[112.27995,-7.47823,0.0],[112.28537,-7.47663,0.0],[112.28617,-7.47791,0.0],[112.28531,-7.48731,0.0],[112.28832,-7.48812,0.0],[112.28705,-7.49152,0.0],[112.29108,-7.49256,0.0],[112.29241,-7.48997,0.0],[112.29273,-7.49111,0.0],[112.29534,-7.49145,0.0],[112.29656,-7.4901,0.0],[112.30147,-7.49049,0.0],[112.30189,-7.48786,0.0],[112.30388,-7.48865,0.0],[112.30513,-7.4864,0.0],[112.30704,-7.48832,0.0],[112.30409,-7.50319,0.0],[112.30479,-7.50624,0.0],[112.30132,-7.5068,0.0],[112.29742,-7.51817,0.0],[112.29379,-7.51752,0.0],[112.29279,-7.52506,0.0],[112.29574,-7.52681,0.0],[112.29366,-7.53205,0.0],[112.28499,-7.52913,0.0],[112.2833,-7.53512,0.0],[112.2814,-7.53594,0.0],[112.28035,-7.53871,0.0],[112.28289,-7.54032,0.0],[112.28648,-7.53903,0.0],[112.28334,-7.5482,0.0],[112.27528,-7.54499,0.0],[112.27377,-7.54766,0.0],[112.27186,-7.54767,0.0]],[[112.30565,-7.49149,0.0],[112.30598,-7.49187,0.0],[112.30599,-7.49149,0.0],[112.30565,-7.49149,0.0]]]}},{"type":"Feature","properties":{"kecamatan":"Sumobito","kab_kota":"Jombang"},"geometry":{"type":"MultiPolygon","coordinates":[[[[112.32157,-7.56074,0.0],[112.31929,-7.56203,0.0],[112.3181,-7.56131,0.0],[112.31904,-7.56037,0.0],[112.31569,-7.55813,0.0],[112.31297,-7.56163,0.0],[112.30998,-7.56122,0.0],[112.31051,-7.55818,0.0],[112.30771,-7.55686,0.0],[112.3065,-7.55925,0.0],[112.30436,-7.5585,0.0],[112.30568,-7.55579,0.0],[112.28493,-7.54374,0.0],[112.28648,-7.53903,0.0],[112.28289,-7.54032,0.0],[112.28035,-7.53871,0.0],[112.2814,-7.53594,0.0],[112.2833,-7.53512,0.0],[112.28499,-7.52913,0.0],[112.29366,-7.53205,0.0],[112.29574,-7.52681,0.0],[112.29279,-7.52506,0.0],[112.29379,-7.51752,0.0],[112.29742,-7.51817,0.0],[112.30132,-7.5068,0.0],[112.3047,-7.50657,0.0],[112.30409,-7.50319,0.0],[112.30698,-7.48836,0.0],[112.30982,-7.48867,0.0],[112.30951,-7.49048,0.0],[112.31118,-7.49075,0.0],[112.31168,-7.49359,0.0],[112.31448,-7.49582,0.0],[112.3157,-7.49399,0.0],[112.31756,-7.49467,0.0],[112.31895,-7.49317,0.0],[112.3198,-7.49454,0.0],[112.32316,-7.49539,0.0],[112.32341,-7.49382,0.0],[112.32475,-7.49365,0.0],[112.32687,-7.49483,0.0],[112.32679,-7.49791,0.0],[112.33245,-7.4994,0.0],[112.33066,-7.5005,0.0],[112.33332,-7.50209,0.0],[112.34196,-7.50205,0.0],[112.3417,-7.50013,0.0],[112.344,-7.50034,0.0],[112.34497,-7.50197,0.0],[112.3472,-7.50252,0.0],[112.34695,-7.50361,0.0],[112.34843,-7.50354,0.0],[112.34976,-7.50042,0.0],[112.34773,-7.49658,0.0],[112.3486,-7.48753,0.0],[112.35381,-7.48799,0.0],[112.35461,-7.48306,0.0],[112.3578,-7.48439,0.0],[112.35943,-7.48349,0.0],[112.36147,-7.48544,0.0],[112.3616,-7.48822,0.0],[112.36798,-7.49045,0.0],[112.37063,-7.49006,0.0],[112.37428,-7.4872,0.0],[112.37483,-7.49382,0.0],[112.37636,-7.49426,0.0],[112.37675,-7.49725,0.0],[112.37493,-7.50847,0.0],[112.37617,-7.50874,0.0],[112.37623,-7.51147,0.0],[112.37807,-7.51172,0.0],[112.37523,-7.51186,0.0],[112.37393,-7.52552,0.0],[112.37099,-7.51507,0.0],[112.3679,-7.51555,0.0],[112.36599,-7.52398,0.0],[112.36286,-7.52377,0.0],[112.36095,-7.51858,0.0],[112.35865,-7.51884,0.0],[112.35839,-7.51751,0.0],[112.3567,-7.51729,0.0],[112.35476,-7.51812,0.0],[112.35199,-7.52508,0.0],[112.34827,-7.52525,0.0],[112.34733,-7.52694,0.0],[112.34466,-7.52665,0.0],[112.34686,-7.53643,0.0],[112.34514,-7.53762,0.0],[112.34703,-7.53745,0.0],[112.34725,-7.53879,0.0],[112.3446,-7.53873,0.0],[112.34485,-7.54152,0.0],[112.34742,-7.54183,0.0],[112.34748,-7.54327,0.0],[112.3418,-7.54273,0.0],[112.34138,-7.54484,0.0],[112.33827,-7.54502,0.0],[112.33697,-7.55008,0.0],[112.33791,-7.55532,0.0],[112.33328,-7.55341,0.0],[112.32959,-7.56407,0.0],[112.32634,-7.56427,0.0],[112.32512,-7.56183,0.0],[112.32157,-7.56074,0.0]]],[[[112.30598,-7.49187,0.0],[112.30565,-7.49149,0.0],[112.30599,-7.49149,0.0],[112.30598,-7.49187,0.0]]]]}},{"type":"Feature","properties":{"kecamatan":"Megaluh","kab_kota":"Jombang"},"geometry":{"type":"Polygon","coordinates":[[[112.18613,-7.51499,0.0],[112.1882,-7.51562,0.0],[112.18661,-7.52209,0.0],[112.18372,-7.52941,0.0],[112.18262,-7.52917,0.0],[112.18172,-7.53118,0.0],[112.17488,-7.53036,0.0],[112.16888,-7.52509,0.0],[112.15883,-7.52603,0.0],[112.15121,-7.52821,0.0],[112.15279,-7.51356,0.0],[112.15209,-7.50611,0.0],[112.15602,-7.50268,0.0],[112.15911,-7.50187,0.0],[112.15842,-7.49997,0.0],[112.16622,-7.49564,0.0],[112.16892,-7.49067,0.0],[112.18059,-7.48695,0.0],[112.18875,-7.49166,0.0],[112.19057,-7.49161,0.0],[112.20171,-7.48127,0.0],[112.20419,-7.47429,0.0],[112.20747,-7.47087,0.0],[112.2229,-7.46356,0.0],[112.22752,-7.46538,0.0],[112.2312,-7.474,0.0],[112.22861,-7.47395,0.0],[112.22653,-7.48067,0.0],[112.22769,-7.48102,0.0],[112.22641,-7.4837,0.0],[112.22724,-7.48823,0.0],[112.22447,-7.48932,0.0],[112.22456,-7.49204,0.0],[112.22586,-7.49229,0.0],[112.22585,-7.49428,0.0],[112.22742,-7.49451,0.0],[112.2242,-7.49806,0.0],[112.21817,-7.51143,0.0],[112.2099,-7.50744,0.0],[112.20576,-7.50942,0.0],[112.20444,-7.51225,0.0],[112.2026,-7.51119,0.0],[112.19918,-7.51174,0.0],[112.19812,-7.50849,0.0],[112.19447,-7.50799,0.0],[112.19246,-7.51189,0.0],[112.18705,-7.5121,0.0],[112.18613,-7.51499,0.0]]]}},{"type":"Feature","properties":{"kecamatan":"Ngusikan","kab_kota":"Jombang"},"geometry":{"type":"Polygon","coordinates":[[[112.31959,-7.44573,0.0],[112.32246,-7.43401,0.0],[112.32708,-7.43466,0.0],[112.32822,-7.43009,0.0],[112.32456,-7.42983,0.0],[112.32445,-7.42522,0.0],[112.32186,-7.42513,0.0],[112.32208,-7.42051,0.0],[112.31525,-7.41962,0.0],[112.31472,-7.41804,0.0],[112.31543,-7.40863,0.0],[112.31681,-7.40424,0.0],[112.32049,-7.39953,0.0],[112.32047,-7.39742,0.0],[112.31867,-7.39799,0.0],[112.31844,-7.39604,0.0],[112.31642,-7.39466,0.0],[112.31735,-7.39,0.0],[112.3142,-7.38662,0.0],[112.30993,-7.38832,0.0],[112.30548,-7.38641,0.0],[112.29837,-7.3879,0.0],[112.29575,-7.387,0.0],[112.29287,-7.38253,0.0],[112.28821,-7.38142,0.0],[112.28277,-7.38084,0.0],[112.28007,-7.38411,0.0],[112.27429,-7.37557,0.0],[112.27197,-7.3687,0.0],[112.27066,-7.3682,0.0],[112.27049,-7.3645,0.0],[112.27257,-7.35992,0.0],[112.27345,-7.36028,0.0],[112.27389,-7.35774,0.0],[112.27298,-7.35744,0.0],[112.27411,-7.35704,0.0],[112.29483,-7.35951,0.0],[112.29625,-7.36112,0.0],[112.29303,-7.36239,0.0],[112.29202,-7.36424,0.0],[112.29336,-7.3647,0.0],[112.29465,-7.36311,0.0],[112.29788,-7.36263,0.0],[112.29989,-7.36085,0.0],[112.30011,-7.35821,0.0],[112.30227,-7.35711,0.0],[112.30565,-7.35784,0.0],[112.30632,-7.36448,0.0],[112.31405,-7.36504,0.0],[112.31278,-7.36471,0.0],[112.31496,-7.36176,0.0],[112.31352,-7.35894,0.0],[112.3085,-7.35879,0.0],[112.30627,-7.35652,0.0],[112.30778,-7.35184,0.0],[112.31681,-7.34962,0.0],[112.32494,-7.34494,0.0],[112.3289,-7.34398,0.0],[112.33314,-7.34381,0.0],[112.33482,-7.34558,0.0],[112.33953,-7.34595,0.0],[112.34422,-7.34464,0.0],[112.3458,-7.34506,0.0],[112.34216,-7.35495,0.0],[112.33549,-7.36359,0.0],[112.33463,-7.36847,0.0],[112.33567,-7.36974,0.0],[112.33219,-7.3708,0.0],[112.33305,-7.37763,0.0],[112.3319,-7.38,0.0],[112.33407,-7.38882,0.0],[112.33515,-7.38914,0.0],[112.33651,-7.38729,0.0],[112.34062,-7.38816,0.0],[112.34615,-7.39505,0.0],[112.34842,-7.39995,0.0],[112.34806,-7.40357,0.0],[112.34903,-7.40391,0.0],[112.34785,-7.40625,0.0],[112.34622,-7.4062,0.0],[112.34592,-7.40994,0.0],[112.35215,-7.41171,0.0],[112.35289,-7.41354,0.0],[112.35196,-7.41602,0.0],[112.34986,-7.41554,0.0],[112.34921,-7.41858,0.0],[112.34631,-7.4178,0.0],[112.34129,-7.43225,0.0],[112.34209,-7.43296,0.0],[112.34123,-7.43729,0.0],[112.34583,-7.43946,0.0],[112.34593,-7.4416,0.0],[112.34059,-7.4407,0.0],[112.33783,-7.44741,0.0],[112.33421,-7.44701,0.0],[112.33267,-7.45399,0.0],[112.32667,-7.45793,0.0],[112.3241,-7.45624,0.0],[112.32278,-7.44825,0.0],[112.31959,-7.44573,0.0]],[[112.32852,-7.34686,0.0],[112.33036,-7.34793,0.0],[112.32952,-7.34872,0.0],[112.33063,-7.35079,0.0],[112.33212,-7.35024,0.0],[112.33258,-7.34812,0.0],[112.33031,-7.34709,0.0],[112.33113,-7.34616,0.0],[112.32891,-7.34591,0.0],[112.32852,-7.34686,0.0]]]}},{"type":"Feature","properties":{"kecamatan":"Wonosalam","kab_kota":"Jombang"},"geometry":{"type":"Polygon","coordinates":[[[112.45559,-7.77921,0.0],[112.44248,-7.77621,0.0],[112.44012,-7.77381,0.0],[112.43828,-7.76698,0.0],[112.43629,-7.76536,0.0],[112.43302,-7.76936,0.0],[112.43021,-7.77079,0.0],[112.42706,-7.77007,0.0],[112.41805,-7.76422,0.0],[112.4166,-7.76441,0.0],[112.40861,-7.77339,0.0],[112.39726,-7.77607,0.0],[112.39348,-7.77335,0.0],[112.38811,-7.7724,0.0],[112.38462,-7.76876,0.0],[112.37528,-7.76397,0.0],[112.36536,-7.76081,0.0],[112.3612,-7.76116,0.0],[112.355,-7.75363,0.0],[112.34877,-7.74888,0.0],[112.34152,-7.74796,0.0],[112.33331,-7.74137,0.0],[112.33734,-7.7307,0.0],[112.33502,-7.72625,0.0],[112.33486,-7.72224,0.0],[112.32747,-7.70997,0.0],[112.32708,-7.69829,0.0],[112.33246,-7.69855,0.0],[112.33814,-7.70249,0.0],[112.35274,-7.70342,0.0],[112.3556,-7.70183,0.0],[112.3533,-7.69491,0.0],[112.34951,-7.69148,0.0],[112.35046,-7.68775,0.0],[112.34958,-7.68712,0.0],[112.35132,-7.68654,0.0],[112.35242,-7.683,0.0],[112.35032,-7.68027,0.0],[112.35166,-7.67789,0.0],[112.35006,-7.67673,0.0],[112.35017,-7.67499,0.0],[112.34785,-7.67633,0.0],[112.34649,-7.67382,0.0],[112.34925,-7.67238,0.0],[112.34802,-7.67106,0.0],[112.34892,-7.66892,0.0],[112.34728,-7.6669,0.0],[112.35178,-7.6634,0.0],[112.35367,-7.65849,0.0],[112.34772,-7.64209,0.0],[112.34747,-7.63621,0.0],[112.35033,-7.63662,0.0],[112.35512,-7.64119,0.0],[112.35688,-7.63928,0.0],[112.36137,-7.64076,0.0],[112.36341,-7.63847,0.0],[112.36376,-7.64174,0.0],[112.36556,-7.6431,0.0],[112.36611,-7.64215,0.0],[112.36687,-7.64389,0.0],[112.37179,-7.64124,0.0],[112.37248,-7.63912,0.0],[112.38197,-7.64043,0.0],[112.38422,-7.64453,0.0],[112.38796,-7.64444,0.0],[112.38967,-7.65075,0.0],[112.40276,-7.64195,0.0],[112.40943,-7.64408,0.0],[112.41212,-7.65818,0.0],[112.41088,-7.66352,0.0],[112.41206,-7.66578,0.0],[112.41168,-7.67354,0.0],[112.41554,-7.68027,0.0],[112.42177,-7.68528,0.0],[112.42402,-7.69196,0.0],[112.4304,-7.70005,0.0],[112.4328,-7.70684,0.0],[112.433,-7.71417,0.0],[112.43859,-7.73287,0.0],[112.44268,-7.73572,0.0],[112.44812,-7.74302,0.0],[112.44623,-7.74495,0.0],[112.44835,-7.75135,0.0],[112.44679,-7.75912,0.0],[112.44778,-7.76477,0.0],[112.4509,-7.76727,0.0],[112.45003,-7.77052,0.0],[112.4516,-7.77185,0.0],[112.45143,-7.77513,0.0],[112.45559,-7.77921,0.0]]]}},{"type":"Feature","properties":{"kecamatan":"Mojoagung","kab_kota":"Jombang"},"geometry":{"type":"Polygon","coordinates":[[[112.35328,-7.59743,0.0],[112.34698,-7.59484,0.0],[112.34464,-7.59938,0.0],[112.34189,-7.59857,0.0],[112.34328,-7.59438,0.0],[112.34062,-7.59296,0.0],[112.34028,-7.59116,0.0],[112.34121,-7.58775,0.0],[112.34356,-7.58691,0.0],[112.34097,-7.58632,0.0],[112.34024,-7.58743,0.0],[112.33852,-7.58697,0.0],[112.33796,-7.58864,0.0],[112.33655,-7.58797,0.0],[112.33425,-7.58396,0.0],[112.33756,-7.57966,0.0],[112.33581,-7.57902,0.0],[112.33252,-7.58118,0.0],[112.33141,-7.58043,0.0],[112.33361,-7.5769,0.0],[112.3316,-7.57659,0.0],[112.32899,-7.58207,0.0],[112.32482,-7.58219,0.0],[112.32315,-7.58518,0.0],[112.3194,-7.58328,0.0],[112.32305,-7.57682,0.0],[112.31132,-7.57256,0.0],[112.30894,-7.57729,0.0],[112.30502,-7.57597,0.0],[112.30507,-7.57451,0.0],[112.3003,-7.57365,0.0],[112.30387,-7.56574,0.0],[112.30838,-7.56689,0.0],[112.31034,-7.56461,0.0],[112.30998,-7.56122,0.0],[112.31297,-7.56163,0.0],[112.31569,-7.55813,0.0],[112.31904,-7.56037,0.0],[112.3181,-7.56131,0.0],[112.31929,-7.56203,0.0],[112.32157,-7.56074,0.0],[112.32512,-7.56183,0.0],[112.32634,-7.56427,0.0],[112.32959,-7.56407,0.0],[112.33328,-7.55341,0.0],[112.33791,-7.55532,0.0],[112.33697,-7.55008,0.0],[112.33827,-7.54502,0.0],[112.34138,-7.54484,0.0],[112.3418,-7.54273,0.0],[112.34748,-7.54327,0.0],[112.34742,-7.54183,0.0],[112.34485,-7.54152,0.0],[112.3446,-7.53873,0.0],[112.34725,-7.53879,0.0],[112.34703,-7.53745,0.0],[112.34514,-7.53762,0.0],[112.34686,-7.53643,0.0],[112.34466,-7.52665,0.0],[112.34733,-7.52694,0.0],[112.34827,-7.52525,0.0],[112.35199,-7.52508,0.0],[112.35469,-7.51819,0.0],[112.35646,-7.51727,0.0],[112.35839,-7.51751,0.0],[112.35865,-7.51884,0.0],[112.36095,-7.51858,0.0],[112.36291,-7.52382,0.0],[112.36599,-7.52398,0.0],[112.3679,-7.51555,0.0],[112.37099,-7.51507,0.0],[112.37381,-7.5255,0.0],[112.36669,-7.52414,0.0],[112.36611,-7.52655,0.0],[112.36767,-7.52681,0.0],[112.36726,-7.52922,0.0],[112.36975,-7.52982,0.0],[112.36853,-7.53958,0.0],[112.37046,-7.54026,0.0],[112.36831,-7.54376,0.0],[112.36475,-7.54392,0.0],[112.36416,-7.54871,0.0],[112.36538,-7.54888,0.0],[112.36368,-7.55281,0.0],[112.36498,-7.55324,0.0],[112.36513,-7.55495,0.0],[112.36848,-7.55615,0.0],[112.36931,-7.56127,0.0],[112.37526,-7.563,0.0],[112.37441,-7.5652,0.0],[112.37286,-7.56497,0.0],[112.3726,-7.56691,0.0],[112.37181,-7.56652,0.0],[112.3716,-7.5715,0.0],[112.37341,-7.57195,0.0],[112.3739,-7.5752,0.0],[112.3766,-7.57735,0.0],[112.37486,-7.58317,0.0],[112.37567,-7.5863,0.0],[112.38104,-7.594,0.0],[112.38483,-7.61022,0.0],[112.38726,-7.61431,0.0],[112.38616,-7.61688,0.0],[112.38705,-7.6216,0.0],[112.38512,-7.6235,0.0],[112.38259,-7.63251,0.0],[112.38007,-7.63331,0.0],[112.38278,-7.6408,0.0],[112.37248,-7.63912,0.0],[112.37179,-7.64124,0.0],[112.36687,-7.64389,0.0],[112.36611,-7.64215,0.0],[112.36556,-7.6431,0.0],[112.36376,-7.64174,0.0],[112.36341,-7.63847,0.0],[112.36137,-7.64076,0.0],[112.35688,-7.63928,0.0],[112.35512,-7.64119,0.0],[112.35033,-7.63662,0.0],[112.34747,-7.63621,0.0],[112.3466,-7.63332,0.0],[112.34802,-7.63355,0.0],[112.3499,-7.63166,0.0],[112.34572,-7.62676,0.0],[112.34536,-7.62268,0.0],[112.3517,-7.61738,0.0],[112.35312,-7.61211,0.0],[112.35528,-7.61033,0.0],[112.35328,-7.59743,0.0]]]}},{"type":"Feature","properties":{"kecamatan":"Ngoro","kab_kota":"Jombang"},"geometry":{"type":"Polygon","coordinates":[[[112.25185,-7.72583,0.0],[112.23841,-7.7102,0.0],[112.23325,-7.70708,0.0],[112.23415,-7.70475,0.0],[112.23308,-7.70137,0.0],[112.22591,-7.69736,0.0],[112.22189,-7.69157,0.0],[112.21595,-7.68978,0.0],[112.21479,-7.6879,0.0],[112.21758,-7.67961,0.0],[112.22116,-7.68295,0.0],[112.22646,-7.67806,0.0],[112.22744,-7.67537,0.0],[112.2249,-7.67108,0.0],[112.22075,-7.67028,0.0],[112.21764,-7.66577,0.0],[112.2216,-7.6576,0.0],[112.22143,-7.6563,0.0],[112.21721,-7.65466,0.0],[112.2186,-7.64995,0.0],[112.22072,-7.64866,0.0],[112.22048,-7.64627,0.0],[112.22789,-7.64914,0.0],[112.22796,-7.64706,0.0],[112.2259,-7.64547,0.0],[112.22788,-7.64085,0.0],[112.23218,-7.64305,0.0],[112.233,-7.64133,0.0],[112.23809,-7.64433,0.0],[112.23837,-7.64345,0.0],[112.24067,-7.64451,0.0],[112.24244,-7.64182,0.0],[112.24451,-7.64253,0.0],[112.24807,-7.63734,0.0],[112.25057,-7.63029,0.0],[112.25745,-7.63349,0.0],[112.26115,-7.6316,0.0],[112.26608,-7.63736,0.0],[112.26928,-7.64589,0.0],[112.26786,-7.65049,0.0],[112.27351,-7.65312,0.0],[112.27544,-7.65034,0.0],[112.27785,-7.65231,0.0],[112.28438,-7.65402,0.0],[112.28461,-7.6554,0.0],[112.28247,-7.65674,0.0],[112.28457,-7.66156,0.0],[112.28417,-7.66436,0.0],[112.2819,-7.66466,0.0],[112.2782,-7.67078,0.0],[112.27752,-7.68275,0.0],[112.27303,-7.69106,0.0],[112.27316,-7.69579,0.0],[112.27707,-7.70773,0.0],[112.27611,-7.71969,0.0],[112.27892,-7.72108,0.0],[112.27935,-7.7256,0.0],[112.26699,-7.72251,0.0],[112.26611,-7.72304,0.0],[112.26817,-7.72626,0.0],[112.26702,-7.72806,0.0],[112.25722,-7.72796,0.0],[112.25185,-7.72583,0.0]]]}},{"type":"Feature","properties":{"kecamatan":"Bareng","kab_kota":"Jombang"},"geometry":{"type":"Polygon","coordinates":[[[112.30141,-7.72808,0.0],[112.29939,-7.72669,0.0],[112.2956,-7.72777,0.0],[112.29337,-7.72571,0.0],[112.27935,-7.7256,0.0],[112.27892,-7.72108,0.0],[112.27611,-7.71969,0.0],[112.27707,-7.70773,0.0],[112.27316,-7.69579,0.0],[112.27308,-7.69072,0.0],[112.27752,-7.68275,0.0],[112.2782,-7.67078,0.0],[112.28074,-7.66633,0.0],[112.28185,-7.66532,0.0],[112.28575,-7.66723,0.0],[112.2866,-7.67045,0.0],[112.2884,-7.67138,0.0],[112.28767,-7.67284,0.0],[112.29014,-7.67419,0.0],[112.29173,-7.67274,0.0],[112.29452,-7.67312,0.0],[112.29358,-7.66997,0.0],[112.29061,-7.66953,0.0],[112.28973,-7.66592,0.0],[112.29201,-7.65602,0.0],[112.29092,-7.64943,0.0],[112.29257,-7.64814,0.0],[112.29576,-7.6481,0.0],[112.31272,-7.655,0.0],[112.31471,-7.65367,0.0],[112.3142,-7.65204,0.0],[112.31783,-7.64794,0.0],[112.32503,-7.64506,0.0],[112.32343,-7.64396,0.0],[112.32384,-7.64285,0.0],[112.32901,-7.64366,0.0],[112.33363,-7.64902,0.0],[112.3348,-7.64787,0.0],[112.34659,-7.65425,0.0],[112.35292,-7.65466,0.0],[112.35367,-7.65849,0.0],[112.35178,-7.6634,0.0],[112.34728,-7.6669,0.0],[112.34892,-7.66892,0.0],[112.34802,-7.67106,0.0],[112.34925,-7.67238,0.0],[112.34649,-7.67382,0.0],[112.34785,-7.67633,0.0],[112.35017,-7.67499,0.0],[112.35006,-7.67673,0.0],[112.35166,-7.67789,0.0],[112.35032,-7.68027,0.0],[112.35242,-7.683,0.0],[112.35132,-7.68654,0.0],[112.34958,-7.68712,0.0],[112.35046,-7.68775,0.0],[112.34951,-7.69148,0.0],[112.3533,-7.69491,0.0],[112.35545,-7.70232,0.0],[112.35131,-7.70346,0.0],[112.33814,-7.70249,0.0],[112.33246,-7.69855,0.0],[112.32708,-7.69829,0.0],[112.32747,-7.70997,0.0],[112.33486,-7.72224,0.0],[112.33502,-7.72625,0.0],[112.33734,-7.7307,0.0],[112.33331,-7.74137,0.0],[112.32843,-7.74135,0.0],[112.32488,-7.73802,0.0],[112.31873,-7.73771,0.0],[112.31026,-7.73066,0.0],[112.30506,-7.72921,0.0],[112.3018,-7.72682,0.0],[112.30141,-7.72808,0.0]]]}},{"type":"Feature","properties":{"kecamatan":"Jombang","kab_kota":"Jombang"},"geometry":{"type":"Polygon","coordinates":[[[112.22287,-7.56244,0.0],[112.21291,-7.56609,0.0],[112.21309,-7.57411,0.0],[112.21191,-7.57604,0.0],[112.20918,-7.57536,0.0],[112.20673,-7.57201,0.0],[112.20244,-7.57034,0.0],[112.20309,-7.5661,0.0],[112.20405,-7.56636,0.0],[112.20562,-7.56351,0.0],[112.20347,-7.56246,0.0],[112.20473,-7.55623,0.0],[112.19965,-7.55332,0.0],[112.20107,-7.55211,0.0],[112.20369,-7.54307,0.0],[112.19136,-7.53926,0.0],[112.17991,-7.53849,0.0],[112.18043,-7.53222,0.0],[112.18262,-7.52917,0.0],[112.18372,-7.52941,0.0],[112.18764,-7.51829,0.0],[112.1882,-7.51562,0.0],[112.18613,-7.51499,0.0],[112.18703,-7.51211,0.0],[112.19246,-7.51189,0.0],[112.19511,-7.50799,0.0],[112.19821,-7.50858,0.0],[112.19918,-7.51174,0.0],[112.2026,-7.51119,0.0],[112.20438,-7.51226,0.0],[112.20576,-7.50942,0.0],[112.2099,-7.50744,0.0],[112.21877,-7.51168,0.0],[112.22009,-7.51417,0.0],[112.23146,-7.51665,0.0],[112.23324,-7.51589,0.0],[112.23492,-7.51093,0.0],[112.2419,-7.51258,0.0],[112.2418,-7.51518,0.0],[112.24305,-7.51216,0.0],[112.24774,-7.51226,0.0],[112.25004,-7.511,0.0],[112.25357,-7.51381,0.0],[112.25243,-7.51585,0.0],[112.25633,-7.51723,0.0],[112.2531,-7.52955,0.0],[112.25406,-7.52973,0.0],[112.25322,-7.53312,0.0],[112.25119,-7.53265,0.0],[112.25045,-7.53405,0.0],[112.25157,-7.53517,0.0],[112.2507,-7.53795,0.0],[112.25377,-7.53769,0.0],[112.252,-7.54605,0.0],[112.25354,-7.5465,0.0],[112.25309,-7.54873,0.0],[112.25013,-7.54814,0.0],[112.24812,-7.55409,0.0],[112.24524,-7.55607,0.0],[112.24525,-7.5578,0.0],[112.247,-7.55854,0.0],[112.24103,-7.57311,0.0],[112.23983,-7.57415,0.0],[112.23821,-7.57356,0.0],[112.2363,-7.56936,0.0],[112.23139,-7.56737,0.0],[112.23211,-7.56521,0.0],[112.22905,-7.56503,0.0],[112.22499,-7.56266,0.0],[112.22465,-7.56413,0.0],[112.22255,-7.5636,0.0],[112.22287,-7.56244,0.0]]]}},{"type":"Feature","properties":{"kecamatan":"Mojowarno","kab_kota":"Jombang"},"geometry":{"type":"Polygon","coordinates":[[[112.29081,-7.65027,0.0],[112.29201,-7.65602,0.0],[112.28973,-7.66592,0.0],[112.29061,-7.66953,0.0],[112.29358,-7.66997,0.0],[112.29452,-7.67312,0.0],[112.29147,-7.67281,0.0],[112.29123,-7.67427,0.0],[112.28767,-7.67284,0.0],[112.2884,-7.67138,0.0],[112.2866,-7.67045,0.0],[112.28575,-7.66723,0.0],[112.28185,-7.66532,0.0],[112.28433,-7.66391,0.0],[112.28435,-7.66009,0.0],[112.28247,-7.65674,0.0],[112.28466,-7.65441,0.0],[112.27785,-7.65231,0.0],[112.27544,-7.65034,0.0],[112.27351,-7.65312,0.0],[112.26786,-7.65049,0.0],[112.26928,-7.64589,0.0],[112.26608,-7.63736,0.0],[112.26115,-7.6316,0.0],[112.27586,-7.62617,0.0],[112.27687,-7.62228,0.0],[112.27579,-7.62022,0.0],[112.2688,-7.61878,0.0],[112.2701,-7.61504,0.0],[112.26978,-7.61061,0.0],[112.2774,-7.61203,0.0],[112.27948,-7.60465,0.0],[112.28415,-7.60279,0.0],[112.28514,-7.5985,0.0],[112.2892,-7.59934,0.0],[112.2908,-7.60091,0.0],[112.29111,-7.59703,0.0],[112.28771,-7.59548,0.0],[112.28994,-7.58995,0.0],[112.28422,-7.58455,0.0],[112.28449,-7.58339,0.0],[112.30108,-7.58631,0.0],[112.30398,-7.58107,0.0],[112.30769,-7.58213,0.0],[112.31132,-7.57256,0.0],[112.32305,-7.57682,0.0],[112.3194,-7.58328,0.0],[112.32315,-7.58518,0.0],[112.32482,-7.58219,0.0],[112.32899,-7.58207,0.0],[112.3316,-7.57659,0.0],[112.33361,-7.5769,0.0],[112.33141,-7.58043,0.0],[112.33252,-7.58118,0.0],[112.33581,-7.57902,0.0],[112.33756,-7.57966,0.0],[112.33425,-7.58396,0.0],[112.33655,-7.58797,0.0],[112.33796,-7.58864,0.0],[112.33852,-7.58697,0.0],[112.34024,-7.58743,0.0],[112.34097,-7.58632,0.0],[112.34356,-7.58691,0.0],[112.34121,-7.58775,0.0],[112.34028,-7.59116,0.0],[112.34062,-7.59296,0.0],[112.34328,-7.59438,0.0],[112.34189,-7.59857,0.0],[112.34464,-7.59938,0.0],[112.34698,-7.59484,0.0],[112.3538,-7.59747,0.0],[112.35528,-7.61033,0.0],[112.35312,-7.61211,0.0],[112.3517,-7.61738,0.0],[112.34612,-7.62116,0.0],[112.34526,-7.625,0.0],[112.34646,-7.62821,0.0],[112.3499,-7.63166,0.0],[112.34802,-7.63355,0.0],[112.3466,-7.63332,0.0],[112.34768,-7.635,0.0],[112.34772,-7.64209,0.0],[112.35292,-7.65466,0.0],[112.34659,-7.65425,0.0],[112.3348,-7.64787,0.0],[112.33363,-7.64902,0.0],[112.32901,-7.64366,0.0],[112.32384,-7.64285,0.0],[112.32343,-7.64396,0.0],[112.32503,-7.64506,0.0],[112.31783,-7.64794,0.0],[112.3142,-7.65204,0.0],[112.31471,-7.65367,0.0],[112.31272,-7.655,0.0],[112.29576,-7.6481,0.0],[112.29257,-7.64814,0.0],[112.29081,-7.65027,0.0]]]}},{"type":"Feature","properties":{"kecamatan":"Diwek","kab_kota":"Jombang"},"geometry":{"type":"Polygon","coordinates":[[[112.2335,-7.63079,0.0],[112.23135,-7.62923,0.0],[112.2297,-7.62985,0.0],[112.22701,-7.62712,0.0],[112.22642,-7.62829,0.0],[112.22311,-7.6248,0.0],[112.2215,-7.62825,0.0],[112.21707,-7.62532,0.0],[112.21146,-7.62507,0.0],[112.21194,-7.6232,0.0],[112.21046,-7.62185,0.0],[112.21256,-7.61066,0.0],[112.20662,-7.60654,0.0],[112.20762,-7.60328,0.0],[112.20223,-7.59942,0.0],[112.20018,-7.59483,0.0],[112.20269,-7.58334,0.0],[112.20064,-7.58304,0.0],[112.19782,-7.58904,0.0],[112.19595,-7.58829,0.0],[112.19484,-7.58949,0.0],[112.18968,-7.5878,0.0],[112.18794,-7.58872,0.0],[112.18444,-7.58728,0.0],[112.18751,-7.57957,0.0],[112.18958,-7.58038,0.0],[112.19113,-7.57713,0.0],[112.1919,-7.57385,0.0],[112.19074,-7.57226,0.0],[112.19171,-7.57024,0.0],[112.19644,-7.57166,0.0],[112.20244,-7.57034,0.0],[112.20673,-7.57201,0.0],[112.20918,-7.57536,0.0],[112.21191,-7.57604,0.0],[112.21361,-7.5726,0.0],[112.21365,-7.57024,0.0],[112.21227,-7.56934,0.0],[112.21291,-7.56609,0.0],[112.22236,-7.56231,0.0],[112.22255,-7.5636,0.0],[112.22465,-7.56413,0.0],[112.22499,-7.56266,0.0],[112.22905,-7.56503,0.0],[112.23211,-7.56521,0.0],[112.23139,-7.56737,0.0],[112.2363,-7.56936,0.0],[112.23754,-7.57291,0.0],[112.23983,-7.57415,0.0],[112.24606,-7.56074,0.0],[112.24997,-7.56383,0.0],[112.2477,-7.56871,0.0],[112.24804,-7.5711,0.0],[112.25292,-7.56979,0.0],[112.2598,-7.57169,0.0],[112.25991,-7.57348,0.0],[112.26234,-7.57429,0.0],[112.26096,-7.57917,0.0],[112.26456,-7.58081,0.0],[112.26823,-7.58807,0.0],[112.26618,-7.58826,0.0],[112.26538,-7.59083,0.0],[112.26619,-7.59648,0.0],[112.2649,-7.59788,0.0],[112.26409,-7.60314,0.0],[112.269,-7.60391,0.0],[112.26812,-7.6091,0.0],[112.27006,-7.61097,0.0],[112.2701,-7.61504,0.0],[112.2688,-7.61878,0.0],[112.27579,-7.62022,0.0],[112.27687,-7.62228,0.0],[112.27586,-7.62617,0.0],[112.25745,-7.63349,0.0],[112.25,-7.63031,0.0],[112.24807,-7.63734,0.0],[112.24451,-7.64253,0.0],[112.23901,-7.64176,0.0],[112.23895,-7.6396,0.0],[112.23564,-7.63771,0.0],[112.23593,-7.6342,0.0],[112.23283,-7.63254,0.0],[112.2335,-7.63079,0.0]]]}},{"type":"Feature","properties":{"kecamatan":"Perak","kab_kota":"Jombang"},"geometry":{"type":"Polygon","coordinates":[[[112.17072,-7.60133,0.0],[112.16574,-7.61335,0.0],[112.1587,-7.61127,0.0],[112.1581,-7.61259,0.0],[112.15184,-7.61025,0.0],[112.15342,-7.60742,0.0],[112.15366,-7.6033,0.0],[112.15662,-7.60459,0.0],[112.15779,-7.60134,0.0],[112.14676,-7.59619,0.0],[112.14614,-7.59091,0.0],[112.14485,-7.58944,0.0],[112.14666,-7.58303,0.0],[112.14254,-7.58212,0.0],[112.14411,-7.57709,0.0],[112.14501,-7.57732,0.0],[112.14637,-7.57442,0.0],[112.14346,-7.5726,0.0],[112.14345,-7.56834,0.0],[112.14509,-7.56148,0.0],[112.15326,-7.56358,0.0],[112.15691,-7.5565,0.0],[112.16313,-7.55731,0.0],[112.16245,-7.56006,0.0],[112.16425,-7.5606,0.0],[112.16382,-7.56353,0.0],[112.16711,-7.56361,0.0],[112.16769,-7.55833,0.0],[112.17164,-7.5525,0.0],[112.1713,-7.55107,0.0],[112.16764,-7.54958,0.0],[112.16835,-7.54731,0.0],[112.17017,-7.54702,0.0],[112.17338,-7.54083,0.0],[112.17516,-7.535,0.0],[112.17496,-7.53004,0.0],[112.17855,-7.53009,0.0],[112.18128,-7.5312,0.0],[112.17991,-7.53849,0.0],[112.19136,-7.53926,0.0],[112.20369,-7.54307,0.0],[112.20107,-7.55211,0.0],[112.19965,-7.55332,0.0],[112.20473,-7.55623,0.0],[112.20347,-7.56246,0.0],[112.20562,-7.56351,0.0],[112.20405,-7.56636,0.0],[112.20309,-7.5661,0.0],[112.2023,-7.57118,0.0],[112.19998,-7.57037,0.0],[112.19644,-7.57166,0.0],[112.19171,-7.57024,0.0],[112.19074,-7.57226,0.0],[112.1919,-7.57385,0.0],[112.18958,-7.58038,0.0],[112.18507,-7.57903,0.0],[112.18528,-7.57419,0.0],[112.183,-7.57362,0.0],[112.18204,-7.57683,0.0],[112.17949,-7.57786,0.0],[112.17973,-7.58139,0.0],[112.17784,-7.58223,0.0],[112.17771,-7.589,0.0],[112.17855,-7.58933,0.0],[112.17705,-7.59454,0.0],[112.17385,-7.59759,0.0],[112.17235,-7.60259,0.0],[112.17072,-7.60133,0.0]]]}},{"type":"Feature","properties":{"kecamatan":"Gudo","kab_kota":"Jombang"},"geometry":{"type":"Polygon","coordinates":[[[112.20407,-7.66095,0.0],[112.19458,-7.65372,0.0],[112.19491,-7.65232,0.0],[112.19263,-7.65069,0.0],[112.19303,-7.64887,0.0],[112.18512,-7.64124,0.0],[112.18536,-7.63813,0.0],[112.18241,-7.63231,0.0],[112.17652,-7.62504,0.0],[112.17155,-7.62226,0.0],[112.17123,-7.61867,0.0],[112.16574,-7.61335,0.0],[112.16934,-7.60339,0.0],[112.17062,-7.6013,0.0],[112.17235,-7.60259,0.0],[112.17385,-7.59759,0.0],[112.17705,-7.59454,0.0],[112.17855,-7.58933,0.0],[112.17771,-7.589,0.0],[112.17784,-7.58223,0.0],[112.17973,-7.58139,0.0],[112.17949,-7.57786,0.0],[112.18204,-7.57683,0.0],[112.183,-7.57362,0.0],[112.18528,-7.57419,0.0],[112.18507,-7.57903,0.0],[112.1874,-7.57984,0.0],[112.18444,-7.58728,0.0],[112.18794,-7.58872,0.0],[112.18968,-7.5878,0.0],[112.19484,-7.58949,0.0],[112.19595,-7.58829,0.0],[112.19782,-7.58904,0.0],[112.20064,-7.58304,0.0],[112.20286,-7.58355,0.0],[112.20018,-7.59483,0.0],[112.20223,-7.59942,0.0],[112.20762,-7.60328,0.0],[112.20662,-7.60654,0.0],[112.21256,-7.61066,0.0],[112.21046,-7.62185,0.0],[112.21194,-7.6232,0.0],[112.21146,-7.62507,0.0],[112.21707,-7.62532,0.0],[112.2215,-7.62825,0.0],[112.22311,-7.6248,0.0],[112.22642,-7.62829,0.0],[112.22701,-7.62712,0.0],[112.2297,-7.62985,0.0],[112.23372,-7.63024,0.0],[112.23283,-7.63254,0.0],[112.23593,-7.6342,0.0],[112.23564,-7.63771,0.0],[112.23895,-7.6396,0.0],[112.23901,-7.64176,0.0],[112.2415,-7.64259,0.0],[112.24067,-7.64451,0.0],[112.23837,-7.64345,0.0],[112.23809,-7.64433,0.0],[112.233,-7.64133,0.0],[112.23218,-7.64305,0.0],[112.22788,-7.64085,0.0],[112.2259,-7.64547,0.0],[112.22796,-7.64706,0.0],[112.22789,-7.64914,0.0],[112.22048,-7.64627,0.0],[112.22062,-7.6489,0.0],[112.21974,-7.64836,0.0],[112.2186,-7.64995,0.0],[112.21721,-7.65466,0.0],[112.22166,-7.65703,0.0],[112.21871,-7.66539,0.0],[112.21764,-7.66577,0.0],[112.22075,-7.67028,0.0],[112.2244,-7.67075,0.0],[112.22742,-7.67429,0.0],[112.22646,-7.67806,0.0],[112.22116,-7.68295,0.0],[112.21758,-7.67961,0.0],[112.2177,-7.67587,0.0],[112.21547,-7.67525,0.0],[112.21016,-7.66964,0.0],[112.20847,-7.66573,0.0],[112.20465,-7.66331,0.0],[112.20407,-7.66095,0.0]]]}}]}