{"type":"FeatureCollection","features":[{"type":"Feature","properties":{"kecamatan":"Donorojo","kab_kota":"Pacitan"},"geometry":{"type":"MultiPolygon","coordinates":[[[[110.91733,-8.22231,0.0],[110.91736,-8.22218,0.0],[110.91745,-8.22234,0.0],[110.91733,-8.22231,0.0]]],[[[110.91681,-8.22144,0.0],[110.91695,-8.22176,0.0],[110.91639,-8.22166,0.0],[110.91681,-8.22144,0.0]]],[[[110.91737,-8.22146,0.0],[110.91689,-8.22128,0.0],[110.91715,-8.22107,0.0],[110.91737,-8.22146,0.0]]],[[[110.91782,-8.21967,0.0],[110.91762,-8.21948,0.0],[110.91793,-8.2196,0.0],[110.91782,-8.21967,0.0]]],[[[110.91501,-8.21409,0.0],[110.90589,-8.21013,0.0],[110.90026,-8.21164,0.0],[110.90191,-8.20218,0.0],[110.90058,-8.19698,0.0],[110.8981,-8.19373,0.0],[110.89851,-8.18388,0.0],[110.89586,-8.17989,0.0],[110.89714,-8.17832,0.0],[110.89641,-8.17399,0.0],[110.89771,-8.16995,0.0],[110.89547,-8.16766,0.0],[110.89557,-8.16394,0.0],[110.89901,-8.15144,0.0],[110.90355,-8.14587,0.0],[110.90311,-8.1437,0.0],[110.90502,-8.14183,0.0],[110.90536,-8.13739,0.0],[110.90754,-8.13308,0.0],[110.90666,-8.12343,0.0],[110.90792,-8.11653,0.0],[110.91127,-8.11767,0.0],[110.91529,-8.11595,0.0],[110.91932,-8.10505,0.0],[110.92423,-8.10024,0.0],[110.92751,-8.09962,0.0],[110.92933,-8.0957,0.0],[110.93169,-8.09379,0.0],[110.93154,-8.09133,0.0],[110.93926,-8.08683,0.0],[110.93981,-8.08412,0.0],[110.94494,-8.07946,0.0],[110.94716,-8.0726,0.0],[110.95142,-8.07085,0.0],[110.95091,-8.06537,0.0],[110.95341,-8.06166,0.0],[110.96067,-8.06544,0.0],[110.96174,-8.06786,0.0],[110.96495,-8.06731,0.0],[110.97822,-8.07269,0.0],[110.98288,-8.07885,0.0],[110.99693,-8.07987,0.0],[111.00172,-8.07389,0.0],[111.0047,-8.07285,0.0],[111.00939,-8.07354,0.0],[111.01122,-8.07651,0.0],[111.01038,-8.07748,0.0],[111.01303,-8.07651,0.0],[111.01327,-8.0751,0.0],[111.01439,-8.07614,0.0],[111.0164,-8.07541,0.0],[111.01791,-8.08095,0.0],[111.01981,-8.08187,0.0],[111.01915,-8.08412,0.0],[111.02037,-8.08451,0.0],[111.02076,-8.09138,0.0],[111.00441,-8.10212,0.0],[111.00079,-8.10656,0.0],[111.00207,-8.10851,0.0],[110.99995,-8.11409,0.0],[110.99874,-8.11353,0.0],[110.99928,-8.11183,0.0],[110.99774,-8.1113,0.0],[110.99346,-8.11274,0.0],[110.98641,-8.11075,0.0],[110.98206,-8.11158,0.0],[110.98094,-8.11379,0.0],[110.98235,-8.11698,0.0],[110.97967,-8.12144,0.0],[110.98132,-8.12478,0.0],[110.98019,-8.12737,0.0],[110.97744,-8.12802,0.0],[110.97596,-8.13071,0.0],[110.97872,-8.14375,0.0],[110.97509,-8.14887,0.0],[110.97529,-8.15231,0.0],[110.97331,-8.15421,0.0],[110.97045,-8.15239,0.0],[110.96595,-8.15213,0.0],[110.9624,-8.15676,0.0],[110.95888,-8.15848,0.0],[110.96102,-8.16262,0.0],[110.95839,-8.16576,0.0],[110.9541,-8.16514,0.0],[110.95139,-8.16661,0.0],[110.95114,-8.16937,0.0],[110.95367,-8.17251,0.0],[110.95191,-8.17622,0.0],[110.95501,-8.18066,0.0],[110.9543,-8.18203,0.0],[110.95702,-8.18339,0.0],[110.95728,-8.18908,0.0],[110.95405,-8.19197,0.0],[110.95687,-8.19801,0.0],[110.95325,-8.19967,0.0],[110.95219,-8.20266,0.0],[110.9491,-8.20157,0.0],[110.95007,-8.2078,0.0],[110.95135,-8.20988,0.0],[110.95086,-8.21161,0.0],[110.95772,-8.21143,0.0],[110.95729,-8.2204,0.0],[110.95855,-8.22242,0.0],[110.96171,-8.22245,0.0],[110.96188,-8.22788,0.0],[110.96105,-8.22898,0.0],[110.95913,-8.22832,0.0],[110.95826,-8.22974,0.0],[110.95561,-8.2261,0.0],[110.9542,-8.22678,0.0],[110.95063,-8.22481,0.0],[110.94937,-8.22638,0.0],[110.94626,-8.22318,0.0],[110.94058,-8.22738,0.0],[110.94158,-8.22479,0.0],[110.93912,-8.22476,0.0],[110.9389,-8.22274,0.0],[110.93737,-8.22378,0.0],[110.93707,-8.2225,0.0],[110.93323,-8.2212,0.0],[110.92698,-8.22269,0.0],[110.92366,-8.21914,0.0],[110.91619,-8.2175,0.0],[110.91501,-8.21409,0.0]]]]}},{"type":"Feature","properties":{"kecamatan":"Pacitan","kab_kota":"Pacitan"},"geometry":{"type":"Polygon","coordinates":[[[111.12723,-8.2265,0.0],[111.12383,-8.22943,0.0],[111.11271,-8.23408,0.0],[111.10989,-8.2379,0.0],[111.09926,-8.24147,0.0],[111.09911,-8.23988,0.0],[111.09762,-8.24009,0.0],[111.0976,-8.2368,0.0],[111.10068,-8.23479,0.0],[111.10204,-8.23564,0.0],[111.10535,-8.23308,0.0],[111.10562,-8.23129,0.0],[111.10321,-8.23052,0.0],[111.10143,-8.22696,0.0],[111.09648,-8.22238,0.0],[111.09048,-8.22017,0.0],[111.08538,-8.21988,0.0],[111.0753,-8.22331,0.0],[111.07659,-8.22391,0.0],[111.07587,-8.22571,0.0],[111.07635,-8.22595,0.0],[111.0765,-8.22625,0.0],[111.07624,-8.22806,0.0],[111.0764,-8.22615,0.0],[111.07481,-8.22541,0.0],[111.07535,-8.22679,0.0],[111.07365,-8.22765,0.0],[111.0747,-8.22967,0.0],[111.07704,-8.22931,0.0],[111.07539,-8.22982,0.0],[111.07538,-8.23148,0.0],[111.07814,-8.2337,0.0],[111.07508,-8.23873,0.0],[111.07313,-8.23523,0.0],[111.07175,-8.22809,0.0],[111.06608,-8.22406,0.0],[111.06607,-8.22023,0.0],[111.06787,-8.217,0.0],[111.06291,-8.21446,0.0],[111.06233,-8.21107,0.0],[111.06253,-8.20618,0.0],[111.06626,-8.19533,0.0],[111.06292,-8.18956,0.0],[111.06531,-8.1793,0.0],[111.063,-8.1777,0.0],[111.06018,-8.1797,0.0],[111.05887,-8.17896,0.0],[111.05928,-8.17564,0.0],[111.06555,-8.16948,0.0],[111.06832,-8.16973,0.0],[111.06775,-8.16613,0.0],[111.07406,-8.16631,0.0],[111.07819,-8.16793,0.0],[111.08029,-8.17384,0.0],[111.08177,-8.1717,0.0],[111.0852,-8.17019,0.0],[111.0894,-8.16484,0.0],[111.0905,-8.16252,0.0],[111.08967,-8.16108,0.0],[111.08885,-8.16191,0.0],[111.0875,-8.16105,0.0],[111.08602,-8.15852,0.0],[111.08663,-8.15405,0.0],[111.08523,-8.14996,0.0],[111.08185,-8.14778,0.0],[111.0834,-8.14556,0.0],[111.08242,-8.14129,0.0],[111.08316,-8.13916,0.0],[111.08822,-8.13606,0.0],[111.08979,-8.13867,0.0],[111.09345,-8.14072,0.0],[111.09575,-8.13637,0.0],[111.10167,-8.13346,0.0],[111.10779,-8.13107,0.0],[111.10979,-8.13274,0.0],[111.11419,-8.13087,0.0],[111.11997,-8.13645,0.0],[111.12778,-8.13507,0.0],[111.1355,-8.1405,0.0],[111.14597,-8.15074,0.0],[111.14449,-8.15503,0.0],[111.13814,-8.15681,0.0],[111.13671,-8.16133,0.0],[111.13664,-8.16595,0.0],[111.14194,-8.1794,0.0],[111.13998,-8.19203,0.0],[111.14351,-8.19937,0.0],[111.14778,-8.20006,0.0],[111.15635,-8.19903,0.0],[111.15646,-8.20047,0.0],[111.15333,-8.20647,0.0],[111.15086,-8.20698,0.0],[111.14792,-8.20965,0.0],[111.14197,-8.21012,0.0],[111.14061,-8.21256,0.0],[111.13834,-8.2132,0.0],[111.1377,-8.21882,0.0],[111.13342,-8.22522,0.0],[111.13044,-8.22743,0.0],[111.12723,-8.2265,0.0]]]}},{"type":"Feature","properties":{"kecamatan":"Kebonagung","kab_kota":"Pacitan"},"geometry":{"type":"MultiPolygon","coordinates":[[[[111.1591,-8.27633,0.0],[111.15699,-8.27816,0.0],[111.15706,-8.28127,0.0],[111.15501,-8.28431,0.0],[111.1534,-8.28446,0.0],[111.15454,-8.28078,0.0],[111.15144,-8.27696,0.0],[111.14622,-8.27766,0.0],[111.14564,-8.28022,0.0],[111.14354,-8.28099,0.0],[111.14527,-8.27939,0.0],[111.14462,-8.27829,0.0],[111.13834,-8.27699,0.0],[111.13315,-8.27267,0.0],[111.13846,-8.26685,0.0],[111.13728,-8.26167,0.0],[111.13512,-8.26289,0.0],[111.13186,-8.26236,0.0],[111.13208,-8.26054,0.0],[111.12969,-8.25944,0.0],[111.12963,-8.25759,0.0],[111.12766,-8.25894,0.0],[111.12674,-8.25788,0.0],[111.12483,-8.25854,0.0],[111.1244,-8.25484,0.0],[111.12153,-8.25606,0.0],[111.12024,-8.25265,0.0],[111.11691,-8.25423,0.0],[111.11477,-8.25369,0.0],[111.11052,-8.25654,0.0],[111.10832,-8.2562,0.0],[111.10836,-8.25444,0.0],[111.10509,-8.25142,0.0],[111.10347,-8.25334,0.0],[111.10131,-8.25331,0.0],[111.10301,-8.24988,0.0],[111.10045,-8.24859,0.0],[111.09912,-8.24535,0.0],[111.09387,-8.24678,0.0],[111.09598,-8.24331,0.0],[111.0987,-8.24385,0.0],[111.10732,-8.238,0.0],[111.10989,-8.2379,0.0],[111.11307,-8.23388,0.0],[111.12383,-8.22943,0.0],[111.12717,-8.22649,0.0],[111.13126,-8.22694,0.0],[111.1377,-8.21882,0.0],[111.13834,-8.2132,0.0],[111.14061,-8.21256,0.0],[111.14176,-8.21022,0.0],[111.14792,-8.20965,0.0],[111.15456,-8.20522,0.0],[111.15635,-8.19903,0.0],[111.14778,-8.20006,0.0],[111.14351,-8.19937,0.0],[111.14122,-8.19597,0.0],[111.14148,-8.19339,0.0],[111.14006,-8.19238,0.0],[111.13994,-8.19009,0.0],[111.14184,-8.18436,0.0],[111.14194,-8.1794,0.0],[111.13652,-8.16464,0.0],[111.13814,-8.15681,0.0],[111.14268,-8.15609,0.0],[111.14525,-8.15428,0.0],[111.14625,-8.15154,0.0],[111.14486,-8.14882,0.0],[111.15314,-8.14741,0.0],[111.15771,-8.14818,0.0],[111.15498,-8.15079,0.0],[111.1544,-8.15498,0.0],[111.15691,-8.15835,0.0],[111.16297,-8.1611,0.0],[111.16691,-8.15999,0.0],[111.16979,-8.16275,0.0],[111.17536,-8.16233,0.0],[111.18056,-8.15827,0.0],[111.18822,-8.16046,0.0],[111.20375,-8.15869,0.0],[111.20657,-8.1614,0.0],[111.21413,-8.15762,0.0],[111.22119,-8.15817,0.0],[111.22394,-8.16183,0.0],[111.22386,-8.16591,0.0],[111.22263,-8.16685,0.0],[111.22459,-8.16839,0.0],[111.22429,-8.17348,0.0],[111.22096,-8.17611,0.0],[111.20991,-8.17902,0.0],[111.20463,-8.17904,0.0],[111.20817,-8.18356,0.0],[111.20702,-8.18689,0.0],[111.20749,-8.19114,0.0],[111.21085,-8.19753,0.0],[111.21347,-8.19914,0.0],[111.21184,-8.20172,0.0],[111.21431,-8.20376,0.0],[111.21618,-8.20893,0.0],[111.22142,-8.21295,0.0],[111.2188,-8.22028,0.0],[111.22165,-8.22663,0.0],[111.22273,-8.2332,0.0],[111.22824,-8.24103,0.0],[111.22832,-8.24473,0.0],[111.23104,-8.24971,0.0],[111.23149,-8.25805,0.0],[111.22794,-8.25961,0.0],[111.22828,-8.26601,0.0],[111.22402,-8.26857,0.0],[111.22514,-8.2669,0.0],[111.22253,-8.26518,0.0],[111.22043,-8.26804,0.0],[111.22099,-8.26145,0.0],[111.21666,-8.25905,0.0],[111.21729,-8.26271,0.0],[111.2151,-8.26581,0.0],[111.21307,-8.26331,0.0],[111.21068,-8.26478,0.0],[111.21153,-8.26683,0.0],[111.20873,-8.26535,0.0],[111.20863,-8.26659,0.0],[111.20686,-8.26485,0.0],[111.20549,-8.26727,0.0],[111.20388,-8.26743,0.0],[111.20374,-8.26634,0.0],[111.20184,-8.2642,0.0],[111.20142,-8.26435,0.0],[111.20175,-8.26558,0.0],[111.20078,-8.26527,0.0],[111.19855,-8.26818,0.0],[111.1997,-8.27112,0.0],[111.19742,-8.27578,0.0],[111.19387,-8.27817,0.0],[111.19091,-8.27819,0.0],[111.18575,-8.27478,0.0],[111.17725,-8.27252,0.0],[111.17393,-8.27563,0.0],[111.17168,-8.28048,0.0],[111.16988,-8.27693,0.0],[111.16732,-8.28006,0.0],[111.16516,-8.27843,0.0],[111.15985,-8.27816,0.0],[111.1591,-8.27633,0.0]]],[[[111.12869,-8.2608,0.0],[111.12872,-8.26007,0.0],[111.12919,-8.26029,0.0],[111.12869,-8.2608,0.0]]],[[[111.12266,-8.25926,0.0],[111.12432,-8.26021,0.0],[111.1218,-8.26045,0.0],[111.12266,-8.25926,0.0]]],[[[111.22663,-8.26994,0.0],[111.22647,-8.26949,0.0],[111.22662,-8.26937,0.0],[111.22663,-8.26994,0.0]]],[[[111.22656,-8.26786,0.0],[111.22615,-8.26844,0.0],[111.22586,-8.26819,0.0],[111.22656,-8.26786,0.0]]],[[[111.20941,-8.26673,0.0],[111.20968,-8.26695,0.0],[111.2094,-8.26693,0.0],[111.20941,-8.26673,0.0]]]]}},{"type":"Feature","properties":{"kecamatan":"Pringkuku","kab_kota":"Pacitan"},"geometry":{"type":"MultiPolygon","coordinates":[[[[110.99364,-8.25526,0.0],[110.9932,-8.25566,0.0],[110.99318,-8.25548,0.0],[110.99364,-8.25526,0.0]]],[[[110.99401,-8.25479,0.0],[110.99416,-8.2546,0.0],[110.99401,-8.25481,0.0],[110.99401,-8.25479,0.0]]],[[[110.9924,-8.25299,0.0],[110.99234,-8.2527,0.0],[110.99249,-8.25276,0.0],[110.9924,-8.25299,0.0]]],[[[110.99236,-8.25149,0.0],[110.99181,-8.25221,0.0],[110.99195,-8.25177,0.0],[110.99236,-8.25149,0.0]]],[[[110.97698,-8.24301,0.0],[110.97592,-8.24276,0.0],[110.9771,-8.24245,0.0],[110.97698,-8.24301,0.0]]],[[[110.97542,-8.24273,0.0],[110.97562,-8.24274,0.0],[110.97549,-8.24293,0.0],[110.97542,-8.24273,0.0]]],[[[110.9752,-8.24203,0.0],[110.9755,-8.24197,0.0],[110.97528,-8.24217,0.0],[110.9752,-8.24203,0.0]]],[[[110.9773,-8.24093,0.0],[110.97742,-8.24164,0.0],[110.97707,-8.24127,0.0],[110.9773,-8.24093,0.0]]],[[[110.97582,-8.24158,0.0],[110.97556,-8.24125,0.0],[110.97608,-8.24069,0.0],[110.97582,-8.24158,0.0]]],[[[110.97307,-8.2409,0.0],[110.97262,-8.24057,0.0],[110.97294,-8.24038,0.0],[110.97307,-8.2409,0.0]]],[[[110.97193,-8.23997,0.0],[110.97147,-8.24066,0.0],[110.97128,-8.24027,0.0],[110.97193,-8.23997,0.0]]],[[[110.97003,-8.23781,0.0],[110.97023,-8.23725,0.0],[110.97047,-8.23771,0.0],[110.97003,-8.23781,0.0]]],[[[110.96024,-8.23542,0.0],[110.96034,-8.23587,0.0],[110.96017,-8.23571,0.0],[110.96024,-8.23542,0.0]]],[[[110.96327,-8.2352,0.0],[110.96247,-8.23548,0.0],[110.96243,-8.23531,0.0],[110.96327,-8.2352,0.0]]],[[[110.98267,-8.23998,0.0],[110.9799,-8.24016,0.0],[110.98047,-8.23917,0.0],[110.97895,-8.23904,0.0],[110.97783,-8.23667,0.0],[110.97651,-8.24005,0.0],[110.97529,-8.24021,0.0],[110.97466,-8.23875,0.0],[110.97329,-8.24023,0.0],[110.97394,-8.23845,0.0],[110.97215,-8.23639,0.0],[110.95977,-8.23363,0.0],[110.95986,-8.23148,0.0],[110.96134,-8.23119,0.0],[110.96221,-8.22368,0.0],[110.96146,-8.22223,0.0],[110.95836,-8.2223,0.0],[110.95738,-8.22065,0.0],[110.95772,-8.21143,0.0],[110.95086,-8.21161,0.0],[110.94909,-8.2017,0.0],[110.95219,-8.20266,0.0],[110.95325,-8.19967,0.0],[110.95687,-8.19801,0.0],[110.95619,-8.19477,0.0],[110.95408,-8.19244,0.0],[110.9549,-8.19042,0.0],[110.95728,-8.18908,0.0],[110.96082,-8.1912,0.0],[110.9627,-8.19093,0.0],[110.96914,-8.18649,0.0],[110.97146,-8.1812,0.0],[110.97918,-8.17965,0.0],[110.98069,-8.17773,0.0],[110.9889,-8.17702,0.0],[110.99094,-8.17843,0.0],[110.99347,-8.17594,0.0],[110.99764,-8.17751,0.0],[111.00208,-8.1766,0.0],[111.00766,-8.17184,0.0],[111.0101,-8.1721,0.0],[111.01241,-8.16997,0.0],[111.01688,-8.17066,0.0],[111.02591,-8.16728,0.0],[111.02923,-8.16382,0.0],[111.03145,-8.16573,0.0],[111.03113,-8.16388,0.0],[111.03419,-8.16474,0.0],[111.03606,-8.15843,0.0],[111.04276,-8.15391,0.0],[111.04487,-8.15058,0.0],[111.0434,-8.14457,0.0],[111.04533,-8.1382,0.0],[111.04296,-8.13189,0.0],[111.04307,-8.12716,0.0],[111.04942,-8.12716,0.0],[111.04737,-8.1228,0.0],[111.04963,-8.11481,0.0],[111.04679,-8.11095,0.0],[111.05112,-8.09826,0.0],[111.05563,-8.09846,0.0],[111.05619,-8.09559,0.0],[111.06182,-8.09333,0.0],[111.06417,-8.09605,0.0],[111.06404,-8.1003,0.0],[111.06887,-8.1075,0.0],[111.06816,-8.11363,0.0],[111.07093,-8.11715,0.0],[111.07348,-8.11447,0.0],[111.07663,-8.1153,0.0],[111.07956,-8.11458,0.0],[111.08007,-8.11331,0.0],[111.08298,-8.11634,0.0],[111.08507,-8.1166,0.0],[111.08633,-8.11594,0.0],[111.08857,-8.1081,0.0],[111.09115,-8.10513,0.0],[111.09356,-8.10634,0.0],[111.10371,-8.10482,0.0],[111.09577,-8.10967,0.0],[111.09966,-8.11672,0.0],[111.10229,-8.11937,0.0],[111.11931,-8.12501,0.0],[111.11119,-8.12832,0.0],[111.11391,-8.13104,0.0],[111.10979,-8.13274,0.0],[111.10779,-8.13107,0.0],[111.09583,-8.13632,0.0],[111.09345,-8.14072,0.0],[111.08979,-8.13867,0.0],[111.08822,-8.13606,0.0],[111.08316,-8.13916,0.0],[111.08242,-8.14129,0.0],[111.0834,-8.14556,0.0],[111.08185,-8.14778,0.0],[111.08523,-8.14996,0.0],[111.08663,-8.15405,0.0],[111.08602,-8.15852,0.0],[111.0875,-8.16105,0.0],[111.08885,-8.16191,0.0],[111.08967,-8.16108,0.0],[111.0905,-8.16252,0.0],[111.0852,-8.17019,0.0],[111.08177,-8.1717,0.0],[111.08029,-8.17384,0.0],[111.07819,-8.16793,0.0],[111.07406,-8.16631,0.0],[111.06775,-8.16613,0.0],[111.06832,-8.16973,0.0],[111.06555,-8.16948,0.0],[111.05928,-8.17564,0.0],[111.05887,-8.17896,0.0],[111.06018,-8.1797,0.0],[111.063,-8.1777,0.0],[111.06531,-8.1793,0.0],[111.06292,-8.18956,0.0],[111.06626,-8.19533,0.0],[111.06253,-8.20618,0.0],[111.06258,-8.2139,0.0],[111.06787,-8.217,0.0],[111.06607,-8.22023,0.0],[111.06608,-8.22406,0.0],[111.07175,-8.22809,0.0],[111.07662,-8.2456,0.0],[111.07487,-8.2453,0.0],[111.07085,-8.2482,0.0],[111.06601,-8.24709,0.0],[111.06445,-8.25095,0.0],[111.06265,-8.25211,0.0],[111.06073,-8.25056,0.0],[111.04901,-8.25185,0.0],[111.04827,-8.25052,0.0],[111.04586,-8.25103,0.0],[111.04364,-8.24867,0.0],[111.04206,-8.24933,0.0],[111.04093,-8.2524,0.0],[111.03775,-8.25226,0.0],[111.03637,-8.25385,0.0],[111.03443,-8.25378,0.0],[111.03369,-8.25633,0.0],[111.03259,-8.25396,0.0],[111.02968,-8.25623,0.0],[111.03009,-8.25462,0.0],[111.02957,-8.25409,0.0],[111.02805,-8.25664,0.0],[111.0257,-8.2544,0.0],[111.02691,-8.25174,0.0],[111.02566,-8.25256,0.0],[111.02139,-8.24889,0.0],[111.01803,-8.24997,0.0],[111.01745,-8.2483,0.0],[111.01701,-8.24941,0.0],[111.01425,-8.24865,0.0],[111.01141,-8.25133,0.0],[111.01007,-8.24858,0.0],[111.00324,-8.24889,0.0],[110.9997,-8.25253,0.0],[111.00097,-8.25424,0.0],[110.99871,-8.25465,0.0],[110.99731,-8.25169,0.0],[110.99581,-8.25163,0.0],[110.99484,-8.25325,0.0],[110.99439,-8.25108,0.0],[110.99305,-8.25211,0.0],[110.99329,-8.25068,0.0],[110.99496,-8.25021,0.0],[110.99405,-8.24799,0.0],[110.99248,-8.24895,0.0],[110.99286,-8.24711,0.0],[110.99178,-8.24624,0.0],[110.99105,-8.24805,0.0],[110.98845,-8.24265,0.0],[110.98413,-8.24103,0.0],[110.98251,-8.242,0.0],[110.98267,-8.23998,0.0]]],[[[111.00134,-8.25641,0.0],[111.00104,-8.25594,0.0],[111.00128,-8.25579,0.0],[111.00134,-8.25641,0.0]]],[[[110.99783,-8.25534,0.0],[110.99709,-8.2558,0.0],[110.99674,-8.25538,0.0],[110.99698,-8.25511,0.0],[110.99783,-8.25534,0.0]]],[[[111.0028,-8.25454,0.0],[111.00283,-8.25572,0.0],[111.00139,-8.25493,0.0],[111.0028,-8.25454,0.0]]],[[[110.99616,-8.2535,0.0],[110.99644,-8.25334,0.0],[110.99621,-8.25359,0.0],[110.99616,-8.2535,0.0]]]]}},{"type":"Feature","properties":{"kecamatan":"Punung","kab_kota":"Pacitan"},"geometry":{"type":"Polygon","coordinates":[[[110.99482,-8.17591,0.0],[110.99104,-8.17842,0.0],[110.9889,-8.17702,0.0],[110.98292,-8.17726,0.0],[110.97696,-8.18042,0.0],[110.97204,-8.18087,0.0],[110.96914,-8.18649,0.0],[110.96124,-8.19134,0.0],[110.95728,-8.18908,0.0],[110.95702,-8.18339,0.0],[110.9543,-8.18203,0.0],[110.95501,-8.18066,0.0],[110.9525,-8.17808,0.0],[110.95195,-8.17553,0.0],[110.95364,-8.17219,0.0],[110.95114,-8.16937,0.0],[110.95139,-8.16661,0.0],[110.9541,-8.16514,0.0],[110.95839,-8.16576,0.0],[110.96102,-8.16262,0.0],[110.95888,-8.15848,0.0],[110.9624,-8.15676,0.0],[110.96595,-8.15213,0.0],[110.97045,-8.15239,0.0],[110.97331,-8.15421,0.0],[110.97529,-8.15231,0.0],[110.97509,-8.14887,0.0],[110.97872,-8.14375,0.0],[110.97596,-8.13071,0.0],[110.97744,-8.12802,0.0],[110.98019,-8.12737,0.0],[110.98132,-8.12478,0.0],[110.97967,-8.12144,0.0],[110.98235,-8.11698,0.0],[110.98094,-8.11379,0.0],[110.98206,-8.11158,0.0],[110.98641,-8.11075,0.0],[110.99346,-8.11274,0.0],[110.99774,-8.1113,0.0],[110.99928,-8.11183,0.0],[110.99874,-8.11353,0.0],[110.99995,-8.11409,0.0],[111.00207,-8.10851,0.0],[111.00079,-8.10656,0.0],[111.00441,-8.10212,0.0],[111.02076,-8.09138,0.0],[111.02037,-8.08451,0.0],[111.01915,-8.08412,0.0],[111.01981,-8.08187,0.0],[111.01791,-8.08095,0.0],[111.01724,-8.07695,0.0],[111.02003,-8.07658,0.0],[111.02066,-8.07852,0.0],[111.02292,-8.07969,0.0],[111.03172,-8.07986,0.0],[111.03419,-8.07928,0.0],[111.03775,-8.07526,0.0],[111.04784,-8.07312,0.0],[111.05412,-8.06447,0.0],[111.06603,-8.06131,0.0],[111.07039,-8.04955,0.0],[111.07639,-8.04869,0.0],[111.07697,-8.04576,0.0],[111.07956,-8.0427,0.0],[111.08234,-8.04308,0.0],[111.08738,-8.04747,0.0],[111.08829,-8.05096,0.0],[111.08677,-8.05914,0.0],[111.08933,-8.05953,0.0],[111.09105,-8.06344,0.0],[111.09409,-8.06317,0.0],[111.10232,-8.06548,0.0],[111.10702,-8.0631,0.0],[111.11152,-8.06306,0.0],[111.11758,-8.05927,0.0],[111.12289,-8.06127,0.0],[111.125,-8.06514,0.0],[111.12323,-8.0714,0.0],[111.11784,-8.07792,0.0],[111.11569,-8.07484,0.0],[111.10878,-8.07347,0.0],[111.10441,-8.07863,0.0],[111.1017,-8.088,0.0],[111.10214,-8.0897,0.0],[111.10502,-8.09088,0.0],[111.10279,-8.09519,0.0],[111.10373,-8.09807,0.0],[111.10167,-8.09967,0.0],[111.10371,-8.10482,0.0],[111.09356,-8.10634,0.0],[111.09115,-8.10513,0.0],[111.08857,-8.1081,0.0],[111.08535,-8.11648,0.0],[111.08298,-8.11634,0.0],[111.08007,-8.11331,0.0],[111.07956,-8.11458,0.0],[111.07663,-8.1153,0.0],[111.07348,-8.11447,0.0],[111.07093,-8.11715,0.0],[111.06816,-8.11363,0.0],[111.06887,-8.1075,0.0],[111.06404,-8.1003,0.0],[111.0639,-8.09544,0.0],[111.06128,-8.09283,0.0],[111.0582,-8.09544,0.0],[111.0561,-8.09567,0.0],[111.05563,-8.09846,0.0],[111.05112,-8.09826,0.0],[111.04679,-8.11095,0.0],[111.04963,-8.11481,0.0],[111.04737,-8.1228,0.0],[111.04942,-8.12716,0.0],[111.04307,-8.12716,0.0],[111.04296,-8.13189,0.0],[111.04533,-8.1382,0.0],[111.0434,-8.14457,0.0],[111.04487,-8.15058,0.0],[111.04291,-8.15376,0.0],[111.03606,-8.15843,0.0],[111.03419,-8.16474,0.0],[111.03113,-8.16388,0.0],[111.03145,-8.16573,0.0],[111.02923,-8.16382,0.0],[111.02591,-8.16728,0.0],[111.01688,-8.17066,0.0],[111.01241,-8.16997,0.0],[111.01018,-8.17207,0.0],[111.00643,-8.17268,0.0],[111.00342,-8.17627,0.0],[110.99824,-8.17751,0.0],[110.99482,-8.17591,0.0]]]}},{"type":"Feature","properties":{"kecamatan":"Bandar","kab_kota":"Pacitan"},"geometry":{"type":"Polygon","coordinates":[[[111.25433,-8.06049,0.0],[111.24836,-8.06387,0.0],[111.25074,-8.06686,0.0],[111.25041,-8.06875,0.0],[111.25239,-8.07007,0.0],[111.25032,-8.07112,0.0],[111.25213,-8.07472,0.0],[111.24805,-8.07345,0.0],[111.24211,-8.07769,0.0],[111.23686,-8.07705,0.0],[111.22992,-8.08017,0.0],[111.2287,-8.08452,0.0],[111.22595,-8.08304,0.0],[111.22334,-8.08377,0.0],[111.22043,-8.08171,0.0],[111.21493,-8.08396,0.0],[111.2138,-8.08035,0.0],[111.21455,-8.07591,0.0],[111.20617,-8.07412,0.0],[111.2032,-8.07048,0.0],[111.19436,-8.07237,0.0],[111.19379,-8.0712,0.0],[111.19191,-8.0716,0.0],[111.18949,-8.06719,0.0],[111.18492,-8.0632,0.0],[111.184,-8.05885,0.0],[111.18928,-8.05735,0.0],[111.19086,-8.05999,0.0],[111.19242,-8.05997,0.0],[111.19172,-8.0618,0.0],[111.19824,-8.06157,0.0],[111.20204,-8.06363,0.0],[111.20549,-8.06176,0.0],[111.20692,-8.06222,0.0],[111.20757,-8.0646,0.0],[111.20925,-8.06037,0.0],[111.21283,-8.05788,0.0],[111.21423,-8.05509,0.0],[111.21707,-8.05469,0.0],[111.21987,-8.04984,0.0],[111.2285,-8.04637,0.0],[111.2242,-8.04054,0.0],[111.22085,-8.04028,0.0],[111.21922,-8.03654,0.0],[111.21732,-8.03694,0.0],[111.21598,-8.03449,0.0],[111.2139,-8.03461,0.0],[111.2151,-8.03259,0.0],[111.21366,-8.0318,0.0],[111.21697,-8.02857,0.0],[111.21549,-8.02775,0.0],[111.216,-8.02597,0.0],[111.21496,-8.02499,0.0],[111.21636,-8.0233,0.0],[111.21391,-8.02176,0.0],[111.21689,-8.0221,0.0],[111.21753,-8.0199,0.0],[111.22022,-8.02022,0.0],[111.22114,-8.01872,0.0],[111.22313,-8.02025,0.0],[111.22916,-8.01843,0.0],[111.22927,-8.01693,0.0],[111.22764,-8.01623,0.0],[111.22869,-8.01339,0.0],[111.23231,-8.0102,0.0],[111.23222,-8.00781,0.0],[111.23945,-7.99671,0.0],[111.24042,-7.99272,0.0],[111.23457,-7.98954,0.0],[111.23161,-7.98639,0.0],[111.22402,-7.98592,0.0],[111.21195,-7.98148,0.0],[111.21417,-7.97713,0.0],[111.21454,-7.96951,0.0],[111.21763,-7.96316,0.0],[111.2165,-7.9616,0.0],[111.21799,-7.9608,0.0],[111.21911,-7.95667,0.0],[111.2177,-7.95117,0.0],[111.2226,-7.94612,0.0],[111.22296,-7.94334,0.0],[111.22467,-7.94162,0.0],[111.22554,-7.93294,0.0],[111.22796,-7.93519,0.0],[111.2281,-7.9406,0.0],[111.23072,-7.94264,0.0],[111.23115,-7.94843,0.0],[111.23462,-7.94815,0.0],[111.23736,-7.94601,0.0],[111.25,-7.94597,0.0],[111.25798,-7.939,0.0],[111.26609,-7.93464,0.0],[111.27015,-7.92952,0.0],[111.27192,-7.93042,0.0],[111.27261,-7.92344,0.0],[111.28112,-7.91847,0.0],[111.2838,-7.92057,0.0],[111.28628,-7.92078,0.0],[111.28668,-7.93909,0.0],[111.29866,-7.94062,0.0],[111.30918,-7.93536,0.0],[111.31387,-7.93499,0.0],[111.31632,-7.93634,0.0],[111.31763,-7.94122,0.0],[111.32271,-7.94556,0.0],[111.32264,-7.94981,0.0],[111.32653,-7.95527,0.0],[111.3254,-7.96066,0.0],[111.32621,-7.96591,0.0],[111.324,-7.96723,0.0],[111.3205,-7.96631,0.0],[111.31752,-7.97018,0.0],[111.31354,-7.97733,0.0],[111.31309,-7.98071,0.0],[111.31422,-7.98351,0.0],[111.31277,-7.98741,0.0],[111.31031,-7.98351,0.0],[111.30645,-7.98327,0.0],[111.3014,-7.99359,0.0],[111.29883,-7.99469,0.0],[111.2991,-8.00063,0.0],[111.29608,-8.00516,0.0],[111.29805,-8.00493,0.0],[111.30254,-8.0097,0.0],[111.30625,-8.01134,0.0],[111.3093,-8.00997,0.0],[111.30836,-8.01163,0.0],[111.30945,-8.01403,0.0],[111.30774,-8.02708,0.0],[111.30254,-8.0302,0.0],[111.29844,-8.03975,0.0],[111.29719,-8.03971,0.0],[111.2957,-8.03438,0.0],[111.29332,-8.03254,0.0],[111.28691,-8.03383,0.0],[111.28563,-8.03682,0.0],[111.28312,-8.03763,0.0],[111.27738,-8.03343,0.0],[111.26964,-8.02323,0.0],[111.26541,-8.02314,0.0],[111.26204,-8.02017,0.0],[111.25989,-8.01464,0.0],[111.25541,-8.01695,0.0],[111.25524,-8.02072,0.0],[111.25161,-8.0229,0.0],[111.24973,-8.02868,0.0],[111.24774,-8.03051,0.0],[111.24607,-8.04042,0.0],[111.2521,-8.04268,0.0],[111.25428,-8.04554,0.0],[111.25841,-8.04624,0.0],[111.25941,-8.04753,0.0],[111.25526,-8.05346,0.0],[111.25433,-8.06049,0.0]]]}},{"type":"Feature","properties":{"kecamatan":"Tegalombo","kab_kota":"Pacitan"},"geometry":{"type":"Polygon","coordinates":[[[111.2527,-8.11549,0.0],[111.24426,-8.11756,0.0],[111.24193,-8.12064,0.0],[111.2359,-8.11781,0.0],[111.2248,-8.11961,0.0],[111.21891,-8.11582,0.0],[111.22158,-8.11103,0.0],[111.22232,-8.10607,0.0],[111.21606,-8.09616,0.0],[111.21623,-8.09265,0.0],[111.21744,-8.092,0.0],[111.2148,-8.08812,0.0],[111.21476,-8.08471,0.0],[111.217,-8.08244,0.0],[111.22036,-8.08171,0.0],[111.22334,-8.08377,0.0],[111.22595,-8.08304,0.0],[111.2287,-8.08452,0.0],[111.22992,-8.08017,0.0],[111.23686,-8.07705,0.0],[111.24211,-8.07769,0.0],[111.24805,-8.07345,0.0],[111.25234,-8.07438,0.0],[111.25032,-8.07112,0.0],[111.25239,-8.07007,0.0],[111.25041,-8.06875,0.0],[111.25074,-8.06686,0.0],[111.24836,-8.06387,0.0],[111.25433,-8.06049,0.0],[111.25526,-8.05346,0.0],[111.25941,-8.04753,0.0],[111.25841,-8.04624,0.0],[111.25428,-8.04554,0.0],[111.2521,-8.04268,0.0],[111.24607,-8.04042,0.0],[111.24774,-8.03051,0.0],[111.24973,-8.02868,0.0],[111.25161,-8.0229,0.0],[111.25524,-8.02072,0.0],[111.25541,-8.01695,0.0],[111.25989,-8.01464,0.0],[111.26204,-8.02017,0.0],[111.26541,-8.02314,0.0],[111.26964,-8.02323,0.0],[111.27738,-8.03343,0.0],[111.28312,-8.03763,0.0],[111.28563,-8.03682,0.0],[111.28691,-8.03383,0.0],[111.29332,-8.03254,0.0],[111.2957,-8.03438,0.0],[111.29719,-8.03971,0.0],[111.29844,-8.03975,0.0],[111.30254,-8.0302,0.0],[111.30594,-8.02885,0.0],[111.30832,-8.02574,0.0],[111.30786,-8.02064,0.0],[111.30945,-8.01403,0.0],[111.30836,-8.01163,0.0],[111.3093,-8.00997,0.0],[111.30625,-8.01134,0.0],[111.30254,-8.0097,0.0],[111.29805,-8.00493,0.0],[111.29604,-8.00502,0.0],[111.2991,-8.00063,0.0],[111.29915,-7.99394,0.0],[111.3014,-7.99359,0.0],[111.30404,-7.98935,0.0],[111.3045,-7.98588,0.0],[111.30645,-7.98327,0.0],[111.31007,-7.98343,0.0],[111.31277,-7.98741,0.0],[111.31422,-7.98351,0.0],[111.31309,-7.98071,0.0],[111.31354,-7.97733,0.0],[111.32078,-7.96621,0.0],[111.324,-7.96723,0.0],[111.32621,-7.96591,0.0],[111.32768,-7.96797,0.0],[111.33174,-7.96783,0.0],[111.33931,-7.97232,0.0],[111.34025,-7.97554,0.0],[111.34586,-7.97568,0.0],[111.34956,-7.97945,0.0],[111.34841,-7.98621,0.0],[111.35009,-7.99058,0.0],[111.34989,-7.99517,0.0],[111.34384,-8.00639,0.0],[111.34808,-8.00756,0.0],[111.34949,-8.01167,0.0],[111.35136,-8.01224,0.0],[111.35427,-8.01055,0.0],[111.35989,-8.0145,0.0],[111.35991,-8.02159,0.0],[111.35825,-8.02591,0.0],[111.36179,-8.02964,0.0],[111.36452,-8.02892,0.0],[111.36637,-8.0303,0.0],[111.36706,-8.03303,0.0],[111.3647,-8.03445,0.0],[111.35754,-8.04701,0.0],[111.35377,-8.0492,0.0],[111.35297,-8.05355,0.0],[111.35044,-8.05642,0.0],[111.34922,-8.05625,0.0],[111.35042,-8.05871,0.0],[111.34906,-8.05985,0.0],[111.34908,-8.06417,0.0],[111.34634,-8.06624,0.0],[111.34714,-8.07259,0.0],[111.34904,-8.07422,0.0],[111.34889,-8.07662,0.0],[111.35313,-8.07714,0.0],[111.3545,-8.07903,0.0],[111.35434,-8.08099,0.0],[111.34886,-8.08416,0.0],[111.35109,-8.08569,0.0],[111.35,-8.08949,0.0],[111.34903,-8.0905,0.0],[111.34655,-8.08949,0.0],[111.34432,-8.09031,0.0],[111.34253,-8.09472,0.0],[111.34069,-8.09449,0.0],[111.33739,-8.09006,0.0],[111.33273,-8.09214,0.0],[111.33056,-8.0975,0.0],[111.32769,-8.09865,0.0],[111.3272,-8.10163,0.0],[111.32438,-8.10324,0.0],[111.32226,-8.10685,0.0],[111.32004,-8.10616,0.0],[111.31519,-8.10743,0.0],[111.31206,-8.10971,0.0],[111.31197,-8.11322,0.0],[111.30794,-8.11152,0.0],[111.30115,-8.1175,0.0],[111.30027,-8.12315,0.0],[111.29753,-8.12613,0.0],[111.29302,-8.12263,0.0],[111.28533,-8.12394,0.0],[111.2834,-8.12076,0.0],[111.27791,-8.1194,0.0],[111.27503,-8.12119,0.0],[111.27171,-8.12104,0.0],[111.26637,-8.11068,0.0],[111.26338,-8.11375,0.0],[111.25772,-8.11424,0.0],[111.25497,-8.11286,0.0],[111.2527,-8.11549,0.0]]]}},{"type":"Feature","properties":{"kecamatan":"Arjosari","kab_kota":"Pacitan"},"geometry":{"type":"Polygon","coordinates":[[[111.1664,-8.16,0.0],[111.16421,-8.16117,0.0],[111.15931,-8.16007,0.0],[111.15459,-8.15525,0.0],[111.15498,-8.15079,0.0],[111.15771,-8.14818,0.0],[111.15314,-8.14741,0.0],[111.144,-8.14877,0.0],[111.1355,-8.1405,0.0],[111.12766,-8.13501,0.0],[111.12536,-8.13629,0.0],[111.11929,-8.13609,0.0],[111.11119,-8.12832,0.0],[111.11931,-8.12501,0.0],[111.10161,-8.11902,0.0],[111.09576,-8.10985,0.0],[111.10371,-8.10482,0.0],[111.10167,-8.09967,0.0],[111.10373,-8.09807,0.0],[111.10279,-8.09519,0.0],[111.10502,-8.09088,0.0],[111.10214,-8.0897,0.0],[111.1017,-8.088,0.0],[111.10527,-8.07686,0.0],[111.10897,-8.07347,0.0],[111.11569,-8.07484,0.0],[111.11784,-8.07792,0.0],[111.12323,-8.0714,0.0],[111.125,-8.06514,0.0],[111.12218,-8.06054,0.0],[111.11758,-8.05927,0.0],[111.11765,-8.05657,0.0],[111.12081,-8.05336,0.0],[111.11674,-8.04194,0.0],[111.11951,-8.03971,0.0],[111.11999,-8.03503,0.0],[111.12819,-8.03204,0.0],[111.12932,-8.02726,0.0],[111.13258,-8.02349,0.0],[111.14126,-8.02815,0.0],[111.14532,-8.03325,0.0],[111.15438,-8.03611,0.0],[111.15871,-8.04161,0.0],[111.16146,-8.03951,0.0],[111.15885,-8.03466,0.0],[111.16072,-8.03184,0.0],[111.16986,-8.03249,0.0],[111.17331,-8.03442,0.0],[111.17341,-8.04211,0.0],[111.17443,-8.04355,0.0],[111.16882,-8.04787,0.0],[111.16921,-8.0506,0.0],[111.17293,-8.04857,0.0],[111.17538,-8.0499,0.0],[111.17758,-8.04902,0.0],[111.18007,-8.04987,0.0],[111.18417,-8.05471,0.0],[111.18368,-8.05861,0.0],[111.18492,-8.0632,0.0],[111.18949,-8.06719,0.0],[111.19191,-8.0716,0.0],[111.19379,-8.0712,0.0],[111.19436,-8.07237,0.0],[111.2032,-8.07048,0.0],[111.20617,-8.07412,0.0],[111.21455,-8.07591,0.0],[111.2138,-8.08035,0.0],[111.21512,-8.08247,0.0],[111.2148,-8.08812,0.0],[111.21744,-8.092,0.0],[111.21623,-8.09265,0.0],[111.21606,-8.09616,0.0],[111.22232,-8.10607,0.0],[111.2212,-8.11183,0.0],[111.2154,-8.11996,0.0],[111.20626,-8.11755,0.0],[111.20166,-8.11943,0.0],[111.19737,-8.12467,0.0],[111.19674,-8.12633,0.0],[111.20026,-8.13045,0.0],[111.20106,-8.13428,0.0],[111.19979,-8.13855,0.0],[111.19727,-8.14054,0.0],[111.19753,-8.14468,0.0],[111.1946,-8.15071,0.0],[111.18925,-8.15453,0.0],[111.18731,-8.15419,0.0],[111.18672,-8.15159,0.0],[111.18433,-8.15154,0.0],[111.18139,-8.15564,0.0],[111.18137,-8.15832,0.0],[111.17425,-8.16275,0.0],[111.16878,-8.16252,0.0],[111.1664,-8.16,0.0]]]}},{"type":"Feature","properties":{"kecamatan":"Nawangan","kab_kota":"Pacitan"},"geometry":{"type":"Polygon","coordinates":[[[111.21423,-8.05509,0.0],[111.20742,-8.0646,0.0],[111.20692,-8.06222,0.0],[111.20549,-8.06176,0.0],[111.20204,-8.06363,0.0],[111.19824,-8.06157,0.0],[111.19184,-8.06184,0.0],[111.19242,-8.05997,0.0],[111.19086,-8.05999,0.0],[111.18966,-8.05748,0.0],[111.18368,-8.05861,0.0],[111.18417,-8.05471,0.0],[111.17991,-8.04977,0.0],[111.17758,-8.04902,0.0],[111.17538,-8.0499,0.0],[111.17293,-8.04857,0.0],[111.16921,-8.0506,0.0],[111.16882,-8.04787,0.0],[111.17318,-8.0455,0.0],[111.17444,-8.04348,0.0],[111.17341,-8.04211,0.0],[111.17358,-8.03497,0.0],[111.17066,-8.0328,0.0],[111.16077,-8.03181,0.0],[111.15911,-8.03301,0.0],[111.15893,-8.03508,0.0],[111.16146,-8.03951,0.0],[111.15871,-8.04161,0.0],[111.15438,-8.03611,0.0],[111.14532,-8.03325,0.0],[111.14126,-8.02815,0.0],[111.13258,-8.02349,0.0],[111.13499,-8.02121,0.0],[111.13295,-8.01496,0.0],[111.13348,-8.00997,0.0],[111.13103,-8.00864,0.0],[111.13214,-8.00605,0.0],[111.12887,-8.00263,0.0],[111.12894,-7.99729,0.0],[111.13118,-7.99363,0.0],[111.12698,-7.98897,0.0],[111.126,-7.98224,0.0],[111.12328,-7.97996,0.0],[111.12734,-7.97572,0.0],[111.12563,-7.97032,0.0],[111.1267,-7.96838,0.0],[111.12973,-7.96751,0.0],[111.12953,-7.96279,0.0],[111.13993,-7.95551,0.0],[111.14107,-7.95318,0.0],[111.14464,-7.95267,0.0],[111.14556,-7.94855,0.0],[111.14031,-7.93962,0.0],[111.1402,-7.93691,0.0],[111.14127,-7.9342,0.0],[111.14839,-7.93,0.0],[111.14925,-7.92712,0.0],[111.15252,-7.9237,0.0],[111.15366,-7.92416,0.0],[111.15439,-7.92203,0.0],[111.15615,-7.92319,0.0],[111.15977,-7.9213,0.0],[111.16371,-7.92224,0.0],[111.16685,-7.91982,0.0],[111.17905,-7.91868,0.0],[111.18343,-7.91575,0.0],[111.18426,-7.91759,0.0],[111.19311,-7.92318,0.0],[111.19371,-7.9281,0.0],[111.19096,-7.93249,0.0],[111.19162,-7.9346,0.0],[111.19767,-7.93542,0.0],[111.2024,-7.93399,0.0],[111.20378,-7.93705,0.0],[111.20589,-7.93482,0.0],[111.21287,-7.93484,0.0],[111.21488,-7.93155,0.0],[111.22026,-7.92991,0.0],[111.22554,-7.93294,0.0],[111.22467,-7.94162,0.0],[111.22296,-7.94334,0.0],[111.2226,-7.94612,0.0],[111.2177,-7.95117,0.0],[111.21911,-7.95667,0.0],[111.21799,-7.9608,0.0],[111.2165,-7.9616,0.0],[111.21763,-7.96316,0.0],[111.21434,-7.97017,0.0],[111.21417,-7.97713,0.0],[111.21205,-7.98207,0.0],[111.22402,-7.98592,0.0],[111.23161,-7.98639,0.0],[111.24051,-7.99325,0.0],[111.23222,-8.00781,0.0],[111.23231,-8.0102,0.0],[111.22869,-8.01339,0.0],[111.22764,-8.01623,0.0],[111.22927,-8.01693,0.0],[111.22916,-8.01843,0.0],[111.22313,-8.02025,0.0],[111.22114,-8.01872,0.0],[111.22022,-8.02022,0.0],[111.21753,-8.0199,0.0],[111.21689,-8.0221,0.0],[111.21401,-8.02151,0.0],[111.21406,-8.02263,0.0],[111.21636,-8.0233,0.0],[111.21496,-8.02499,0.0],[111.216,-8.02597,0.0],[111.21549,-8.02775,0.0],[111.21697,-8.02857,0.0],[111.21366,-8.0318,0.0],[111.2151,-8.03259,0.0],[111.2139,-8.03461,0.0],[111.21598,-8.03449,0.0],[111.21732,-8.03694,0.0],[111.21922,-8.03654,0.0],[111.22085,-8.04028,0.0],[111.2242,-8.04054,0.0],[111.2285,-8.04637,0.0],[111.21987,-8.04984,0.0],[111.21707,-8.05469,0.0],[111.21423,-8.05509,0.0]]]}},{"type":"Feature","properties":{"kecamatan":"Ngadirojo","kab_kota":"Pacitan"},"geometry":{"type":"MultiPolygon","coordinates":[[[[111.28415,-8.27306,0.0],[111.2843,-8.27295,0.0],[111.28425,-8.27309,0.0],[111.28415,-8.27306,0.0]]],[[[111.28144,-8.27199,0.0],[111.28079,-8.27108,0.0],[111.2809,-8.27042,0.0],[111.28144,-8.27199,0.0]]],[[[111.28706,-8.26498,0.0],[111.28714,-8.26465,0.0],[111.28757,-8.26457,0.0],[111.28706,-8.26498,0.0]]],[[[111.32501,-8.24251,0.0],[111.32701,-8.24837,0.0],[111.32919,-8.2482,0.0],[111.32965,-8.25044,0.0],[111.32896,-8.25886,0.0],[111.32584,-8.26587,0.0],[111.32625,-8.27327,0.0],[111.32487,-8.27328,0.0],[111.3245,-8.27182,0.0],[111.32056,-8.26923,0.0],[111.31542,-8.27058,0.0],[111.31634,-8.26804,0.0],[111.31257,-8.267,0.0],[111.31195,-8.26781,0.0],[111.31356,-8.26209,0.0],[111.31633,-8.26099,0.0],[111.31438,-8.25888,0.0],[111.30212,-8.25694,0.0],[111.29634,-8.25812,0.0],[111.29564,-8.2636,0.0],[111.29447,-8.26258,0.0],[111.29307,-8.26364,0.0],[111.29327,-8.26201,0.0],[111.2914,-8.26256,0.0],[111.28917,-8.25948,0.0],[111.28762,-8.26004,0.0],[111.28832,-8.26223,0.0],[111.2868,-8.26269,0.0],[111.28703,-8.26571,0.0],[111.28832,-8.26666,0.0],[111.2949,-8.26615,0.0],[111.29264,-8.26986,0.0],[111.29311,-8.2715,0.0],[111.29086,-8.27112,0.0],[111.29193,-8.27408,0.0],[111.29029,-8.27347,0.0],[111.28846,-8.26953,0.0],[111.2845,-8.27284,0.0],[111.28486,-8.27162,0.0],[111.28059,-8.26946,0.0],[111.27917,-8.26989,0.0],[111.27952,-8.26854,0.0],[111.27789,-8.26666,0.0],[111.28125,-8.2644,0.0],[111.28173,-8.26196,0.0],[111.28471,-8.26105,0.0],[111.28488,-8.25917,0.0],[111.28134,-8.26135,0.0],[111.27927,-8.26081,0.0],[111.28102,-8.25709,0.0],[111.27785,-8.25385,0.0],[111.27317,-8.25164,0.0],[111.27381,-8.24956,0.0],[111.26549,-8.24764,0.0],[111.26091,-8.2475,0.0],[111.25887,-8.24891,0.0],[111.25787,-8.24768,0.0],[111.25601,-8.24822,0.0],[111.2546,-8.24589,0.0],[111.25845,-8.24114,0.0],[111.26266,-8.22306,0.0],[111.26531,-8.22164,0.0],[111.26698,-8.2243,0.0],[111.27554,-8.21794,0.0],[111.27864,-8.21699,0.0],[111.28316,-8.21775,0.0],[111.28826,-8.21389,0.0],[111.2867,-8.21241,0.0],[111.28678,-8.21043,0.0],[111.29101,-8.20103,0.0],[111.29057,-8.19781,0.0],[111.29189,-8.19434,0.0],[111.29396,-8.19929,0.0],[111.29833,-8.20061,0.0],[111.29975,-8.20459,0.0],[111.3018,-8.20586,0.0],[111.30556,-8.20549,0.0],[111.30792,-8.1954,0.0],[111.30153,-8.19332,0.0],[111.2995,-8.18617,0.0],[111.30081,-8.18307,0.0],[111.29549,-8.17733,0.0],[111.30215,-8.17559,0.0],[111.30761,-8.17557,0.0],[111.30846,-8.17685,0.0],[111.31119,-8.17459,0.0],[111.31512,-8.16474,0.0],[111.32053,-8.16539,0.0],[111.32305,-8.16431,0.0],[111.32971,-8.1718,0.0],[111.33092,-8.17061,0.0],[111.3335,-8.17169,0.0],[111.33188,-8.17299,0.0],[111.33226,-8.17777,0.0],[111.33383,-8.17682,0.0],[111.3368,-8.17023,0.0],[111.33944,-8.16821,0.0],[111.33676,-8.16333,0.0],[111.33752,-8.15449,0.0],[111.34122,-8.14727,0.0],[111.34046,-8.14613,0.0],[111.34473,-8.14209,0.0],[111.34249,-8.13811,0.0],[111.3425,-8.13344,0.0],[111.34836,-8.1309,0.0],[111.34947,-8.12856,0.0],[111.35371,-8.12617,0.0],[111.35717,-8.11923,0.0],[111.35881,-8.12015,0.0],[111.36145,-8.11895,0.0],[111.36248,-8.12122,0.0],[111.36754,-8.12128,0.0],[111.36938,-8.12242,0.0],[111.37001,-8.12425,0.0],[111.36915,-8.12627,0.0],[111.36793,-8.12606,0.0],[111.36879,-8.13086,0.0],[111.37059,-8.13082,0.0],[111.37185,-8.13284,0.0],[111.3743,-8.13272,0.0],[111.37627,-8.13609,0.0],[111.37822,-8.13538,0.0],[111.38004,-8.13673,0.0],[111.37998,-8.14029,0.0],[111.37874,-8.14108,0.0],[111.38077,-8.14381,0.0],[111.3791,-8.14453,0.0],[111.38075,-8.14562,0.0],[111.37965,-8.14834,0.0],[111.38139,-8.14848,0.0],[111.37839,-8.15104,0.0],[111.38046,-8.1536,0.0],[111.38001,-8.15513,0.0],[111.37676,-8.15451,0.0],[111.37595,-8.15537,0.0],[111.37896,-8.1577,0.0],[111.37771,-8.15987,0.0],[111.38366,-8.16628,0.0],[111.38271,-8.17403,0.0],[111.3784,-8.1776,0.0],[111.37448,-8.17564,0.0],[111.37061,-8.1869,0.0],[111.36272,-8.19413,0.0],[111.36104,-8.19742,0.0],[111.35742,-8.21013,0.0],[111.33603,-8.21875,0.0],[111.32746,-8.22642,0.0],[111.32808,-8.2375,0.0],[111.32555,-8.23964,0.0],[111.32501,-8.24251,0.0]]]]}},{"type":"Feature","properties":{"kecamatan":"Sudimoro","kab_kota":"Pacitan"},"geometry":{"type":"MultiPolygon","coordinates":[[[[111.32772,-8.27576,0.0],[111.32738,-8.27543,0.0],[111.32751,-8.27514,0.0],[111.32772,-8.27576,0.0]]],[[[111.37415,-8.2736,0.0],[111.37459,-8.27434,0.0],[111.3739,-8.27394,0.0],[111.37415,-8.2736,0.0]]],[[[111.35366,-8.26917,0.0],[111.3524,-8.26659,0.0],[111.35011,-8.26862,0.0],[111.34886,-8.26402,0.0],[111.34707,-8.26484,0.0],[111.34607,-8.26305,0.0],[111.34295,-8.26288,0.0],[111.3429,-8.26159,0.0],[111.33707,-8.26195,0.0],[111.33053,-8.2656,0.0],[111.32814,-8.26942,0.0],[111.32947,-8.27146,0.0],[111.32624,-8.27326,0.0],[111.32584,-8.26587,0.0],[111.32966,-8.25417,0.0],[111.32925,-8.24831,0.0],[111.32704,-8.24841,0.0],[111.32484,-8.2431,0.0],[111.32555,-8.23964,0.0],[111.32808,-8.2375,0.0],[111.32746,-8.22642,0.0],[111.33603,-8.21875,0.0],[111.35742,-8.21013,0.0],[111.36104,-8.19742,0.0],[111.36272,-8.19413,0.0],[111.37061,-8.1869,0.0],[111.37448,-8.17564,0.0],[111.3784,-8.1776,0.0],[111.38271,-8.17403,0.0],[111.38366,-8.16628,0.0],[111.38203,-8.16424,0.0],[111.38354,-8.16041,0.0],[111.38946,-8.15862,0.0],[111.39324,-8.15948,0.0],[111.39352,-8.16343,0.0],[111.3947,-8.16323,0.0],[111.3956,-8.16486,0.0],[111.39797,-8.16464,0.0],[111.398,-8.1667,0.0],[111.40555,-8.17265,0.0],[111.41109,-8.17097,0.0],[111.41567,-8.17184,0.0],[111.41748,-8.16881,0.0],[111.4212,-8.17165,0.0],[111.42266,-8.16943,0.0],[111.42481,-8.17037,0.0],[111.42658,-8.17558,0.0],[111.42513,-8.17943,0.0],[111.42557,-8.18336,0.0],[111.42388,-8.18473,0.0],[111.42427,-8.19137,0.0],[111.41858,-8.19033,0.0],[111.40351,-8.19703,0.0],[111.40302,-8.20218,0.0],[111.40426,-8.20814,0.0],[111.40891,-8.21266,0.0],[111.40454,-8.2197,0.0],[111.40041,-8.22073,0.0],[111.40179,-8.22406,0.0],[111.40082,-8.22704,0.0],[111.39683,-8.22824,0.0],[111.39586,-8.22745,0.0],[111.39217,-8.23318,0.0],[111.39346,-8.23737,0.0],[111.39841,-8.24126,0.0],[111.4015,-8.25093,0.0],[111.40439,-8.25342,0.0],[111.40639,-8.25838,0.0],[111.40479,-8.26613,0.0],[111.40319,-8.2678,0.0],[111.40352,-8.27042,0.0],[111.40239,-8.27204,0.0],[111.40074,-8.27202,0.0],[111.40071,-8.27491,0.0],[111.39877,-8.27443,0.0],[111.39858,-8.27746,0.0],[111.39404,-8.27523,0.0],[111.39257,-8.27738,0.0],[111.3918,-8.27603,0.0],[111.39081,-8.27678,0.0],[111.39078,-8.27381,0.0],[111.38829,-8.27501,0.0],[111.38747,-8.27322,0.0],[111.3858,-8.27448,0.0],[111.38714,-8.27771,0.0],[111.38296,-8.27534,0.0],[111.37869,-8.27504,0.0],[111.37751,-8.27629,0.0],[111.37624,-8.2753,0.0],[111.37774,-8.27421,0.0],[111.37605,-8.27278,0.0],[111.37744,-8.27202,0.0],[111.37579,-8.26597,0.0],[111.37318,-8.26792,0.0],[111.37243,-8.26805,0.0],[111.36998,-8.26735,0.0],[111.37381,-8.26733,0.0],[111.37515,-8.26576,0.0],[111.37458,-8.26396,0.0],[111.37108,-8.26204,0.0],[111.37093,-8.26329,0.0],[111.37205,-8.26351,0.0],[111.37044,-8.2641,0.0],[111.37056,-8.26292,0.0],[111.36826,-8.26251,0.0],[111.36744,-8.26041,0.0],[111.36094,-8.2634,0.0],[111.36011,-8.26592,0.0],[111.35876,-8.26546,0.0],[111.35778,-8.27029,0.0],[111.35568,-8.2697,0.0],[111.35515,-8.26759,0.0],[111.35366,-8.26917,0.0]]],[[[111.39038,-8.27721,0.0],[111.39039,-8.27699,0.0],[111.39049,-8.27697,0.0],[111.39038,-8.27721,0.0]]]]}},{"type":"Feature","properties":{"kecamatan":"Tulakan","kab_kota":"Pacitan"},"geometry":{"type":"MultiPolygon","coordinates":[[[[111.255,-8.25451,0.0],[111.25475,-8.25494,0.0],[111.25444,-8.25462,0.0],[111.255,-8.25451,0.0]]],[[[111.26178,-8.22459,0.0],[111.25845,-8.24114,0.0],[111.25468,-8.24504,0.0],[111.25718,-8.25001,0.0],[111.25458,-8.25277,0.0],[111.25487,-8.2539,0.0],[111.25388,-8.25269,0.0],[111.25161,-8.25369,0.0],[111.24546,-8.25284,0.0],[111.24002,-8.25565,0.0],[111.2372,-8.2558,0.0],[111.236,-8.25864,0.0],[111.23278,-8.25915,0.0],[111.23089,-8.25418,0.0],[111.23094,-8.24923,0.0],[111.22828,-8.24456,0.0],[111.22824,-8.24103,0.0],[111.22273,-8.2332,0.0],[111.22165,-8.22663,0.0],[111.2188,-8.22028,0.0],[111.22142,-8.21295,0.0],[111.21618,-8.20893,0.0],[111.21431,-8.20376,0.0],[111.21184,-8.20172,0.0],[111.21347,-8.19914,0.0],[111.21085,-8.19753,0.0],[111.20749,-8.19114,0.0],[111.20702,-8.18689,0.0],[111.20817,-8.18356,0.0],[111.20463,-8.17904,0.0],[111.21115,-8.17878,0.0],[111.22141,-8.17595,0.0],[111.22344,-8.17432,0.0],[111.22483,-8.1702,0.0],[111.22263,-8.16685,0.0],[111.2239,-8.16574,0.0],[111.22369,-8.16132,0.0],[111.22052,-8.15796,0.0],[111.21413,-8.15762,0.0],[111.20657,-8.1614,0.0],[111.20375,-8.15869,0.0],[111.18822,-8.16046,0.0],[111.18131,-8.15819,0.0],[111.18139,-8.15564,0.0],[111.18433,-8.15154,0.0],[111.18672,-8.15159,0.0],[111.18731,-8.15419,0.0],[111.18925,-8.15453,0.0],[111.1958,-8.14908,0.0],[111.19758,-8.14444,0.0],[111.19727,-8.14054,0.0],[111.19979,-8.13855,0.0],[111.20106,-8.13428,0.0],[111.20026,-8.13045,0.0],[111.19674,-8.12633,0.0],[111.19737,-8.12467,0.0],[111.20166,-8.11943,0.0],[111.20626,-8.11755,0.0],[111.21473,-8.12024,0.0],[111.21891,-8.11582,0.0],[111.2248,-8.11961,0.0],[111.2359,-8.11781,0.0],[111.24193,-8.12064,0.0],[111.24621,-8.11627,0.0],[111.2527,-8.11549,0.0],[111.25497,-8.11286,0.0],[111.25772,-8.11424,0.0],[111.26338,-8.11375,0.0],[111.26637,-8.11068,0.0],[111.27171,-8.12104,0.0],[111.27503,-8.12119,0.0],[111.27791,-8.1194,0.0],[111.2834,-8.12076,0.0],[111.28533,-8.12394,0.0],[111.29302,-8.12263,0.0],[111.29753,-8.12613,0.0],[111.30027,-8.12315,0.0],[111.30115,-8.1175,0.0],[111.30794,-8.11152,0.0],[111.31197,-8.11322,0.0],[111.31206,-8.10971,0.0],[111.31519,-8.10743,0.0],[111.32004,-8.10616,0.0],[111.32226,-8.10685,0.0],[111.32438,-8.10324,0.0],[111.3272,-8.10163,0.0],[111.32769,-8.09865,0.0],[111.33056,-8.0975,0.0],[111.33273,-8.09214,0.0],[111.33739,-8.09006,0.0],[111.34069,-8.09449,0.0],[111.34253,-8.09472,0.0],[111.34432,-8.09031,0.0],[111.34655,-8.08949,0.0],[111.34903,-8.0905,0.0],[111.35,-8.08949,0.0],[111.35109,-8.08569,0.0],[111.35449,-8.08487,0.0],[111.35441,-8.08891,0.0],[111.35921,-8.08788,0.0],[111.35946,-8.08995,0.0],[111.35805,-8.0916,0.0],[111.36159,-8.09498,0.0],[111.36248,-8.09962,0.0],[111.35977,-8.10434,0.0],[111.36018,-8.10587,0.0],[111.35868,-8.10655,0.0],[111.35584,-8.10442,0.0],[111.35454,-8.10545,0.0],[111.35219,-8.10497,0.0],[111.3464,-8.10857,0.0],[111.34728,-8.11428,0.0],[111.35283,-8.11683,0.0],[111.35511,-8.11616,0.0],[111.35535,-8.12174,0.0],[111.35643,-8.12234,0.0],[111.34836,-8.1309,0.0],[111.34245,-8.13352,0.0],[111.34249,-8.13811,0.0],[111.34473,-8.14209,0.0],[111.34046,-8.14613,0.0],[111.34122,-8.14727,0.0],[111.33752,-8.15449,0.0],[111.33676,-8.16333,0.0],[111.33944,-8.16821,0.0],[111.3368,-8.17023,0.0],[111.33383,-8.17682,0.0],[111.33226,-8.17777,0.0],[111.33188,-8.17299,0.0],[111.3335,-8.17169,0.0],[111.33092,-8.17061,0.0],[111.32971,-8.1718,0.0],[111.32305,-8.16431,0.0],[111.32053,-8.16539,0.0],[111.31512,-8.16474,0.0],[111.31119,-8.17459,0.0],[111.30846,-8.17685,0.0],[111.30761,-8.17557,0.0],[111.30215,-8.17559,0.0],[111.29549,-8.17733,0.0],[111.30081,-8.18307,0.0],[111.2995,-8.18617,0.0],[111.30153,-8.19332,0.0],[111.30792,-8.1954,0.0],[111.30556,-8.20549,0.0],[111.3018,-8.20586,0.0],[111.29975,-8.20459,0.0],[111.29833,-8.20061,0.0],[111.29396,-8.19929,0.0],[111.29189,-8.19434,0.0],[111.29057,-8.19781,0.0],[111.29101,-8.20103,0.0],[111.28678,-8.21043,0.0],[111.2867,-8.21241,0.0],[111.28826,-8.21389,0.0],[111.28747,-8.21491,0.0],[111.28316,-8.21775,0.0],[111.27864,-8.21699,0.0],[111.27554,-8.21794,0.0],[111.26698,-8.2243,0.0],[111.26531,-8.22164,0.0],[111.2641,-8.22179,0.0],[111.26178,-8.22459,0.0]]]]}}]}