{"type":"FeatureCollection","features":[{"type":"Feature","properties":{"kecamatan":"Poncol","kab_kota":"Magetan"},"geometry":{"type":"Polygon","coordinates":[[[111.3003,-7.73509,0.0],[111.30487,-7.73631,0.0],[111.30769,-7.73942,0.0],[111.30489,-7.74103,0.0],[111.30267,-7.74074,0.0],[111.29747,-7.75598,0.0],[111.29373,-7.75892,0.0],[111.29354,-7.75716,0.0],[111.29071,-7.75493,0.0],[111.28314,-7.75419,0.0],[111.28739,-7.74703,0.0],[111.28892,-7.74153,0.0],[111.28516,-7.74213,0.0],[111.27455,-7.73748,0.0],[111.27126,-7.73779,0.0],[111.2708,-7.73994,0.0],[111.26799,-7.73876,0.0],[111.26395,-7.74288,0.0],[111.25746,-7.74295,0.0],[111.25652,-7.74606,0.0],[111.25237,-7.7447,0.0],[111.24958,-7.74525,0.0],[111.24449,-7.74046,0.0],[111.24279,-7.74072,0.0],[111.23957,-7.74416,0.0],[111.24109,-7.74525,0.0],[111.23649,-7.75032,0.0],[111.23051,-7.74563,0.0],[111.22529,-7.74419,0.0],[111.22314,-7.74042,0.0],[111.22314,-7.73765,0.0],[111.21907,-7.73492,0.0],[111.21814,-7.73154,0.0],[111.21344,-7.72954,0.0],[111.21358,-7.72415,0.0],[111.212,-7.7222,0.0],[111.20574,-7.71996,0.0],[111.19944,-7.7201,0.0],[111.19716,-7.71656,0.0],[111.19337,-7.7148,0.0],[111.19076,-7.71149,0.0],[111.18497,-7.71233,0.0],[111.18153,-7.71084,0.0],[111.18168,-7.70462,0.0],[111.18346,-7.70333,0.0],[111.18613,-7.69543,0.0],[111.18292,-7.69265,0.0],[111.18251,-7.68934,0.0],[111.18768,-7.68501,0.0],[111.19465,-7.68646,0.0],[111.19983,-7.69204,0.0],[111.20424,-7.6947,0.0],[111.20673,-7.699,0.0],[111.21467,-7.70061,0.0],[111.22249,-7.70665,0.0],[111.22637,-7.70747,0.0],[111.23083,-7.71082,0.0],[111.24163,-7.7092,0.0],[111.24421,-7.71092,0.0],[111.24808,-7.71033,0.0],[111.25372,-7.70559,0.0],[111.26822,-7.69992,0.0],[111.27019,-7.69966,0.0],[111.27161,-7.70144,0.0],[111.27536,-7.69988,0.0],[111.27812,-7.70117,0.0],[111.28784,-7.69482,0.0],[111.29849,-7.69453,0.0],[111.30127,-7.69977,0.0],[111.30103,-7.70297,0.0],[111.30225,-7.70486,0.0],[111.29722,-7.70879,0.0],[111.29812,-7.71022,0.0],[111.30157,-7.70964,0.0],[111.30107,-7.71282,0.0],[111.29593,-7.71459,0.0],[111.29955,-7.72215,0.0],[111.29872,-7.73176,0.0],[111.30102,-7.73459,0.0],[111.3003,-7.73509,0.0]]]}},{"type":"Feature","properties":{"kecamatan":"Parang","kab_kota":"Magetan"},"geometry":{"type":"Polygon","coordinates":[[[111.33811,-7.79002,0.0],[111.33701,-7.79475,0.0],[111.33074,-7.7955,0.0],[111.32986,-7.79999,0.0],[111.32763,-7.80041,0.0],[111.3211,-7.79755,0.0],[111.31472,-7.79217,0.0],[111.30768,-7.79771,0.0],[111.3016,-7.79668,0.0],[111.30222,-7.7956,0.0],[111.30047,-7.79569,0.0],[111.30012,-7.79331,0.0],[111.2979,-7.79422,0.0],[111.29782,-7.79314,0.0],[111.29579,-7.7931,0.0],[111.2944,-7.79431,0.0],[111.29128,-7.79293,0.0],[111.29021,-7.79413,0.0],[111.28206,-7.78489,0.0],[111.28237,-7.76707,0.0],[111.28351,-7.7645,0.0],[111.28894,-7.76097,0.0],[111.29026,-7.75808,0.0],[111.28908,-7.75484,0.0],[111.29354,-7.75716,0.0],[111.29373,-7.75892,0.0],[111.29595,-7.75812,0.0],[111.30267,-7.74074,0.0],[111.30489,-7.74103,0.0],[111.30769,-7.73942,0.0],[111.30487,-7.73631,0.0],[111.30067,-7.73554,0.0],[111.2988,-7.73201,0.0],[111.29931,-7.72174,0.0],[111.31046,-7.71667,0.0],[111.31713,-7.71746,0.0],[111.32287,-7.71515,0.0],[111.32463,-7.71556,0.0],[111.32602,-7.714,0.0],[111.3328,-7.71311,0.0],[111.33638,-7.70861,0.0],[111.33977,-7.70729,0.0],[111.34184,-7.70373,0.0],[111.3395,-7.70216,0.0],[111.3392,-7.70052,0.0],[111.34402,-7.69777,0.0],[111.35047,-7.69816,0.0],[111.35324,-7.69982,0.0],[111.35445,-7.69842,0.0],[111.36877,-7.70423,0.0],[111.37382,-7.70193,0.0],[111.3807,-7.70623,0.0],[111.3834,-7.71152,0.0],[111.37552,-7.7224,0.0],[111.36742,-7.72509,0.0],[111.36094,-7.72323,0.0],[111.35947,-7.72515,0.0],[111.36207,-7.72968,0.0],[111.36307,-7.73834,0.0],[111.3673,-7.74036,0.0],[111.37178,-7.73973,0.0],[111.37522,-7.7413,0.0],[111.37434,-7.74243,0.0],[111.37542,-7.74444,0.0],[111.37405,-7.74751,0.0],[111.36979,-7.74861,0.0],[111.36986,-7.75129,0.0],[111.36825,-7.75448,0.0],[111.36638,-7.75535,0.0],[111.36618,-7.7579,0.0],[111.36386,-7.75658,0.0],[111.36471,-7.75929,0.0],[111.36273,-7.76749,0.0],[111.36377,-7.76589,0.0],[111.36732,-7.76645,0.0],[111.36277,-7.77563,0.0],[111.36029,-7.78491,0.0],[111.35689,-7.78337,0.0],[111.34196,-7.78368,0.0],[111.33811,-7.79002,0.0]]]}},{"type":"Feature","properties":{"kecamatan":"Kawedanan","kab_kota":"Magetan"},"geometry":{"type":"Polygon","coordinates":[[[111.39336,-7.71864,0.0],[111.3867,-7.71169,0.0],[111.3834,-7.71152,0.0],[111.3814,-7.70694,0.0],[111.3742,-7.70213,0.0],[111.37539,-7.70055,0.0],[111.37095,-7.69949,0.0],[111.37036,-7.6968,0.0],[111.36735,-7.69362,0.0],[111.36665,-7.69034,0.0],[111.37004,-7.68743,0.0],[111.37542,-7.68619,0.0],[111.37933,-7.68285,0.0],[111.38324,-7.6829,0.0],[111.38486,-7.67665,0.0],[111.3879,-7.67782,0.0],[111.38977,-7.67542,0.0],[111.38844,-7.67285,0.0],[111.3832,-7.67148,0.0],[111.38178,-7.66998,0.0],[111.38074,-7.6717,0.0],[111.38021,-7.66984,0.0],[111.37752,-7.66924,0.0],[111.37798,-7.66836,0.0],[111.37224,-7.667,0.0],[111.37256,-7.66238,0.0],[111.38945,-7.66155,0.0],[111.39063,-7.66272,0.0],[111.39296,-7.66153,0.0],[111.39836,-7.66273,0.0],[111.40069,-7.66119,0.0],[111.40547,-7.66269,0.0],[111.40836,-7.66087,0.0],[111.41141,-7.66368,0.0],[111.41295,-7.66244,0.0],[111.41538,-7.66356,0.0],[111.41549,-7.66517,0.0],[111.42309,-7.66634,0.0],[111.42304,-7.66841,0.0],[111.42715,-7.67098,0.0],[111.42919,-7.67074,0.0],[111.4313,-7.67497,0.0],[111.43238,-7.67203,0.0],[111.43445,-7.67507,0.0],[111.43536,-7.67168,0.0],[111.43956,-7.67405,0.0],[111.44268,-7.67414,0.0],[111.44149,-7.67884,0.0],[111.44377,-7.67943,0.0],[111.44372,-7.68296,0.0],[111.44037,-7.68283,0.0],[111.43959,-7.68593,0.0],[111.43612,-7.68537,0.0],[111.43576,-7.68769,0.0],[111.43814,-7.68897,0.0],[111.4379,-7.69133,0.0],[111.4355,-7.69234,0.0],[111.43083,-7.69144,0.0],[111.42713,-7.69794,0.0],[111.427,-7.70085,0.0],[111.43336,-7.70571,0.0],[111.43407,-7.70917,0.0],[111.43676,-7.71302,0.0],[111.43578,-7.71307,0.0],[111.43601,-7.7203,0.0],[111.43367,-7.73028,0.0],[111.41339,-7.72854,0.0],[111.40452,-7.72523,0.0],[111.40055,-7.7252,0.0],[111.39545,-7.72333,0.0],[111.39336,-7.71864,0.0]]]}},{"type":"Feature","properties":{"kecamatan":"Magetan","kab_kota":"Magetan"},"geometry":{"type":"Polygon","coordinates":[[[111.32666,-7.66293,0.0],[111.32414,-7.66525,0.0],[111.32572,-7.66636,0.0],[111.32501,-7.66737,0.0],[111.31885,-7.6678,0.0],[111.31813,-7.6693,0.0],[111.30954,-7.67033,0.0],[111.30548,-7.6694,0.0],[111.30443,-7.66743,0.0],[111.3034,-7.66099,0.0],[111.3062,-7.65961,0.0],[111.30859,-7.65262,0.0],[111.30619,-7.65219,0.0],[111.30402,-7.65362,0.0],[111.30373,-7.65107,0.0],[111.30481,-7.65074,0.0],[111.30691,-7.64476,0.0],[111.30923,-7.64501,0.0],[111.30758,-7.64319,0.0],[111.31009,-7.64109,0.0],[111.30893,-7.63893,0.0],[111.31089,-7.63855,0.0],[111.31096,-7.63593,0.0],[111.31647,-7.63664,0.0],[111.31936,-7.63385,0.0],[111.3201,-7.6312,0.0],[111.31924,-7.62977,0.0],[111.32046,-7.62851,0.0],[111.3278,-7.62693,0.0],[111.33306,-7.62875,0.0],[111.32603,-7.63017,0.0],[111.32736,-7.63144,0.0],[111.33835,-7.63458,0.0],[111.34191,-7.6337,0.0],[111.34708,-7.63514,0.0],[111.34681,-7.63026,0.0],[111.35898,-7.62842,0.0],[111.36063,-7.62449,0.0],[111.35929,-7.62167,0.0],[111.36231,-7.62075,0.0],[111.36472,-7.62605,0.0],[111.36188,-7.62998,0.0],[111.36283,-7.6362,0.0],[111.36499,-7.63471,0.0],[111.36648,-7.63702,0.0],[111.36428,-7.63726,0.0],[111.36092,-7.63555,0.0],[111.35931,-7.63659,0.0],[111.35947,-7.63836,0.0],[111.35746,-7.63715,0.0],[111.35564,-7.63776,0.0],[111.35656,-7.6404,0.0],[111.35767,-7.63973,0.0],[111.35825,-7.64738,0.0],[111.36212,-7.64722,0.0],[111.36261,-7.65042,0.0],[111.35923,-7.65347,0.0],[111.35922,-7.65692,0.0],[111.35752,-7.65694,0.0],[111.35483,-7.66283,0.0],[111.35296,-7.66121,0.0],[111.34806,-7.66051,0.0],[111.34467,-7.66299,0.0],[111.34033,-7.66195,0.0],[111.33766,-7.66265,0.0],[111.33624,-7.66464,0.0],[111.32666,-7.66293,0.0]]]}},{"type":"Feature","properties":{"kecamatan":"Lembeyan","kab_kota":"Magetan"},"geometry":{"type":"Polygon","coordinates":[[[111.45396,-7.76019,0.0],[111.45165,-7.76487,0.0],[111.45316,-7.76864,0.0],[111.45023,-7.76996,0.0],[111.45184,-7.77152,0.0],[111.45182,-7.77395,0.0],[111.44991,-7.77852,0.0],[111.44655,-7.77955,0.0],[111.44636,-7.78079,0.0],[111.44512,-7.77962,0.0],[111.44381,-7.78046,0.0],[111.44202,-7.77833,0.0],[111.43909,-7.77978,0.0],[111.43643,-7.77882,0.0],[111.43343,-7.77986,0.0],[111.43104,-7.77771,0.0],[111.42424,-7.77794,0.0],[111.42257,-7.77671,0.0],[111.41705,-7.77801,0.0],[111.41322,-7.77585,0.0],[111.4093,-7.77958,0.0],[111.40759,-7.77751,0.0],[111.40099,-7.77806,0.0],[111.39836,-7.78121,0.0],[111.39466,-7.78081,0.0],[111.39068,-7.78219,0.0],[111.38917,-7.78139,0.0],[111.38445,-7.78319,0.0],[111.37935,-7.78134,0.0],[111.37754,-7.78268,0.0],[111.37393,-7.78205,0.0],[111.36029,-7.78491,0.0],[111.36277,-7.77563,0.0],[111.36732,-7.76645,0.0],[111.36377,-7.76589,0.0],[111.36273,-7.76749,0.0],[111.36471,-7.75929,0.0],[111.36386,-7.75658,0.0],[111.36618,-7.7579,0.0],[111.36638,-7.75535,0.0],[111.36825,-7.75448,0.0],[111.36986,-7.75129,0.0],[111.36979,-7.74861,0.0],[111.37405,-7.74751,0.0],[111.37542,-7.74444,0.0],[111.37434,-7.74243,0.0],[111.37522,-7.7413,0.0],[111.37178,-7.73973,0.0],[111.3673,-7.74036,0.0],[111.36307,-7.73834,0.0],[111.36207,-7.72968,0.0],[111.35959,-7.72482,0.0],[111.36094,-7.72323,0.0],[111.36742,-7.72509,0.0],[111.37352,-7.72352,0.0],[111.37552,-7.7224,0.0],[111.3834,-7.71152,0.0],[111.38622,-7.7116,0.0],[111.3924,-7.71708,0.0],[111.39584,-7.72365,0.0],[111.40452,-7.72523,0.0],[111.41339,-7.72854,0.0],[111.42827,-7.73061,0.0],[111.43318,-7.73003,0.0],[111.43555,-7.73248,0.0],[111.43828,-7.73153,0.0],[111.44196,-7.73362,0.0],[111.44463,-7.7327,0.0],[111.44778,-7.73891,0.0],[111.45238,-7.73977,0.0],[111.45438,-7.73782,0.0],[111.45619,-7.7379,0.0],[111.45487,-7.74226,0.0],[111.45751,-7.7435,0.0],[111.45787,-7.7453,0.0],[111.45537,-7.74624,0.0],[111.45242,-7.75257,0.0],[111.45268,-7.7541,0.0],[111.45552,-7.75583,0.0],[111.45291,-7.75837,0.0],[111.45396,-7.76019,0.0]]]}},{"type":"Feature","properties":{"kecamatan":"Takeran","kab_kota":"Magetan"},"geometry":{"type":"Polygon","coordinates":[[[111.4808,-7.7007,0.0],[111.48083,-7.7044,0.0],[111.47452,-7.70934,0.0],[111.46717,-7.70454,0.0],[111.46894,-7.70284,0.0],[111.46893,-7.69963,0.0],[111.47117,-7.69497,0.0],[111.47052,-7.69297,0.0],[111.45837,-7.69501,0.0],[111.45781,-7.6972,0.0],[111.45077,-7.69604,0.0],[111.45033,-7.69193,0.0],[111.44804,-7.69069,0.0],[111.44924,-7.68474,0.0],[111.44364,-7.68357,0.0],[111.44377,-7.67943,0.0],[111.44149,-7.67884,0.0],[111.44248,-7.67405,0.0],[111.44722,-7.67272,0.0],[111.45914,-7.65875,0.0],[111.46143,-7.65954,0.0],[111.46427,-7.65753,0.0],[111.46594,-7.65909,0.0],[111.46812,-7.6582,0.0],[111.47048,-7.65936,0.0],[111.47498,-7.65767,0.0],[111.47505,-7.65937,0.0],[111.47804,-7.65918,0.0],[111.47943,-7.66098,0.0],[111.48191,-7.66039,0.0],[111.48473,-7.66267,0.0],[111.49062,-7.65775,0.0],[111.49575,-7.65848,0.0],[111.49696,-7.65756,0.0],[111.50121,-7.65889,0.0],[111.50119,-7.65662,0.0],[111.50345,-7.65549,0.0],[111.50308,-7.65211,0.0],[111.50429,-7.64942,0.0],[111.51167,-7.64886,0.0],[111.51235,-7.65263,0.0],[111.50955,-7.65542,0.0],[111.51093,-7.66121,0.0],[111.50819,-7.662,0.0],[111.50583,-7.66736,0.0],[111.50273,-7.66862,0.0],[111.50167,-7.67139,0.0],[111.49865,-7.67407,0.0],[111.50121,-7.6912,0.0],[111.49733,-7.69452,0.0],[111.49816,-7.69871,0.0],[111.49405,-7.69989,0.0],[111.48878,-7.69905,0.0],[111.48513,-7.70292,0.0],[111.48194,-7.70025,0.0],[111.4808,-7.7007,0.0]]]}},{"type":"Feature","properties":{"kecamatan":"Sukomoro","kab_kota":"Magetan"},"geometry":{"type":"Polygon","coordinates":[[[111.37084,-7.66254,0.0],[111.3689,-7.66368,0.0],[111.36667,-7.66271,0.0],[111.36592,-7.66441,0.0],[111.36224,-7.66222,0.0],[111.35857,-7.66319,0.0],[111.35751,-7.66235,0.0],[111.35654,-7.66364,0.0],[111.35483,-7.66283,0.0],[111.35752,-7.65694,0.0],[111.35922,-7.65692,0.0],[111.35923,-7.65347,0.0],[111.36261,-7.65042,0.0],[111.36212,-7.64722,0.0],[111.35825,-7.64738,0.0],[111.35767,-7.63973,0.0],[111.35656,-7.6404,0.0],[111.35564,-7.63776,0.0],[111.35746,-7.63715,0.0],[111.35947,-7.63836,0.0],[111.35931,-7.63659,0.0],[111.36092,-7.63555,0.0],[111.36428,-7.63726,0.0],[111.36648,-7.63702,0.0],[111.36499,-7.63471,0.0],[111.36283,-7.6362,0.0],[111.36188,-7.62998,0.0],[111.36472,-7.62605,0.0],[111.36322,-7.62159,0.0],[111.36231,-7.62075,0.0],[111.35562,-7.62261,0.0],[111.34988,-7.62143,0.0],[111.34482,-7.62338,0.0],[111.33347,-7.62026,0.0],[111.34405,-7.61679,0.0],[111.34553,-7.60479,0.0],[111.34434,-7.60361,0.0],[111.34627,-7.60174,0.0],[111.34627,-7.59865,0.0],[111.35309,-7.59808,0.0],[111.36155,-7.59367,0.0],[111.36437,-7.59604,0.0],[111.36051,-7.60044,0.0],[111.36201,-7.60706,0.0],[111.36419,-7.60597,0.0],[111.36564,-7.60741,0.0],[111.37282,-7.60816,0.0],[111.37347,-7.60514,0.0],[111.37866,-7.60289,0.0],[111.37963,-7.60749,0.0],[111.38218,-7.60603,0.0],[111.38814,-7.5986,0.0],[111.39111,-7.59723,0.0],[111.39145,-7.59512,0.0],[111.39609,-7.59412,0.0],[111.39627,-7.59147,0.0],[111.39872,-7.59144,0.0],[111.39918,-7.59021,0.0],[111.40095,-7.59161,0.0],[111.40245,-7.58901,0.0],[111.40525,-7.59114,0.0],[111.40485,-7.59784,0.0],[111.40396,-7.59778,0.0],[111.4026,-7.60561,0.0],[111.40561,-7.60554,0.0],[111.40579,-7.62924,0.0],[111.40272,-7.63041,0.0],[111.40142,-7.62963,0.0],[111.40066,-7.63284,0.0],[111.39177,-7.63641,0.0],[111.39001,-7.64342,0.0],[111.38517,-7.64455,0.0],[111.38411,-7.65006,0.0],[111.38516,-7.65288,0.0],[111.39465,-7.65295,0.0],[111.39341,-7.65809,0.0],[111.39542,-7.662,0.0],[111.37084,-7.66254,0.0]]]}},{"type":"Feature","properties":{"kecamatan":"Plaosan","kab_kota":"Magetan"},"geometry":{"type":"Polygon","coordinates":[[[111.25477,-7.70533,0.0],[111.24762,-7.71044,0.0],[111.24421,-7.71092,0.0],[111.24163,-7.7092,0.0],[111.23063,-7.71079,0.0],[111.22637,-7.70747,0.0],[111.22249,-7.70665,0.0],[111.21467,-7.70061,0.0],[111.20673,-7.699,0.0],[111.20424,-7.6947,0.0],[111.19983,-7.69204,0.0],[111.19642,-7.68737,0.0],[111.18768,-7.68501,0.0],[111.18987,-7.67496,0.0],[111.19557,-7.67319,0.0],[111.19393,-7.67051,0.0],[111.18926,-7.66931,0.0],[111.18623,-7.66465,0.0],[111.1859,-7.65343,0.0],[111.18777,-7.64922,0.0],[111.18746,-7.63993,0.0],[111.18896,-7.62841,0.0],[111.19473,-7.62769,0.0],[111.1994,-7.6323,0.0],[111.20259,-7.63979,0.0],[111.20561,-7.64218,0.0],[111.20565,-7.64462,0.0],[111.21326,-7.65198,0.0],[111.22215,-7.65326,0.0],[111.22832,-7.65667,0.0],[111.23444,-7.65602,0.0],[111.2495,-7.65849,0.0],[111.25468,-7.65705,0.0],[111.25727,-7.6602,0.0],[111.25627,-7.66283,0.0],[111.25853,-7.66516,0.0],[111.2622,-7.66347,0.0],[111.26127,-7.66178,0.0],[111.26287,-7.66013,0.0],[111.26769,-7.66197,0.0],[111.26677,-7.66581,0.0],[111.26962,-7.66553,0.0],[111.27525,-7.66023,0.0],[111.27533,-7.66146,0.0],[111.27162,-7.66512,0.0],[111.27297,-7.66467,0.0],[111.27335,-7.66879,0.0],[111.27471,-7.66709,0.0],[111.27708,-7.67015,0.0],[111.27818,-7.6721,0.0],[111.27754,-7.67406,0.0],[111.27934,-7.67593,0.0],[111.29367,-7.67259,0.0],[111.29829,-7.66724,0.0],[111.29983,-7.66761,0.0],[111.29995,-7.66975,0.0],[111.302,-7.67105,0.0],[111.2994,-7.67295,0.0],[111.2974,-7.67271,0.0],[111.29608,-7.6748,0.0],[111.29624,-7.67604,0.0],[111.30019,-7.67631,0.0],[111.30247,-7.6815,0.0],[111.30515,-7.68328,0.0],[111.30328,-7.68581,0.0],[111.30249,-7.69065,0.0],[111.30368,-7.69076,0.0],[111.3026,-7.69219,0.0],[111.29886,-7.69451,0.0],[111.28784,-7.69482,0.0],[111.27812,-7.70117,0.0],[111.27536,-7.69988,0.0],[111.27161,-7.70144,0.0],[111.26906,-7.69976,0.0],[111.25477,-7.70533,0.0]]]}},{"type":"Feature","properties":{"kecamatan":"Panekan","kab_kota":"Magetan"},"geometry":{"type":"Polygon","coordinates":[[[111.29092,-7.6324,0.0],[111.28472,-7.63415,0.0],[111.28299,-7.6322,0.0],[111.28079,-7.63186,0.0],[111.28183,-7.63318,0.0],[111.281,-7.63765,0.0],[111.27825,-7.63736,0.0],[111.27767,-7.63884,0.0],[111.27437,-7.63691,0.0],[111.2699,-7.63641,0.0],[111.26667,-7.63766,0.0],[111.26153,-7.63752,0.0],[111.2584,-7.63594,0.0],[111.25827,-7.63451,0.0],[111.24829,-7.63838,0.0],[111.24166,-7.63719,0.0],[111.23326,-7.63828,0.0],[111.22073,-7.63717,0.0],[111.20661,-7.62989,0.0],[111.2055,-7.63048,0.0],[111.19947,-7.62815,0.0],[111.19478,-7.62737,0.0],[111.18896,-7.62841,0.0],[111.18914,-7.62652,0.0],[111.19289,-7.62549,0.0],[111.19276,-7.62024,0.0],[111.19402,-7.61836,0.0],[111.19509,-7.62009,0.0],[111.19979,-7.61601,0.0],[111.21696,-7.61444,0.0],[111.22116,-7.61141,0.0],[111.22562,-7.61104,0.0],[111.2269,-7.60948,0.0],[111.23199,-7.60992,0.0],[111.2401,-7.60634,0.0],[111.24899,-7.60026,0.0],[111.25259,-7.60326,0.0],[111.25629,-7.59921,0.0],[111.26063,-7.59833,0.0],[111.26113,-7.59977,0.0],[111.26498,-7.59865,0.0],[111.27413,-7.60056,0.0],[111.27561,-7.60171,0.0],[111.27502,-7.60343,0.0],[111.28767,-7.60337,0.0],[111.2884,-7.60245,0.0],[111.29111,-7.60369,0.0],[111.29248,-7.60205,0.0],[111.29428,-7.60216,0.0],[111.29618,-7.59926,0.0],[111.29681,-7.59529,0.0],[111.29546,-7.59342,0.0],[111.29816,-7.59359,0.0],[111.30151,-7.58682,0.0],[111.30635,-7.58523,0.0],[111.30924,-7.58565,0.0],[111.31495,-7.58296,0.0],[111.31609,-7.58585,0.0],[111.31556,-7.58907,0.0],[111.32368,-7.58383,0.0],[111.33217,-7.58522,0.0],[111.33308,-7.587,0.0],[111.33149,-7.59023,0.0],[111.33243,-7.59045,0.0],[111.33496,-7.58819,0.0],[111.34207,-7.58807,0.0],[111.34305,-7.58755,0.0],[111.3433,-7.58663,0.0],[111.34342,-7.58661,0.0],[111.34317,-7.59388,0.0],[111.34423,-7.59402,0.0],[111.34655,-7.59982,0.0],[111.34434,-7.60361,0.0],[111.34553,-7.60479,0.0],[111.34405,-7.61679,0.0],[111.33688,-7.61839,0.0],[111.33347,-7.62026,0.0],[111.34482,-7.62338,0.0],[111.35153,-7.62132,0.0],[111.35562,-7.62261,0.0],[111.35963,-7.62163,0.0],[111.36056,-7.62281,0.0],[111.35898,-7.62842,0.0],[111.34681,-7.63026,0.0],[111.34708,-7.63514,0.0],[111.34191,-7.6337,0.0],[111.33835,-7.63458,0.0],[111.32594,-7.63048,0.0],[111.33306,-7.62875,0.0],[111.33219,-7.62769,0.0],[111.3278,-7.62693,0.0],[111.32059,-7.62844,0.0],[111.31924,-7.62977,0.0],[111.3201,-7.6312,0.0],[111.31936,-7.63385,0.0],[111.31647,-7.63664,0.0],[111.31096,-7.63593,0.0],[111.31089,-7.63855,0.0],[111.30893,-7.63893,0.0],[111.31009,-7.64109,0.0],[111.30758,-7.64319,0.0],[111.30923,-7.64501,0.0],[111.30725,-7.64457,0.0],[111.30661,-7.6457,0.0],[111.29808,-7.64325,0.0],[111.29768,-7.64486,0.0],[111.29638,-7.64426,0.0],[111.29626,-7.64268,0.0],[111.29224,-7.64006,0.0],[111.29397,-7.63767,0.0],[111.2968,-7.63693,0.0],[111.2971,-7.63501,0.0],[111.29092,-7.6324,0.0]]]}},{"type":"Feature","properties":{"kecamatan":"Barat","kab_kota":"Magetan"},"geometry":{"type":"Polygon","coordinates":[[[111.47125,-7.56558,0.0],[111.4588,-7.57236,0.0],[111.45936,-7.57406,0.0],[111.45826,-7.57444,0.0],[111.4565,-7.57952,0.0],[111.44863,-7.57931,0.0],[111.44685,-7.5774,0.0],[111.4363,-7.57474,0.0],[111.4351,-7.57689,0.0],[111.43492,-7.5736,0.0],[111.43754,-7.57248,0.0],[111.43833,-7.56676,0.0],[111.43976,-7.56645,0.0],[111.43799,-7.56468,0.0],[111.43617,-7.56497,0.0],[111.43752,-7.55417,0.0],[111.43381,-7.552,0.0],[111.43772,-7.55252,0.0],[111.43793,-7.55059,0.0],[111.4353,-7.55013,0.0],[111.4363,-7.54472,0.0],[111.4328,-7.54467,0.0],[111.43448,-7.54283,0.0],[111.43551,-7.53215,0.0],[111.43899,-7.53232,0.0],[111.44086,-7.53049,0.0],[111.44061,-7.53484,0.0],[111.44171,-7.53548,0.0],[111.44261,-7.53427,0.0],[111.44268,-7.53608,0.0],[111.44578,-7.53519,0.0],[111.44559,-7.5386,0.0],[111.45154,-7.53778,0.0],[111.45312,-7.53861,0.0],[111.45666,-7.5298,0.0],[111.45699,-7.53069,0.0],[111.46034,-7.52892,0.0],[111.46866,-7.52882,0.0],[111.46736,-7.53544,0.0],[111.46516,-7.53536,0.0],[111.46477,-7.53868,0.0],[111.47423,-7.53924,0.0],[111.47351,-7.54118,0.0],[111.47458,-7.54174,0.0],[111.47145,-7.54753,0.0],[111.47641,-7.55092,0.0],[111.4803,-7.55183,0.0],[111.48343,-7.54995,0.0],[111.48343,-7.54819,0.0],[111.48605,-7.54869,0.0],[111.49047,-7.55026,0.0],[111.49191,-7.55262,0.0],[111.50278,-7.55611,0.0],[111.50359,-7.55753,0.0],[111.50162,-7.55659,0.0],[111.49995,-7.56152,0.0],[111.49964,-7.56505,0.0],[111.50137,-7.56507,0.0],[111.50045,-7.56746,0.0],[111.49316,-7.56736,0.0],[111.49297,-7.56631,0.0],[111.48809,-7.5652,0.0],[111.48625,-7.56613,0.0],[111.48572,-7.57093,0.0],[111.48281,-7.57016,0.0],[111.48231,-7.57143,0.0],[111.47399,-7.57077,0.0],[111.47459,-7.56878,0.0],[111.47274,-7.56819,0.0],[111.47305,-7.56676,0.0],[111.47125,-7.56558,0.0]]]}},{"type":"Feature","properties":{"kecamatan":"Karangrejo","kab_kota":"Magetan"},"geometry":{"type":"Polygon","coordinates":[[[111.43419,-7.58351,0.0],[111.42496,-7.5847,0.0],[111.41606,-7.58246,0.0],[111.41664,-7.57994,0.0],[111.41511,-7.57785,0.0],[111.41625,-7.5781,0.0],[111.41609,-7.57628,0.0],[111.41782,-7.57489,0.0],[111.41302,-7.57273,0.0],[111.40393,-7.57451,0.0],[111.40552,-7.56914,0.0],[111.40439,-7.56868,0.0],[111.40589,-7.56744,0.0],[111.40865,-7.56784,0.0],[111.40934,-7.56463,0.0],[111.40039,-7.56119,0.0],[111.40287,-7.55564,0.0],[111.40287,-7.5506,0.0],[111.40401,-7.55023,0.0],[111.40291,-7.5489,0.0],[111.40464,-7.549,0.0],[111.40691,-7.54383,0.0],[111.40037,-7.54151,0.0],[111.40181,-7.53876,0.0],[111.41437,-7.53731,0.0],[111.41578,-7.53647,0.0],[111.4159,-7.53319,0.0],[111.41909,-7.53363,0.0],[111.41855,-7.53671,0.0],[111.42051,-7.53641,0.0],[111.42235,-7.53365,0.0],[111.42419,-7.534,0.0],[111.42377,-7.53809,0.0],[111.43127,-7.53792,0.0],[111.43276,-7.53751,0.0],[111.43135,-7.53597,0.0],[111.43472,-7.53603,0.0],[111.43448,-7.54283,0.0],[111.4328,-7.54467,0.0],[111.4363,-7.54472,0.0],[111.4353,-7.55013,0.0],[111.43793,-7.55059,0.0],[111.43772,-7.55252,0.0],[111.43381,-7.552,0.0],[111.43752,-7.55417,0.0],[111.43617,-7.56497,0.0],[111.43799,-7.56468,0.0],[111.43976,-7.56645,0.0],[111.43833,-7.56676,0.0],[111.43754,-7.57248,0.0],[111.43492,-7.5736,0.0],[111.43559,-7.57538,0.0],[111.43419,-7.58351,0.0]],[[111.41466,-7.54599,0.0],[111.41746,-7.54408,0.0],[111.41717,-7.54119,0.0],[111.41361,-7.54108,0.0],[111.41297,-7.54547,0.0],[111.41466,-7.54599,0.0]]]}},{"type":"Feature","properties":{"kecamatan":"Bendo","kab_kota":"Magetan"},"geometry":{"type":"Polygon","coordinates":[[[111.42919,-7.67074,0.0],[111.42261,-7.66795,0.0],[111.42309,-7.66634,0.0],[111.41549,-7.66517,0.0],[111.41538,-7.66356,0.0],[111.41295,-7.66244,0.0],[111.41141,-7.66368,0.0],[111.40836,-7.66087,0.0],[111.40547,-7.66269,0.0],[111.40069,-7.66119,0.0],[111.3988,-7.66267,0.0],[111.39542,-7.662,0.0],[111.39341,-7.65809,0.0],[111.39465,-7.65295,0.0],[111.38516,-7.65288,0.0],[111.38411,-7.65006,0.0],[111.38517,-7.64455,0.0],[111.39001,-7.64342,0.0],[111.39177,-7.63641,0.0],[111.40066,-7.63284,0.0],[111.40142,-7.62963,0.0],[111.40272,-7.63041,0.0],[111.40579,-7.62924,0.0],[111.40619,-7.6143,0.0],[111.4079,-7.61211,0.0],[111.40852,-7.61315,0.0],[111.41168,-7.6125,0.0],[111.41237,-7.61365,0.0],[111.41955,-7.60985,0.0],[111.41901,-7.60871,0.0],[111.4223,-7.60498,0.0],[111.42137,-7.60419,0.0],[111.42849,-7.59713,0.0],[111.42943,-7.59742,0.0],[111.43144,-7.62634,0.0],[111.43243,-7.62748,0.0],[111.43086,-7.63128,0.0],[111.44296,-7.63496,0.0],[111.44438,-7.62978,0.0],[111.44573,-7.63016,0.0],[111.44738,-7.62215,0.0],[111.45166,-7.62022,0.0],[111.45072,-7.62792,0.0],[111.45305,-7.62855,0.0],[111.45415,-7.62479,0.0],[111.46007,-7.6263,0.0],[111.46,-7.62812,0.0],[111.46241,-7.62839,0.0],[111.46207,-7.63276,0.0],[111.46612,-7.63539,0.0],[111.46632,-7.63767,0.0],[111.4637,-7.63748,0.0],[111.46309,-7.63899,0.0],[111.46836,-7.63921,0.0],[111.46914,-7.64139,0.0],[111.47124,-7.63991,0.0],[111.47629,-7.64009,0.0],[111.47701,-7.63898,0.0],[111.48027,-7.64,0.0],[111.48125,-7.63633,0.0],[111.47911,-7.63644,0.0],[111.47938,-7.63343,0.0],[111.48132,-7.63233,0.0],[111.48369,-7.63386,0.0],[111.48529,-7.63141,0.0],[111.48694,-7.63235,0.0],[111.48136,-7.64101,0.0],[111.48694,-7.64147,0.0],[111.48702,-7.64422,0.0],[111.48496,-7.64638,0.0],[111.48408,-7.65449,0.0],[111.4817,-7.66069,0.0],[111.47505,-7.65937,0.0],[111.47498,-7.65767,0.0],[111.47048,-7.65936,0.0],[111.46812,-7.6582,0.0],[111.46594,-7.65909,0.0],[111.46427,-7.65753,0.0],[111.46143,-7.65954,0.0],[111.45914,-7.65875,0.0],[111.44963,-7.67035,0.0],[111.44453,-7.67426,0.0],[111.43956,-7.67405,0.0],[111.43536,-7.67168,0.0],[111.43445,-7.67507,0.0],[111.43238,-7.67203,0.0],[111.43153,-7.67504,0.0],[111.42919,-7.67074,0.0]]]}},{"type":"Feature","properties":{"kecamatan":"Maospati","kab_kota":"Magetan"},"geometry":{"type":"Polygon","coordinates":[[[111.44863,-7.57931,0.0],[111.4565,-7.57952,0.0],[111.45826,-7.57444,0.0],[111.45936,-7.57406,0.0],[111.4588,-7.57236,0.0],[111.47089,-7.56563,0.0],[111.47305,-7.56676,0.0],[111.47274,-7.56819,0.0],[111.47459,-7.56878,0.0],[111.47399,-7.57077,0.0],[111.47534,-7.5713,0.0],[111.48231,-7.57143,0.0],[111.48281,-7.57016,0.0],[111.48523,-7.57087,0.0],[111.48427,-7.57481,0.0],[111.48119,-7.57433,0.0],[111.47917,-7.57541,0.0],[111.47738,-7.58516,0.0],[111.47537,-7.58622,0.0],[111.47505,-7.59008,0.0],[111.4768,-7.59164,0.0],[111.47668,-7.59488,0.0],[111.47352,-7.59976,0.0],[111.47277,-7.6034,0.0],[111.47321,-7.6056,0.0],[111.47529,-7.60633,0.0],[111.47453,-7.60864,0.0],[111.47061,-7.609,0.0],[111.46884,-7.61475,0.0],[111.46418,-7.61561,0.0],[111.4584,-7.61954,0.0],[111.45452,-7.61895,0.0],[111.44738,-7.62215,0.0],[111.44573,-7.63016,0.0],[111.44438,-7.62978,0.0],[111.44296,-7.63496,0.0],[111.43086,-7.63128,0.0],[111.43243,-7.62748,0.0],[111.43144,-7.62634,0.0],[111.42943,-7.59742,0.0],[111.42699,-7.59772,0.0],[111.42691,-7.59953,0.0],[111.42594,-7.59905,0.0],[111.42574,-7.60087,0.0],[111.4214,-7.60416,0.0],[111.4223,-7.60498,0.0],[111.41901,-7.60871,0.0],[111.41955,-7.60985,0.0],[111.41239,-7.61364,0.0],[111.41159,-7.61247,0.0],[111.40843,-7.61313,0.0],[111.40812,-7.61199,0.0],[111.40593,-7.61415,0.0],[111.40561,-7.60554,0.0],[111.4026,-7.60561,0.0],[111.40543,-7.59356,0.0],[111.40387,-7.58614,0.0],[111.40575,-7.58577,0.0],[111.40623,-7.5839,0.0],[111.40686,-7.58564,0.0],[111.40779,-7.58538,0.0],[111.41045,-7.5807,0.0],[111.41268,-7.58148,0.0],[111.41325,-7.57848,0.0],[111.41599,-7.57882,0.0],[111.41606,-7.58246,0.0],[111.42264,-7.5843,0.0],[111.42527,-7.58468,0.0],[111.4308,-7.58281,0.0],[111.43415,-7.58356,0.0],[111.4363,-7.57474,0.0],[111.44685,-7.5774,0.0],[111.44863,-7.57931,0.0]]]}},{"type":"Feature","properties":{"kecamatan":"Ngariboyo","kab_kota":"Magetan"},"geometry":{"type":"Polygon","coordinates":[[[111.33305,-7.71295,0.0],[111.31713,-7.71746,0.0],[111.31046,-7.71667,0.0],[111.29931,-7.72174,0.0],[111.29823,-7.7205,0.0],[111.29593,-7.71459,0.0],[111.30107,-7.71282,0.0],[111.30157,-7.70964,0.0],[111.29802,-7.7102,0.0],[111.2973,-7.70843,0.0],[111.30225,-7.70486,0.0],[111.30103,-7.70297,0.0],[111.30127,-7.69977,0.0],[111.29849,-7.69453,0.0],[111.30348,-7.69136,0.0],[111.30249,-7.69065,0.0],[111.30328,-7.68581,0.0],[111.30518,-7.68342,0.0],[111.30247,-7.6815,0.0],[111.30019,-7.67631,0.0],[111.29624,-7.67604,0.0],[111.2974,-7.67271,0.0],[111.2994,-7.67295,0.0],[111.302,-7.67105,0.0],[111.29995,-7.66975,0.0],[111.30098,-7.66772,0.0],[111.30414,-7.6668,0.0],[111.30548,-7.6694,0.0],[111.30987,-7.67036,0.0],[111.31813,-7.6693,0.0],[111.31885,-7.6678,0.0],[111.32501,-7.66737,0.0],[111.32574,-7.66651,0.0],[111.32414,-7.66525,0.0],[111.3246,-7.66367,0.0],[111.32651,-7.66296,0.0],[111.33624,-7.66464,0.0],[111.33766,-7.66265,0.0],[111.34033,-7.66195,0.0],[111.34467,-7.66299,0.0],[111.34806,-7.66051,0.0],[111.35304,-7.66124,0.0],[111.35654,-7.66364,0.0],[111.35751,-7.66235,0.0],[111.35857,-7.66319,0.0],[111.36224,-7.66222,0.0],[111.36592,-7.66441,0.0],[111.36667,-7.66271,0.0],[111.36937,-7.66366,0.0],[111.37246,-7.6623,0.0],[111.37224,-7.667,0.0],[111.37798,-7.66836,0.0],[111.37752,-7.66924,0.0],[111.38021,-7.66984,0.0],[111.38074,-7.6717,0.0],[111.38178,-7.66998,0.0],[111.38928,-7.67365,0.0],[111.38867,-7.67756,0.0],[111.38482,-7.6767,0.0],[111.38324,-7.6829,0.0],[111.37933,-7.68285,0.0],[111.37542,-7.68619,0.0],[111.37137,-7.68663,0.0],[111.36671,-7.69021,0.0],[111.36735,-7.69362,0.0],[111.37036,-7.6968,0.0],[111.37095,-7.69949,0.0],[111.37539,-7.70055,0.0],[111.37499,-7.70194,0.0],[111.36877,-7.70423,0.0],[111.35445,-7.69842,0.0],[111.35324,-7.69982,0.0],[111.35047,-7.69816,0.0],[111.34402,-7.69777,0.0],[111.3392,-7.70052,0.0],[111.3395,-7.70216,0.0],[111.34184,-7.70373,0.0],[111.33977,-7.70729,0.0],[111.33638,-7.70861,0.0],[111.33305,-7.71295,0.0]]]}},{"type":"Feature","properties":{"kecamatan":"Nguntoronadi","kab_kota":"Magetan"},"geometry":{"type":"Polygon","coordinates":[[[111.45893,-7.72472,0.0],[111.46049,-7.72766,0.0],[111.45976,-7.73048,0.0],[111.45607,-7.73488,0.0],[111.45619,-7.7379,0.0],[111.45438,-7.73782,0.0],[111.45248,-7.73975,0.0],[111.44695,-7.73831,0.0],[111.44471,-7.73273,0.0],[111.44192,-7.73361,0.0],[111.43815,-7.73152,0.0],[111.43559,-7.73249,0.0],[111.43367,-7.73028,0.0],[111.43601,-7.7203,0.0],[111.43578,-7.71307,0.0],[111.43676,-7.71302,0.0],[111.43407,-7.70917,0.0],[111.43336,-7.70571,0.0],[111.427,-7.70085,0.0],[111.42713,-7.69794,0.0],[111.43083,-7.69144,0.0],[111.4355,-7.69234,0.0],[111.4379,-7.69133,0.0],[111.43814,-7.68897,0.0],[111.43576,-7.68769,0.0],[111.43612,-7.68537,0.0],[111.43959,-7.68593,0.0],[111.44037,-7.68283,0.0],[111.44924,-7.68474,0.0],[111.44804,-7.69069,0.0],[111.45033,-7.69193,0.0],[111.45077,-7.69604,0.0],[111.45781,-7.6972,0.0],[111.45837,-7.69501,0.0],[111.47052,-7.69297,0.0],[111.4711,-7.69407,0.0],[111.46894,-7.70284,0.0],[111.46717,-7.70454,0.0],[111.47452,-7.70934,0.0],[111.47068,-7.71264,0.0],[111.47069,-7.71859,0.0],[111.4641,-7.71929,0.0],[111.45893,-7.72472,0.0]]]}},{"type":"Feature","properties":{"kecamatan":"Karas","kab_kota":"Magetan"},"geometry":{"type":"Polygon","coordinates":[[[111.37866,-7.60289,0.0],[111.37347,-7.60514,0.0],[111.37282,-7.60816,0.0],[111.36564,-7.60741,0.0],[111.36419,-7.60597,0.0],[111.36201,-7.60706,0.0],[111.36051,-7.60044,0.0],[111.36402,-7.59676,0.0],[111.36394,-7.59523,0.0],[111.36155,-7.59367,0.0],[111.35309,-7.59808,0.0],[111.35192,-7.59741,0.0],[111.346,-7.59894,0.0],[111.34423,-7.59402,0.0],[111.34317,-7.59388,0.0],[111.34342,-7.58661,0.0],[111.34207,-7.58807,0.0],[111.33496,-7.58819,0.0],[111.33243,-7.59045,0.0],[111.33149,-7.58981,0.0],[111.33293,-7.58587,0.0],[111.32917,-7.58426,0.0],[111.33015,-7.58175,0.0],[111.3393,-7.57722,0.0],[111.34451,-7.57665,0.0],[111.3532,-7.57276,0.0],[111.35439,-7.57041,0.0],[111.366,-7.57025,0.0],[111.36572,-7.57307,0.0],[111.36951,-7.57385,0.0],[111.37203,-7.56751,0.0],[111.37172,-7.56296,0.0],[111.37425,-7.56072,0.0],[111.37326,-7.5586,0.0],[111.37239,-7.56022,0.0],[111.37113,-7.55993,0.0],[111.36769,-7.55641,0.0],[111.37229,-7.55145,0.0],[111.37356,-7.54678,0.0],[111.37534,-7.54698,0.0],[111.37802,-7.54447,0.0],[111.37807,-7.54188,0.0],[111.38356,-7.53713,0.0],[111.38855,-7.53807,0.0],[111.39344,-7.54088,0.0],[111.39992,-7.54058,0.0],[111.40157,-7.54228,0.0],[111.40691,-7.54383,0.0],[111.40464,-7.549,0.0],[111.40291,-7.5489,0.0],[111.40401,-7.55023,0.0],[111.40287,-7.5506,0.0],[111.40287,-7.55564,0.0],[111.40039,-7.56113,0.0],[111.40934,-7.56463,0.0],[111.40865,-7.56784,0.0],[111.40589,-7.56744,0.0],[111.40439,-7.56868,0.0],[111.40552,-7.56914,0.0],[111.40393,-7.57451,0.0],[111.4107,-7.57251,0.0],[111.41783,-7.57504,0.0],[111.41609,-7.57628,0.0],[111.41625,-7.5781,0.0],[111.41282,-7.57863,0.0],[111.41361,-7.57981,0.0],[111.41268,-7.58148,0.0],[111.4106,-7.58063,0.0],[111.40918,-7.58172,0.0],[111.40779,-7.58538,0.0],[111.40686,-7.58564,0.0],[111.40623,-7.5839,0.0],[111.40575,-7.58577,0.0],[111.40404,-7.5858,0.0],[111.40462,-7.59084,0.0],[111.40245,-7.58901,0.0],[111.40079,-7.59169,0.0],[111.39987,-7.59155,0.0],[111.40073,-7.59047,0.0],[111.39923,-7.5902,0.0],[111.39854,-7.59151,0.0],[111.39644,-7.59131,0.0],[111.39621,-7.59401,0.0],[111.39145,-7.59512,0.0],[111.39128,-7.59703,0.0],[111.38814,-7.5986,0.0],[111.3814,-7.60672,0.0],[111.37963,-7.60749,0.0],[111.37866,-7.60289,0.0]]]}},{"type":"Feature","properties":{"kecamatan":"Kartoharjo","kab_kota":"Magetan"},"geometry":{"type":"Polygon","coordinates":[[[111.46866,-7.52882,0.0],[111.45576,-7.53076,0.0],[111.45338,-7.53854,0.0],[111.44559,-7.5386,0.0],[111.44578,-7.53519,0.0],[111.44268,-7.53608,0.0],[111.44261,-7.53427,0.0],[111.44171,-7.53548,0.0],[111.44061,-7.53484,0.0],[111.44086,-7.53049,0.0],[111.43899,-7.53232,0.0],[111.43551,-7.53215,0.0],[111.43472,-7.53603,0.0],[111.43123,-7.5361,0.0],[111.43276,-7.53751,0.0],[111.42377,-7.53809,0.0],[111.42353,-7.53445,0.0],[111.42469,-7.53445,0.0],[111.42543,-7.53098,0.0],[111.42719,-7.53193,0.0],[111.43147,-7.53109,0.0],[111.43389,-7.52794,0.0],[111.43585,-7.52052,0.0],[111.43893,-7.51875,0.0],[111.43918,-7.51737,0.0],[111.44508,-7.51797,0.0],[111.44807,-7.51734,0.0],[111.44827,-7.51575,0.0],[111.45227,-7.51518,0.0],[111.46021,-7.51762,0.0],[111.46132,-7.5167,0.0],[111.46147,-7.51527,0.0],[111.46019,-7.51459,0.0],[111.46184,-7.51354,0.0],[111.46069,-7.51083,0.0],[111.46177,-7.50926,0.0],[111.46579,-7.50901,0.0],[111.46889,-7.51126,0.0],[111.47506,-7.513,0.0],[111.47636,-7.51583,0.0],[111.47878,-7.5153,0.0],[111.47867,-7.517,0.0],[111.48092,-7.51733,0.0],[111.48658,-7.51606,0.0],[111.48839,-7.51379,0.0],[111.49464,-7.51717,0.0],[111.49729,-7.51329,0.0],[111.50322,-7.51603,0.0],[111.50203,-7.51864,0.0],[111.51181,-7.52361,0.0],[111.508,-7.53633,0.0],[111.51143,-7.53833,0.0],[111.50789,-7.5474,0.0],[111.51101,-7.54827,0.0],[111.51454,-7.55136,0.0],[111.51345,-7.55359,0.0],[111.50419,-7.55269,0.0],[111.50297,-7.55622,0.0],[111.49191,-7.55262,0.0],[111.49047,-7.55026,0.0],[111.48402,-7.54813,0.0],[111.48343,-7.54995,0.0],[111.4803,-7.55183,0.0],[111.47662,-7.551,0.0],[111.47144,-7.54752,0.0],[111.47458,-7.54174,0.0],[111.47351,-7.54118,0.0],[111.47423,-7.53924,0.0],[111.46477,-7.53868,0.0],[111.46516,-7.53536,0.0],[111.46736,-7.53544,0.0],[111.46866,-7.52882,0.0]]]}},{"type":"Feature","properties":{"kecamatan":"Sidorejo","kab_kota":"Magetan"},"geometry":{"type":"Polygon","coordinates":[[[111.29506,-7.67202,0.0],[111.27934,-7.67593,0.0],[111.27754,-7.67406,0.0],[111.27818,-7.6721,0.0],[111.27708,-7.67015,0.0],[111.27471,-7.66709,0.0],[111.27335,-7.66879,0.0],[111.27297,-7.66467,0.0],[111.27162,-7.66512,0.0],[111.27533,-7.66146,0.0],[111.27525,-7.66023,0.0],[111.26962,-7.66553,0.0],[111.26677,-7.66581,0.0],[111.26769,-7.66197,0.0],[111.26287,-7.66013,0.0],[111.26127,-7.66178,0.0],[111.2622,-7.66347,0.0],[111.25853,-7.66516,0.0],[111.25627,-7.66283,0.0],[111.25727,-7.6602,0.0],[111.25468,-7.65705,0.0],[111.2495,-7.65849,0.0],[111.23444,-7.65602,0.0],[111.22832,-7.65667,0.0],[111.22215,-7.65326,0.0],[111.21326,-7.65198,0.0],[111.20588,-7.64491,0.0],[111.20561,-7.64218,0.0],[111.20259,-7.63979,0.0],[111.1994,-7.6323,0.0],[111.19433,-7.62738,0.0],[111.2055,-7.63048,0.0],[111.20661,-7.62989,0.0],[111.22073,-7.63717,0.0],[111.23326,-7.63828,0.0],[111.24166,-7.63719,0.0],[111.24829,-7.63838,0.0],[111.25827,-7.63451,0.0],[111.2584,-7.63594,0.0],[111.26153,-7.63752,0.0],[111.26667,-7.63766,0.0],[111.2699,-7.63641,0.0],[111.27437,-7.63691,0.0],[111.27767,-7.63884,0.0],[111.27825,-7.63736,0.0],[111.281,-7.63765,0.0],[111.28183,-7.63318,0.0],[111.28085,-7.63184,0.0],[111.28472,-7.63415,0.0],[111.29007,-7.63238,0.0],[111.29603,-7.63393,0.0],[111.29739,-7.63585,0.0],[111.2968,-7.63693,0.0],[111.29397,-7.63767,0.0],[111.29224,-7.64006,0.0],[111.29768,-7.64486,0.0],[111.29788,-7.64322,0.0],[111.30635,-7.64517,0.0],[111.30685,-7.64645,0.0],[111.30373,-7.65107,0.0],[111.30379,-7.65329,0.0],[111.30576,-7.65328,0.0],[111.30619,-7.65219,0.0],[111.30858,-7.65299,0.0],[111.3062,-7.65961,0.0],[111.3034,-7.66099,0.0],[111.30448,-7.66752,0.0],[111.30202,-7.6671,0.0],[111.30008,-7.66865,0.0],[111.29856,-7.66705,0.0],[111.29506,-7.67202,0.0]]]}}]}