{"type":"FeatureCollection","features":[{"type":"Feature","properties":{"kecamatan":"Burneh","kab_kota":"Bangkalan"},"geometry":{"type":"Polygon","coordinates":[[[112.78535,-7.08655,0.0],[112.78206,-7.08925,0.0],[112.77703,-7.0885,0.0],[112.76581,-7.08246,0.0],[112.76855,-7.07675,0.0],[112.7701,-7.07689,0.0],[112.77316,-7.06982,0.0],[112.76994,-7.06525,0.0],[112.76056,-7.05943,0.0],[112.76056,-7.05535,0.0],[112.75409,-7.0439,0.0],[112.7568,-7.03751,0.0],[112.75635,-7.03639,0.0],[112.75523,-7.03678,0.0],[112.75629,-7.03277,0.0],[112.77066,-7.02058,0.0],[112.77273,-7.01648,0.0],[112.77882,-7.01297,0.0],[112.78117,-7.01396,0.0],[112.78286,-7.01034,0.0],[112.78489,-7.01148,0.0],[112.78608,-7.0094,0.0],[112.78771,-7.00922,0.0],[112.78708,-7.00593,0.0],[112.79045,-6.99979,0.0],[112.80285,-7.00443,0.0],[112.80787,-7.00274,0.0],[112.80154,-6.99733,0.0],[112.80627,-6.98935,0.0],[112.80874,-6.98878,0.0],[112.8081,-6.98386,0.0],[112.8091,-6.98051,0.0],[112.81549,-6.98021,0.0],[112.8168,-6.97793,0.0],[112.81718,-6.97923,0.0],[112.82814,-6.98432,0.0],[112.82963,-6.98919,0.0],[112.83303,-6.99125,0.0],[112.83775,-6.99731,0.0],[112.83654,-6.99874,0.0],[112.83822,-7.00167,0.0],[112.83722,-7.00356,0.0],[112.83818,-7.00452,0.0],[112.8361,-7.00714,0.0],[112.83811,-7.00712,0.0],[112.83937,-7.00946,0.0],[112.84582,-7.01211,0.0],[112.8466,-7.01541,0.0],[112.84838,-7.01712,0.0],[112.859,-7.01674,0.0],[112.86306,-7.01043,0.0],[112.86341,-7.01183,0.0],[112.86679,-7.01223,0.0],[112.8663,-7.01016,0.0],[112.86746,-7.00786,0.0],[112.86904,-7.00848,0.0],[112.87176,-7.00732,0.0],[112.86895,-7.01164,0.0],[112.86996,-7.01621,0.0],[112.86671,-7.02386,0.0],[112.85358,-7.02614,0.0],[112.84586,-7.02341,0.0],[112.84163,-7.02953,0.0],[112.83847,-7.03063,0.0],[112.83822,-7.03374,0.0],[112.84236,-7.03581,0.0],[112.84264,-7.03912,0.0],[112.8383,-7.03948,0.0],[112.82952,-7.04404,0.0],[112.83271,-7.06054,0.0],[112.82537,-7.06132,0.0],[112.81269,-7.06023,0.0],[112.80713,-7.06452,0.0],[112.8011,-7.06263,0.0],[112.79804,-7.05987,0.0],[112.79233,-7.07256,0.0],[112.79276,-7.08301,0.0],[112.79039,-7.08588,0.0],[112.78535,-7.08655,0.0]]]}},{"type":"Feature","properties":{"kecamatan":"Kamal","kab_kota":"Bangkalan"},"geometry":{"type":"Polygon","coordinates":[[[112.72901,-7.17052,0.0],[112.726,-7.17183,0.0],[112.72763,-7.17391,0.0],[112.72736,-7.17442,0.0],[112.72601,-7.17224,0.0],[112.72289,-7.1746,0.0],[112.72294,-7.17613,0.0],[112.7215,-7.17493,0.0],[112.72116,-7.17591,0.0],[112.72014,-7.17339,0.0],[112.71856,-7.17434,0.0],[112.71949,-7.17234,0.0],[112.71868,-7.17154,0.0],[112.70548,-7.16707,0.0],[112.69515,-7.15664,0.0],[112.69182,-7.15518,0.0],[112.69176,-7.14764,0.0],[112.69634,-7.13712,0.0],[112.69776,-7.13655,0.0],[112.69696,-7.13453,0.0],[112.70469,-7.10934,0.0],[112.71265,-7.11182,0.0],[112.71667,-7.11193,0.0],[112.71903,-7.10985,0.0],[112.73019,-7.11117,0.0],[112.73054,-7.10853,0.0],[112.73471,-7.10229,0.0],[112.73662,-7.1029,0.0],[112.73849,-7.10098,0.0],[112.73996,-7.10167,0.0],[112.74585,-7.09748,0.0],[112.75168,-7.10103,0.0],[112.7498,-7.10592,0.0],[112.76318,-7.11284,0.0],[112.76066,-7.11835,0.0],[112.76188,-7.12366,0.0],[112.75695,-7.12711,0.0],[112.75404,-7.12757,0.0],[112.75501,-7.13226,0.0],[112.75315,-7.13271,0.0],[112.75213,-7.13888,0.0],[112.7491,-7.13863,0.0],[112.74794,-7.14076,0.0],[112.74637,-7.14036,0.0],[112.74345,-7.14655,0.0],[112.74547,-7.14669,0.0],[112.74609,-7.14528,0.0],[112.75066,-7.14678,0.0],[112.75008,-7.14805,0.0],[112.75555,-7.15008,0.0],[112.75553,-7.15142,0.0],[112.75993,-7.15201,0.0],[112.76094,-7.15113,0.0],[112.76826,-7.15301,0.0],[112.76776,-7.15474,0.0],[112.76252,-7.15343,0.0],[112.76266,-7.15582,0.0],[112.76404,-7.15841,0.0],[112.76429,-7.1573,0.0],[112.76567,-7.15765,0.0],[112.76575,-7.15626,0.0],[112.76704,-7.15754,0.0],[112.76651,-7.15849,0.0],[112.76901,-7.1579,0.0],[112.76921,-7.1611,0.0],[112.76682,-7.16127,0.0],[112.7672,-7.16294,0.0],[112.76409,-7.16589,0.0],[112.75177,-7.17101,0.0],[112.7491,-7.16994,0.0],[112.73857,-7.1713,0.0],[112.72901,-7.17052,0.0]]]}},{"type":"Feature","properties":{"kecamatan":"Bangkalan","kab_kota":"Bangkalan"},"geometry":{"type":"Polygon","coordinates":[[[112.71235,-7.04577,0.0],[112.7064,-7.04996,0.0],[112.7073,-7.05251,0.0],[112.70524,-7.0544,0.0],[112.70828,-7.05854,0.0],[112.70562,-7.06218,0.0],[112.70117,-7.06341,0.0],[112.6986,-7.06798,0.0],[112.69405,-7.06774,0.0],[112.69217,-7.06456,0.0],[112.68929,-7.0659,0.0],[112.684,-7.0648,0.0],[112.68397,-7.05929,0.0],[112.68018,-7.0584,0.0],[112.67953,-7.05584,0.0],[112.6763,-7.05503,0.0],[112.67716,-7.0508,0.0],[112.67611,-7.04611,0.0],[112.67743,-7.04394,0.0],[112.67826,-7.04441,0.0],[112.67806,-7.04313,0.0],[112.67946,-7.04362,0.0],[112.68048,-7.03624,0.0],[112.68254,-7.0319,0.0],[112.68551,-7.03268,0.0],[112.68849,-7.02978,0.0],[112.68924,-7.0315,0.0],[112.69344,-7.03379,0.0],[112.69768,-7.03407,0.0],[112.70345,-7.03866,0.0],[112.70786,-7.03836,0.0],[112.71126,-7.04056,0.0],[112.7148,-7.04,0.0],[112.71604,-7.03837,0.0],[112.7188,-7.03972,0.0],[112.72348,-7.0389,0.0],[112.73633,-7.02635,0.0],[112.73797,-7.02204,0.0],[112.74103,-7.01855,0.0],[112.74726,-7.01639,0.0],[112.75349,-7.0106,0.0],[112.75547,-7.01062,0.0],[112.75719,-7.00823,0.0],[112.77177,-7.00053,0.0],[112.77776,-6.9939,0.0],[112.78206,-6.99185,0.0],[112.78176,-6.99073,0.0],[112.79339,-6.97857,0.0],[112.80608,-6.98868,0.0],[112.80599,-6.99088,0.0],[112.80154,-6.99733,0.0],[112.80787,-7.00274,0.0],[112.80285,-7.00443,0.0],[112.79045,-6.99979,0.0],[112.78708,-7.00593,0.0],[112.78771,-7.00922,0.0],[112.78608,-7.0094,0.0],[112.78489,-7.01148,0.0],[112.78286,-7.01034,0.0],[112.78117,-7.01396,0.0],[112.77882,-7.01297,0.0],[112.77273,-7.01648,0.0],[112.77066,-7.02058,0.0],[112.75629,-7.03277,0.0],[112.75523,-7.03678,0.0],[112.75635,-7.03639,0.0],[112.7568,-7.03751,0.0],[112.75409,-7.0439,0.0],[112.75863,-7.05235,0.0],[112.75697,-7.0551,0.0],[112.75526,-7.05496,0.0],[112.75457,-7.05341,0.0],[112.75274,-7.05372,0.0],[112.75,-7.05736,0.0],[112.7418,-7.05143,0.0],[112.73496,-7.05034,0.0],[112.73207,-7.05307,0.0],[112.7289,-7.0536,0.0],[112.72385,-7.04944,0.0],[112.72294,-7.04695,0.0],[112.71624,-7.04864,0.0],[112.71235,-7.04577,0.0]]]}},{"type":"Feature","properties":{"kecamatan":"Socah","kab_kota":"Bangkalan"},"geometry":{"type":"Polygon","coordinates":[[[112.70072,-7.09324,0.0],[112.70013,-7.09431,0.0],[112.69261,-7.09497,0.0],[112.69184,-7.09759,0.0],[112.69133,-7.09652,0.0],[112.68874,-7.09716,0.0],[112.68605,-7.0955,0.0],[112.68672,-7.09298,0.0],[112.68536,-7.09066,0.0],[112.6867,-7.08924,0.0],[112.68236,-7.0832,0.0],[112.68303,-7.08243,0.0],[112.67358,-7.07303,0.0],[112.67542,-7.0666,0.0],[112.67379,-7.05967,0.0],[112.6766,-7.05683,0.0],[112.6763,-7.05503,0.0],[112.67855,-7.05534,0.0],[112.68018,-7.0584,0.0],[112.68397,-7.05929,0.0],[112.684,-7.0648,0.0],[112.68929,-7.0659,0.0],[112.69217,-7.06456,0.0],[112.69405,-7.06774,0.0],[112.6986,-7.06798,0.0],[112.70117,-7.06341,0.0],[112.70562,-7.06218,0.0],[112.70828,-7.05854,0.0],[112.70804,-7.05708,0.0],[112.70521,-7.05532,0.0],[112.7073,-7.05251,0.0],[112.70635,-7.05009,0.0],[112.70968,-7.0488,0.0],[112.71235,-7.04577,0.0],[112.71624,-7.04864,0.0],[112.72307,-7.047,0.0],[112.72385,-7.04944,0.0],[112.72881,-7.05358,0.0],[112.73207,-7.05307,0.0],[112.73496,-7.05034,0.0],[112.7418,-7.05143,0.0],[112.75,-7.05736,0.0],[112.75201,-7.05412,0.0],[112.75436,-7.05335,0.0],[112.75666,-7.05524,0.0],[112.75863,-7.05235,0.0],[112.7606,-7.05545,0.0],[112.76077,-7.0597,0.0],[112.76994,-7.06525,0.0],[112.77316,-7.06982,0.0],[112.7701,-7.07689,0.0],[112.76855,-7.07675,0.0],[112.76581,-7.08246,0.0],[112.77703,-7.0885,0.0],[112.78206,-7.08925,0.0],[112.78592,-7.08613,0.0],[112.7874,-7.08654,0.0],[112.78958,-7.09287,0.0],[112.78989,-7.10133,0.0],[112.78412,-7.1117,0.0],[112.78146,-7.11293,0.0],[112.77645,-7.11192,0.0],[112.77578,-7.11003,0.0],[112.77322,-7.10916,0.0],[112.77102,-7.11193,0.0],[112.76752,-7.1115,0.0],[112.76854,-7.11312,0.0],[112.76717,-7.11385,0.0],[112.7498,-7.10592,0.0],[112.75168,-7.10103,0.0],[112.74585,-7.09748,0.0],[112.73996,-7.10167,0.0],[112.73849,-7.10098,0.0],[112.73662,-7.1029,0.0],[112.73471,-7.10229,0.0],[112.73054,-7.10853,0.0],[112.73019,-7.11117,0.0],[112.71903,-7.10985,0.0],[112.71667,-7.11193,0.0],[112.71207,-7.11178,0.0],[112.70469,-7.10934,0.0],[112.70609,-7.10527,0.0],[112.70598,-7.0959,0.0],[112.70403,-7.09667,0.0],[112.704,-7.09448,0.0],[112.70072,-7.09324,0.0]]]}},{"type":"Feature","properties":{"kecamatan":"Klampis","kab_kota":"Bangkalan"},"geometry":{"type":"MultiPolygon","coordinates":[[[[112.86958,-6.95015,0.0],[112.86779,-6.95168,0.0],[112.86641,-6.94751,0.0],[112.86529,-6.9476,0.0],[112.86491,-6.94943,0.0],[112.86284,-6.9447,0.0],[112.86273,-6.94616,0.0],[112.86115,-6.94584,0.0],[112.86212,-6.94352,0.0],[112.86128,-6.94308,0.0],[112.85906,-6.94285,0.0],[112.85865,-6.94576,0.0],[112.85513,-6.94715,0.0],[112.84972,-6.94453,0.0],[112.84624,-6.94555,0.0],[112.84557,-6.94199,0.0],[112.84731,-6.9421,0.0],[112.84092,-6.93709,0.0],[112.83959,-6.93779,0.0],[112.83882,-6.93488,0.0],[112.83363,-6.93969,0.0],[112.83153,-6.93964,0.0],[112.82976,-6.93702,0.0],[112.83255,-6.93741,0.0],[112.83297,-6.9363,0.0],[112.8305,-6.93563,0.0],[112.83153,-6.93285,0.0],[112.82655,-6.92751,0.0],[112.82856,-6.92108,0.0],[112.82972,-6.92116,0.0],[112.82235,-6.91274,0.0],[112.82356,-6.91002,0.0],[112.83059,-6.90589,0.0],[112.83318,-6.90851,0.0],[112.83546,-6.91597,0.0],[112.83714,-6.91494,0.0],[112.84123,-6.91565,0.0],[112.84786,-6.90987,0.0],[112.84835,-6.90336,0.0],[112.85056,-6.90226,0.0],[112.85275,-6.90309,0.0],[112.84697,-6.89925,0.0],[112.84899,-6.89853,0.0],[112.84961,-6.89681,0.0],[112.8636,-6.89205,0.0],[112.87191,-6.89222,0.0],[112.87079,-6.89389,0.0],[112.87529,-6.89809,0.0],[112.87905,-6.8967,0.0],[112.87768,-6.89173,0.0],[112.87928,-6.89095,0.0],[112.88479,-6.89064,0.0],[112.88664,-6.89176,0.0],[112.89329,-6.89081,0.0],[112.89588,-6.8921,0.0],[112.90074,-6.89074,0.0],[112.90025,-6.89417,0.0],[112.90331,-6.89355,0.0],[112.90395,-6.89168,0.0],[112.90803,-6.89325,0.0],[112.91125,-6.89241,0.0],[112.91176,-6.89354,0.0],[112.9191,-6.8941,0.0],[112.92175,-6.89393,0.0],[112.92527,-6.89038,0.0],[112.92959,-6.8917,0.0],[112.9344,-6.8914,0.0],[112.9357,-6.89524,0.0],[112.93347,-6.90224,0.0],[112.93192,-6.91673,0.0],[112.93418,-6.9221,0.0],[112.93292,-6.93098,0.0],[112.93445,-6.93321,0.0],[112.93449,-6.93876,0.0],[112.93894,-6.9402,0.0],[112.93899,-6.94199,0.0],[112.93572,-6.94576,0.0],[112.93458,-6.95281,0.0],[112.93225,-6.95784,0.0],[112.93023,-6.95854,0.0],[112.9238,-6.95734,0.0],[112.91951,-6.95418,0.0],[112.91397,-6.95871,0.0],[112.91586,-6.95978,0.0],[112.92547,-6.9738,0.0],[112.92625,-6.97592,0.0],[112.92473,-6.98049,0.0],[112.9212,-6.9789,0.0],[112.91783,-6.97257,0.0],[112.91055,-6.96971,0.0],[112.90256,-6.96297,0.0],[112.89634,-6.95975,0.0],[112.88932,-6.95798,0.0],[112.88398,-6.95294,0.0],[112.88212,-6.95317,0.0],[112.88044,-6.95532,0.0],[112.87825,-6.95259,0.0],[112.87585,-6.95475,0.0],[112.87319,-6.94978,0.0],[112.86958,-6.95015,0.0]]],[[[112.8466,-6.89818,0.0],[112.84673,-6.89731,0.0],[112.84688,-6.89815,0.0],[112.8466,-6.89818,0.0]]]]}},{"type":"Feature","properties":{"kecamatan":"Sepulu","kab_kota":"Bangkalan"},"geometry":{"type":"Polygon","coordinates":[[[112.94607,-6.96251,0.0],[112.94348,-6.96527,0.0],[112.94303,-6.96947,0.0],[112.94097,-6.97005,0.0],[112.94141,-6.97353,0.0],[112.94022,-6.97487,0.0],[112.93938,-6.97356,0.0],[112.93956,-6.9763,0.0],[112.93745,-6.97249,0.0],[112.92599,-6.97495,0.0],[112.91586,-6.95978,0.0],[112.91397,-6.95871,0.0],[112.91951,-6.95418,0.0],[112.9238,-6.95734,0.0],[112.93023,-6.95854,0.0],[112.93225,-6.95784,0.0],[112.93458,-6.95281,0.0],[112.93572,-6.94576,0.0],[112.93899,-6.94199,0.0],[112.93894,-6.9402,0.0],[112.93449,-6.93876,0.0],[112.93445,-6.93321,0.0],[112.93292,-6.93098,0.0],[112.93418,-6.9221,0.0],[112.93199,-6.91755,0.0],[112.9323,-6.91132,0.0],[112.9357,-6.89524,0.0],[112.9344,-6.8914,0.0],[112.93301,-6.89131,0.0],[112.93857,-6.88878,0.0],[112.94103,-6.88998,0.0],[112.95149,-6.88714,0.0],[112.95994,-6.88918,0.0],[112.96248,-6.88872,0.0],[112.96369,-6.88683,0.0],[112.96865,-6.88758,0.0],[112.96802,-6.88834,0.0],[112.96943,-6.88907,0.0],[112.98153,-6.88553,0.0],[112.98714,-6.88693,0.0],[112.99166,-6.8842,0.0],[112.99627,-6.88552,0.0],[112.9985,-6.883,0.0],[112.99784,-6.88215,0.0],[112.99978,-6.8818,0.0],[112.99941,-6.88631,0.0],[113.00207,-6.88728,0.0],[113.00305,-6.88414,0.0],[113.00428,-6.88536,0.0],[113.00445,-6.88248,0.0],[113.00603,-6.88117,0.0],[113.00756,-6.8825,0.0],[113.01047,-6.88103,0.0],[113.01395,-6.88163,0.0],[113.0135,-6.88572,0.0],[113.01444,-6.88699,0.0],[113.01186,-6.88791,0.0],[113.01046,-6.89076,0.0],[113.0073,-6.90367,0.0],[113.00501,-6.90757,0.0],[112.99904,-6.91275,0.0],[112.99777,-6.91917,0.0],[113.00178,-6.92165,0.0],[113.01037,-6.92336,0.0],[113.0147,-6.9261,0.0],[113.01441,-6.93151,0.0],[113.00477,-6.93753,0.0],[113.00367,-6.94506,0.0],[112.99747,-6.95073,0.0],[112.99716,-6.95298,0.0],[112.99919,-6.95527,0.0],[113.00047,-6.96697,0.0],[112.99797,-6.96996,0.0],[112.99689,-6.97382,0.0],[112.99408,-6.97537,0.0],[112.99405,-6.9774,0.0],[112.98926,-6.97786,0.0],[112.98558,-6.97649,0.0],[112.98865,-6.96877,0.0],[112.98713,-6.96067,0.0],[112.9846,-6.95997,0.0],[112.98227,-6.96162,0.0],[112.97848,-6.96152,0.0],[112.97727,-6.96321,0.0],[112.97269,-6.96373,0.0],[112.97146,-6.96292,0.0],[112.97161,-6.96124,0.0],[112.96991,-6.96124,0.0],[112.97082,-6.95981,0.0],[112.96697,-6.95507,0.0],[112.96322,-6.95571,0.0],[112.9566,-6.95304,0.0],[112.95127,-6.96189,0.0],[112.94607,-6.96251,0.0]]]}},{"type":"Feature","properties":{"kecamatan":"Arosbaya","kab_kota":"Bangkalan"},"geometry":{"type":"Polygon","coordinates":[[[112.84621,-7.0125,0.0],[112.84244,-7.0099,0.0],[112.83937,-7.00946,0.0],[112.83811,-7.00712,0.0],[112.8361,-7.00714,0.0],[112.83818,-7.00452,0.0],[112.83722,-7.00356,0.0],[112.83822,-7.00167,0.0],[112.83654,-6.99874,0.0],[112.83775,-6.99731,0.0],[112.83303,-6.99125,0.0],[112.82963,-6.98919,0.0],[112.82774,-6.98402,0.0],[112.81718,-6.97923,0.0],[112.8168,-6.97793,0.0],[112.81549,-6.98021,0.0],[112.8091,-6.98051,0.0],[112.8081,-6.98386,0.0],[112.80874,-6.98878,0.0],[112.80641,-6.98937,0.0],[112.79339,-6.97857,0.0],[112.79315,-6.97671,0.0],[112.79203,-6.97704,0.0],[112.79072,-6.97505,0.0],[112.79116,-6.97374,0.0],[112.79304,-6.97445,0.0],[112.79721,-6.97175,0.0],[112.80726,-6.95941,0.0],[112.81152,-6.95596,0.0],[112.81804,-6.94677,0.0],[112.82325,-6.93513,0.0],[112.8289,-6.92968,0.0],[112.83153,-6.93285,0.0],[112.8305,-6.93563,0.0],[112.83297,-6.9363,0.0],[112.83255,-6.93741,0.0],[112.82976,-6.93702,0.0],[112.83202,-6.93998,0.0],[112.83682,-6.93754,0.0],[112.83882,-6.93488,0.0],[112.83959,-6.93779,0.0],[112.84092,-6.93709,0.0],[112.84731,-6.9421,0.0],[112.84557,-6.94199,0.0],[112.84624,-6.94555,0.0],[112.84972,-6.94453,0.0],[112.85513,-6.94715,0.0],[112.85865,-6.94576,0.0],[112.85906,-6.94285,0.0],[112.86191,-6.94324,0.0],[112.86115,-6.94584,0.0],[112.86273,-6.94616,0.0],[112.86284,-6.9447,0.0],[112.86491,-6.94943,0.0],[112.86529,-6.9476,0.0],[112.86652,-6.94764,0.0],[112.86685,-6.95031,0.0],[112.86537,-6.95347,0.0],[112.86763,-6.96221,0.0],[112.8735,-6.96771,0.0],[112.87056,-6.97022,0.0],[112.86804,-6.97612,0.0],[112.86775,-6.98305,0.0],[112.86464,-6.98925,0.0],[112.86461,-6.99642,0.0],[112.86707,-7.00276,0.0],[112.86956,-7.00556,0.0],[112.86929,-7.00723,0.0],[112.86663,-7.00891,0.0],[112.86737,-7.01189,0.0],[112.86341,-7.01183,0.0],[112.86306,-7.01043,0.0],[112.859,-7.01674,0.0],[112.85054,-7.01769,0.0],[112.84724,-7.01652,0.0],[112.84621,-7.0125,0.0]]]}},{"type":"Feature","properties":{"kecamatan":"Geger","kab_kota":"Bangkalan"},"geometry":{"type":"Polygon","coordinates":[[[112.94845,-7.04447,0.0],[112.94853,-7.05219,0.0],[112.93577,-7.04605,0.0],[112.93113,-7.04223,0.0],[112.92308,-7.04298,0.0],[112.90424,-7.03887,0.0],[112.8931,-7.03161,0.0],[112.88509,-7.03433,0.0],[112.88179,-7.0342,0.0],[112.87504,-7.03007,0.0],[112.87021,-7.02463,0.0],[112.86671,-7.02386,0.0],[112.86996,-7.01621,0.0],[112.86895,-7.01164,0.0],[112.87176,-7.00732,0.0],[112.86775,-7.00797,0.0],[112.86956,-7.00556,0.0],[112.86707,-7.00276,0.0],[112.86461,-6.99642,0.0],[112.86464,-6.98925,0.0],[112.86775,-6.98305,0.0],[112.86804,-6.97612,0.0],[112.87056,-6.97022,0.0],[112.8735,-6.96771,0.0],[112.86763,-6.96221,0.0],[112.86537,-6.95347,0.0],[112.86685,-6.95031,0.0],[112.86822,-6.95179,0.0],[112.86879,-6.95024,0.0],[112.87319,-6.94978,0.0],[112.87604,-6.95478,0.0],[112.87825,-6.95259,0.0],[112.88044,-6.95532,0.0],[112.88233,-6.95304,0.0],[112.88418,-6.95303,0.0],[112.88932,-6.95798,0.0],[112.89634,-6.95975,0.0],[112.9034,-6.96352,0.0],[112.91055,-6.96971,0.0],[112.91783,-6.97257,0.0],[112.9212,-6.9789,0.0],[112.92473,-6.98049,0.0],[112.92679,-6.97436,0.0],[112.92997,-6.9748,0.0],[112.93745,-6.97249,0.0],[112.93956,-6.9763,0.0],[112.93938,-6.97356,0.0],[112.94022,-6.97487,0.0],[112.94141,-6.97353,0.0],[112.94097,-6.97005,0.0],[112.94303,-6.96947,0.0],[112.94361,-6.96505,0.0],[112.94607,-6.96251,0.0],[112.95127,-6.96189,0.0],[112.9566,-6.95304,0.0],[112.96322,-6.95571,0.0],[112.96697,-6.95507,0.0],[112.97082,-6.95981,0.0],[112.96991,-6.96124,0.0],[112.97161,-6.96124,0.0],[112.97146,-6.96292,0.0],[112.97269,-6.96373,0.0],[112.97727,-6.96321,0.0],[112.97848,-6.96152,0.0],[112.98227,-6.96162,0.0],[112.9846,-6.95997,0.0],[112.98747,-6.96103,0.0],[112.98865,-6.96877,0.0],[112.98558,-6.97649,0.0],[112.98926,-6.97786,0.0],[112.99405,-6.9774,0.0],[112.99522,-6.98386,0.0],[112.9988,-6.98888,0.0],[113.00194,-6.99018,0.0],[113.00299,-6.99677,0.0],[113.0048,-6.99927,0.0],[113.00404,-7.00382,0.0],[113.00135,-7.0016,0.0],[112.99803,-7.00123,0.0],[112.99677,-7.0038,0.0],[112.9953,-7.00383,0.0],[112.99481,-7.01058,0.0],[112.99189,-7.0118,0.0],[112.99082,-7.01091,0.0],[112.99622,-7.01874,0.0],[112.9922,-7.02748,0.0],[112.98896,-7.02933,0.0],[112.99149,-7.03408,0.0],[112.98556,-7.03525,0.0],[112.98533,-7.04017,0.0],[112.98251,-7.04149,0.0],[112.98354,-7.04275,0.0],[112.97362,-7.0462,0.0],[112.96726,-7.05086,0.0],[112.96452,-7.04958,0.0],[112.95899,-7.04993,0.0],[112.95138,-7.04503,0.0],[112.94845,-7.04447,0.0]]]}},{"type":"Feature","properties":{"kecamatan":"Tanjung Bumi","kab_kota":"Bangkalan"},"geometry":{"type":"Polygon","coordinates":[[[113.07111,-6.93046,0.0],[113.06731,-6.92642,0.0],[113.0641,-6.92883,0.0],[113.06293,-6.9263,0.0],[113.05544,-6.92599,0.0],[113.05008,-6.92388,0.0],[113.04939,-6.93363,0.0],[113.04204,-6.93385,0.0],[113.03891,-6.93076,0.0],[113.03553,-6.93166,0.0],[113.02763,-6.92752,0.0],[113.02175,-6.92795,0.0],[113.01397,-6.92613,0.0],[113.01037,-6.92336,0.0],[113.00178,-6.92165,0.0],[112.99777,-6.91917,0.0],[112.99904,-6.91275,0.0],[113.00501,-6.90757,0.0],[113.0073,-6.90367,0.0],[113.01046,-6.89076,0.0],[113.01186,-6.88791,0.0],[113.01444,-6.88699,0.0],[113.0135,-6.88572,0.0],[113.01395,-6.88163,0.0],[113.02284,-6.88308,0.0],[113.02414,-6.88202,0.0],[113.02861,-6.88356,0.0],[113.03396,-6.87949,0.0],[113.04361,-6.88031,0.0],[113.05215,-6.88532,0.0],[113.06358,-6.882,0.0],[113.07601,-6.88477,0.0],[113.07733,-6.88371,0.0],[113.08272,-6.8872,0.0],[113.08628,-6.88673,0.0],[113.08599,-6.8885,0.0],[113.08754,-6.88903,0.0],[113.10845,-6.88866,0.0],[113.10766,-6.89267,0.0],[113.11042,-6.89446,0.0],[113.11785,-6.89462,0.0],[113.11916,-6.89316,0.0],[113.11872,-6.89035,0.0],[113.12121,-6.89002,0.0],[113.12234,-6.8922,0.0],[113.12469,-6.89296,0.0],[113.12483,-6.89561,0.0],[113.12864,-6.89718,0.0],[113.12668,-6.90613,0.0],[113.1253,-6.90515,0.0],[113.12088,-6.90549,0.0],[113.11807,-6.90857,0.0],[113.11852,-6.91078,0.0],[113.11631,-6.91783,0.0],[113.11904,-6.92564,0.0],[113.11779,-6.93312,0.0],[113.11483,-6.93354,0.0],[113.11301,-6.93213,0.0],[113.10924,-6.93567,0.0],[113.10556,-6.93587,0.0],[113.10219,-6.93815,0.0],[113.09972,-6.93805,0.0],[113.09701,-6.93572,0.0],[113.09605,-6.94253,0.0],[113.09733,-6.94364,0.0],[113.09377,-6.94619,0.0],[113.09182,-6.94524,0.0],[113.08933,-6.94588,0.0],[113.08909,-6.94763,0.0],[113.08646,-6.94719,0.0],[113.08573,-6.94563,0.0],[113.08299,-6.94516,0.0],[113.08223,-6.94645,0.0],[113.07787,-6.94503,0.0],[113.07789,-6.94108,0.0],[113.0805,-6.93874,0.0],[113.06933,-6.93812,0.0],[113.06873,-6.93677,0.0],[113.07111,-6.93046,0.0]]]}},{"type":"Feature","properties":{"kecamatan":"Tragah","kab_kota":"Bangkalan"},"geometry":{"type":"Polygon","coordinates":[[[112.81389,-7.12214,0.0],[112.80666,-7.12035,0.0],[112.80581,-7.1227,0.0],[112.80068,-7.12215,0.0],[112.79924,-7.12056,0.0],[112.80281,-7.11636,0.0],[112.80447,-7.1096,0.0],[112.80299,-7.10409,0.0],[112.7982,-7.10093,0.0],[112.78989,-7.10133,0.0],[112.78905,-7.09937,0.0],[112.78958,-7.09287,0.0],[112.78662,-7.08604,0.0],[112.79039,-7.08588,0.0],[112.79276,-7.08301,0.0],[112.79233,-7.07256,0.0],[112.79804,-7.05987,0.0],[112.8011,-7.06263,0.0],[112.80599,-7.06425,0.0],[112.80964,-7.06307,0.0],[112.81254,-7.06382,0.0],[112.81166,-7.06798,0.0],[112.81885,-7.06891,0.0],[112.81777,-7.07249,0.0],[112.82606,-7.07344,0.0],[112.83177,-7.07203,0.0],[112.83214,-7.07388,0.0],[112.83304,-7.07266,0.0],[112.83685,-7.07869,0.0],[112.84902,-7.08102,0.0],[112.85029,-7.08602,0.0],[112.84642,-7.09192,0.0],[112.84614,-7.09525,0.0],[112.84312,-7.09905,0.0],[112.8435,-7.1055,0.0],[112.85245,-7.10847,0.0],[112.85538,-7.11375,0.0],[112.86001,-7.11463,0.0],[112.8578,-7.11575,0.0],[112.85638,-7.12156,0.0],[112.8532,-7.12294,0.0],[112.85426,-7.12554,0.0],[112.85312,-7.12741,0.0],[112.84667,-7.13247,0.0],[112.84182,-7.13252,0.0],[112.8312,-7.13824,0.0],[112.82455,-7.13583,0.0],[112.82419,-7.13266,0.0],[112.82141,-7.13222,0.0],[112.81886,-7.13354,0.0],[112.81545,-7.13021,0.0],[112.81306,-7.12992,0.0],[112.81263,-7.12434,0.0],[112.81389,-7.12214,0.0]]]}},{"type":"Feature","properties":{"kecamatan":"Blega","kab_kota":"Bangkalan"},"geometry":{"type":"Polygon","coordinates":[[[113.03431,-7.16309,0.0],[113.02701,-7.16863,0.0],[113.02623,-7.17041,0.0],[113.02345,-7.16777,0.0],[113.02038,-7.16969,0.0],[113.01932,-7.17267,0.0],[113.01272,-7.17212,0.0],[113.01255,-7.16915,0.0],[113.00983,-7.16908,0.0],[113.00921,-7.16541,0.0],[113.00626,-7.16453,0.0],[113.00283,-7.16563,0.0],[113.00145,-7.16289,0.0],[112.99446,-7.16197,0.0],[112.99434,-7.16015,0.0],[112.99104,-7.15943,0.0],[112.97735,-7.15166,0.0],[112.97669,-7.14816,0.0],[112.97346,-7.14774,0.0],[112.972,-7.14388,0.0],[112.97469,-7.14052,0.0],[112.97915,-7.13937,0.0],[112.98377,-7.13522,0.0],[112.99447,-7.12058,0.0],[112.99696,-7.12082,0.0],[112.99916,-7.1242,0.0],[113.00118,-7.12342,0.0],[113.00607,-7.125,0.0],[113.00899,-7.12367,0.0],[113.00808,-7.12278,0.0],[113.01084,-7.11868,0.0],[113.00985,-7.11823,0.0],[113.01024,-7.11628,0.0],[113.01298,-7.11468,0.0],[113.0169,-7.11523,0.0],[113.01717,-7.11051,0.0],[113.01906,-7.10626,0.0],[113.01616,-7.10029,0.0],[113.0181,-7.09327,0.0],[113.02211,-7.09004,0.0],[113.02172,-7.08657,0.0],[113.0278,-7.08784,0.0],[113.03056,-7.08125,0.0],[113.03579,-7.07824,0.0],[113.03613,-7.07593,0.0],[113.03891,-7.07419,0.0],[113.04003,-7.0711,0.0],[113.05619,-7.07771,0.0],[113.0576,-7.07656,0.0],[113.06105,-7.07666,0.0],[113.06626,-7.08041,0.0],[113.06749,-7.08301,0.0],[113.07312,-7.08474,0.0],[113.08018,-7.08285,0.0],[113.08076,-7.08453,0.0],[113.08653,-7.08765,0.0],[113.08819,-7.08556,0.0],[113.09112,-7.08754,0.0],[113.09462,-7.08294,0.0],[113.09828,-7.08488,0.0],[113.10608,-7.08193,0.0],[113.10964,-7.08286,0.0],[113.11204,-7.09449,0.0],[113.11144,-7.09553,0.0],[113.11072,-7.09463,0.0],[113.10842,-7.09548,0.0],[113.10814,-7.09752,0.0],[113.10938,-7.10051,0.0],[113.11547,-7.10161,0.0],[113.11585,-7.10455,0.0],[113.11351,-7.10418,0.0],[113.11259,-7.10595,0.0],[113.11456,-7.10764,0.0],[113.11352,-7.10842,0.0],[113.11379,-7.11236,0.0],[113.1154,-7.116,0.0],[113.11285,-7.11484,0.0],[113.11156,-7.11655,0.0],[113.10926,-7.11314,0.0],[113.10922,-7.11394,0.0],[113.1078,-7.11317,0.0],[113.10784,-7.10764,0.0],[113.10562,-7.1099,0.0],[113.10789,-7.11346,0.0],[113.10717,-7.1164,0.0],[113.10557,-7.11625,0.0],[113.10703,-7.12178,0.0],[113.10623,-7.12447,0.0],[113.10322,-7.12846,0.0],[113.10011,-7.12647,0.0],[113.09785,-7.12719,0.0],[113.09308,-7.13272,0.0],[113.09596,-7.14823,0.0],[113.09317,-7.15053,0.0],[113.0972,-7.15382,0.0],[113.09749,-7.15709,0.0],[113.09425,-7.15829,0.0],[113.08685,-7.1564,0.0],[113.08156,-7.15125,0.0],[113.07286,-7.1492,0.0],[113.07056,-7.15819,0.0],[113.0673,-7.16062,0.0],[113.06751,-7.1638,0.0],[113.06457,-7.16494,0.0],[113.06176,-7.16576,0.0],[113.04997,-7.16081,0.0],[113.04665,-7.16619,0.0],[113.04261,-7.16823,0.0],[113.04032,-7.16792,0.0],[113.03431,-7.16309,0.0]]]}},{"type":"Feature","properties":{"kecamatan":"Labang","kab_kota":"Bangkalan"},"geometry":{"type":"Polygon","coordinates":[[[112.77692,-7.15934,0.0],[112.7672,-7.16294,0.0],[112.76682,-7.16127,0.0],[112.76921,-7.1611,0.0],[112.76909,-7.15802,0.0],[112.76651,-7.15849,0.0],[112.76704,-7.15754,0.0],[112.76575,-7.15626,0.0],[112.76567,-7.15765,0.0],[112.76429,-7.1573,0.0],[112.76404,-7.15841,0.0],[112.76252,-7.15343,0.0],[112.76776,-7.15474,0.0],[112.76826,-7.15301,0.0],[112.76094,-7.15113,0.0],[112.75993,-7.15201,0.0],[112.75553,-7.15142,0.0],[112.75555,-7.15008,0.0],[112.75008,-7.14805,0.0],[112.75066,-7.14678,0.0],[112.74609,-7.14528,0.0],[112.74547,-7.14669,0.0],[112.74382,-7.1468,0.0],[112.74437,-7.14326,0.0],[112.7491,-7.13863,0.0],[112.75213,-7.13888,0.0],[112.75315,-7.13271,0.0],[112.75501,-7.13226,0.0],[112.75404,-7.12757,0.0],[112.75695,-7.12711,0.0],[112.76188,-7.12366,0.0],[112.76066,-7.11835,0.0],[112.76318,-7.11284,0.0],[112.76245,-7.11159,0.0],[112.76746,-7.11392,0.0],[112.76854,-7.11312,0.0],[112.76752,-7.1115,0.0],[112.77102,-7.11193,0.0],[112.77322,-7.10916,0.0],[112.77578,-7.11003,0.0],[112.77645,-7.11192,0.0],[112.78146,-7.11293,0.0],[112.78412,-7.1117,0.0],[112.78989,-7.10133,0.0],[112.79722,-7.1008,0.0],[112.80143,-7.10226,0.0],[112.80447,-7.1096,0.0],[112.80281,-7.11636,0.0],[112.79924,-7.12056,0.0],[112.80068,-7.12215,0.0],[112.80502,-7.12288,0.0],[112.80666,-7.12035,0.0],[112.81389,-7.12214,0.0],[112.81263,-7.12434,0.0],[112.81306,-7.12992,0.0],[112.81545,-7.13021,0.0],[112.81886,-7.13354,0.0],[112.82141,-7.13222,0.0],[112.82419,-7.13266,0.0],[112.82455,-7.13583,0.0],[112.82683,-7.1375,0.0],[112.833,-7.13796,0.0],[112.83125,-7.14249,0.0],[112.82572,-7.15055,0.0],[112.82234,-7.15334,0.0],[112.82119,-7.16023,0.0],[112.82024,-7.15931,0.0],[112.81579,-7.16,0.0],[112.81247,-7.1582,0.0],[112.80516,-7.15874,0.0],[112.80082,-7.15756,0.0],[112.79311,-7.15897,0.0],[112.79104,-7.16084,0.0],[112.77692,-7.15934,0.0]]]}},{"type":"Feature","properties":{"kecamatan":"Tanah Merah","kab_kota":"Bangkalan"},"geometry":{"type":"Polygon","coordinates":[[[112.86998,-7.11281,0.0],[112.86897,-7.11507,0.0],[112.8665,-7.11489,0.0],[112.86404,-7.11748,0.0],[112.85923,-7.11819,0.0],[112.85715,-7.11998,0.0],[112.8578,-7.11575,0.0],[112.86001,-7.11463,0.0],[112.85538,-7.11375,0.0],[112.85245,-7.10847,0.0],[112.8435,-7.1055,0.0],[112.84312,-7.09905,0.0],[112.84614,-7.09525,0.0],[112.84642,-7.09192,0.0],[112.85029,-7.08602,0.0],[112.84944,-7.08143,0.0],[112.83685,-7.07869,0.0],[112.83304,-7.07266,0.0],[112.83214,-7.07388,0.0],[112.83177,-7.07203,0.0],[112.82606,-7.07344,0.0],[112.81777,-7.07249,0.0],[112.81885,-7.06891,0.0],[112.81166,-7.06798,0.0],[112.81254,-7.06382,0.0],[112.80964,-7.06307,0.0],[112.81269,-7.06023,0.0],[112.82537,-7.06132,0.0],[112.83271,-7.06054,0.0],[112.82964,-7.04346,0.0],[112.8383,-7.03948,0.0],[112.84264,-7.03912,0.0],[112.84236,-7.03581,0.0],[112.83853,-7.03419,0.0],[112.8379,-7.03237,0.0],[112.83847,-7.03063,0.0],[112.84163,-7.02953,0.0],[112.84553,-7.02349,0.0],[112.85358,-7.02614,0.0],[112.8674,-7.02375,0.0],[112.87021,-7.02463,0.0],[112.87504,-7.03007,0.0],[112.88179,-7.0342,0.0],[112.88509,-7.03433,0.0],[112.8931,-7.03161,0.0],[112.90512,-7.03906,0.0],[112.90419,-7.04372,0.0],[112.90205,-7.04593,0.0],[112.90031,-7.05144,0.0],[112.89977,-7.05764,0.0],[112.89868,-7.05906,0.0],[112.8924,-7.05879,0.0],[112.89047,-7.06025,0.0],[112.8983,-7.06341,0.0],[112.89789,-7.06704,0.0],[112.8997,-7.07059,0.0],[112.90101,-7.07094,0.0],[112.90055,-7.07422,0.0],[112.90259,-7.07506,0.0],[112.90219,-7.0801,0.0],[112.91106,-7.08768,0.0],[112.91376,-7.09499,0.0],[112.91302,-7.09977,0.0],[112.91441,-7.10263,0.0],[112.914,-7.11343,0.0],[112.9111,-7.11358,0.0],[112.91178,-7.10879,0.0],[112.90991,-7.10796,0.0],[112.90782,-7.10964,0.0],[112.90713,-7.11499,0.0],[112.90579,-7.11663,0.0],[112.9046,-7.11673,0.0],[112.9031,-7.11446,0.0],[112.89367,-7.11679,0.0],[112.89141,-7.11415,0.0],[112.88507,-7.12021,0.0],[112.8825,-7.11958,0.0],[112.88235,-7.11766,0.0],[112.875,-7.11382,0.0],[112.86998,-7.11281,0.0]]]}},{"type":"Feature","properties":{"kecamatan":"Galis","kab_kota":"Bangkalan"},"geometry":{"type":"Polygon","coordinates":[[[112.95243,-7.15079,0.0],[112.94661,-7.14818,0.0],[112.94745,-7.13532,0.0],[112.9459,-7.12797,0.0],[112.94665,-7.12453,0.0],[112.94245,-7.11856,0.0],[112.93774,-7.11877,0.0],[112.93278,-7.1213,0.0],[112.92867,-7.12189,0.0],[112.928,-7.12077,0.0],[112.92424,-7.12289,0.0],[112.92035,-7.12031,0.0],[112.91408,-7.11923,0.0],[112.91779,-7.11113,0.0],[112.91698,-7.11003,0.0],[112.91402,-7.11,0.0],[112.91441,-7.10263,0.0],[112.91302,-7.09977,0.0],[112.91381,-7.09547,0.0],[112.91268,-7.09161,0.0],[112.91106,-7.08768,0.0],[112.90219,-7.0801,0.0],[112.90259,-7.07506,0.0],[112.90055,-7.07422,0.0],[112.90101,-7.07094,0.0],[112.8997,-7.07059,0.0],[112.89789,-7.06704,0.0],[112.8983,-7.06341,0.0],[112.89047,-7.06025,0.0],[112.8924,-7.05879,0.0],[112.89868,-7.05906,0.0],[112.89977,-7.05764,0.0],[112.90031,-7.05144,0.0],[112.90205,-7.04593,0.0],[112.90419,-7.04372,0.0],[112.90512,-7.03906,0.0],[112.92308,-7.04298,0.0],[112.93113,-7.04223,0.0],[112.93577,-7.04605,0.0],[112.94853,-7.05219,0.0],[112.94876,-7.04425,0.0],[112.95899,-7.04993,0.0],[112.96452,-7.04958,0.0],[112.96707,-7.05089,0.0],[112.97492,-7.04557,0.0],[112.9812,-7.04425,0.0],[112.98354,-7.04275,0.0],[112.98252,-7.04175,0.0],[112.98323,-7.04106,0.0],[112.9982,-7.05052,0.0],[112.99684,-7.05188,0.0],[112.99834,-7.05743,0.0],[113.00403,-7.06018,0.0],[113.00423,-7.06154,0.0],[113.00829,-7.06102,0.0],[113.00951,-7.06349,0.0],[113.01375,-7.05973,0.0],[113.01507,-7.06127,0.0],[113.02831,-7.06322,0.0],[113.0314,-7.06584,0.0],[113.03339,-7.07047,0.0],[113.04003,-7.0711,0.0],[113.03891,-7.07419,0.0],[113.03613,-7.07593,0.0],[113.03579,-7.07824,0.0],[113.03056,-7.08125,0.0],[113.0278,-7.08784,0.0],[113.02172,-7.08657,0.0],[113.02211,-7.09004,0.0],[113.0181,-7.09327,0.0],[113.01616,-7.09893,0.0],[113.01906,-7.10606,0.0],[113.01712,-7.11072,0.0],[113.01699,-7.11511,0.0],[113.01298,-7.11468,0.0],[113.00992,-7.11659,0.0],[113.01084,-7.11868,0.0],[113.00816,-7.12244,0.0],[113.00899,-7.12367,0.0],[113.00607,-7.125,0.0],[113.00118,-7.12342,0.0],[112.99916,-7.1242,0.0],[112.99696,-7.12082,0.0],[112.99447,-7.12058,0.0],[112.98377,-7.13522,0.0],[112.97915,-7.13937,0.0],[112.97527,-7.14016,0.0],[112.97249,-7.14275,0.0],[112.97274,-7.14685,0.0],[112.97669,-7.14816,0.0],[112.97724,-7.15004,0.0],[112.97558,-7.15369,0.0],[112.96889,-7.15423,0.0],[112.96224,-7.15163,0.0],[112.95243,-7.15079,0.0]]]}},{"type":"Feature","properties":{"kecamatan":"Modung","kab_kota":"Bangkalan"},"geometry":{"type":"Polygon","coordinates":[[[112.97587,-7.19919,0.0],[112.97135,-7.1998,0.0],[112.97099,-7.19878,0.0],[112.96524,-7.20039,0.0],[112.951,-7.19264,0.0],[112.94837,-7.19377,0.0],[112.943,-7.19124,0.0],[112.92272,-7.18579,0.0],[112.91861,-7.18309,0.0],[112.92016,-7.17123,0.0],[112.91768,-7.16728,0.0],[112.91751,-7.16008,0.0],[112.91343,-7.15615,0.0],[112.91756,-7.15055,0.0],[112.91642,-7.14858,0.0],[112.91678,-7.13938,0.0],[112.90848,-7.13952,0.0],[112.90503,-7.13742,0.0],[112.9063,-7.13339,0.0],[112.90723,-7.11758,0.0],[112.91095,-7.11327,0.0],[112.91391,-7.11354,0.0],[112.9141,-7.1102,0.0],[112.91698,-7.11003,0.0],[112.9178,-7.11135,0.0],[112.91416,-7.11939,0.0],[112.92035,-7.12031,0.0],[112.92377,-7.12288,0.0],[112.928,-7.12077,0.0],[112.92867,-7.12189,0.0],[112.93278,-7.1213,0.0],[112.93774,-7.11877,0.0],[112.94245,-7.11856,0.0],[112.94665,-7.12453,0.0],[112.9459,-7.12797,0.0],[112.94745,-7.13532,0.0],[112.94661,-7.14818,0.0],[112.95219,-7.15127,0.0],[112.96224,-7.15163,0.0],[112.96889,-7.15423,0.0],[112.97469,-7.15406,0.0],[112.97735,-7.15166,0.0],[112.99104,-7.15943,0.0],[112.99434,-7.16015,0.0],[112.99446,-7.16197,0.0],[113.00145,-7.16289,0.0],[113.00283,-7.16563,0.0],[113.00626,-7.16453,0.0],[113.00897,-7.16526,0.0],[113.00966,-7.16887,0.0],[113.01244,-7.16902,0.0],[113.01207,-7.17173,0.0],[113.01356,-7.17229,0.0],[113.01932,-7.17267,0.0],[113.02038,-7.16969,0.0],[113.02345,-7.16777,0.0],[113.02623,-7.17041,0.0],[113.02701,-7.16863,0.0],[113.03472,-7.16298,0.0],[113.04032,-7.16792,0.0],[113.04261,-7.16823,0.0],[113.04665,-7.16619,0.0],[113.04975,-7.16084,0.0],[113.05766,-7.16361,0.0],[113.05554,-7.16781,0.0],[113.05497,-7.17476,0.0],[113.05414,-7.1765,0.0],[113.04989,-7.17837,0.0],[113.04837,-7.18439,0.0],[113.04966,-7.18649,0.0],[113.05293,-7.18766,0.0],[113.05676,-7.18682,0.0],[113.06017,-7.18934,0.0],[113.06014,-7.19785,0.0],[113.0575,-7.19854,0.0],[113.05397,-7.19708,0.0],[113.04695,-7.19957,0.0],[113.04388,-7.20362,0.0],[113.04046,-7.21278,0.0],[113.02319,-7.20993,0.0],[113.01698,-7.20809,0.0],[113.01389,-7.2054,0.0],[113.0068,-7.20647,0.0],[113.00127,-7.20954,0.0],[112.9977,-7.2087,0.0],[112.99607,-7.20451,0.0],[112.99143,-7.20225,0.0],[112.97587,-7.19919,0.0]]]}},{"type":"Feature","properties":{"kecamatan":"Konang","kab_kota":"Bangkalan"},"geometry":{"type":"Polygon","coordinates":[[[113.08018,-7.08285,0.0],[113.07313,-7.08474,0.0],[113.06749,-7.08301,0.0],[113.06626,-7.08041,0.0],[113.06105,-7.07666,0.0],[113.0576,-7.07656,0.0],[113.05619,-7.07771,0.0],[113.04455,-7.07217,0.0],[113.03339,-7.07047,0.0],[113.0314,-7.06584,0.0],[113.02831,-7.06322,0.0],[113.01507,-7.06127,0.0],[113.01375,-7.05973,0.0],[113.00951,-7.06349,0.0],[113.00829,-7.06102,0.0],[113.00423,-7.06154,0.0],[113.00403,-7.06018,0.0],[112.9985,-7.05761,0.0],[112.99684,-7.05188,0.0],[112.9982,-7.05052,0.0],[112.98323,-7.04106,0.0],[112.98541,-7.03998,0.0],[112.98556,-7.03525,0.0],[112.99149,-7.03408,0.0],[112.98896,-7.02933,0.0],[112.99209,-7.02764,0.0],[112.99616,-7.01953,0.0],[112.99082,-7.01091,0.0],[112.99189,-7.0118,0.0],[112.99534,-7.01042,0.0],[112.99762,-7.01315,0.0],[112.99999,-7.01086,0.0],[113.00189,-7.01215,0.0],[113.00944,-7.00986,0.0],[113.01688,-7.01389,0.0],[113.02014,-7.01817,0.0],[113.0231,-7.01841,0.0],[113.02383,-7.01681,0.0],[113.02687,-7.01868,0.0],[113.02826,-7.0174,0.0],[113.03306,-7.01823,0.0],[113.03343,-7.0168,0.0],[113.04001,-7.01485,0.0],[113.04391,-7.01588,0.0],[113.04788,-7.01236,0.0],[113.05015,-7.01266,0.0],[113.04988,-7.01078,0.0],[113.05331,-7.01136,0.0],[113.05595,-7.00871,0.0],[113.06635,-7.01236,0.0],[113.07115,-7.00962,0.0],[113.07456,-7.01054,0.0],[113.07942,-7.00968,0.0],[113.08113,-7.0121,0.0],[113.08504,-7.01306,0.0],[113.08591,-7.01438,0.0],[113.08483,-7.01679,0.0],[113.08748,-7.02229,0.0],[113.0919,-7.02453,0.0],[113.10105,-7.02583,0.0],[113.11062,-7.0293,0.0],[113.1117,-7.03443,0.0],[113.11029,-7.04233,0.0],[113.11207,-7.04391,0.0],[113.11057,-7.04767,0.0],[113.11297,-7.05199,0.0],[113.1123,-7.0579,0.0],[113.11592,-7.05958,0.0],[113.11733,-7.06151,0.0],[113.11585,-7.06398,0.0],[113.12003,-7.06767,0.0],[113.12028,-7.07196,0.0],[113.12196,-7.07458,0.0],[113.12051,-7.08027,0.0],[113.11814,-7.0795,0.0],[113.11688,-7.08146,0.0],[113.11576,-7.08022,0.0],[113.11482,-7.08095,0.0],[113.1157,-7.07995,0.0],[113.11492,-7.07904,0.0],[113.11191,-7.07987,0.0],[113.10996,-7.07849,0.0],[113.1081,-7.08028,0.0],[113.10778,-7.08283,0.0],[113.10608,-7.08193,0.0],[113.09828,-7.08488,0.0],[113.09462,-7.08294,0.0],[113.09112,-7.08754,0.0],[113.08841,-7.08556,0.0],[113.0863,-7.08759,0.0],[113.08076,-7.08453,0.0],[113.08018,-7.08285,0.0]]]}},{"type":"Feature","properties":{"kecamatan":"Kokop","kab_kota":"Bangkalan"},"geometry":{"type":"Polygon","coordinates":[[[113.02334,-7.01717,0.0],[113.0231,-7.01841,0.0],[113.02014,-7.01817,0.0],[113.01688,-7.01389,0.0],[113.00944,-7.00986,0.0],[113.00189,-7.01215,0.0],[112.99999,-7.01086,0.0],[112.99762,-7.01315,0.0],[112.99481,-7.01058,0.0],[112.99441,-7.00779,0.0],[112.99536,-7.0037,0.0],[112.99677,-7.0038,0.0],[112.99803,-7.00123,0.0],[113.00135,-7.0016,0.0],[113.00404,-7.00382,0.0],[113.00487,-7.00155,0.0],[113.00194,-6.99018,0.0],[112.9988,-6.98888,0.0],[112.99393,-6.97992,0.0],[112.99408,-6.97537,0.0],[112.99689,-6.97382,0.0],[112.99797,-6.96996,0.0],[113.00047,-6.96697,0.0],[112.99919,-6.95527,0.0],[112.99719,-6.95173,0.0],[113.00367,-6.94506,0.0],[113.00477,-6.93753,0.0],[113.01397,-6.93251,0.0],[113.0147,-6.9261,0.0],[113.02175,-6.92795,0.0],[113.02763,-6.92752,0.0],[113.03467,-6.93144,0.0],[113.03891,-6.93076,0.0],[113.04135,-6.93359,0.0],[113.04329,-6.93392,0.0],[113.04939,-6.93363,0.0],[113.05008,-6.92388,0.0],[113.05544,-6.92599,0.0],[113.06293,-6.9263,0.0],[113.0641,-6.92883,0.0],[113.06731,-6.92642,0.0],[113.07135,-6.93088,0.0],[113.06873,-6.93677,0.0],[113.06933,-6.93812,0.0],[113.08063,-6.93892,0.0],[113.0777,-6.94153,0.0],[113.07857,-6.94561,0.0],[113.08223,-6.94645,0.0],[113.08289,-6.94519,0.0],[113.08453,-6.94536,0.0],[113.08646,-6.94719,0.0],[113.08919,-6.94762,0.0],[113.08933,-6.94588,0.0],[113.0951,-6.9458,0.0],[113.09746,-6.94332,0.0],[113.09968,-6.95152,0.0],[113.10163,-6.9531,0.0],[113.09936,-6.95726,0.0],[113.10182,-6.95801,0.0],[113.10219,-6.95674,0.0],[113.10373,-6.95677,0.0],[113.10317,-6.95921,0.0],[113.10161,-6.95998,0.0],[113.10285,-6.9611,0.0],[113.10259,-6.9641,0.0],[113.10514,-6.96901,0.0],[113.10664,-6.96896,0.0],[113.10664,-6.97297,0.0],[113.10876,-6.97294,0.0],[113.10925,-6.9741,0.0],[113.10737,-6.97658,0.0],[113.10817,-6.97825,0.0],[113.10724,-6.97915,0.0],[113.1081,-6.98396,0.0],[113.11044,-6.98711,0.0],[113.11092,-6.98451,0.0],[113.11256,-6.98347,0.0],[113.12179,-6.98556,0.0],[113.12528,-6.98034,0.0],[113.12589,-6.97706,0.0],[113.12838,-6.97686,0.0],[113.13042,-6.97925,0.0],[113.13456,-6.97867,0.0],[113.13614,-6.98009,0.0],[113.13651,-6.98223,0.0],[113.14183,-6.9858,0.0],[113.14184,-6.98954,0.0],[113.14745,-6.99003,0.0],[113.14584,-6.99462,0.0],[113.14624,-6.99791,0.0],[113.14079,-6.99976,0.0],[113.14098,-7.00139,0.0],[113.13852,-7.00527,0.0],[113.14048,-7.00759,0.0],[113.13942,-7.00948,0.0],[113.14198,-7.01015,0.0],[113.14233,-7.0114,0.0],[113.13917,-7.01663,0.0],[113.13717,-7.01657,0.0],[113.13635,-7.02199,0.0],[113.13448,-7.02207,0.0],[113.13244,-7.0267,0.0],[113.13404,-7.02883,0.0],[113.13281,-7.03282,0.0],[113.1282,-7.03656,0.0],[113.12453,-7.03432,0.0],[113.11897,-7.03354,0.0],[113.11742,-7.0318,0.0],[113.11432,-7.03202,0.0],[113.11146,-7.02912,0.0],[113.10035,-7.02566,0.0],[113.0919,-7.02453,0.0],[113.08748,-7.02229,0.0],[113.08483,-7.01679,0.0],[113.08591,-7.01438,0.0],[113.08504,-7.01306,0.0],[113.08113,-7.0121,0.0],[113.07942,-7.00968,0.0],[113.07456,-7.01054,0.0],[113.07115,-7.00962,0.0],[113.06635,-7.01236,0.0],[113.06275,-7.01194,0.0],[113.05823,-7.00877,0.0],[113.05604,-7.0087,0.0],[113.05331,-7.01136,0.0],[113.04988,-7.01078,0.0],[113.05015,-7.01266,0.0],[113.04788,-7.01236,0.0],[113.04391,-7.01588,0.0],[113.04001,-7.01485,0.0],[113.03343,-7.0168,0.0],[113.03306,-7.01823,0.0],[113.02826,-7.0174,0.0],[113.02687,-7.01868,0.0],[113.02334,-7.01717,0.0]]]}},{"type":"Feature","properties":{"kecamatan":"Kwanyar","kab_kota":"Bangkalan"},"geometry":{"type":"Polygon","coordinates":[[[112.88558,-7.17266,0.0],[112.87823,-7.16824,0.0],[112.86501,-7.16213,0.0],[112.85268,-7.16546,0.0],[112.85009,-7.16443,0.0],[112.84511,-7.16569,0.0],[112.83435,-7.16224,0.0],[112.82348,-7.16141,0.0],[112.82119,-7.16023,0.0],[112.82115,-7.15655,0.0],[112.82292,-7.15252,0.0],[112.82884,-7.14674,0.0],[112.83252,-7.13721,0.0],[112.84182,-7.13252,0.0],[112.84667,-7.13247,0.0],[112.85312,-7.12741,0.0],[112.85426,-7.12554,0.0],[112.8532,-7.12294,0.0],[112.85538,-7.12261,0.0],[112.85923,-7.11819,0.0],[112.86287,-7.11811,0.0],[112.8665,-7.11489,0.0],[112.86897,-7.11507,0.0],[112.87066,-7.11226,0.0],[112.88235,-7.11766,0.0],[112.8825,-7.11958,0.0],[112.88507,-7.12021,0.0],[112.89141,-7.11415,0.0],[112.89367,-7.11679,0.0],[112.90324,-7.11446,0.0],[112.90538,-7.1168,0.0],[112.90713,-7.11499,0.0],[112.90793,-7.10945,0.0],[112.9111,-7.10812,0.0],[112.91095,-7.11327,0.0],[112.90723,-7.11758,0.0],[112.9063,-7.13339,0.0],[112.90503,-7.13742,0.0],[112.90848,-7.13952,0.0],[112.91678,-7.13938,0.0],[112.91642,-7.14858,0.0],[112.91756,-7.15055,0.0],[112.91343,-7.15615,0.0],[112.91751,-7.16008,0.0],[112.91768,-7.16728,0.0],[112.92016,-7.17123,0.0],[112.91861,-7.18309,0.0],[112.91339,-7.18516,0.0],[112.91193,-7.18253,0.0],[112.90704,-7.17942,0.0],[112.90238,-7.18059,0.0],[112.89182,-7.17806,0.0],[112.88558,-7.17266,0.0]]]}}]}