{"type":"FeatureCollection","features":[{"type":"Feature","properties":{"kecamatan":"Pangarengan","kab_kota":"Sampang"},"geometry":{"type":"Polygon","coordinates":[[[113.20793,-7.20236,0.0],[113.20905,-7.20692,0.0],[113.21174,-7.20799,0.0],[113.21245,-7.21146,0.0],[113.21209,-7.215,0.0],[113.20967,-7.21744,0.0],[113.2025,-7.21875,0.0],[113.20172,-7.2214,0.0],[113.20282,-7.22212,0.0],[113.19972,-7.22256,0.0],[113.19837,-7.22092,0.0],[113.1928,-7.22404,0.0],[113.17776,-7.22739,0.0],[113.17189,-7.22749,0.0],[113.1687,-7.22613,0.0],[113.16526,-7.21644,0.0],[113.16546,-7.21499,0.0],[113.16728,-7.21413,0.0],[113.16561,-7.2142,0.0],[113.1627,-7.20932,0.0],[113.15917,-7.20694,0.0],[113.15202,-7.20567,0.0],[113.15123,-7.20773,0.0],[113.14444,-7.21115,0.0],[113.1445,-7.21392,0.0],[113.13771,-7.21128,0.0],[113.14273,-7.18665,0.0],[113.14243,-7.18434,0.0],[113.13745,-7.17823,0.0],[113.1321,-7.16767,0.0],[113.1372,-7.16056,0.0],[113.13708,-7.15735,0.0],[113.1409,-7.15624,0.0],[113.14423,-7.15735,0.0],[113.14811,-7.15589,0.0],[113.1552,-7.15821,0.0],[113.15557,-7.16019,0.0],[113.15883,-7.16184,0.0],[113.15893,-7.16408,0.0],[113.16308,-7.16646,0.0],[113.16854,-7.16702,0.0],[113.16992,-7.16558,0.0],[113.17856,-7.16711,0.0],[113.18022,-7.16795,0.0],[113.1805,-7.17229,0.0],[113.18817,-7.17733,0.0],[113.1876,-7.17973,0.0],[113.18942,-7.18115,0.0],[113.194,-7.17982,0.0],[113.19439,-7.17736,0.0],[113.1967,-7.17635,0.0],[113.19809,-7.17294,0.0],[113.19932,-7.17336,0.0],[113.20258,-7.17636,0.0],[113.20458,-7.18353,0.0],[113.20623,-7.18472,0.0],[113.20543,-7.18902,0.0],[113.20624,-7.19156,0.0],[113.20893,-7.19223,0.0],[113.2127,-7.19693,0.0],[113.21133,-7.19814,0.0],[113.21211,-7.19964,0.0],[113.21091,-7.20279,0.0],[113.20793,-7.20236,0.0]]]}},{"type":"Feature","properties":{"kecamatan":"Karangpenang","kab_kota":"Sampang"},"geometry":{"type":"Polygon","coordinates":[[[113.3921,-7.05684,0.0],[113.39572,-7.06327,0.0],[113.39528,-7.07067,0.0],[113.3938,-7.07123,0.0],[113.39361,-7.07336,0.0],[113.39177,-7.06933,0.0],[113.38999,-7.06827,0.0],[113.38901,-7.06465,0.0],[113.37853,-7.06194,0.0],[113.37419,-7.05722,0.0],[113.36816,-7.06428,0.0],[113.36911,-7.06786,0.0],[113.37085,-7.06913,0.0],[113.37034,-7.07099,0.0],[113.36604,-7.073,0.0],[113.36135,-7.06865,0.0],[113.35683,-7.07024,0.0],[113.35346,-7.06926,0.0],[113.35192,-7.06701,0.0],[113.34991,-7.06692,0.0],[113.35097,-7.06462,0.0],[113.34847,-7.06013,0.0],[113.34591,-7.06008,0.0],[113.3399,-7.05659,0.0],[113.33739,-7.05338,0.0],[113.33741,-7.05124,0.0],[113.34045,-7.04235,0.0],[113.33724,-7.03831,0.0],[113.33638,-7.03966,0.0],[113.33304,-7.04017,0.0],[113.33036,-7.03829,0.0],[113.3355,-7.03209,0.0],[113.33489,-7.02843,0.0],[113.33612,-7.02599,0.0],[113.33463,-7.02332,0.0],[113.33687,-7.01701,0.0],[113.33287,-7.0174,0.0],[113.33157,-7.01611,0.0],[113.33262,-7.00443,0.0],[113.32731,-7.0023,0.0],[113.32712,-7.00005,0.0],[113.32579,-6.99976,0.0],[113.3231,-6.99431,0.0],[113.31999,-6.99258,0.0],[113.32235,-6.98379,0.0],[113.34643,-6.98996,0.0],[113.35527,-6.99417,0.0],[113.35712,-6.99204,0.0],[113.37015,-6.99,0.0],[113.37204,-6.98324,0.0],[113.37644,-6.9766,0.0],[113.37605,-6.97411,0.0],[113.37981,-6.97406,0.0],[113.38199,-6.97234,0.0],[113.38718,-6.97285,0.0],[113.39546,-6.96856,0.0],[113.40024,-6.96937,0.0],[113.40382,-6.97305,0.0],[113.41044,-6.97484,0.0],[113.4136,-6.97834,0.0],[113.42479,-6.98201,0.0],[113.4211,-6.98921,0.0],[113.42155,-6.99344,0.0],[113.42003,-6.99438,0.0],[113.42069,-6.99665,0.0],[113.4218,-6.99623,0.0],[113.42339,-6.99803,0.0],[113.42255,-7.00217,0.0],[113.42095,-7.00179,0.0],[113.42175,-7.0034,0.0],[113.41955,-7.00484,0.0],[113.41974,-7.00695,0.0],[113.42283,-7.00855,0.0],[113.42146,-7.01143,0.0],[113.41996,-7.01151,0.0],[113.41966,-7.01307,0.0],[113.41754,-7.013,0.0],[113.4169,-7.01663,0.0],[113.4141,-7.01775,0.0],[113.41315,-7.02025,0.0],[113.41037,-7.01889,0.0],[113.40265,-7.02811,0.0],[113.4001,-7.02985,0.0],[113.39698,-7.02827,0.0],[113.39243,-7.03454,0.0],[113.39716,-7.03919,0.0],[113.39579,-7.04166,0.0],[113.39716,-7.04296,0.0],[113.39523,-7.05167,0.0],[113.39738,-7.0554,0.0],[113.39724,-7.05681,0.0],[113.3921,-7.05684,0.0]]]}},{"type":"Feature","properties":{"kecamatan":"Sokobanah","kab_kota":"Sampang"},"geometry":{"type":"Polygon","coordinates":[[[113.37603,-6.9748,0.0],[113.37644,-6.9766,0.0],[113.37204,-6.98324,0.0],[113.37015,-6.99,0.0],[113.35712,-6.99204,0.0],[113.35527,-6.99417,0.0],[113.34643,-6.98996,0.0],[113.32139,-6.98367,0.0],[113.31872,-6.9819,0.0],[113.32113,-6.97283,0.0],[113.32284,-6.9714,0.0],[113.32196,-6.97036,0.0],[113.32304,-6.96571,0.0],[113.32507,-6.96501,0.0],[113.3316,-6.96646,0.0],[113.33328,-6.96532,0.0],[113.33509,-6.96842,0.0],[113.34164,-6.96899,0.0],[113.34399,-6.96648,0.0],[113.34607,-6.96701,0.0],[113.34807,-6.96505,0.0],[113.35022,-6.96517,0.0],[113.3517,-6.96145,0.0],[113.35228,-6.96282,0.0],[113.35327,-6.96188,0.0],[113.35669,-6.9639,0.0],[113.35911,-6.95844,0.0],[113.35827,-6.95503,0.0],[113.35971,-6.95331,0.0],[113.36341,-6.95237,0.0],[113.37002,-6.95453,0.0],[113.38624,-6.94991,0.0],[113.38451,-6.94766,0.0],[113.38001,-6.9462,0.0],[113.38159,-6.93958,0.0],[113.37802,-6.93937,0.0],[113.3776,-6.93698,0.0],[113.37344,-6.93604,0.0],[113.37162,-6.9331,0.0],[113.37173,-6.92841,0.0],[113.375,-6.92623,0.0],[113.37329,-6.92383,0.0],[113.37359,-6.91421,0.0],[113.37197,-6.91186,0.0],[113.37368,-6.90916,0.0],[113.37475,-6.91066,0.0],[113.37509,-6.90771,0.0],[113.37753,-6.90619,0.0],[113.37687,-6.90364,0.0],[113.37987,-6.89814,0.0],[113.37935,-6.88985,0.0],[113.38054,-6.88847,0.0],[113.38601,-6.88688,0.0],[113.39486,-6.88873,0.0],[113.40692,-6.88684,0.0],[113.41298,-6.88859,0.0],[113.41678,-6.88678,0.0],[113.43049,-6.88892,0.0],[113.43872,-6.88766,0.0],[113.44965,-6.88928,0.0],[113.45219,-6.89151,0.0],[113.45611,-6.89068,0.0],[113.46298,-6.89167,0.0],[113.48082,-6.89521,0.0],[113.48339,-6.89672,0.0],[113.48283,-6.9015,0.0],[113.47603,-6.90818,0.0],[113.47694,-6.91024,0.0],[113.47592,-6.91721,0.0],[113.47784,-6.92432,0.0],[113.47362,-6.92776,0.0],[113.47228,-6.93113,0.0],[113.47013,-6.9317,0.0],[113.46791,-6.92924,0.0],[113.46601,-6.93513,0.0],[113.4611,-6.9355,0.0],[113.46123,-6.93946,0.0],[113.459,-6.94489,0.0],[113.46043,-6.94822,0.0],[113.46,-6.95071,0.0],[113.45448,-6.95302,0.0],[113.44841,-6.95141,0.0],[113.44464,-6.95567,0.0],[113.43827,-6.95795,0.0],[113.43574,-6.96007,0.0],[113.43578,-6.96154,0.0],[113.4344,-6.96138,0.0],[113.43379,-6.96895,0.0],[113.42969,-6.97485,0.0],[113.429,-6.98048,0.0],[113.42479,-6.98201,0.0],[113.41576,-6.9793,0.0],[113.41163,-6.97721,0.0],[113.41044,-6.97484,0.0],[113.40541,-6.97383,0.0],[113.40024,-6.96937,0.0],[113.39581,-6.96857,0.0],[113.38718,-6.97285,0.0],[113.38199,-6.97234,0.0],[113.37603,-6.9748,0.0]]]}},{"type":"Feature","properties":{"kecamatan":"Ketapang","kab_kota":"Sampang"},"geometry":{"type":"Polygon","coordinates":[[[113.30066,-6.96427,0.0],[113.29694,-6.96623,0.0],[113.2906,-6.9613,0.0],[113.28664,-6.96076,0.0],[113.28633,-6.95862,0.0],[113.2774,-6.96232,0.0],[113.26854,-6.96061,0.0],[113.25328,-6.96405,0.0],[113.24463,-6.96347,0.0],[113.24066,-6.96182,0.0],[113.23982,-6.96313,0.0],[113.23599,-6.96125,0.0],[113.23379,-6.95675,0.0],[113.23637,-6.94496,0.0],[113.23239,-6.93592,0.0],[113.23277,-6.92819,0.0],[113.23095,-6.92394,0.0],[113.22435,-6.91857,0.0],[113.2203,-6.91041,0.0],[113.21999,-6.90874,0.0],[113.22197,-6.90934,0.0],[113.22265,-6.90721,0.0],[113.22373,-6.8975,0.0],[113.22248,-6.89273,0.0],[113.22713,-6.89091,0.0],[113.23118,-6.89264,0.0],[113.23423,-6.89074,0.0],[113.24522,-6.89283,0.0],[113.25823,-6.88983,0.0],[113.27556,-6.89047,0.0],[113.2823,-6.89217,0.0],[113.29424,-6.8892,0.0],[113.31058,-6.89332,0.0],[113.31477,-6.89047,0.0],[113.32375,-6.88802,0.0],[113.33821,-6.88951,0.0],[113.34687,-6.88887,0.0],[113.35354,-6.89015,0.0],[113.36303,-6.88843,0.0],[113.37532,-6.88824,0.0],[113.37935,-6.88985,0.0],[113.37991,-6.89786,0.0],[113.37687,-6.90364,0.0],[113.37753,-6.90619,0.0],[113.37509,-6.90771,0.0],[113.37475,-6.91066,0.0],[113.37368,-6.90916,0.0],[113.37197,-6.91186,0.0],[113.37359,-6.91421,0.0],[113.37329,-6.92383,0.0],[113.375,-6.92623,0.0],[113.37173,-6.92841,0.0],[113.37162,-6.9331,0.0],[113.37344,-6.93604,0.0],[113.3776,-6.93698,0.0],[113.37802,-6.93937,0.0],[113.38159,-6.93958,0.0],[113.38001,-6.9462,0.0],[113.38451,-6.94766,0.0],[113.38624,-6.94991,0.0],[113.37002,-6.95453,0.0],[113.36341,-6.95237,0.0],[113.35971,-6.95331,0.0],[113.35827,-6.95503,0.0],[113.35911,-6.95844,0.0],[113.35669,-6.9639,0.0],[113.35327,-6.96188,0.0],[113.35228,-6.96282,0.0],[113.3517,-6.96145,0.0],[113.35022,-6.96517,0.0],[113.34807,-6.96505,0.0],[113.34607,-6.96701,0.0],[113.34399,-6.96648,0.0],[113.34164,-6.96899,0.0],[113.33509,-6.96842,0.0],[113.33328,-6.96532,0.0],[113.32854,-6.96627,0.0],[113.30441,-6.96056,0.0],[113.30202,-6.96135,0.0],[113.30066,-6.96427,0.0]]]}},{"type":"Feature","properties":{"kecamatan":"Robatal","kab_kota":"Sampang"},"geometry":{"type":"Polygon","coordinates":[[[113.3304,-7.03839,0.0],[113.33296,-7.04001,0.0],[113.33273,-7.04109,0.0],[113.32192,-7.04253,0.0],[113.31672,-7.03977,0.0],[113.31466,-7.04248,0.0],[113.3122,-7.04081,0.0],[113.31121,-7.042,0.0],[113.30528,-7.04295,0.0],[113.30419,-7.04367,0.0],[113.30477,-7.04492,0.0],[113.30283,-7.04357,0.0],[113.30188,-7.04583,0.0],[113.29582,-7.04742,0.0],[113.2931,-7.04991,0.0],[113.29171,-7.04883,0.0],[113.28867,-7.04919,0.0],[113.28429,-7.05244,0.0],[113.28426,-7.05572,0.0],[113.28155,-7.05745,0.0],[113.28039,-7.0616,0.0],[113.27679,-7.06191,0.0],[113.27546,-7.061,0.0],[113.27762,-7.05967,0.0],[113.2746,-7.05659,0.0],[113.27605,-7.05593,0.0],[113.27562,-7.05472,0.0],[113.27926,-7.05365,0.0],[113.28028,-7.05194,0.0],[113.27956,-7.05057,0.0],[113.2788,-7.052,0.0],[113.27688,-7.05217,0.0],[113.27713,-7.05069,0.0],[113.2789,-7.05044,0.0],[113.27747,-7.04832,0.0],[113.2746,-7.04828,0.0],[113.27632,-7.04699,0.0],[113.27507,-7.04293,0.0],[113.271,-7.04277,0.0],[113.26989,-7.03641,0.0],[113.26511,-7.03476,0.0],[113.2638,-7.03261,0.0],[113.25928,-7.03297,0.0],[113.25835,-7.03134,0.0],[113.2591,-7.02878,0.0],[113.25079,-7.02764,0.0],[113.25094,-7.02335,0.0],[113.25428,-7.01899,0.0],[113.25137,-7.01513,0.0],[113.24847,-7.01602,0.0],[113.24512,-7.01435,0.0],[113.24428,-7.0169,0.0],[113.24237,-7.01807,0.0],[113.23517,-7.0179,0.0],[113.2347,-7.01666,0.0],[113.22684,-7.01369,0.0],[113.22524,-7.01167,0.0],[113.2254,-6.99835,0.0],[113.23073,-6.99302,0.0],[113.23529,-6.99063,0.0],[113.23548,-6.98836,0.0],[113.24143,-6.9817,0.0],[113.25215,-6.98005,0.0],[113.25217,-6.97266,0.0],[113.25819,-6.96332,0.0],[113.26854,-6.96061,0.0],[113.2774,-6.96232,0.0],[113.28633,-6.95862,0.0],[113.28664,-6.96076,0.0],[113.2906,-6.9613,0.0],[113.29694,-6.96623,0.0],[113.30036,-6.96501,0.0],[113.30202,-6.96135,0.0],[113.30441,-6.96056,0.0],[113.32448,-6.96513,0.0],[113.32288,-6.96592,0.0],[113.32196,-6.97036,0.0],[113.32284,-6.9714,0.0],[113.32113,-6.97283,0.0],[113.31856,-6.98014,0.0],[113.31913,-6.98268,0.0],[113.32235,-6.98379,0.0],[113.31999,-6.99258,0.0],[113.3231,-6.99431,0.0],[113.32579,-6.99976,0.0],[113.32712,-7.00005,0.0],[113.32731,-7.0023,0.0],[113.33262,-7.00443,0.0],[113.33157,-7.01611,0.0],[113.33287,-7.0174,0.0],[113.33687,-7.01701,0.0],[113.33463,-7.02332,0.0],[113.33612,-7.02599,0.0],[113.33489,-7.02843,0.0],[113.3355,-7.03209,0.0],[113.3304,-7.03839,0.0]]]}},{"type":"Feature","properties":{"kecamatan":"Camplong","kab_kota":"Sampang"},"geometry":{"type":"Polygon","coordinates":[[[113.29984,-7.21664,0.0],[113.29327,-7.21741,0.0],[113.28335,-7.21543,0.0],[113.27458,-7.21546,0.0],[113.2683,-7.2215,0.0],[113.2652,-7.2165,0.0],[113.26571,-7.20829,0.0],[113.28234,-7.20788,0.0],[113.28388,-7.20673,0.0],[113.28391,-7.20485,0.0],[113.28677,-7.20487,0.0],[113.28707,-7.20338,0.0],[113.28873,-7.2037,0.0],[113.29073,-7.202,0.0],[113.29334,-7.19794,0.0],[113.29521,-7.1933,0.0],[113.29382,-7.19213,0.0],[113.29463,-7.19032,0.0],[113.29108,-7.18852,0.0],[113.29134,-7.18168,0.0],[113.2899,-7.18016,0.0],[113.28798,-7.18062,0.0],[113.28412,-7.17859,0.0],[113.28631,-7.1747,0.0],[113.28818,-7.17328,0.0],[113.28894,-7.17446,0.0],[113.292,-7.17351,0.0],[113.29454,-7.16895,0.0],[113.30086,-7.16802,0.0],[113.30397,-7.16231,0.0],[113.30886,-7.16307,0.0],[113.31326,-7.15678,0.0],[113.31939,-7.15719,0.0],[113.32823,-7.15581,0.0],[113.33865,-7.15913,0.0],[113.34387,-7.15599,0.0],[113.35249,-7.15552,0.0],[113.35329,-7.15364,0.0],[113.35989,-7.15215,0.0],[113.36136,-7.15057,0.0],[113.36217,-7.15186,0.0],[113.36528,-7.15114,0.0],[113.36651,-7.15209,0.0],[113.37245,-7.15037,0.0],[113.37626,-7.14717,0.0],[113.37926,-7.1484,0.0],[113.38128,-7.1533,0.0],[113.3795,-7.15467,0.0],[113.37891,-7.16506,0.0],[113.38136,-7.17203,0.0],[113.38144,-7.17866,0.0],[113.37888,-7.1822,0.0],[113.37653,-7.18911,0.0],[113.37193,-7.19462,0.0],[113.3741,-7.19828,0.0],[113.37671,-7.19907,0.0],[113.37726,-7.20843,0.0],[113.37899,-7.21087,0.0],[113.38204,-7.20306,0.0],[113.3803,-7.1933,0.0],[113.38063,-7.1906,0.0],[113.38242,-7.18895,0.0],[113.38609,-7.18997,0.0],[113.38843,-7.19744,0.0],[113.39666,-7.19949,0.0],[113.39769,-7.20225,0.0],[113.39483,-7.20603,0.0],[113.39485,-7.20873,0.0],[113.39381,-7.20884,0.0],[113.39341,-7.21765,0.0],[113.36498,-7.21575,0.0],[113.36488,-7.2178,0.0],[113.36309,-7.21777,0.0],[113.36313,-7.21573,0.0],[113.35497,-7.21533,0.0],[113.35398,-7.21895,0.0],[113.34856,-7.21855,0.0],[113.34837,-7.21476,0.0],[113.33909,-7.21556,0.0],[113.33419,-7.21399,0.0],[113.32681,-7.21366,0.0],[113.31678,-7.21865,0.0],[113.29984,-7.21664,0.0]]]}},{"type":"Feature","properties":{"kecamatan":"Omben","kab_kota":"Sampang"},"geometry":{"type":"Polygon","coordinates":[[[113.31201,-7.15741,0.0],[113.30886,-7.16307,0.0],[113.30397,-7.16231,0.0],[113.30086,-7.16802,0.0],[113.29422,-7.1689,0.0],[113.29355,-7.16006,0.0],[113.29229,-7.15971,0.0],[113.2894,-7.15449,0.0],[113.28866,-7.15516,0.0],[113.28963,-7.15281,0.0],[113.28562,-7.14598,0.0],[113.28334,-7.13875,0.0],[113.27491,-7.13911,0.0],[113.27099,-7.13791,0.0],[113.2717,-7.13646,0.0],[113.27059,-7.13299,0.0],[113.27608,-7.12819,0.0],[113.27783,-7.12474,0.0],[113.27729,-7.12007,0.0],[113.27572,-7.12005,0.0],[113.2752,-7.1184,0.0],[113.27604,-7.11405,0.0],[113.2812,-7.11245,0.0],[113.28473,-7.10685,0.0],[113.28671,-7.09785,0.0],[113.28852,-7.09675,0.0],[113.28798,-7.09201,0.0],[113.29183,-7.08017,0.0],[113.2953,-7.081,0.0],[113.29534,-7.07894,0.0],[113.29836,-7.07942,0.0],[113.29862,-7.07761,0.0],[113.30345,-7.0777,0.0],[113.30385,-7.07187,0.0],[113.30607,-7.06567,0.0],[113.30805,-7.06433,0.0],[113.30354,-7.05542,0.0],[113.3114,-7.05098,0.0],[113.31461,-7.05278,0.0],[113.32371,-7.05254,0.0],[113.32693,-7.04727,0.0],[113.32891,-7.04694,0.0],[113.32801,-7.04147,0.0],[113.33257,-7.04119,0.0],[113.33724,-7.03831,0.0],[113.34048,-7.04256,0.0],[113.33773,-7.04923,0.0],[113.33739,-7.05338,0.0],[113.3399,-7.05659,0.0],[113.34591,-7.06008,0.0],[113.34847,-7.06013,0.0],[113.35097,-7.06462,0.0],[113.34991,-7.06692,0.0],[113.35192,-7.06701,0.0],[113.35346,-7.06926,0.0],[113.35683,-7.07024,0.0],[113.36135,-7.06865,0.0],[113.36604,-7.073,0.0],[113.37012,-7.07117,0.0],[113.37085,-7.06913,0.0],[113.36911,-7.06786,0.0],[113.36816,-7.06428,0.0],[113.37419,-7.05722,0.0],[113.37853,-7.06194,0.0],[113.38901,-7.06465,0.0],[113.38999,-7.06827,0.0],[113.39177,-7.06933,0.0],[113.39361,-7.07336,0.0],[113.38481,-7.07804,0.0],[113.38023,-7.0774,0.0],[113.38117,-7.08076,0.0],[113.38687,-7.0844,0.0],[113.3846,-7.08886,0.0],[113.38156,-7.08923,0.0],[113.37765,-7.09408,0.0],[113.36725,-7.09803,0.0],[113.36351,-7.10087,0.0],[113.36277,-7.10686,0.0],[113.36487,-7.10915,0.0],[113.36699,-7.10864,0.0],[113.36964,-7.10993,0.0],[113.37003,-7.11233,0.0],[113.36826,-7.11334,0.0],[113.36662,-7.11727,0.0],[113.36794,-7.12124,0.0],[113.36646,-7.12531,0.0],[113.36721,-7.129,0.0],[113.36581,-7.12897,0.0],[113.36449,-7.13114,0.0],[113.36741,-7.13745,0.0],[113.36498,-7.13825,0.0],[113.36418,-7.14212,0.0],[113.36064,-7.14462,0.0],[113.3612,-7.15108,0.0],[113.35329,-7.15364,0.0],[113.35249,-7.15552,0.0],[113.34387,-7.15599,0.0],[113.33865,-7.15913,0.0],[113.32823,-7.15581,0.0],[113.31201,-7.15741,0.0]]]}},{"type":"Feature","properties":{"kecamatan":"Torjun","kab_kota":"Sampang"},"geometry":{"type":"Polygon","coordinates":[[[113.20614,-7.18468,0.0],[113.20458,-7.18353,0.0],[113.20258,-7.17636,0.0],[113.19932,-7.17336,0.0],[113.19809,-7.17294,0.0],[113.1967,-7.17635,0.0],[113.19439,-7.17736,0.0],[113.194,-7.17982,0.0],[113.18942,-7.18115,0.0],[113.1876,-7.17973,0.0],[113.18817,-7.17733,0.0],[113.1805,-7.17229,0.0],[113.18009,-7.16788,0.0],[113.17191,-7.16572,0.0],[113.16992,-7.16558,0.0],[113.16854,-7.16702,0.0],[113.16308,-7.16646,0.0],[113.15852,-7.16345,0.0],[113.15874,-7.16185,0.0],[113.16117,-7.16093,0.0],[113.16239,-7.1541,0.0],[113.16616,-7.15554,0.0],[113.16702,-7.15293,0.0],[113.17255,-7.14982,0.0],[113.18374,-7.15029,0.0],[113.18612,-7.14831,0.0],[113.19334,-7.1486,0.0],[113.1938,-7.14654,0.0],[113.19678,-7.14587,0.0],[113.19839,-7.1436,0.0],[113.19639,-7.14229,0.0],[113.19917,-7.14017,0.0],[113.19883,-7.1393,0.0],[113.19231,-7.13807,0.0],[113.19225,-7.12579,0.0],[113.19325,-7.12364,0.0],[113.18954,-7.12267,0.0],[113.18587,-7.10384,0.0],[113.18085,-7.09769,0.0],[113.1877,-7.09616,0.0],[113.18991,-7.09756,0.0],[113.1912,-7.10067,0.0],[113.19614,-7.09939,0.0],[113.19908,-7.09644,0.0],[113.2018,-7.09571,0.0],[113.21122,-7.09955,0.0],[113.21429,-7.09913,0.0],[113.21651,-7.1008,0.0],[113.21747,-7.10589,0.0],[113.22269,-7.10982,0.0],[113.226,-7.11621,0.0],[113.22502,-7.12406,0.0],[113.22842,-7.12667,0.0],[113.22651,-7.13043,0.0],[113.22672,-7.14277,0.0],[113.2315,-7.14546,0.0],[113.23177,-7.15278,0.0],[113.23419,-7.15562,0.0],[113.23482,-7.16013,0.0],[113.23357,-7.16394,0.0],[113.23443,-7.16577,0.0],[113.23651,-7.16608,0.0],[113.23578,-7.16869,0.0],[113.2372,-7.16811,0.0],[113.23779,-7.16953,0.0],[113.23272,-7.1742,0.0],[113.22425,-7.17536,0.0],[113.22305,-7.17905,0.0],[113.22556,-7.17752,0.0],[113.2246,-7.18043,0.0],[113.22257,-7.18115,0.0],[113.22456,-7.18539,0.0],[113.22218,-7.19161,0.0],[113.21791,-7.1954,0.0],[113.21338,-7.19497,0.0],[113.2127,-7.19693,0.0],[113.20893,-7.19223,0.0],[113.20646,-7.1918,0.0],[113.20543,-7.18902,0.0],[113.20614,-7.18468,0.0]]]}},{"type":"Feature","properties":{"kecamatan":"Sampang","kab_kota":"Sampang"},"geometry":{"type":"MultiPolygon","coordinates":[[[[113.20385,-7.30644,0.0],[113.21914,-7.30815,0.0],[113.22378,-7.30967,0.0],[113.22432,-7.31087,0.0],[113.22014,-7.31398,0.0],[113.21389,-7.31455,0.0],[113.20271,-7.31028,0.0],[113.20385,-7.30644,0.0]]],[[[113.26667,-7.22173,0.0],[113.26008,-7.22455,0.0],[113.22506,-7.21975,0.0],[113.20174,-7.22154,0.0],[113.2025,-7.21875,0.0],[113.20967,-7.21744,0.0],[113.21209,-7.215,0.0],[113.21174,-7.20799,0.0],[113.20905,-7.20692,0.0],[113.20747,-7.20322,0.0],[113.21091,-7.20279,0.0],[113.21211,-7.19964,0.0],[113.21133,-7.19814,0.0],[113.21338,-7.19497,0.0],[113.21791,-7.1954,0.0],[113.22218,-7.19161,0.0],[113.22461,-7.18511,0.0],[113.22257,-7.18115,0.0],[113.2246,-7.18043,0.0],[113.22556,-7.17752,0.0],[113.22305,-7.17905,0.0],[113.22425,-7.17536,0.0],[113.23272,-7.1742,0.0],[113.23782,-7.16939,0.0],[113.2372,-7.16811,0.0],[113.23578,-7.16869,0.0],[113.23651,-7.16608,0.0],[113.23443,-7.16577,0.0],[113.23357,-7.16394,0.0],[113.23482,-7.16013,0.0],[113.23419,-7.15562,0.0],[113.23177,-7.15278,0.0],[113.2315,-7.14546,0.0],[113.22672,-7.14277,0.0],[113.22651,-7.13043,0.0],[113.22842,-7.12667,0.0],[113.22502,-7.12406,0.0],[113.226,-7.11621,0.0],[113.22383,-7.11185,0.0],[113.23036,-7.11201,0.0],[113.23541,-7.1172,0.0],[113.23777,-7.11741,0.0],[113.24453,-7.11687,0.0],[113.2574,-7.11185,0.0],[113.25778,-7.11493,0.0],[113.25614,-7.11839,0.0],[113.25451,-7.131,0.0],[113.25488,-7.13394,0.0],[113.25724,-7.1353,0.0],[113.25706,-7.13823,0.0],[113.25997,-7.13871,0.0],[113.26352,-7.13596,0.0],[113.26356,-7.13686,0.0],[113.27491,-7.13911,0.0],[113.28334,-7.13875,0.0],[113.28562,-7.14598,0.0],[113.28963,-7.15281,0.0],[113.28866,-7.15516,0.0],[113.2894,-7.15449,0.0],[113.29229,-7.15971,0.0],[113.29355,-7.16006,0.0],[113.29407,-7.17133,0.0],[113.29068,-7.17438,0.0],[113.28798,-7.17336,0.0],[113.28409,-7.17847,0.0],[113.28798,-7.18062,0.0],[113.2899,-7.18016,0.0],[113.29153,-7.18191,0.0],[113.29108,-7.18852,0.0],[113.29463,-7.19032,0.0],[113.29382,-7.19213,0.0],[113.29521,-7.1933,0.0],[113.29335,-7.19791,0.0],[113.29073,-7.202,0.0],[113.28873,-7.2037,0.0],[113.28707,-7.20338,0.0],[113.28677,-7.20487,0.0],[113.28391,-7.20485,0.0],[113.28388,-7.20673,0.0],[113.28234,-7.20788,0.0],[113.26571,-7.20829,0.0],[113.26491,-7.21364,0.0],[113.26667,-7.22173,0.0]]]]}},{"type":"Feature","properties":{"kecamatan":"Tambelangan","kab_kota":"Sampang"},"geometry":{"type":"Polygon","coordinates":[[[113.16863,-7.08901,0.0],[113.1685,-7.09283,0.0],[113.16366,-7.09971,0.0],[113.15266,-7.09672,0.0],[113.14446,-7.09769,0.0],[113.14482,-7.09993,0.0],[113.1411,-7.09849,0.0],[113.13732,-7.10174,0.0],[113.13781,-7.09456,0.0],[113.13297,-7.09423,0.0],[113.13518,-7.09067,0.0],[113.1283,-7.09159,0.0],[113.12236,-7.0864,0.0],[113.11651,-7.08716,0.0],[113.11318,-7.09017,0.0],[113.11137,-7.08796,0.0],[113.11068,-7.08895,0.0],[113.10971,-7.08298,0.0],[113.10783,-7.08104,0.0],[113.10868,-7.07948,0.0],[113.11003,-7.07849,0.0],[113.11358,-7.08,0.0],[113.11404,-7.07883,0.0],[113.1157,-7.07985,0.0],[113.11482,-7.08095,0.0],[113.11576,-7.08022,0.0],[113.11729,-7.0814,0.0],[113.11814,-7.0795,0.0],[113.1198,-7.08068,0.0],[113.12196,-7.07458,0.0],[113.12028,-7.07196,0.0],[113.12003,-7.06767,0.0],[113.1158,-7.06386,0.0],[113.11731,-7.06147,0.0],[113.11233,-7.05802,0.0],[113.11297,-7.05199,0.0],[113.11057,-7.04767,0.0],[113.11207,-7.04391,0.0],[113.11029,-7.04233,0.0],[113.1117,-7.03443,0.0],[113.11057,-7.02935,0.0],[113.11336,-7.03029,0.0],[113.11432,-7.03202,0.0],[113.11742,-7.0318,0.0],[113.11897,-7.03354,0.0],[113.12453,-7.03432,0.0],[113.12793,-7.03656,0.0],[113.13281,-7.03282,0.0],[113.13404,-7.02883,0.0],[113.13244,-7.0267,0.0],[113.13448,-7.02207,0.0],[113.13635,-7.02199,0.0],[113.13717,-7.01657,0.0],[113.13917,-7.01663,0.0],[113.14233,-7.0114,0.0],[113.14198,-7.01015,0.0],[113.13942,-7.00948,0.0],[113.14048,-7.00759,0.0],[113.13852,-7.00527,0.0],[113.14098,-7.00139,0.0],[113.14079,-6.99976,0.0],[113.14624,-6.99791,0.0],[113.14584,-6.99462,0.0],[113.14745,-6.99003,0.0],[113.15078,-6.98993,0.0],[113.15115,-6.99212,0.0],[113.16082,-6.9898,0.0],[113.1696,-6.99043,0.0],[113.1729,-6.98875,0.0],[113.1816,-6.98823,0.0],[113.18916,-6.99083,0.0],[113.20393,-6.99161,0.0],[113.20827,-6.99346,0.0],[113.21151,-6.99284,0.0],[113.20909,-7.00102,0.0],[113.20711,-7.00273,0.0],[113.20704,-7.0073,0.0],[113.214,-7.01463,0.0],[113.20323,-7.01647,0.0],[113.19909,-7.01433,0.0],[113.19588,-7.01417,0.0],[113.19424,-7.01546,0.0],[113.1926,-7.01503,0.0],[113.19146,-7.01678,0.0],[113.1887,-7.01684,0.0],[113.1865,-7.0206,0.0],[113.18497,-7.02011,0.0],[113.18637,-7.0295,0.0],[113.19243,-7.03916,0.0],[113.19297,-7.04436,0.0],[113.19133,-7.04905,0.0],[113.19107,-7.05595,0.0],[113.18961,-7.05982,0.0],[113.18722,-7.06122,0.0],[113.18771,-7.06342,0.0],[113.18506,-7.07443,0.0],[113.17938,-7.07894,0.0],[113.17415,-7.08925,0.0],[113.16863,-7.08901,0.0]]]}},{"type":"Feature","properties":{"kecamatan":"Banyuates","kab_kota":"Sampang"},"geometry":{"type":"Polygon","coordinates":[[[113.17312,-6.98871,0.0],[113.1696,-6.99043,0.0],[113.16082,-6.9898,0.0],[113.15057,-6.99205,0.0],[113.15066,-6.98989,0.0],[113.14184,-6.98954,0.0],[113.14183,-6.9858,0.0],[113.13651,-6.98223,0.0],[113.13614,-6.98009,0.0],[113.13456,-6.97867,0.0],[113.13042,-6.97925,0.0],[113.12812,-6.97684,0.0],[113.12589,-6.97706,0.0],[113.12528,-6.98034,0.0],[113.12179,-6.98556,0.0],[113.11256,-6.98347,0.0],[113.11092,-6.98451,0.0],[113.11044,-6.98711,0.0],[113.1081,-6.98396,0.0],[113.10724,-6.97915,0.0],[113.10817,-6.97825,0.0],[113.10737,-6.97658,0.0],[113.10925,-6.9741,0.0],[113.10876,-6.97294,0.0],[113.10664,-6.97297,0.0],[113.10665,-6.969,0.0],[113.10549,-6.96934,0.0],[113.10439,-6.96781,0.0],[113.10259,-6.9641,0.0],[113.10285,-6.9611,0.0],[113.10161,-6.96002,0.0],[113.10387,-6.95715,0.0],[113.10219,-6.95674,0.0],[113.10121,-6.95808,0.0],[113.09936,-6.95726,0.0],[113.10163,-6.9531,0.0],[113.09968,-6.95152,0.0],[113.09734,-6.94284,0.0],[113.09606,-6.94258,0.0],[113.09684,-6.93586,0.0],[113.09972,-6.93805,0.0],[113.10219,-6.93815,0.0],[113.10556,-6.93587,0.0],[113.10924,-6.93567,0.0],[113.11301,-6.93213,0.0],[113.11486,-6.93355,0.0],[113.11794,-6.93298,0.0],[113.11904,-6.92564,0.0],[113.11631,-6.91783,0.0],[113.11852,-6.91078,0.0],[113.11807,-6.90857,0.0],[113.12088,-6.90549,0.0],[113.1253,-6.90515,0.0],[113.12665,-6.90615,0.0],[113.12867,-6.89802,0.0],[113.1244,-6.89509,0.0],[113.12469,-6.89296,0.0],[113.12729,-6.8931,0.0],[113.1293,-6.8916,0.0],[113.13612,-6.89446,0.0],[113.13985,-6.89265,0.0],[113.14941,-6.89114,0.0],[113.15575,-6.89411,0.0],[113.15934,-6.89444,0.0],[113.16302,-6.89351,0.0],[113.16749,-6.89025,0.0],[113.17924,-6.89397,0.0],[113.18783,-6.89432,0.0],[113.19008,-6.89295,0.0],[113.19862,-6.89742,0.0],[113.22248,-6.89273,0.0],[113.22373,-6.8975,0.0],[113.22265,-6.90721,0.0],[113.22197,-6.90934,0.0],[113.21999,-6.90874,0.0],[113.22366,-6.91752,0.0],[113.23095,-6.92394,0.0],[113.23277,-6.92819,0.0],[113.23239,-6.93592,0.0],[113.23637,-6.94496,0.0],[113.23385,-6.95604,0.0],[113.23501,-6.95997,0.0],[113.23982,-6.96313,0.0],[113.24066,-6.96182,0.0],[113.24463,-6.96347,0.0],[113.25819,-6.96332,0.0],[113.25217,-6.97266,0.0],[113.25215,-6.98005,0.0],[113.24143,-6.9817,0.0],[113.23548,-6.98836,0.0],[113.23529,-6.99063,0.0],[113.22634,-6.99702,0.0],[113.22467,-7.00126,0.0],[113.22524,-7.01167,0.0],[113.22658,-7.01253,0.0],[113.22544,-7.01604,0.0],[113.22029,-7.01752,0.0],[113.21657,-7.014,0.0],[113.21428,-7.0143,0.0],[113.21186,-7.01265,0.0],[113.20723,-7.00791,0.0],[113.20711,-7.00273,0.0],[113.20909,-7.00102,0.0],[113.21151,-6.99284,0.0],[113.20827,-6.99346,0.0],[113.20393,-6.99161,0.0],[113.18916,-6.99083,0.0],[113.1816,-6.98823,0.0],[113.17312,-6.98871,0.0]]]}},{"type":"Feature","properties":{"kecamatan":"Kedungdung","kab_kota":"Sampang"},"geometry":{"type":"Polygon","coordinates":[[[113.24326,-7.11691,0.0],[113.23584,-7.11735,0.0],[113.23036,-7.11201,0.0],[113.22383,-7.11185,0.0],[113.22205,-7.10904,0.0],[113.21747,-7.10589,0.0],[113.21651,-7.1008,0.0],[113.21429,-7.09913,0.0],[113.21122,-7.09955,0.0],[113.20703,-7.09702,0.0],[113.20141,-7.09571,0.0],[113.19614,-7.09939,0.0],[113.19089,-7.10064,0.0],[113.18991,-7.09756,0.0],[113.18791,-7.09622,0.0],[113.18085,-7.09769,0.0],[113.1786,-7.09466,0.0],[113.17545,-7.09429,0.0],[113.17415,-7.08925,0.0],[113.17938,-7.07894,0.0],[113.18506,-7.07443,0.0],[113.18771,-7.06342,0.0],[113.18722,-7.06122,0.0],[113.18991,-7.05937,0.0],[113.1919,-7.05118,0.0],[113.19243,-7.03916,0.0],[113.18547,-7.02642,0.0],[113.18497,-7.02011,0.0],[113.1865,-7.0206,0.0],[113.1887,-7.01684,0.0],[113.19771,-7.01396,0.0],[113.20323,-7.01647,0.0],[113.20904,-7.01471,0.0],[113.21286,-7.01536,0.0],[113.21501,-7.01391,0.0],[113.21657,-7.014,0.0],[113.22029,-7.01752,0.0],[113.22544,-7.01604,0.0],[113.22658,-7.01253,0.0],[113.22695,-7.01376,0.0],[113.2347,-7.01666,0.0],[113.23517,-7.0179,0.0],[113.24237,-7.01807,0.0],[113.24428,-7.0169,0.0],[113.24512,-7.01435,0.0],[113.24847,-7.01602,0.0],[113.25137,-7.01513,0.0],[113.25428,-7.01899,0.0],[113.25094,-7.02335,0.0],[113.25079,-7.02764,0.0],[113.2591,-7.02878,0.0],[113.25835,-7.03134,0.0],[113.25928,-7.03297,0.0],[113.2638,-7.03261,0.0],[113.26511,-7.03476,0.0],[113.26935,-7.03586,0.0],[113.271,-7.04277,0.0],[113.27513,-7.04302,0.0],[113.27632,-7.04699,0.0],[113.2746,-7.04828,0.0],[113.27747,-7.04832,0.0],[113.2789,-7.05044,0.0],[113.27713,-7.05069,0.0],[113.27688,-7.05217,0.0],[113.27997,-7.05086,0.0],[113.27941,-7.05353,0.0],[113.27675,-7.05398,0.0],[113.2746,-7.05659,0.0],[113.27762,-7.05967,0.0],[113.27546,-7.061,0.0],[113.27679,-7.06191,0.0],[113.28039,-7.0616,0.0],[113.28155,-7.05745,0.0],[113.28423,-7.05578,0.0],[113.28387,-7.05315,0.0],[113.28548,-7.05119,0.0],[113.28976,-7.04882,0.0],[113.2931,-7.04991,0.0],[113.29582,-7.04742,0.0],[113.30188,-7.04583,0.0],[113.30283,-7.04357,0.0],[113.30477,-7.04492,0.0],[113.30419,-7.04367,0.0],[113.30528,-7.04295,0.0],[113.31121,-7.042,0.0],[113.3122,-7.04081,0.0],[113.31466,-7.04248,0.0],[113.31696,-7.03975,0.0],[113.32192,-7.04253,0.0],[113.32592,-7.04131,0.0],[113.32847,-7.04206,0.0],[113.32891,-7.04694,0.0],[113.32693,-7.04727,0.0],[113.32371,-7.05254,0.0],[113.31461,-7.05278,0.0],[113.3114,-7.05098,0.0],[113.30354,-7.05542,0.0],[113.30805,-7.06433,0.0],[113.30607,-7.06567,0.0],[113.30385,-7.07187,0.0],[113.30345,-7.0777,0.0],[113.29862,-7.07761,0.0],[113.29836,-7.07942,0.0],[113.29534,-7.07894,0.0],[113.2953,-7.081,0.0],[113.29183,-7.08017,0.0],[113.28798,-7.09201,0.0],[113.28852,-7.09675,0.0],[113.28671,-7.09785,0.0],[113.28473,-7.10685,0.0],[113.2812,-7.11245,0.0],[113.27604,-7.11405,0.0],[113.2752,-7.1184,0.0],[113.27572,-7.12005,0.0],[113.27729,-7.12007,0.0],[113.27783,-7.12474,0.0],[113.27608,-7.12819,0.0],[113.27071,-7.13273,0.0],[113.27099,-7.13791,0.0],[113.26356,-7.13686,0.0],[113.26352,-7.13596,0.0],[113.25997,-7.13871,0.0],[113.25706,-7.13823,0.0],[113.25724,-7.1353,0.0],[113.25488,-7.13394,0.0],[113.25451,-7.131,0.0],[113.25614,-7.11839,0.0],[113.25778,-7.11493,0.0],[113.2574,-7.11185,0.0],[113.24326,-7.11691,0.0]]]}},{"type":"Feature","properties":{"kecamatan":"Jrengik","kab_kota":"Sampang"},"geometry":{"type":"Polygon","coordinates":[[[113.1409,-7.15624,0.0],[113.13735,-7.15696,0.0],[113.1372,-7.16056,0.0],[113.13302,-7.16516,0.0],[113.13279,-7.16866,0.0],[113.1311,-7.16962,0.0],[113.12415,-7.16715,0.0],[113.12319,-7.16303,0.0],[113.1197,-7.1623,0.0],[113.11767,-7.16386,0.0],[113.11797,-7.15918,0.0],[113.11171,-7.1606,0.0],[113.10934,-7.1589,0.0],[113.10874,-7.15523,0.0],[113.10592,-7.15234,0.0],[113.09766,-7.15677,0.0],[113.0972,-7.15382,0.0],[113.09317,-7.15053,0.0],[113.09596,-7.14823,0.0],[113.09308,-7.13272,0.0],[113.09785,-7.12719,0.0],[113.10011,-7.12647,0.0],[113.10322,-7.12846,0.0],[113.10623,-7.12447,0.0],[113.10703,-7.12178,0.0],[113.10557,-7.11625,0.0],[113.10717,-7.1164,0.0],[113.10789,-7.11346,0.0],[113.10578,-7.10948,0.0],[113.10844,-7.10796,0.0],[113.1078,-7.11317,0.0],[113.10922,-7.11394,0.0],[113.10926,-7.11314,0.0],[113.11156,-7.11655,0.0],[113.11285,-7.11484,0.0],[113.1154,-7.116,0.0],[113.11379,-7.11236,0.0],[113.11352,-7.10842,0.0],[113.11456,-7.10764,0.0],[113.11259,-7.10595,0.0],[113.11351,-7.10418,0.0],[113.11585,-7.10455,0.0],[113.11547,-7.10161,0.0],[113.10938,-7.10051,0.0],[113.10814,-7.09752,0.0],[113.10842,-7.09548,0.0],[113.11194,-7.09499,0.0],[113.11112,-7.08784,0.0],[113.11318,-7.09017,0.0],[113.11651,-7.08716,0.0],[113.12245,-7.08641,0.0],[113.1283,-7.09159,0.0],[113.13518,-7.09067,0.0],[113.13297,-7.09423,0.0],[113.13781,-7.09456,0.0],[113.13732,-7.10174,0.0],[113.1411,-7.09849,0.0],[113.14482,-7.09993,0.0],[113.14446,-7.09769,0.0],[113.15266,-7.09672,0.0],[113.16366,-7.09971,0.0],[113.1685,-7.09283,0.0],[113.16826,-7.08928,0.0],[113.17416,-7.08926,0.0],[113.17574,-7.09477,0.0],[113.1786,-7.09466,0.0],[113.18231,-7.10063,0.0],[113.18587,-7.10384,0.0],[113.18804,-7.11882,0.0],[113.18975,-7.12308,0.0],[113.19325,-7.12364,0.0],[113.19225,-7.12579,0.0],[113.19226,-7.13794,0.0],[113.19883,-7.1393,0.0],[113.19917,-7.14017,0.0],[113.19639,-7.14229,0.0],[113.19839,-7.1436,0.0],[113.19789,-7.14494,0.0],[113.1938,-7.14654,0.0],[113.19334,-7.1486,0.0],[113.18612,-7.14831,0.0],[113.18374,-7.15029,0.0],[113.17033,-7.15058,0.0],[113.16702,-7.15293,0.0],[113.16616,-7.15554,0.0],[113.16216,-7.15426,0.0],[113.16117,-7.16093,0.0],[113.15966,-7.16171,0.0],[113.15569,-7.16028,0.0],[113.15528,-7.15827,0.0],[113.15307,-7.15726,0.0],[113.14777,-7.15582,0.0],[113.14395,-7.15738,0.0],[113.1409,-7.15624,0.0]]]}},{"type":"Feature","properties":{"kecamatan":"Sreseh","kab_kota":"Sampang"},"geometry":{"type":"Polygon","coordinates":[[[113.07536,-7.22375,0.0],[113.0538,-7.21631,0.0],[113.04091,-7.21443,0.0],[113.04046,-7.21278,0.0],[113.04388,-7.20362,0.0],[113.04695,-7.19957,0.0],[113.05397,-7.19708,0.0],[113.0575,-7.19854,0.0],[113.06014,-7.19785,0.0],[113.06033,-7.18958,0.0],[113.05676,-7.18682,0.0],[113.05293,-7.18766,0.0],[113.04966,-7.18649,0.0],[113.04837,-7.18439,0.0],[113.04958,-7.17908,0.0],[113.05414,-7.1765,0.0],[113.05733,-7.16367,0.0],[113.06176,-7.16576,0.0],[113.06751,-7.1638,0.0],[113.0673,-7.16062,0.0],[113.07056,-7.15819,0.0],[113.07252,-7.14928,0.0],[113.08156,-7.15125,0.0],[113.08685,-7.1564,0.0],[113.09425,-7.15829,0.0],[113.10331,-7.15445,0.0],[113.10553,-7.15218,0.0],[113.10874,-7.15523,0.0],[113.10934,-7.1589,0.0],[113.11171,-7.1606,0.0],[113.11797,-7.15918,0.0],[113.11767,-7.16386,0.0],[113.1197,-7.1623,0.0],[113.12287,-7.1629,0.0],[113.12434,-7.16731,0.0],[113.13358,-7.16947,0.0],[113.13673,-7.17703,0.0],[113.14269,-7.18522,0.0],[113.14158,-7.19614,0.0],[113.13771,-7.21128,0.0],[113.1445,-7.21392,0.0],[113.14463,-7.21548,0.0],[113.14982,-7.21651,0.0],[113.14917,-7.22075,0.0],[113.15028,-7.22399,0.0],[113.1405,-7.22452,0.0],[113.13244,-7.22253,0.0],[113.10814,-7.22796,0.0],[113.10257,-7.22754,0.0],[113.10032,-7.22904,0.0],[113.08627,-7.2262,0.0],[113.08101,-7.22332,0.0],[113.07536,-7.22375,0.0]]]}}]}