{"type":"FeatureCollection","features":[{"type":"Feature","properties":{"kecamatan":"Jatibanteng","kab_kota":"Situbondo"},"geometry":{"type":"Polygon","coordinates":[[[113.69736,-7.82476,0.0],[113.68994,-7.82919,0.0],[113.68947,-7.83454,0.0],[113.6829,-7.84679,0.0],[113.66631,-7.86149,0.0],[113.66113,-7.86873,0.0],[113.65275,-7.87244,0.0],[113.65016,-7.87573,0.0],[113.64844,-7.8811,0.0],[113.63528,-7.88991,0.0],[113.625,-7.89372,0.0],[113.62345,-7.89554,0.0],[113.62066,-7.89144,0.0],[113.61509,-7.88713,0.0],[113.61567,-7.88276,0.0],[113.61831,-7.88023,0.0],[113.61812,-7.87463,0.0],[113.61503,-7.86839,0.0],[113.61262,-7.86798,0.0],[113.612,-7.86479,0.0],[113.60881,-7.86045,0.0],[113.60804,-7.85459,0.0],[113.60936,-7.85317,0.0],[113.60519,-7.84915,0.0],[113.60292,-7.84307,0.0],[113.60606,-7.83626,0.0],[113.60827,-7.83509,0.0],[113.61022,-7.83179,0.0],[113.61173,-7.82405,0.0],[113.6076,-7.82206,0.0],[113.60251,-7.81351,0.0],[113.59215,-7.80541,0.0],[113.59339,-7.80375,0.0],[113.60186,-7.80212,0.0],[113.61031,-7.79579,0.0],[113.6138,-7.79556,0.0],[113.61645,-7.79384,0.0],[113.625,-7.79397,0.0],[113.62857,-7.79156,0.0],[113.62883,-7.78666,0.0],[113.63781,-7.77887,0.0],[113.64191,-7.77834,0.0],[113.6447,-7.77644,0.0],[113.65066,-7.77841,0.0],[113.65659,-7.77691,0.0],[113.65917,-7.77448,0.0],[113.67422,-7.7705,0.0],[113.67835,-7.76489,0.0],[113.68045,-7.76642,0.0],[113.67959,-7.76891,0.0],[113.68549,-7.77154,0.0],[113.6871,-7.7636,0.0],[113.6899,-7.76227,0.0],[113.69329,-7.78224,0.0],[113.69794,-7.78081,0.0],[113.70298,-7.7761,0.0],[113.70493,-7.78676,0.0],[113.70822,-7.78778,0.0],[113.71113,-7.78715,0.0],[113.70925,-7.79155,0.0],[113.70825,-7.80091,0.0],[113.7097,-7.80505,0.0],[113.70828,-7.80762,0.0],[113.70881,-7.81109,0.0],[113.70689,-7.81771,0.0],[113.70517,-7.81886,0.0],[113.70508,-7.82417,0.0],[113.69736,-7.82476,0.0]]]}},{"type":"Feature","properties":{"kecamatan":"Mlandingan","kab_kota":"Situbondo"},"geometry":{"type":"Polygon","coordinates":[[[113.82483,-7.81112,0.0],[113.8198,-7.81119,0.0],[113.81574,-7.81336,0.0],[113.80908,-7.81311,0.0],[113.80449,-7.81653,0.0],[113.80158,-7.81653,0.0],[113.79993,-7.80778,0.0],[113.79343,-7.80281,0.0],[113.7877,-7.80292,0.0],[113.78384,-7.7991,0.0],[113.78137,-7.80025,0.0],[113.76086,-7.79226,0.0],[113.76205,-7.78982,0.0],[113.75167,-7.78061,0.0],[113.75084,-7.77651,0.0],[113.74883,-7.77496,0.0],[113.7488,-7.77134,0.0],[113.74639,-7.76516,0.0],[113.74209,-7.75972,0.0],[113.74326,-7.75687,0.0],[113.74179,-7.75376,0.0],[113.7418,-7.74996,0.0],[113.74429,-7.74326,0.0],[113.74253,-7.74198,0.0],[113.74325,-7.7336,0.0],[113.74617,-7.73251,0.0],[113.75372,-7.73676,0.0],[113.76127,-7.73813,0.0],[113.76358,-7.73801,0.0],[113.77138,-7.73322,0.0],[113.77466,-7.73491,0.0],[113.77488,-7.73212,0.0],[113.7767,-7.73275,0.0],[113.77503,-7.73452,0.0],[113.7761,-7.73685,0.0],[113.7749,-7.73899,0.0],[113.77845,-7.74092,0.0],[113.77805,-7.7448,0.0],[113.78027,-7.74923,0.0],[113.77866,-7.75349,0.0],[113.78063,-7.75388,0.0],[113.78143,-7.7572,0.0],[113.79522,-7.75868,0.0],[113.79464,-7.76146,0.0],[113.7969,-7.76387,0.0],[113.79699,-7.77192,0.0],[113.80175,-7.77266,0.0],[113.82431,-7.77155,0.0],[113.82585,-7.77501,0.0],[113.83135,-7.77851,0.0],[113.84042,-7.77911,0.0],[113.84636,-7.78167,0.0],[113.85319,-7.78024,0.0],[113.84951,-7.79558,0.0],[113.84733,-7.79979,0.0],[113.84306,-7.8034,0.0],[113.84106,-7.80803,0.0],[113.83688,-7.81231,0.0],[113.8343,-7.81313,0.0],[113.82805,-7.81296,0.0],[113.82483,-7.81112,0.0]]]}},{"type":"Feature","properties":{"kecamatan":"Kendit","kab_kota":"Situbondo"},"geometry":{"type":"Polygon","coordinates":[[[113.90399,-7.80361,0.0],[113.89933,-7.80174,0.0],[113.8996,-7.80006,0.0],[113.89771,-7.80002,0.0],[113.89672,-7.79828,0.0],[113.89248,-7.79849,0.0],[113.88964,-7.7968,0.0],[113.88645,-7.79791,0.0],[113.88292,-7.79709,0.0],[113.87729,-7.79108,0.0],[113.87574,-7.7916,0.0],[113.87573,-7.79514,0.0],[113.8722,-7.79754,0.0],[113.86449,-7.79331,0.0],[113.84951,-7.79558,0.0],[113.85319,-7.78024,0.0],[113.86084,-7.77461,0.0],[113.86399,-7.75682,0.0],[113.8627,-7.74346,0.0],[113.85827,-7.7396,0.0],[113.84893,-7.72333,0.0],[113.86051,-7.71812,0.0],[113.86295,-7.70228,0.0],[113.86631,-7.69698,0.0],[113.86816,-7.68008,0.0],[113.86905,-7.6826,0.0],[113.87457,-7.68674,0.0],[113.8786,-7.68824,0.0],[113.88223,-7.68722,0.0],[113.88607,-7.68823,0.0],[113.88836,-7.69152,0.0],[113.89303,-7.69485,0.0],[113.90341,-7.69912,0.0],[113.91307,-7.69657,0.0],[113.92056,-7.70084,0.0],[113.92285,-7.69917,0.0],[113.92232,-7.69738,0.0],[113.92591,-7.70025,0.0],[113.93376,-7.71653,0.0],[113.94106,-7.72026,0.0],[113.94106,-7.72223,0.0],[113.94523,-7.72312,0.0],[113.94739,-7.72548,0.0],[113.95911,-7.7286,0.0],[113.96395,-7.73258,0.0],[113.98113,-7.73962,0.0],[113.98185,-7.74125,0.0],[113.97764,-7.75721,0.0],[113.97013,-7.75993,0.0],[113.96443,-7.75858,0.0],[113.96267,-7.76012,0.0],[113.9543,-7.75961,0.0],[113.95455,-7.76101,0.0],[113.94614,-7.77136,0.0],[113.9409,-7.77549,0.0],[113.9357,-7.77671,0.0],[113.93777,-7.78263,0.0],[113.93657,-7.78364,0.0],[113.9378,-7.78614,0.0],[113.936,-7.79013,0.0],[113.93682,-7.79173,0.0],[113.93278,-7.79339,0.0],[113.93181,-7.79222,0.0],[113.92976,-7.79271,0.0],[113.92869,-7.79061,0.0],[113.91823,-7.78881,0.0],[113.9169,-7.79249,0.0],[113.9055,-7.79564,0.0],[113.90477,-7.79884,0.0],[113.90596,-7.8001,0.0],[113.90399,-7.80361,0.0]]]}},{"type":"Feature","properties":{"kecamatan":"Besuki","kab_kota":"Situbondo"},"geometry":{"type":"MultiPolygon","coordinates":[[[[113.67537,-7.76756,0.0],[113.67608,-7.76824,0.0],[113.67534,-7.76822,0.0],[113.67537,-7.76756,0.0]]],[[[113.7032,-7.77622,0.0],[113.69741,-7.78114,0.0],[113.69329,-7.78224,0.0],[113.6899,-7.76227,0.0],[113.6871,-7.7636,0.0],[113.68549,-7.77154,0.0],[113.6793,-7.7686,0.0],[113.68045,-7.76642,0.0],[113.67788,-7.76503,0.0],[113.68108,-7.76114,0.0],[113.67988,-7.75942,0.0],[113.68058,-7.75786,0.0],[113.67935,-7.75716,0.0],[113.6803,-7.75375,0.0],[113.67895,-7.75121,0.0],[113.68001,-7.75018,0.0],[113.6793,-7.74486,0.0],[113.6838,-7.74064,0.0],[113.68401,-7.73495,0.0],[113.68258,-7.7327,0.0],[113.67553,-7.72949,0.0],[113.68277,-7.72877,0.0],[113.68638,-7.72611,0.0],[113.68603,-7.72412,0.0],[113.68732,-7.72599,0.0],[113.68824,-7.72627,0.0],[113.68768,-7.72558,0.0],[113.69721,-7.71951,0.0],[113.70273,-7.71387,0.0],[113.71253,-7.70887,0.0],[113.71192,-7.7156,0.0],[113.70985,-7.71727,0.0],[113.70988,-7.71867,0.0],[113.71357,-7.7236,0.0],[113.71305,-7.72833,0.0],[113.71466,-7.72994,0.0],[113.71396,-7.73693,0.0],[113.71248,-7.73839,0.0],[113.7105,-7.74712,0.0],[113.71364,-7.74778,0.0],[113.71607,-7.75188,0.0],[113.71897,-7.76861,0.0],[113.72141,-7.77109,0.0],[113.7253,-7.77195,0.0],[113.72683,-7.77575,0.0],[113.72937,-7.77698,0.0],[113.73107,-7.78286,0.0],[113.73097,-7.7897,0.0],[113.72151,-7.78889,0.0],[113.72169,-7.78982,0.0],[113.71899,-7.79053,0.0],[113.71367,-7.79043,0.0],[113.71192,-7.78716,0.0],[113.706,-7.78747,0.0],[113.70469,-7.78605,0.0],[113.7032,-7.77622,0.0]]]]}},{"type":"Feature","properties":{"kecamatan":"Suboh","kab_kota":"Situbondo"},"geometry":{"type":"Polygon","coordinates":[[[113.73163,-7.81908,0.0],[113.72546,-7.82041,0.0],[113.71547,-7.81862,0.0],[113.71706,-7.81387,0.0],[113.71609,-7.81143,0.0],[113.72212,-7.798,0.0],[113.72291,-7.79014,0.0],[113.72151,-7.78889,0.0],[113.73083,-7.78983,0.0],[113.73107,-7.78286,0.0],[113.72937,-7.77698,0.0],[113.72683,-7.77575,0.0],[113.7253,-7.77195,0.0],[113.72141,-7.77109,0.0],[113.71897,-7.76861,0.0],[113.71607,-7.75188,0.0],[113.71364,-7.74778,0.0],[113.7105,-7.74712,0.0],[113.71248,-7.73839,0.0],[113.71396,-7.73693,0.0],[113.71466,-7.72994,0.0],[113.71305,-7.72833,0.0],[113.71357,-7.7236,0.0],[113.70978,-7.71751,0.0],[113.71192,-7.7156,0.0],[113.7122,-7.70978,0.0],[113.71344,-7.7083,0.0],[113.71505,-7.7117,0.0],[113.71905,-7.71327,0.0],[113.72479,-7.71882,0.0],[113.72339,-7.72034,0.0],[113.72501,-7.72198,0.0],[113.74504,-7.73268,0.0],[113.74258,-7.73464,0.0],[113.74342,-7.73521,0.0],[113.74253,-7.74198,0.0],[113.74429,-7.74326,0.0],[113.7418,-7.74996,0.0],[113.74179,-7.75376,0.0],[113.74326,-7.75687,0.0],[113.74209,-7.75972,0.0],[113.74639,-7.76516,0.0],[113.7488,-7.77134,0.0],[113.74883,-7.77496,0.0],[113.75084,-7.77651,0.0],[113.75167,-7.78061,0.0],[113.76205,-7.78982,0.0],[113.7604,-7.79215,0.0],[113.76075,-7.79685,0.0],[113.75648,-7.79551,0.0],[113.74736,-7.79625,0.0],[113.74542,-7.79511,0.0],[113.74625,-7.79309,0.0],[113.74404,-7.78967,0.0],[113.73945,-7.78906,0.0],[113.73851,-7.79101,0.0],[113.73989,-7.79969,0.0],[113.73938,-7.80445,0.0],[113.73656,-7.80835,0.0],[113.73368,-7.80932,0.0],[113.7336,-7.81593,0.0],[113.73163,-7.81908,0.0]]]}},{"type":"Feature","properties":{"kecamatan":"Panji","kab_kota":"Situbondo"},"geometry":{"type":"Polygon","coordinates":[[[114.03132,-7.75786,0.0],[114.03007,-7.76022,0.0],[114.0149,-7.761,0.0],[114.00922,-7.75568,0.0],[114.00674,-7.75534,0.0],[114.00722,-7.75628,0.0],[114.00663,-7.75677,0.0],[114.00586,-7.75395,0.0],[114.00803,-7.74724,0.0],[114.01068,-7.74579,0.0],[114.01293,-7.739,0.0],[114.01573,-7.73813,0.0],[114.01701,-7.73519,0.0],[114.01423,-7.73099,0.0],[114.01506,-7.72851,0.0],[114.01333,-7.72271,0.0],[114.01365,-7.72131,0.0],[114.01595,-7.72219,0.0],[114.01713,-7.72015,0.0],[114.01389,-7.71406,0.0],[114.00841,-7.71208,0.0],[114.011,-7.70091,0.0],[114.01408,-7.69619,0.0],[114.01357,-7.68813,0.0],[114.01241,-7.68759,0.0],[114.02041,-7.66725,0.0],[114.02212,-7.65391,0.0],[114.02809,-7.65356,0.0],[114.03412,-7.65445,0.0],[114.03037,-7.66965,0.0],[114.03849,-7.67247,0.0],[114.03759,-7.67564,0.0],[114.0481,-7.67598,0.0],[114.04788,-7.67994,0.0],[114.04298,-7.69388,0.0],[114.05692,-7.69633,0.0],[114.056,-7.7021,0.0],[114.05983,-7.70193,0.0],[114.06129,-7.70264,0.0],[114.06122,-7.70444,0.0],[114.06432,-7.70479,0.0],[114.06421,-7.71543,0.0],[114.06121,-7.71729,0.0],[114.05792,-7.7222,0.0],[114.053,-7.73869,0.0],[114.0529,-7.7476,0.0],[114.05513,-7.75057,0.0],[114.05457,-7.75351,0.0],[114.05582,-7.7589,0.0],[114.05074,-7.76074,0.0],[114.04965,-7.75854,0.0],[114.0354,-7.75988,0.0],[114.03132,-7.75786,0.0]]]}},{"type":"Feature","properties":{"kecamatan":"Mangaran","kab_kota":"Situbondo"},"geometry":{"type":"Polygon","coordinates":[[[114.05815,-7.62217,0.0],[114.07018,-7.63957,0.0],[114.07246,-7.64767,0.0],[114.08436,-7.67192,0.0],[114.08102,-7.67169,0.0],[114.0815,-7.66996,0.0],[114.06824,-7.66651,0.0],[114.06895,-7.66548,0.0],[114.04686,-7.66175,0.0],[114.04393,-7.67533,0.0],[114.03759,-7.67564,0.0],[114.03849,-7.67247,0.0],[114.03037,-7.66965,0.0],[114.03412,-7.65445,0.0],[114.0294,-7.65363,0.0],[114.02212,-7.65391,0.0],[114.02085,-7.66508,0.0],[114.01658,-7.66432,0.0],[114.01583,-7.66662,0.0],[114.01219,-7.66592,0.0],[114.00577,-7.66156,0.0],[114.01155,-7.63887,0.0],[114.00855,-7.63832,0.0],[114.01011,-7.62853,0.0],[114.01169,-7.62584,0.0],[114.01323,-7.62636,0.0],[114.01252,-7.6253,0.0],[114.01307,-7.62405,0.0],[114.01437,-7.62402,0.0],[114.03358,-7.60554,0.0],[114.028,-7.61118,0.0],[114.02837,-7.61205,0.0],[114.02961,-7.61031,0.0],[114.03619,-7.60861,0.0],[114.039,-7.61055,0.0],[114.04152,-7.60727,0.0],[114.03728,-7.60453,0.0],[114.04247,-7.60583,0.0],[114.05815,-7.62217,0.0]]]}},{"type":"Feature","properties":{"kecamatan":"Panarukan","kab_kota":"Situbondo"},"geometry":{"type":"MultiPolygon","coordinates":[[[[113.98137,-7.70869,0.0],[113.98954,-7.71173,0.0],[114.00419,-7.71128,0.0],[114.00682,-7.70967,0.0],[114.00944,-7.71253,0.0],[114.00869,-7.71508,0.0],[114.00959,-7.71538,0.0],[114.00744,-7.71939,0.0],[114.00642,-7.72554,0.0],[114.00382,-7.72622,0.0],[114.00204,-7.73136,0.0],[114.00037,-7.73199,0.0],[114.00271,-7.73717,0.0],[113.99717,-7.74938,0.0],[113.99092,-7.75492,0.0],[113.98767,-7.75543,0.0],[113.98364,-7.75851,0.0],[113.97923,-7.75826,0.0],[113.97792,-7.75671,0.0],[113.9795,-7.74759,0.0],[113.98201,-7.74362,0.0],[113.98113,-7.73962,0.0],[113.96395,-7.73258,0.0],[113.95911,-7.7286,0.0],[113.94739,-7.72548,0.0],[113.94523,-7.72312,0.0],[113.94106,-7.72223,0.0],[113.94106,-7.72026,0.0],[113.93376,-7.71653,0.0],[113.92727,-7.7044,0.0],[113.92636,-7.69952,0.0],[113.92302,-7.69734,0.0],[113.93141,-7.70056,0.0],[113.93419,-7.69801,0.0],[113.93112,-7.69614,0.0],[113.92752,-7.69324,0.0],[113.93032,-7.69535,0.0],[113.9315,-7.69379,0.0],[113.93276,-7.69473,0.0],[113.93162,-7.69624,0.0],[113.9336,-7.69734,0.0],[113.9362,-7.6926,0.0],[113.93516,-7.69178,0.0],[113.93605,-7.69233,0.0],[113.9376,-7.68909,0.0],[113.93712,-7.68056,0.0],[113.94031,-7.67676,0.0],[113.9438,-7.67524,0.0],[113.94971,-7.68118,0.0],[113.95297,-7.67967,0.0],[113.9584,-7.67468,0.0],[113.96502,-7.66283,0.0],[113.96634,-7.66277,0.0],[113.96919,-7.65477,0.0],[113.97218,-7.6516,0.0],[113.98247,-7.64905,0.0],[113.98621,-7.64357,0.0],[113.98943,-7.64289,0.0],[113.98892,-7.64177,0.0],[113.9904,-7.63979,0.0],[113.99523,-7.63823,0.0],[113.9964,-7.63652,0.0],[114.00031,-7.63729,0.0],[114.00328,-7.63632,0.0],[114.01011,-7.62853,0.0],[114.00855,-7.63832,0.0],[114.01155,-7.63887,0.0],[114.0052,-7.66384,0.0],[113.99794,-7.66247,0.0],[113.99481,-7.67049,0.0],[113.99567,-7.67148,0.0],[113.99622,-7.67003,0.0],[113.99553,-7.67225,0.0],[113.99457,-7.67327,0.0],[113.99598,-7.67365,0.0],[113.99305,-7.68259,0.0],[113.98859,-7.68277,0.0],[113.99673,-7.68704,0.0],[113.99711,-7.68862,0.0],[113.99947,-7.68846,0.0],[113.9985,-7.69339,0.0],[113.98892,-7.69133,0.0],[113.98877,-7.6927,0.0],[113.98564,-7.69111,0.0],[113.98457,-7.69563,0.0],[113.97863,-7.69426,0.0],[113.97739,-7.70264,0.0],[113.9786,-7.70281,0.0],[113.97872,-7.70616,0.0],[113.98137,-7.70869,0.0]]],[[[113.98877,-7.6927,0.0],[113.99233,-7.69379,0.0],[113.99205,-7.69492,0.0],[113.98877,-7.6927,0.0]]]]}},{"type":"Feature","properties":{"kecamatan":"Situbondo","kab_kota":"Situbondo"},"geometry":{"type":"MultiPolygon","coordinates":[[[[114.00691,-7.75648,0.0],[114.0051,-7.76253,0.0],[114.00124,-7.77017,0.0],[113.99691,-7.7751,0.0],[113.99241,-7.77779,0.0],[113.99064,-7.77541,0.0],[113.98346,-7.77251,0.0],[113.97992,-7.77397,0.0],[113.97877,-7.7719,0.0],[113.97352,-7.77151,0.0],[113.96989,-7.76917,0.0],[113.95962,-7.77013,0.0],[113.95084,-7.76523,0.0],[113.95455,-7.76101,0.0],[113.9543,-7.75961,0.0],[113.96267,-7.76012,0.0],[113.96443,-7.75858,0.0],[113.97022,-7.75992,0.0],[113.97792,-7.75671,0.0],[113.97923,-7.75826,0.0],[113.98379,-7.7585,0.0],[113.98767,-7.75543,0.0],[113.99139,-7.75459,0.0],[113.99717,-7.74938,0.0],[114.00057,-7.74338,0.0],[114.00079,-7.7397,0.0],[114.00273,-7.73685,0.0],[114.00033,-7.7321,0.0],[114.00204,-7.73136,0.0],[114.00382,-7.72622,0.0],[114.00653,-7.72534,0.0],[114.00944,-7.71253,0.0],[114.01389,-7.71406,0.0],[114.01716,-7.72026,0.0],[114.01559,-7.72239,0.0],[114.01365,-7.72131,0.0],[114.01333,-7.72271,0.0],[114.01506,-7.72851,0.0],[114.01423,-7.73099,0.0],[114.01701,-7.73519,0.0],[114.01573,-7.73813,0.0],[114.01293,-7.739,0.0],[114.01068,-7.74579,0.0],[114.00785,-7.74757,0.0],[114.0059,-7.7535,0.0],[114.00691,-7.75648,0.0]]],[[[114.01334,-7.69731,0.0],[114.011,-7.70091,0.0],[114.00847,-7.71155,0.0],[114.00682,-7.70967,0.0],[114.00419,-7.71128,0.0],[113.98882,-7.71169,0.0],[113.98412,-7.70888,0.0],[113.98137,-7.70869,0.0],[113.97872,-7.70616,0.0],[113.97914,-7.70424,0.0],[113.97719,-7.70099,0.0],[113.97863,-7.69426,0.0],[113.98457,-7.69563,0.0],[113.98564,-7.69111,0.0],[113.98877,-7.6927,0.0],[113.98892,-7.69133,0.0],[113.9985,-7.69339,0.0],[113.99947,-7.68846,0.0],[113.99711,-7.68862,0.0],[113.99673,-7.68704,0.0],[113.98859,-7.68277,0.0],[113.99305,-7.68259,0.0],[113.99598,-7.67365,0.0],[113.99457,-7.67327,0.0],[113.99553,-7.67225,0.0],[113.99622,-7.67003,0.0],[113.99567,-7.67148,0.0],[113.99481,-7.67049,0.0],[113.99794,-7.66247,0.0],[114.0052,-7.66384,0.0],[114.00644,-7.66161,0.0],[114.00922,-7.66444,0.0],[114.01583,-7.66662,0.0],[114.01658,-7.66432,0.0],[114.02086,-7.665,0.0],[114.01241,-7.68759,0.0],[114.01357,-7.68813,0.0],[114.01334,-7.69731,0.0]],[[113.98882,-7.69283,0.0],[113.99122,-7.69397,0.0],[113.99205,-7.69492,0.0],[113.99233,-7.69379,0.0],[113.98882,-7.69283,0.0]]]]}},{"type":"Feature","properties":{"kecamatan":"Arjasa","kab_kota":"Situbondo"},"geometry":{"type":"Polygon","coordinates":[[[114.16699,-7.84474,0.0],[114.16776,-7.85381,0.0],[114.1643,-7.86881,0.0],[114.16604,-7.8826,0.0],[114.16837,-7.88629,0.0],[114.16647,-7.89536,0.0],[114.16699,-7.89843,0.0],[114.16439,-7.90555,0.0],[114.16627,-7.91578,0.0],[114.16505,-7.92404,0.0],[114.16659,-7.9269,0.0],[114.16207,-7.94317,0.0],[114.1735,-7.95623,0.0],[114.17438,-7.95904,0.0],[114.17329,-7.9635,0.0],[114.1716,-7.96491,0.0],[114.17092,-7.97004,0.0],[114.16636,-7.97044,0.0],[114.16359,-7.97292,0.0],[114.15052,-7.97676,0.0],[114.14115,-7.98139,0.0],[114.12764,-7.99302,0.0],[114.12787,-7.98684,0.0],[114.12592,-7.98351,0.0],[114.12755,-7.97611,0.0],[114.12401,-7.97192,0.0],[114.12473,-7.9696,0.0],[114.12335,-7.9635,0.0],[114.11711,-7.95407,0.0],[114.11623,-7.94778,0.0],[114.11351,-7.94208,0.0],[114.11442,-7.94157,0.0],[114.11344,-7.93896,0.0],[114.11563,-7.936,0.0],[114.11374,-7.93262,0.0],[114.11372,-7.92442,0.0],[114.11168,-7.92114,0.0],[114.11114,-7.9096,0.0],[114.10272,-7.89922,0.0],[114.10225,-7.89248,0.0],[114.09884,-7.88897,0.0],[114.09615,-7.88274,0.0],[114.09394,-7.88167,0.0],[114.09253,-7.87544,0.0],[114.0939,-7.87251,0.0],[114.09226,-7.86698,0.0],[114.09349,-7.86459,0.0],[114.09191,-7.86229,0.0],[114.09387,-7.85824,0.0],[114.09321,-7.8452,0.0],[114.09484,-7.84433,0.0],[114.09415,-7.84176,0.0],[114.0956,-7.84062,0.0],[114.09047,-7.8252,0.0],[114.08916,-7.82427,0.0],[114.08975,-7.81904,0.0],[114.08789,-7.81515,0.0],[114.08936,-7.80601,0.0],[114.08687,-7.7993,0.0],[114.08061,-7.79554,0.0],[114.07941,-7.78937,0.0],[114.0778,-7.78865,0.0],[114.07489,-7.78317,0.0],[114.07929,-7.77364,0.0],[114.07937,-7.77081,0.0],[114.07472,-7.76974,0.0],[114.0715,-7.76185,0.0],[114.07569,-7.75916,0.0],[114.0789,-7.75374,0.0],[114.08166,-7.75174,0.0],[114.09415,-7.75,0.0],[114.10065,-7.74071,0.0],[114.09887,-7.73135,0.0],[114.09959,-7.72843,0.0],[114.10259,-7.72999,0.0],[114.10804,-7.72958,0.0],[114.11372,-7.73266,0.0],[114.11538,-7.72928,0.0],[114.11622,-7.71972,0.0],[114.11979,-7.70937,0.0],[114.123,-7.70753,0.0],[114.1344,-7.71381,0.0],[114.15587,-7.71484,0.0],[114.15224,-7.729,0.0],[114.15806,-7.73098,0.0],[114.15645,-7.73941,0.0],[114.15714,-7.74328,0.0],[114.15584,-7.74563,0.0],[114.16989,-7.74715,0.0],[114.16707,-7.74918,0.0],[114.16149,-7.75045,0.0],[114.1588,-7.75969,0.0],[114.15673,-7.76043,0.0],[114.15331,-7.76881,0.0],[114.14833,-7.77292,0.0],[114.14461,-7.77417,0.0],[114.14004,-7.77932,0.0],[114.13838,-7.7835,0.0],[114.13537,-7.78533,0.0],[114.13339,-7.79038,0.0],[114.13042,-7.79338,0.0],[114.12901,-7.8056,0.0],[114.12535,-7.81209,0.0],[114.12535,-7.81554,0.0],[114.12344,-7.81674,0.0],[114.122,-7.82932,0.0],[114.14197,-7.83476,0.0],[114.15578,-7.83696,0.0],[114.15876,-7.83842,0.0],[114.16363,-7.84392,0.0],[114.16699,-7.84474,0.0]]]}},{"type":"Feature","properties":{"kecamatan":"Jangkar","kab_kota":"Situbondo"},"geometry":{"type":"Polygon","coordinates":[[[114.1835,-7.7845,0.0],[114.18327,-7.79061,0.0],[114.18535,-7.79475,0.0],[114.18038,-7.79499,0.0],[114.18082,-7.80108,0.0],[114.17834,-7.8064,0.0],[114.17662,-7.81555,0.0],[114.17677,-7.82277,0.0],[114.17396,-7.83428,0.0],[114.16775,-7.84054,0.0],[114.1665,-7.84392,0.0],[114.16363,-7.84392,0.0],[114.15876,-7.83842,0.0],[114.15578,-7.83696,0.0],[114.12212,-7.82961,0.0],[114.12344,-7.81674,0.0],[114.12535,-7.81554,0.0],[114.12535,-7.81209,0.0],[114.12901,-7.8056,0.0],[114.13042,-7.79338,0.0],[114.13339,-7.79038,0.0],[114.13537,-7.78533,0.0],[114.13838,-7.7835,0.0],[114.14004,-7.77932,0.0],[114.14461,-7.77417,0.0],[114.14833,-7.77292,0.0],[114.15331,-7.76881,0.0],[114.15673,-7.76043,0.0],[114.1588,-7.75969,0.0],[114.16149,-7.75045,0.0],[114.16981,-7.74741,0.0],[114.15584,-7.74563,0.0],[114.15714,-7.74328,0.0],[114.15645,-7.73941,0.0],[114.15806,-7.73098,0.0],[114.15224,-7.729,0.0],[114.15587,-7.71484,0.0],[114.17692,-7.71508,0.0],[114.17861,-7.71195,0.0],[114.18552,-7.71311,0.0],[114.19298,-7.70915,0.0],[114.19457,-7.70969,0.0],[114.19446,-7.70862,0.0],[114.198,-7.71085,0.0],[114.20067,-7.71478,0.0],[114.20451,-7.71723,0.0],[114.20809,-7.71783,0.0],[114.21408,-7.7156,0.0],[114.22414,-7.70816,0.0],[114.22598,-7.71293,0.0],[114.22395,-7.73247,0.0],[114.22147,-7.73193,0.0],[114.22136,-7.7359,0.0],[114.21878,-7.738,0.0],[114.21818,-7.73667,0.0],[114.21548,-7.73631,0.0],[114.21531,-7.73759,0.0],[114.21002,-7.73645,0.0],[114.20939,-7.74479,0.0],[114.2076,-7.74388,0.0],[114.20731,-7.74586,0.0],[114.20186,-7.74781,0.0],[114.20198,-7.75089,0.0],[114.19122,-7.75112,0.0],[114.18784,-7.76457,0.0],[114.18775,-7.7836,0.0],[114.18705,-7.78487,0.0],[114.1835,-7.7845,0.0]]]}},{"type":"Feature","properties":{"kecamatan":"Kapongan","kab_kota":"Situbondo"},"geometry":{"type":"Polygon","coordinates":[[[114.10023,-7.72845,0.0],[114.09887,-7.73135,0.0],[114.10065,-7.74071,0.0],[114.09415,-7.75,0.0],[114.08166,-7.75174,0.0],[114.0789,-7.75374,0.0],[114.07569,-7.75916,0.0],[114.07153,-7.76175,0.0],[114.07218,-7.76415,0.0],[114.07077,-7.7641,0.0],[114.07133,-7.76126,0.0],[114.06758,-7.75969,0.0],[114.05582,-7.7589,0.0],[114.05457,-7.75351,0.0],[114.05513,-7.75057,0.0],[114.0529,-7.7476,0.0],[114.053,-7.73869,0.0],[114.05792,-7.7222,0.0],[114.06121,-7.71729,0.0],[114.06421,-7.71543,0.0],[114.06431,-7.70462,0.0],[114.06122,-7.70444,0.0],[114.06129,-7.70264,0.0],[114.05983,-7.70193,0.0],[114.056,-7.7021,0.0],[114.05692,-7.69633,0.0],[114.0429,-7.69375,0.0],[114.04793,-7.67974,0.0],[114.0481,-7.67598,0.0],[114.04393,-7.67533,0.0],[114.04686,-7.66175,0.0],[114.06895,-7.66548,0.0],[114.06824,-7.66651,0.0],[114.0815,-7.66996,0.0],[114.08102,-7.67169,0.0],[114.08436,-7.67192,0.0],[114.08861,-7.68016,0.0],[114.09471,-7.68772,0.0],[114.09723,-7.69547,0.0],[114.10123,-7.70244,0.0],[114.1087,-7.70733,0.0],[114.11979,-7.70937,0.0],[114.11622,-7.71972,0.0],[114.11538,-7.72928,0.0],[114.11372,-7.73266,0.0],[114.10804,-7.72958,0.0],[114.10259,-7.72999,0.0],[114.10023,-7.72845,0.0]]]}},{"type":"Feature","properties":{"kecamatan":"Sumbermalang","kab_kota":"Situbondo"},"geometry":{"type":"Polygon","coordinates":[[[113.6712,-7.92017,0.0],[113.66292,-7.92159,0.0],[113.6619,-7.92328,0.0],[113.66044,-7.93846,0.0],[113.65151,-7.94172,0.0],[113.64837,-7.94551,0.0],[113.64425,-7.94767,0.0],[113.63713,-7.94959,0.0],[113.63181,-7.9555,0.0],[113.62378,-7.96146,0.0],[113.61566,-7.95815,0.0],[113.61577,-7.95684,0.0],[113.6204,-7.95557,0.0],[113.62262,-7.95316,0.0],[113.62051,-7.95217,0.0],[113.6147,-7.95314,0.0],[113.61175,-7.9512,0.0],[113.61104,-7.94903,0.0],[113.61506,-7.94181,0.0],[113.61869,-7.93892,0.0],[113.61703,-7.9346,0.0],[113.61888,-7.92862,0.0],[113.62392,-7.92623,0.0],[113.62552,-7.92374,0.0],[113.62627,-7.91645,0.0],[113.62222,-7.90694,0.0],[113.62332,-7.90528,0.0],[113.62362,-7.89516,0.0],[113.63528,-7.88991,0.0],[113.64446,-7.88285,0.0],[113.64806,-7.88143,0.0],[113.65275,-7.87244,0.0],[113.66113,-7.86873,0.0],[113.66631,-7.86149,0.0],[113.6829,-7.84679,0.0],[113.68947,-7.83454,0.0],[113.69012,-7.82893,0.0],[113.69825,-7.82404,0.0],[113.70508,-7.82417,0.0],[113.70517,-7.81886,0.0],[113.70777,-7.81515,0.0],[113.70828,-7.80762,0.0],[113.70963,-7.80557,0.0],[113.70821,-7.80162,0.0],[113.71035,-7.78837,0.0],[113.71192,-7.78716,0.0],[113.71367,-7.79043,0.0],[113.71899,-7.79053,0.0],[113.7217,-7.78934,0.0],[113.72291,-7.79014,0.0],[113.72212,-7.798,0.0],[113.71609,-7.81143,0.0],[113.71706,-7.81387,0.0],[113.71547,-7.81862,0.0],[113.72546,-7.82041,0.0],[113.73163,-7.81908,0.0],[113.73373,-7.83143,0.0],[113.73219,-7.83371,0.0],[113.73256,-7.83661,0.0],[113.73078,-7.83871,0.0],[113.72934,-7.84787,0.0],[113.72607,-7.85432,0.0],[113.7276,-7.85771,0.0],[113.72703,-7.86066,0.0],[113.72418,-7.86604,0.0],[113.72379,-7.86983,0.0],[113.72093,-7.87228,0.0],[113.72246,-7.87903,0.0],[113.70711,-7.8854,0.0],[113.70635,-7.8896,0.0],[113.70319,-7.89245,0.0],[113.69985,-7.89935,0.0],[113.68909,-7.90315,0.0],[113.68485,-7.91033,0.0],[113.67942,-7.91259,0.0],[113.67729,-7.91589,0.0],[113.6712,-7.92017,0.0]]]}},{"type":"Feature","properties":{"kecamatan":"Banyuglugur","kab_kota":"Situbondo"},"geometry":{"type":"Polygon","coordinates":[[[113.61645,-7.79384,0.0],[113.60614,-7.799,0.0],[113.60405,-7.79821,0.0],[113.60319,-7.79118,0.0],[113.60178,-7.78889,0.0],[113.60266,-7.78187,0.0],[113.59841,-7.77104,0.0],[113.59049,-7.76354,0.0],[113.57639,-7.7562,0.0],[113.57623,-7.75,0.0],[113.57253,-7.7414,0.0],[113.57328,-7.73878,0.0],[113.57823,-7.73302,0.0],[113.57787,-7.72766,0.0],[113.57931,-7.72592,0.0],[113.58625,-7.72721,0.0],[113.58828,-7.72653,0.0],[113.59054,-7.72373,0.0],[113.59071,-7.7166,0.0],[113.59658,-7.71717,0.0],[113.59824,-7.71544,0.0],[113.59768,-7.71699,0.0],[113.5989,-7.71798,0.0],[113.60119,-7.71791,0.0],[113.60688,-7.72098,0.0],[113.60849,-7.72056,0.0],[113.611,-7.72308,0.0],[113.61912,-7.72003,0.0],[113.62695,-7.72253,0.0],[113.636,-7.72185,0.0],[113.64317,-7.72569,0.0],[113.64735,-7.72363,0.0],[113.6499,-7.72436,0.0],[113.65173,-7.72955,0.0],[113.65545,-7.73274,0.0],[113.66627,-7.73687,0.0],[113.67216,-7.73393,0.0],[113.67183,-7.73247,0.0],[113.67497,-7.72956,0.0],[113.68333,-7.73342,0.0],[113.68389,-7.74043,0.0],[113.6793,-7.74486,0.0],[113.68001,-7.75018,0.0],[113.67895,-7.75121,0.0],[113.6803,-7.75375,0.0],[113.67935,-7.75716,0.0],[113.68058,-7.75786,0.0],[113.67988,-7.75942,0.0],[113.68108,-7.76114,0.0],[113.67788,-7.76503,0.0],[113.67723,-7.76774,0.0],[113.67537,-7.76756,0.0],[113.67629,-7.76816,0.0],[113.67434,-7.7704,0.0],[113.66542,-7.77221,0.0],[113.65215,-7.77841,0.0],[113.64518,-7.7764,0.0],[113.63735,-7.77904,0.0],[113.62883,-7.78666,0.0],[113.62857,-7.79156,0.0],[113.6255,-7.79367,0.0],[113.61645,-7.79384,0.0]]]}},{"type":"Feature","properties":{"kecamatan":"Asembagus","kab_kota":"Situbondo"},"geometry":{"type":"Polygon","coordinates":[[[114.23337,-7.78166,0.0],[114.23926,-7.7832,0.0],[114.23798,-7.78606,0.0],[114.2389,-7.78689,0.0],[114.23838,-7.79225,0.0],[114.24004,-7.79816,0.0],[114.24382,-7.80297,0.0],[114.24249,-7.80904,0.0],[114.24334,-7.81319,0.0],[114.24029,-7.8216,0.0],[114.23971,-7.83792,0.0],[114.236,-7.84909,0.0],[114.25108,-7.87816,0.0],[114.25495,-7.88201,0.0],[114.26055,-7.88209,0.0],[114.26841,-7.89438,0.0],[114.26947,-7.9024,0.0],[114.26863,-7.90898,0.0],[114.27131,-7.91491,0.0],[114.27148,-7.91896,0.0],[114.25931,-7.931,0.0],[114.25404,-7.93409,0.0],[114.24969,-7.93936,0.0],[114.246,-7.95047,0.0],[114.24055,-7.96023,0.0],[114.23752,-7.96143,0.0],[114.23288,-7.9704,0.0],[114.23061,-7.97225,0.0],[114.22849,-7.97925,0.0],[114.2252,-7.9827,0.0],[114.22434,-7.98666,0.0],[114.22137,-7.98513,0.0],[114.219,-7.98194,0.0],[114.2114,-7.97767,0.0],[114.20644,-7.97708,0.0],[114.20364,-7.97544,0.0],[114.19909,-7.97582,0.0],[114.19112,-7.97138,0.0],[114.17668,-7.9695,0.0],[114.17092,-7.97004,0.0],[114.1716,-7.96491,0.0],[114.17329,-7.9635,0.0],[114.17434,-7.95929,0.0],[114.17369,-7.95662,0.0],[114.16207,-7.94317,0.0],[114.16659,-7.9269,0.0],[114.16505,-7.92404,0.0],[114.16627,-7.91578,0.0],[114.16439,-7.90555,0.0],[114.16699,-7.89843,0.0],[114.16651,-7.89502,0.0],[114.16841,-7.88752,0.0],[114.16795,-7.88453,0.0],[114.16604,-7.8826,0.0],[114.1643,-7.86881,0.0],[114.16776,-7.85381,0.0],[114.16644,-7.84287,0.0],[114.17396,-7.83428,0.0],[114.17677,-7.82277,0.0],[114.17662,-7.81555,0.0],[114.17834,-7.8064,0.0],[114.18082,-7.80108,0.0],[114.18038,-7.79499,0.0],[114.18535,-7.79475,0.0],[114.18327,-7.79061,0.0],[114.18298,-7.78658,0.0],[114.1835,-7.7845,0.0],[114.18705,-7.78487,0.0],[114.18775,-7.7836,0.0],[114.18784,-7.76457,0.0],[114.19122,-7.75112,0.0],[114.20198,-7.75089,0.0],[114.20186,-7.74781,0.0],[114.20731,-7.74586,0.0],[114.2076,-7.74388,0.0],[114.20939,-7.74479,0.0],[114.21002,-7.73645,0.0],[114.21531,-7.73759,0.0],[114.21548,-7.73631,0.0],[114.21818,-7.73667,0.0],[114.21878,-7.738,0.0],[114.22046,-7.73717,0.0],[114.22147,-7.73193,0.0],[114.22395,-7.73247,0.0],[114.22482,-7.73,0.0],[114.22598,-7.71293,0.0],[114.22385,-7.70812,0.0],[114.23407,-7.69982,0.0],[114.2389,-7.69772,0.0],[114.24496,-7.70076,0.0],[114.25293,-7.71258,0.0],[114.26143,-7.72037,0.0],[114.26765,-7.7238,0.0],[114.2799,-7.73396,0.0],[114.28333,-7.73493,0.0],[114.26961,-7.74673,0.0],[114.26485,-7.74418,0.0],[114.26339,-7.74093,0.0],[114.25966,-7.73826,0.0],[114.24526,-7.73917,0.0],[114.24395,-7.74492,0.0],[114.24072,-7.74484,0.0],[114.23827,-7.75161,0.0],[114.2392,-7.75183,0.0],[114.23869,-7.75362,0.0],[114.23731,-7.75375,0.0],[114.23165,-7.77057,0.0],[114.23337,-7.78166,0.0]]]}},{"type":"Feature","properties":{"kecamatan":"Banyuputih","kab_kota":"Situbondo"},"geometry":{"type":"MultiPolygon","coordinates":[[[[114.43874,-7.90439,0.0],[114.43716,-7.90931,0.0],[114.42642,-7.91439,0.0],[114.42242,-7.91884,0.0],[114.42109,-7.92616,0.0],[114.42403,-7.93549,0.0],[114.41952,-7.93451,0.0],[114.41448,-7.93808,0.0],[114.41362,-7.93726,0.0],[114.41418,-7.93951,0.0],[114.41322,-7.94018,0.0],[114.4113,-7.93847,0.0],[114.40648,-7.93732,0.0],[114.40099,-7.93275,0.0],[114.39883,-7.9285,0.0],[114.39653,-7.9268,0.0],[114.39028,-7.92692,0.0],[114.38095,-7.92314,0.0],[114.37848,-7.92097,0.0],[114.37336,-7.92029,0.0],[114.37265,-7.91866,0.0],[114.36529,-7.91821,0.0],[114.36176,-7.91448,0.0],[114.35743,-7.91284,0.0],[114.35158,-7.91365,0.0],[114.348,-7.91083,0.0],[114.34438,-7.91142,0.0],[114.34427,-7.90888,0.0],[114.34055,-7.90592,0.0],[114.33942,-7.9076,0.0],[114.33268,-7.90684,0.0],[114.33002,-7.90178,0.0],[114.32359,-7.89909,0.0],[114.32337,-7.89707,0.0],[114.31769,-7.89514,0.0],[114.31405,-7.89111,0.0],[114.3111,-7.88984,0.0],[114.31144,-7.88849,0.0],[114.30383,-7.88467,0.0],[114.29314,-7.88892,0.0],[114.28841,-7.89417,0.0],[114.28313,-7.89724,0.0],[114.28277,-7.90084,0.0],[114.27826,-7.90663,0.0],[114.27843,-7.90945,0.0],[114.27615,-7.91266,0.0],[114.27131,-7.91491,0.0],[114.26863,-7.90898,0.0],[114.26947,-7.9024,0.0],[114.26841,-7.89438,0.0],[114.26055,-7.88209,0.0],[114.25495,-7.88201,0.0],[114.25108,-7.87816,0.0],[114.23594,-7.84883,0.0],[114.23866,-7.84355,0.0],[114.23971,-7.83792,0.0],[114.24029,-7.8216,0.0],[114.24334,-7.81319,0.0],[114.24249,-7.80904,0.0],[114.24382,-7.80297,0.0],[114.24004,-7.79816,0.0],[114.23838,-7.79225,0.0],[114.2389,-7.78689,0.0],[114.23798,-7.78606,0.0],[114.23926,-7.7832,0.0],[114.23291,-7.7813,0.0],[114.23321,-7.776,0.0],[114.23162,-7.77082,0.0],[114.23731,-7.75375,0.0],[114.23869,-7.75362,0.0],[114.2392,-7.75183,0.0],[114.23827,-7.75161,0.0],[114.24072,-7.74484,0.0],[114.24395,-7.74492,0.0],[114.24526,-7.73917,0.0],[114.25966,-7.73826,0.0],[114.26339,-7.74093,0.0],[114.26485,-7.74418,0.0],[114.26961,-7.74673,0.0],[114.28333,-7.73493,0.0],[114.28874,-7.74444,0.0],[114.29255,-7.74721,0.0],[114.29708,-7.74827,0.0],[114.30445,-7.74576,0.0],[114.30955,-7.74629,0.0],[114.319,-7.75626,0.0],[114.32842,-7.75836,0.0],[114.33755,-7.75623,0.0],[114.34699,-7.75624,0.0],[114.35002,-7.75767,0.0],[114.35098,-7.7559,0.0],[114.35633,-7.75551,0.0],[114.35955,-7.75644,0.0],[114.364,-7.75553,0.0],[114.37167,-7.75752,0.0],[114.37276,-7.75431,0.0],[114.36977,-7.75299,0.0],[114.36669,-7.75391,0.0],[114.36386,-7.74969,0.0],[114.36631,-7.74904,0.0],[114.36725,-7.75026,0.0],[114.37437,-7.75192,0.0],[114.3738,-7.75524,0.0],[114.37558,-7.75685,0.0],[114.37851,-7.75707,0.0],[114.3774,-7.75453,0.0],[114.37857,-7.75408,0.0],[114.37731,-7.75266,0.0],[114.37845,-7.75323,0.0],[114.38089,-7.7607,0.0],[114.38664,-7.76347,0.0],[114.39299,-7.77095,0.0],[114.39503,-7.77178,0.0],[114.40344,-7.76993,0.0],[114.40556,-7.77115,0.0],[114.411,-7.77784,0.0],[114.41656,-7.78038,0.0],[114.42172,-7.78703,0.0],[114.42448,-7.78825,0.0],[114.42727,-7.78737,0.0],[114.42975,-7.79222,0.0],[114.43367,-7.79288,0.0],[114.43724,-7.78916,0.0],[114.44108,-7.79147,0.0],[114.44292,-7.79397,0.0],[114.44246,-7.79753,0.0],[114.44497,-7.79994,0.0],[114.44809,-7.80063,0.0],[114.44756,-7.8055,0.0],[114.44895,-7.80673,0.0],[114.45267,-7.80319,0.0],[114.45472,-7.80988,0.0],[114.45786,-7.81092,0.0],[114.45761,-7.81444,0.0],[114.45972,-7.81577,0.0],[114.46469,-7.82517,0.0],[114.46518,-7.82925,0.0],[114.46381,-7.82996,0.0],[114.46377,-7.83251,0.0],[114.46704,-7.83467,0.0],[114.46372,-7.83804,0.0],[114.46296,-7.8425,0.0],[114.45784,-7.84749,0.0],[114.45881,-7.85078,0.0],[114.462,-7.85153,0.0],[114.46461,-7.8555,0.0],[114.46444,-7.85808,0.0],[114.45927,-7.85958,0.0],[114.45709,-7.86303,0.0],[114.45866,-7.8652,0.0],[114.46024,-7.86438,0.0],[114.46211,-7.86919,0.0],[114.46178,-7.87599,0.0],[114.46367,-7.87887,0.0],[114.46461,-7.88497,0.0],[114.46361,-7.88962,0.0],[114.44495,-7.8984,0.0],[114.43874,-7.90439,0.0]]],[[[114.43597,-7.67949,0.0],[114.43555,-7.67959,0.0],[114.43594,-7.67941,0.0],[114.43597,-7.67949,0.0]]]]}},{"type":"Feature","properties":{"kecamatan":"Bungatan","kab_kota":"Situbondo"},"geometry":{"type":"Polygon","coordinates":[[[113.82431,-7.77155,0.0],[113.80175,-7.77266,0.0],[113.79688,-7.77185,0.0],[113.7969,-7.76387,0.0],[113.79464,-7.76146,0.0],[113.79522,-7.75868,0.0],[113.78143,-7.7572,0.0],[113.78063,-7.75388,0.0],[113.77866,-7.75349,0.0],[113.78027,-7.74923,0.0],[113.77805,-7.7448,0.0],[113.77845,-7.74092,0.0],[113.77501,-7.73977,0.0],[113.7761,-7.73685,0.0],[113.77503,-7.73452,0.0],[113.77634,-7.7328,0.0],[113.78269,-7.73325,0.0],[113.78807,-7.73202,0.0],[113.79081,-7.73053,0.0],[113.79061,-7.72929,0.0],[113.79252,-7.72971,0.0],[113.79802,-7.72586,0.0],[113.79999,-7.72235,0.0],[113.80721,-7.71679,0.0],[113.81151,-7.71167,0.0],[113.81705,-7.69935,0.0],[113.8205,-7.69653,0.0],[113.82683,-7.6954,0.0],[113.83087,-7.68847,0.0],[113.8412,-7.68455,0.0],[113.86179,-7.6848,0.0],[113.8671,-7.68186,0.0],[113.86816,-7.68008,0.0],[113.86631,-7.69698,0.0],[113.86295,-7.70228,0.0],[113.86051,-7.71812,0.0],[113.84893,-7.72333,0.0],[113.85827,-7.7396,0.0],[113.86322,-7.74502,0.0],[113.86396,-7.75827,0.0],[113.86084,-7.77461,0.0],[113.85572,-7.77924,0.0],[113.84636,-7.78167,0.0],[113.84042,-7.77911,0.0],[113.83135,-7.77851,0.0],[113.82585,-7.77501,0.0],[113.82431,-7.77155,0.0]]]}}]}