{"type":"FeatureCollection","features":[{"type":"Feature","properties":{"kecamatan":"Yosowilangun","kab_kota":"Lumajang"},"geometry":{"type":"Polygon","coordinates":[[[113.31716,-8.27756,0.0],[113.30827,-8.30112,0.0],[113.30354,-8.30721,0.0],[113.27648,-8.29459,0.0],[113.25509,-8.28847,0.0],[113.23519,-8.28486,0.0],[113.24,-8.26887,0.0],[113.24288,-8.26686,0.0],[113.24425,-8.2613,0.0],[113.24249,-8.25917,0.0],[113.24476,-8.2595,0.0],[113.2464,-8.2555,0.0],[113.25041,-8.23825,0.0],[113.26133,-8.24119,0.0],[113.26262,-8.23971,0.0],[113.26299,-8.23814,0.0],[113.25993,-8.23716,0.0],[113.26177,-8.23167,0.0],[113.25545,-8.2284,0.0],[113.25633,-8.21775,0.0],[113.25443,-8.21703,0.0],[113.25487,-8.2148,0.0],[113.25305,-8.21179,0.0],[113.26354,-8.21472,0.0],[113.26654,-8.21221,0.0],[113.27632,-8.21436,0.0],[113.27874,-8.20742,0.0],[113.28291,-8.20923,0.0],[113.28334,-8.20592,0.0],[113.28448,-8.20614,0.0],[113.28455,-8.20962,0.0],[113.28663,-8.21,0.0],[113.28654,-8.21148,0.0],[113.29185,-8.21152,0.0],[113.29163,-8.20366,0.0],[113.29423,-8.20443,0.0],[113.294,-8.2056,0.0],[113.29605,-8.20442,0.0],[113.29501,-8.20074,0.0],[113.29572,-8.19914,0.0],[113.29905,-8.19957,0.0],[113.30114,-8.20157,0.0],[113.30426,-8.19964,0.0],[113.30541,-8.20072,0.0],[113.30715,-8.20583,0.0],[113.30709,-8.21711,0.0],[113.306,-8.21894,0.0],[113.30758,-8.21901,0.0],[113.31276,-8.23138,0.0],[113.31173,-8.23372,0.0],[113.31393,-8.23501,0.0],[113.31558,-8.23822,0.0],[113.31539,-8.24868,0.0],[113.32011,-8.26164,0.0],[113.31716,-8.27756,0.0]]]}},{"type":"Feature","properties":{"kecamatan":"Rowokangkung","kab_kota":"Lumajang"},"geometry":{"type":"Polygon","coordinates":[[[113.3416,-8.20608,0.0],[113.33337,-8.20827,0.0],[113.33059,-8.21261,0.0],[113.33136,-8.21549,0.0],[113.32773,-8.2173,0.0],[113.32684,-8.22126,0.0],[113.32289,-8.22324,0.0],[113.32014,-8.22664,0.0],[113.31777,-8.22608,0.0],[113.31736,-8.22754,0.0],[113.31306,-8.22883,0.0],[113.31276,-8.23138,0.0],[113.30758,-8.21901,0.0],[113.306,-8.21894,0.0],[113.30709,-8.21711,0.0],[113.30715,-8.20583,0.0],[113.30455,-8.1997,0.0],[113.30114,-8.20157,0.0],[113.29905,-8.19957,0.0],[113.29572,-8.19914,0.0],[113.29501,-8.20074,0.0],[113.29605,-8.20442,0.0],[113.294,-8.2056,0.0],[113.29423,-8.20443,0.0],[113.29163,-8.20366,0.0],[113.29185,-8.21152,0.0],[113.28654,-8.21148,0.0],[113.28663,-8.21,0.0],[113.28455,-8.20962,0.0],[113.28448,-8.20614,0.0],[113.28334,-8.20592,0.0],[113.28291,-8.20923,0.0],[113.27874,-8.20742,0.0],[113.27632,-8.21436,0.0],[113.27177,-8.21363,0.0],[113.27405,-8.20437,0.0],[113.27893,-8.20545,0.0],[113.27791,-8.20281,0.0],[113.2814,-8.19645,0.0],[113.28458,-8.19562,0.0],[113.285,-8.19445,0.0],[113.28641,-8.19562,0.0],[113.28644,-8.19454,0.0],[113.28857,-8.19467,0.0],[113.28877,-8.19101,0.0],[113.29077,-8.19042,0.0],[113.29076,-8.18742,0.0],[113.28807,-8.18116,0.0],[113.2935,-8.18072,0.0],[113.29238,-8.17662,0.0],[113.29014,-8.17614,0.0],[113.28948,-8.1782,0.0],[113.28582,-8.17483,0.0],[113.28302,-8.16947,0.0],[113.284,-8.16731,0.0],[113.28271,-8.16502,0.0],[113.27899,-8.16502,0.0],[113.27889,-8.16237,0.0],[113.2725,-8.15747,0.0],[113.27718,-8.15276,0.0],[113.27722,-8.1514,0.0],[113.27331,-8.15036,0.0],[113.27543,-8.14932,0.0],[113.27444,-8.14608,0.0],[113.27606,-8.14402,0.0],[113.27826,-8.1438,0.0],[113.27656,-8.14309,0.0],[113.27687,-8.14037,0.0],[113.27432,-8.13915,0.0],[113.2769,-8.13635,0.0],[113.27805,-8.13566,0.0],[113.29098,-8.13933,0.0],[113.2941,-8.14301,0.0],[113.29502,-8.14169,0.0],[113.3084,-8.14207,0.0],[113.30951,-8.13744,0.0],[113.31604,-8.13762,0.0],[113.31584,-8.14565,0.0],[113.3177,-8.14575,0.0],[113.31764,-8.14825,0.0],[113.32203,-8.1509,0.0],[113.32826,-8.16261,0.0],[113.33034,-8.16372,0.0],[113.33097,-8.16078,0.0],[113.3436,-8.14855,0.0],[113.34935,-8.14952,0.0],[113.34926,-8.15181,0.0],[113.36751,-8.15244,0.0],[113.36715,-8.16608,0.0],[113.36863,-8.16788,0.0],[113.36592,-8.16856,0.0],[113.36696,-8.17038,0.0],[113.36624,-8.17425,0.0],[113.36861,-8.17973,0.0],[113.36799,-8.18514,0.0],[113.36329,-8.18946,0.0],[113.36072,-8.18934,0.0],[113.35285,-8.2005,0.0],[113.35326,-8.2036,0.0],[113.34862,-8.20719,0.0],[113.34444,-8.20782,0.0],[113.3416,-8.20608,0.0]]]}},{"type":"Feature","properties":{"kecamatan":"Tempeh","kab_kota":"Lumajang"},"geometry":{"type":"Polygon","coordinates":[[[113.21736,-8.28309,0.0],[113.17746,-8.28308,0.0],[113.17409,-8.28044,0.0],[113.17537,-8.26604,0.0],[113.1745,-8.26264,0.0],[113.1696,-8.2563,0.0],[113.17315,-8.25043,0.0],[113.17101,-8.24516,0.0],[113.17348,-8.24043,0.0],[113.17067,-8.23969,0.0],[113.17007,-8.23741,0.0],[113.16468,-8.23571,0.0],[113.16189,-8.23511,0.0],[113.15823,-8.23657,0.0],[113.1556,-8.23564,0.0],[113.14632,-8.22691,0.0],[113.1542,-8.22338,0.0],[113.15329,-8.22131,0.0],[113.16332,-8.21585,0.0],[113.16091,-8.21445,0.0],[113.15805,-8.2054,0.0],[113.15549,-8.20825,0.0],[113.15034,-8.20077,0.0],[113.14741,-8.19853,0.0],[113.14949,-8.19431,0.0],[113.14696,-8.19259,0.0],[113.14533,-8.18772,0.0],[113.14256,-8.18586,0.0],[113.14257,-8.18425,0.0],[113.14062,-8.18458,0.0],[113.13733,-8.18135,0.0],[113.13858,-8.17892,0.0],[113.13748,-8.17814,0.0],[113.13663,-8.17998,0.0],[113.13315,-8.17817,0.0],[113.13415,-8.17243,0.0],[113.13289,-8.16935,0.0],[113.13448,-8.16934,0.0],[113.1361,-8.16545,0.0],[113.1322,-8.16357,0.0],[113.13073,-8.16081,0.0],[113.1246,-8.15816,0.0],[113.12292,-8.15502,0.0],[113.12279,-8.14835,0.0],[113.14055,-8.15076,0.0],[113.14089,-8.14962,0.0],[113.14415,-8.15055,0.0],[113.14482,-8.14842,0.0],[113.14898,-8.14615,0.0],[113.15329,-8.14739,0.0],[113.15848,-8.15143,0.0],[113.15691,-8.15933,0.0],[113.16026,-8.16046,0.0],[113.1633,-8.15996,0.0],[113.16035,-8.16405,0.0],[113.15904,-8.17205,0.0],[113.17644,-8.1707,0.0],[113.18462,-8.17289,0.0],[113.19189,-8.16791,0.0],[113.2004,-8.16741,0.0],[113.19983,-8.17007,0.0],[113.20246,-8.17065,0.0],[113.20184,-8.17324,0.0],[113.21135,-8.17592,0.0],[113.20643,-8.18766,0.0],[113.20583,-8.19016,0.0],[113.20733,-8.19062,0.0],[113.20635,-8.19468,0.0],[113.20803,-8.19534,0.0],[113.20745,-8.20081,0.0],[113.21032,-8.20196,0.0],[113.20977,-8.20311,0.0],[113.21529,-8.20471,0.0],[113.21342,-8.21129,0.0],[113.20371,-8.20889,0.0],[113.20176,-8.21216,0.0],[113.20501,-8.21337,0.0],[113.20441,-8.21503,0.0],[113.20683,-8.21609,0.0],[113.20493,-8.22287,0.0],[113.20356,-8.22264,0.0],[113.20301,-8.22428,0.0],[113.20496,-8.22627,0.0],[113.20242,-8.23425,0.0],[113.20379,-8.23464,0.0],[113.20505,-8.23949,0.0],[113.20346,-8.24286,0.0],[113.20473,-8.24974,0.0],[113.20358,-8.25327,0.0],[113.21499,-8.25786,0.0],[113.21478,-8.26166,0.0],[113.22077,-8.26663,0.0],[113.22002,-8.27394,0.0],[113.21736,-8.28309,0.0]]]}},{"type":"Feature","properties":{"kecamatan":"Kunir","kab_kota":"Lumajang"},"geometry":{"type":"Polygon","coordinates":[[[113.24249,-8.25917,0.0],[113.24425,-8.2613,0.0],[113.24288,-8.26686,0.0],[113.24,-8.26887,0.0],[113.23519,-8.28486,0.0],[113.21736,-8.28309,0.0],[113.22077,-8.26663,0.0],[113.21478,-8.26166,0.0],[113.21499,-8.25786,0.0],[113.20358,-8.25327,0.0],[113.20473,-8.24974,0.0],[113.20346,-8.24286,0.0],[113.20505,-8.23949,0.0],[113.20379,-8.23464,0.0],[113.20242,-8.23425,0.0],[113.20496,-8.22627,0.0],[113.20301,-8.22428,0.0],[113.20356,-8.22264,0.0],[113.20493,-8.22287,0.0],[113.20683,-8.21609,0.0],[113.20441,-8.21503,0.0],[113.20501,-8.21337,0.0],[113.20176,-8.21216,0.0],[113.20371,-8.20889,0.0],[113.21342,-8.21129,0.0],[113.21529,-8.20471,0.0],[113.20977,-8.20311,0.0],[113.21032,-8.20196,0.0],[113.20745,-8.20081,0.0],[113.20806,-8.19553,0.0],[113.20635,-8.19468,0.0],[113.20733,-8.19062,0.0],[113.20583,-8.19016,0.0],[113.20643,-8.18766,0.0],[113.21135,-8.17591,0.0],[113.22407,-8.17861,0.0],[113.22766,-8.1684,0.0],[113.2313,-8.16796,0.0],[113.23617,-8.16955,0.0],[113.2404,-8.17284,0.0],[113.24019,-8.17501,0.0],[113.25345,-8.1809,0.0],[113.2542,-8.18424,0.0],[113.25619,-8.18608,0.0],[113.25399,-8.19425,0.0],[113.25561,-8.19489,0.0],[113.25533,-8.19678,0.0],[113.25376,-8.20059,0.0],[113.25634,-8.20443,0.0],[113.25378,-8.21103,0.0],[113.25202,-8.21095,0.0],[113.24765,-8.2191,0.0],[113.25014,-8.22254,0.0],[113.25608,-8.22573,0.0],[113.25545,-8.2284,0.0],[113.26177,-8.23167,0.0],[113.25993,-8.23716,0.0],[113.26299,-8.23814,0.0],[113.26133,-8.24119,0.0],[113.25041,-8.23825,0.0],[113.2464,-8.2555,0.0],[113.24476,-8.2595,0.0],[113.24249,-8.25917,0.0]]]}},{"type":"Feature","properties":{"kecamatan":"Tekung","kab_kota":"Lumajang"},"geometry":{"type":"Polygon","coordinates":[[[113.28074,-8.198,0.0],[113.27791,-8.20281,0.0],[113.27893,-8.20545,0.0],[113.27405,-8.20437,0.0],[113.27177,-8.21363,0.0],[113.26596,-8.21227,0.0],[113.26354,-8.21472,0.0],[113.25305,-8.21179,0.0],[113.25487,-8.2148,0.0],[113.25443,-8.21703,0.0],[113.25633,-8.21775,0.0],[113.25536,-8.22496,0.0],[113.25014,-8.22254,0.0],[113.24765,-8.21881,0.0],[113.25202,-8.21095,0.0],[113.25378,-8.21103,0.0],[113.25634,-8.20443,0.0],[113.25376,-8.20059,0.0],[113.25533,-8.19678,0.0],[113.25561,-8.19489,0.0],[113.25399,-8.19425,0.0],[113.25619,-8.18608,0.0],[113.2542,-8.18424,0.0],[113.25345,-8.1809,0.0],[113.24019,-8.17501,0.0],[113.2404,-8.17284,0.0],[113.23809,-8.17199,0.0],[113.23836,-8.1711,0.0],[113.2313,-8.16796,0.0],[113.22766,-8.1684,0.0],[113.22407,-8.17861,0.0],[113.21751,-8.17746,0.0],[113.21871,-8.17368,0.0],[113.21762,-8.1733,0.0],[113.21869,-8.16617,0.0],[113.21764,-8.1648,0.0],[113.22046,-8.16388,0.0],[113.22069,-8.16179,0.0],[113.22405,-8.16134,0.0],[113.22462,-8.15922,0.0],[113.223,-8.1595,0.0],[113.21975,-8.15721,0.0],[113.21991,-8.15541,0.0],[113.22243,-8.15471,0.0],[113.22789,-8.15617,0.0],[113.23434,-8.1515,0.0],[113.23764,-8.15145,0.0],[113.23426,-8.14958,0.0],[113.23694,-8.14476,0.0],[113.24015,-8.14802,0.0],[113.24405,-8.14527,0.0],[113.24554,-8.14767,0.0],[113.25541,-8.14866,0.0],[113.25491,-8.15006,0.0],[113.25663,-8.15159,0.0],[113.25539,-8.15304,0.0],[113.25653,-8.15448,0.0],[113.26302,-8.15585,0.0],[113.26935,-8.15997,0.0],[113.2786,-8.16217,0.0],[113.27899,-8.16502,0.0],[113.28242,-8.16482,0.0],[113.284,-8.16731,0.0],[113.28302,-8.16947,0.0],[113.28582,-8.17483,0.0],[113.28948,-8.1782,0.0],[113.29014,-8.17614,0.0],[113.29238,-8.17662,0.0],[113.2935,-8.18072,0.0],[113.28807,-8.18116,0.0],[113.29122,-8.18919,0.0],[113.28877,-8.19101,0.0],[113.28857,-8.19467,0.0],[113.28644,-8.19454,0.0],[113.28641,-8.19562,0.0],[113.285,-8.19445,0.0],[113.28074,-8.198,0.0]]]}},{"type":"Feature","properties":{"kecamatan":"Candipuro","kab_kota":"Lumajang"},"geometry":{"type":"Polygon","coordinates":[[[113.06902,-8.22464,0.0],[113.07017,-8.23186,0.0],[113.07185,-8.23328,0.0],[113.06798,-8.23481,0.0],[113.06515,-8.23295,0.0],[113.06388,-8.22914,0.0],[113.06111,-8.22663,0.0],[113.05956,-8.22891,0.0],[113.06007,-8.23486,0.0],[113.05877,-8.237,0.0],[113.05627,-8.23634,0.0],[113.0565,-8.24144,0.0],[113.05421,-8.24257,0.0],[113.05155,-8.2382,0.0],[113.04895,-8.23981,0.0],[113.04737,-8.2386,0.0],[113.04521,-8.23956,0.0],[113.04152,-8.23644,0.0],[113.03895,-8.23662,0.0],[113.03766,-8.23402,0.0],[113.03863,-8.22962,0.0],[113.03629,-8.22874,0.0],[113.03567,-8.2272,0.0],[113.03296,-8.22796,0.0],[113.02813,-8.22699,0.0],[113.02661,-8.22822,0.0],[113.01824,-8.2262,0.0],[113.01824,-8.22142,0.0],[113.01424,-8.21647,0.0],[113.01326,-8.19784,0.0],[113.01196,-8.19661,0.0],[113.01214,-8.19423,0.0],[113.01053,-8.19388,0.0],[113.01093,-8.19135,0.0],[113.01255,-8.19018,0.0],[113.01244,-8.1873,0.0],[113.01511,-8.18435,0.0],[113.01196,-8.17671,0.0],[113.01201,-8.17365,0.0],[113.00983,-8.17133,0.0],[113.01295,-8.16259,0.0],[113.01161,-8.15937,0.0],[113.0127,-8.15533,0.0],[113.00111,-8.15653,0.0],[112.99715,-8.1545,0.0],[112.98815,-8.14541,0.0],[112.9817,-8.14089,0.0],[112.97987,-8.13795,0.0],[112.97512,-8.13477,0.0],[112.97287,-8.1305,0.0],[112.9686,-8.12627,0.0],[112.96209,-8.12152,0.0],[112.9686,-8.12059,0.0],[112.97375,-8.12257,0.0],[112.97853,-8.12148,0.0],[112.98403,-8.12339,0.0],[113.00361,-8.12302,0.0],[113.00493,-8.12442,0.0],[113.00767,-8.12445,0.0],[113.01845,-8.12309,0.0],[113.02038,-8.12101,0.0],[113.02436,-8.12092,0.0],[113.02681,-8.12271,0.0],[113.03431,-8.12352,0.0],[113.05048,-8.12989,0.0],[113.05997,-8.13137,0.0],[113.06961,-8.1357,0.0],[113.07657,-8.142,0.0],[113.07992,-8.14296,0.0],[113.08053,-8.14183,0.0],[113.09165,-8.15413,0.0],[113.09435,-8.14988,0.0],[113.09536,-8.14422,0.0],[113.10092,-8.1451,0.0],[113.10198,-8.1475,0.0],[113.10672,-8.14926,0.0],[113.10894,-8.14554,0.0],[113.1089,-8.13982,0.0],[113.11157,-8.13921,0.0],[113.11292,-8.13563,0.0],[113.11666,-8.13613,0.0],[113.11926,-8.13894,0.0],[113.12421,-8.13915,0.0],[113.12279,-8.14835,0.0],[113.12292,-8.15502,0.0],[113.1241,-8.15739,0.0],[113.12181,-8.1608,0.0],[113.12067,-8.16058,0.0],[113.12054,-8.16218,0.0],[113.1181,-8.16232,0.0],[113.11847,-8.16503,0.0],[113.11547,-8.16629,0.0],[113.11582,-8.16791,0.0],[113.11085,-8.16761,0.0],[113.11003,-8.16971,0.0],[113.11382,-8.1715,0.0],[113.11362,-8.1747,0.0],[113.10471,-8.17293,0.0],[113.10238,-8.17726,0.0],[113.09826,-8.17527,0.0],[113.09717,-8.1775,0.0],[113.09736,-8.1794,0.0],[113.10079,-8.18164,0.0],[113.09704,-8.18796,0.0],[113.09853,-8.19091,0.0],[113.10083,-8.19177,0.0],[113.10407,-8.19577,0.0],[113.1083,-8.19722,0.0],[113.11409,-8.20296,0.0],[113.11066,-8.20873,0.0],[113.10913,-8.21005,0.0],[113.10779,-8.20716,0.0],[113.10451,-8.20944,0.0],[113.10304,-8.2153,0.0],[113.09689,-8.21664,0.0],[113.09667,-8.22012,0.0],[113.08964,-8.22197,0.0],[113.09011,-8.21837,0.0],[113.08603,-8.22119,0.0],[113.08199,-8.22068,0.0],[113.08023,-8.21852,0.0],[113.07509,-8.22096,0.0],[113.07402,-8.22012,0.0],[113.06902,-8.22464,0.0]]]}},{"type":"Feature","properties":{"kecamatan":"Pasirian","kab_kota":"Lumajang"},"geometry":{"type":"Polygon","coordinates":[[[113.10543,-8.29007,0.0],[113.09183,-8.28701,0.0],[113.07994,-8.28707,0.0],[113.07059,-8.29082,0.0],[113.0662,-8.29436,0.0],[113.0658,-8.29694,0.0],[113.04651,-8.29851,0.0],[113.04236,-8.30015,0.0],[113.04198,-8.2972,0.0],[113.03969,-8.29654,0.0],[113.0367,-8.29165,0.0],[113.03472,-8.29076,0.0],[113.03504,-8.28483,0.0],[113.02989,-8.27385,0.0],[113.02417,-8.2694,0.0],[113.01974,-8.26803,0.0],[113.01746,-8.26078,0.0],[113.0174,-8.25632,0.0],[113.01521,-8.25562,0.0],[113.01576,-8.25327,0.0],[113.01453,-8.25172,0.0],[113.01583,-8.24831,0.0],[113.02308,-8.24216,0.0],[113.02371,-8.2307,0.0],[113.02813,-8.22699,0.0],[113.03296,-8.22796,0.0],[113.03567,-8.2272,0.0],[113.03629,-8.22874,0.0],[113.03863,-8.22962,0.0],[113.03766,-8.23402,0.0],[113.03895,-8.23662,0.0],[113.04152,-8.23644,0.0],[113.04521,-8.23956,0.0],[113.04737,-8.2386,0.0],[113.04895,-8.23981,0.0],[113.05155,-8.2382,0.0],[113.05421,-8.24257,0.0],[113.0565,-8.24144,0.0],[113.05627,-8.23634,0.0],[113.05877,-8.237,0.0],[113.06007,-8.23486,0.0],[113.05956,-8.22891,0.0],[113.06111,-8.22663,0.0],[113.06388,-8.22914,0.0],[113.06515,-8.23295,0.0],[113.0693,-8.2348,0.0],[113.07185,-8.23328,0.0],[113.07017,-8.23186,0.0],[113.06883,-8.22493,0.0],[113.07402,-8.22012,0.0],[113.07509,-8.22096,0.0],[113.08023,-8.21852,0.0],[113.08199,-8.22068,0.0],[113.08603,-8.22119,0.0],[113.0895,-8.21833,0.0],[113.08964,-8.22197,0.0],[113.09591,-8.22036,0.0],[113.09689,-8.21664,0.0],[113.10304,-8.2153,0.0],[113.10451,-8.20944,0.0],[113.10779,-8.20716,0.0],[113.1094,-8.21016,0.0],[113.11409,-8.20296,0.0],[113.1083,-8.19722,0.0],[113.10407,-8.19577,0.0],[113.10083,-8.19177,0.0],[113.09853,-8.19091,0.0],[113.09704,-8.18796,0.0],[113.10079,-8.18164,0.0],[113.09736,-8.1794,0.0],[113.09717,-8.1775,0.0],[113.09826,-8.17527,0.0],[113.10238,-8.17726,0.0],[113.10471,-8.17293,0.0],[113.11355,-8.17479,0.0],[113.11414,-8.17201,0.0],[113.11003,-8.16971,0.0],[113.11085,-8.16761,0.0],[113.11582,-8.16791,0.0],[113.11547,-8.16629,0.0],[113.11847,-8.16503,0.0],[113.1181,-8.16232,0.0],[113.12054,-8.16218,0.0],[113.12067,-8.16058,0.0],[113.12181,-8.1608,0.0],[113.1241,-8.15739,0.0],[113.13073,-8.16081,0.0],[113.1322,-8.16357,0.0],[113.1361,-8.16545,0.0],[113.13448,-8.16934,0.0],[113.13289,-8.16935,0.0],[113.13415,-8.17243,0.0],[113.13315,-8.17817,0.0],[113.13663,-8.17998,0.0],[113.13748,-8.17814,0.0],[113.13858,-8.17892,0.0],[113.13733,-8.18135,0.0],[113.14062,-8.18458,0.0],[113.14257,-8.18425,0.0],[113.14256,-8.18586,0.0],[113.14533,-8.18772,0.0],[113.14696,-8.19259,0.0],[113.14949,-8.19431,0.0],[113.14741,-8.19853,0.0],[113.15034,-8.20077,0.0],[113.15549,-8.20825,0.0],[113.15805,-8.2054,0.0],[113.16091,-8.21445,0.0],[113.16332,-8.21585,0.0],[113.15329,-8.22131,0.0],[113.1542,-8.22338,0.0],[113.14632,-8.22691,0.0],[113.1556,-8.23564,0.0],[113.15823,-8.23657,0.0],[113.16189,-8.23511,0.0],[113.16468,-8.23571,0.0],[113.17007,-8.23741,0.0],[113.17067,-8.23969,0.0],[113.17348,-8.24043,0.0],[113.17101,-8.24516,0.0],[113.17315,-8.25043,0.0],[113.1696,-8.2563,0.0],[113.1745,-8.26264,0.0],[113.17537,-8.26604,0.0],[113.17409,-8.28044,0.0],[113.1762,-8.28281,0.0],[113.16553,-8.28295,0.0],[113.14687,-8.2855,0.0],[113.14302,-8.28784,0.0],[113.1248,-8.29118,0.0],[113.10543,-8.29007,0.0]]]}},{"type":"Feature","properties":{"kecamatan":"Tempursari","kab_kota":"Lumajang"},"geometry":{"type":"MultiPolygon","coordinates":[[[[112.9495,-8.35712,0.0],[112.94893,-8.35747,0.0],[112.94905,-8.35678,0.0],[112.9495,-8.35712,0.0]]],[[[112.97577,-8.32588,0.0],[112.96093,-8.34363,0.0],[112.95756,-8.35102,0.0],[112.95091,-8.35403,0.0],[112.94911,-8.35605,0.0],[112.94687,-8.35445,0.0],[112.94585,-8.35035,0.0],[112.94793,-8.34667,0.0],[112.94735,-8.34304,0.0],[112.93858,-8.33818,0.0],[112.93744,-8.33448,0.0],[112.93797,-8.33027,0.0],[112.93635,-8.32331,0.0],[112.9407,-8.31861,0.0],[112.94117,-8.31561,0.0],[112.93742,-8.31051,0.0],[112.92957,-8.30744,0.0],[112.92637,-8.30409,0.0],[112.92358,-8.29987,0.0],[112.92204,-8.29222,0.0],[112.91375,-8.28158,0.0],[112.91455,-8.27765,0.0],[112.91187,-8.26937,0.0],[112.91389,-8.26243,0.0],[112.92222,-8.2623,0.0],[112.924,-8.26128,0.0],[112.92938,-8.25702,0.0],[112.9269,-8.25202,0.0],[112.92876,-8.24979,0.0],[112.93347,-8.24991,0.0],[112.93443,-8.24826,0.0],[112.93654,-8.25347,0.0],[112.94383,-8.25277,0.0],[112.95455,-8.25702,0.0],[112.95773,-8.25418,0.0],[112.96564,-8.255,0.0],[112.97015,-8.25323,0.0],[112.97339,-8.25375,0.0],[112.97705,-8.24836,0.0],[112.97614,-8.24716,0.0],[112.97973,-8.24284,0.0],[112.99164,-8.23603,0.0],[112.99607,-8.23552,0.0],[113.00419,-8.23191,0.0],[113.00678,-8.22938,0.0],[113.0114,-8.22877,0.0],[113.01554,-8.22535,0.0],[113.02661,-8.22822,0.0],[113.02371,-8.2307,0.0],[113.02308,-8.24216,0.0],[113.01583,-8.24831,0.0],[113.01453,-8.25172,0.0],[113.01576,-8.25327,0.0],[113.01508,-8.25537,0.0],[113.0174,-8.25632,0.0],[113.01746,-8.26078,0.0],[113.01974,-8.26803,0.0],[113.02694,-8.27109,0.0],[113.03144,-8.27624,0.0],[113.03153,-8.27906,0.0],[113.03504,-8.28483,0.0],[113.03472,-8.29076,0.0],[113.0367,-8.29165,0.0],[113.03969,-8.29654,0.0],[113.04198,-8.2972,0.0],[113.04189,-8.29984,0.0],[113.03245,-8.30434,0.0],[113.02022,-8.30702,0.0],[112.99962,-8.31457,0.0],[112.99623,-8.31608,0.0],[112.99574,-8.3176,0.0],[112.98364,-8.32088,0.0],[112.97577,-8.32588,0.0]]]]}},{"type":"Feature","properties":{"kecamatan":"Pronojiwo","kab_kota":"Lumajang"},"geometry":{"type":"Polygon","coordinates":[[[112.97625,-8.24698,0.0],[112.97705,-8.24836,0.0],[112.97339,-8.25375,0.0],[112.97015,-8.25323,0.0],[112.96564,-8.255,0.0],[112.95773,-8.25418,0.0],[112.95476,-8.25703,0.0],[112.94383,-8.25277,0.0],[112.93654,-8.25347,0.0],[112.93443,-8.24826,0.0],[112.93347,-8.24991,0.0],[112.93003,-8.24921,0.0],[112.92661,-8.25291,0.0],[112.9293,-8.2559,0.0],[112.92879,-8.25795,0.0],[112.92222,-8.2623,0.0],[112.91474,-8.26181,0.0],[112.9174,-8.26017,0.0],[112.91778,-8.25438,0.0],[112.92013,-8.2501,0.0],[112.92016,-8.24534,0.0],[112.92227,-8.24544,0.0],[112.92127,-8.24233,0.0],[112.9227,-8.23971,0.0],[112.91717,-8.23257,0.0],[112.91547,-8.22709,0.0],[112.91671,-8.22215,0.0],[112.91266,-8.21969,0.0],[112.91393,-8.21393,0.0],[112.91207,-8.21085,0.0],[112.91279,-8.20838,0.0],[112.90987,-8.20493,0.0],[112.90908,-8.20096,0.0],[112.90605,-8.2001,0.0],[112.90578,-8.19802,0.0],[112.90703,-8.19672,0.0],[112.90421,-8.19221,0.0],[112.9062,-8.18901,0.0],[112.9059,-8.18661,0.0],[112.90904,-8.18292,0.0],[112.90879,-8.179,0.0],[112.91299,-8.16634,0.0],[112.91144,-8.16532,0.0],[112.9117,-8.16345,0.0],[112.91578,-8.15846,0.0],[112.91515,-8.15124,0.0],[112.92018,-8.13969,0.0],[112.9204,-8.12173,0.0],[112.92482,-8.11542,0.0],[112.92662,-8.11477,0.0],[112.92594,-8.11044,0.0],[112.92381,-8.10968,0.0],[112.92348,-8.108,0.0],[112.92206,-8.10888,0.0],[112.92232,-8.10763,0.0],[112.93336,-8.10948,0.0],[112.94927,-8.11686,0.0],[112.96018,-8.12012,0.0],[112.9686,-8.12627,0.0],[112.97287,-8.1305,0.0],[112.97512,-8.13477,0.0],[112.97987,-8.13795,0.0],[112.9817,-8.14089,0.0],[112.98815,-8.14541,0.0],[112.99715,-8.1545,0.0],[113.00111,-8.15653,0.0],[113.0127,-8.15533,0.0],[113.01161,-8.15937,0.0],[113.01295,-8.16259,0.0],[113.00983,-8.17133,0.0],[113.01201,-8.17365,0.0],[113.01196,-8.17671,0.0],[113.01511,-8.18435,0.0],[113.01244,-8.1873,0.0],[113.01255,-8.19018,0.0],[113.01093,-8.19135,0.0],[113.01053,-8.19388,0.0],[113.01214,-8.19423,0.0],[113.01196,-8.19661,0.0],[113.01326,-8.19784,0.0],[113.01424,-8.21647,0.0],[113.01824,-8.22142,0.0],[113.01824,-8.2262,0.0],[113.01554,-8.22535,0.0],[113.0114,-8.22877,0.0],[113.00678,-8.22938,0.0],[113.00419,-8.23191,0.0],[112.99607,-8.23552,0.0],[112.99164,-8.23603,0.0],[112.98106,-8.2417,0.0],[112.97625,-8.24698,0.0]]]}},{"type":"Feature","properties":{"kecamatan":"Randuagung","kab_kota":"Lumajang"},"geometry":{"type":"Polygon","coordinates":[[[113.29953,-8.11209,0.0],[113.28997,-8.11128,0.0],[113.2896,-8.11033,0.0],[113.27639,-8.10808,0.0],[113.273,-8.10949,0.0],[113.27056,-8.10817,0.0],[113.27063,-8.1048,0.0],[113.26884,-8.10401,0.0],[113.26915,-8.10237,0.0],[113.26614,-8.10526,0.0],[113.26751,-8.10232,0.0],[113.26697,-8.09925,0.0],[113.26039,-8.09376,0.0],[113.26032,-8.09115,0.0],[113.26322,-8.09112,0.0],[113.26338,-8.08995,0.0],[113.27115,-8.09438,0.0],[113.27364,-8.08319,0.0],[113.27694,-8.08348,0.0],[113.27738,-8.08198,0.0],[113.28642,-8.08278,0.0],[113.28782,-8.07936,0.0],[113.2883,-8.08057,0.0],[113.29,-8.08034,0.0],[113.29057,-8.07794,0.0],[113.2894,-8.07046,0.0],[113.2881,-8.0695,0.0],[113.28944,-8.06744,0.0],[113.28816,-8.06455,0.0],[113.2783,-8.06574,0.0],[113.27688,-8.06786,0.0],[113.27724,-8.07026,0.0],[113.27583,-8.06834,0.0],[113.27522,-8.06932,0.0],[113.273,-8.06844,0.0],[113.27165,-8.06375,0.0],[113.27002,-8.06365,0.0],[113.26908,-8.06546,0.0],[113.26109,-8.06344,0.0],[113.26277,-8.06276,0.0],[113.26303,-8.06126,0.0],[113.26071,-8.05969,0.0],[113.26106,-8.05747,0.0],[113.25969,-8.05686,0.0],[113.26038,-8.05271,0.0],[113.26297,-8.05209,0.0],[113.26399,-8.04606,0.0],[113.26526,-8.04541,0.0],[113.26427,-8.03869,0.0],[113.26645,-8.03734,0.0],[113.27027,-8.03743,0.0],[113.26963,-8.03514,0.0],[113.27283,-8.03398,0.0],[113.27531,-8.03472,0.0],[113.27582,-8.03338,0.0],[113.27897,-8.03281,0.0],[113.28637,-8.03304,0.0],[113.28809,-8.02755,0.0],[113.29022,-8.02668,0.0],[113.29049,-8.02013,0.0],[113.29402,-8.01937,0.0],[113.30921,-8.02272,0.0],[113.31192,-8.01332,0.0],[113.31299,-8.01221,0.0],[113.31684,-8.01274,0.0],[113.31784,-8.01064,0.0],[113.31924,-8.01096,0.0],[113.32089,-8.00478,0.0],[113.32999,-8.00472,0.0],[113.33165,-8.00325,0.0],[113.33581,-7.99686,0.0],[113.34116,-7.9808,0.0],[113.34706,-7.97566,0.0],[113.34846,-7.97918,0.0],[113.34817,-7.9844,0.0],[113.35319,-7.99025,0.0],[113.35875,-7.99971,0.0],[113.35775,-8.00428,0.0],[113.35805,-8.0162,0.0],[113.36049,-8.02014,0.0],[113.36145,-8.02782,0.0],[113.3567,-8.03485,0.0],[113.35502,-8.03529,0.0],[113.35604,-8.03762,0.0],[113.35468,-8.04297,0.0],[113.35245,-8.04466,0.0],[113.35117,-8.04898,0.0],[113.35186,-8.05082,0.0],[113.34868,-8.05489,0.0],[113.35123,-8.06062,0.0],[113.34991,-8.06095,0.0],[113.35007,-8.06342,0.0],[113.35368,-8.06671,0.0],[113.35408,-8.07068,0.0],[113.35734,-8.07256,0.0],[113.35725,-8.07591,0.0],[113.35822,-8.07638,0.0],[113.35717,-8.07843,0.0],[113.36039,-8.08117,0.0],[113.36206,-8.08073,0.0],[113.36177,-8.08377,0.0],[113.36488,-8.08391,0.0],[113.36674,-8.0859,0.0],[113.36555,-8.08688,0.0],[113.36543,-8.09023,0.0],[113.36298,-8.09148,0.0],[113.36451,-8.09627,0.0],[113.36416,-8.10078,0.0],[113.35895,-8.09807,0.0],[113.35868,-8.09643,0.0],[113.35798,-8.0972,0.0],[113.35393,-8.0953,0.0],[113.35085,-8.09574,0.0],[113.34712,-8.09351,0.0],[113.34551,-8.09854,0.0],[113.34276,-8.09557,0.0],[113.33237,-8.09045,0.0],[113.33071,-8.0969,0.0],[113.33055,-8.10601,0.0],[113.3338,-8.10831,0.0],[113.33725,-8.10853,0.0],[113.33772,-8.11382,0.0],[113.30918,-8.1146,0.0],[113.29953,-8.11209,0.0]]]}},{"type":"Feature","properties":{"kecamatan":"Klakah","kab_kota":"Lumajang"},"geometry":{"type":"Polygon","coordinates":[[[113.25817,-8.05105,0.0],[113.25003,-8.05176,0.0],[113.25074,-8.04761,0.0],[113.24936,-8.04359,0.0],[113.25097,-8.04232,0.0],[113.25121,-8.03916,0.0],[113.24705,-8.02943,0.0],[113.24675,-8.03124,0.0],[113.24229,-8.03168,0.0],[113.24318,-8.03,0.0],[113.24043,-8.02873,0.0],[113.23926,-8.02463,0.0],[113.24045,-8.02402,0.0],[113.23839,-8.02314,0.0],[113.23842,-8.02034,0.0],[113.23973,-8.01899,0.0],[113.23711,-8.01731,0.0],[113.23204,-8.01891,0.0],[113.23257,-8.01394,0.0],[113.22737,-8.00678,0.0],[113.22873,-8.00398,0.0],[113.22676,-7.99863,0.0],[113.22907,-7.99451,0.0],[113.22334,-7.994,0.0],[113.22292,-7.9953,0.0],[113.21842,-7.99395,0.0],[113.21859,-7.99554,0.0],[113.21701,-7.99631,0.0],[113.21245,-7.99624,0.0],[113.21125,-7.99476,0.0],[113.2117,-7.99304,0.0],[113.20932,-7.9919,0.0],[113.20923,-7.9903,0.0],[113.20626,-7.99009,0.0],[113.19084,-7.98132,0.0],[113.18368,-7.97925,0.0],[113.17696,-7.9798,0.0],[113.17171,-7.98227,0.0],[113.16408,-7.98853,0.0],[113.15916,-7.98477,0.0],[113.16416,-7.98176,0.0],[113.16486,-7.9791,0.0],[113.15935,-7.97684,0.0],[113.16589,-7.9761,0.0],[113.16915,-7.97315,0.0],[113.17954,-7.97098,0.0],[113.18309,-7.96897,0.0],[113.19518,-7.96754,0.0],[113.19893,-7.96928,0.0],[113.20234,-7.96853,0.0],[113.2044,-7.96969,0.0],[113.21175,-7.96994,0.0],[113.21418,-7.97155,0.0],[113.21672,-7.9687,0.0],[113.21368,-7.96424,0.0],[113.21421,-7.96147,0.0],[113.21237,-7.95882,0.0],[113.21248,-7.95529,0.0],[113.21544,-7.95367,0.0],[113.22065,-7.95709,0.0],[113.22342,-7.95377,0.0],[113.22342,-7.95216,0.0],[113.22213,-7.95198,0.0],[113.22476,-7.95091,0.0],[113.22473,-7.94985,0.0],[113.22584,-7.95011,0.0],[113.22544,-7.95355,0.0],[113.23249,-7.95579,0.0],[113.22981,-7.96163,0.0],[113.2334,-7.96324,0.0],[113.23219,-7.96539,0.0],[113.23492,-7.97142,0.0],[113.24389,-7.97383,0.0],[113.24636,-7.97562,0.0],[113.25287,-7.97609,0.0],[113.25468,-7.97286,0.0],[113.2528,-7.97291,0.0],[113.25312,-7.97161,0.0],[113.25686,-7.97209,0.0],[113.26093,-7.96791,0.0],[113.26623,-7.96745,0.0],[113.26873,-7.96846,0.0],[113.27306,-7.96575,0.0],[113.27696,-7.96664,0.0],[113.27674,-7.97126,0.0],[113.27417,-7.97633,0.0],[113.2781,-7.98177,0.0],[113.27908,-7.98843,0.0],[113.28027,-7.98913,0.0],[113.28837,-7.9894,0.0],[113.29357,-7.98783,0.0],[113.30613,-7.98736,0.0],[113.32538,-7.9887,0.0],[113.33044,-7.98721,0.0],[113.34128,-7.98097,0.0],[113.33581,-7.99686,0.0],[113.33165,-8.00325,0.0],[113.32999,-8.00472,0.0],[113.32089,-8.00478,0.0],[113.31924,-8.01096,0.0],[113.31784,-8.01064,0.0],[113.31684,-8.01274,0.0],[113.31299,-8.01221,0.0],[113.31192,-8.01332,0.0],[113.30921,-8.02272,0.0],[113.29402,-8.01937,0.0],[113.29049,-8.02013,0.0],[113.29022,-8.02668,0.0],[113.28809,-8.02755,0.0],[113.28637,-8.03304,0.0],[113.27897,-8.03281,0.0],[113.27582,-8.03338,0.0],[113.27531,-8.03472,0.0],[113.27283,-8.03398,0.0],[113.26963,-8.03514,0.0],[113.27027,-8.03743,0.0],[113.26645,-8.03734,0.0],[113.26427,-8.03869,0.0],[113.26526,-8.04541,0.0],[113.26399,-8.04606,0.0],[113.26297,-8.05209,0.0],[113.2582,-8.05273,0.0],[113.25817,-8.05105,0.0]]]}},{"type":"Feature","properties":{"kecamatan":"Kedungjajang","kab_kota":"Lumajang"},"geometry":{"type":"Polygon","coordinates":[[[113.22976,-8.08087,0.0],[113.22754,-8.07649,0.0],[113.22643,-8.07793,0.0],[113.22147,-8.07418,0.0],[113.21912,-8.07499,0.0],[113.21416,-8.07324,0.0],[113.21244,-8.06907,0.0],[113.20942,-8.06771,0.0],[113.20912,-8.06226,0.0],[113.20715,-8.05949,0.0],[113.20323,-8.05825,0.0],[113.2008,-8.05959,0.0],[113.19717,-8.05847,0.0],[113.19764,-8.05182,0.0],[113.19572,-8.05098,0.0],[113.19424,-8.04757,0.0],[113.19002,-8.04648,0.0],[113.18739,-8.0392,0.0],[113.18524,-8.03745,0.0],[113.18733,-8.03203,0.0],[113.18636,-8.02963,0.0],[113.18711,-8.02838,0.0],[113.18368,-8.02287,0.0],[113.18616,-8.01991,0.0],[113.18562,-8.01468,0.0],[113.18778,-8.01445,0.0],[113.18805,-8.01177,0.0],[113.18786,-8.00986,0.0],[113.18646,-8.00915,0.0],[113.18884,-8.00749,0.0],[113.18876,-8.00613,0.0],[113.18556,-8.0022,0.0],[113.18169,-7.99222,0.0],[113.17843,-7.9928,0.0],[113.17373,-7.98953,0.0],[113.16406,-7.98855,0.0],[113.17106,-7.98265,0.0],[113.17696,-7.9798,0.0],[113.18444,-7.97933,0.0],[113.19084,-7.98132,0.0],[113.20626,-7.99009,0.0],[113.20923,-7.9903,0.0],[113.20932,-7.9919,0.0],[113.2117,-7.99304,0.0],[113.21125,-7.99476,0.0],[113.21245,-7.99624,0.0],[113.21701,-7.99631,0.0],[113.21859,-7.99554,0.0],[113.21842,-7.99395,0.0],[113.22292,-7.9953,0.0],[113.22334,-7.994,0.0],[113.22907,-7.99451,0.0],[113.22676,-7.99863,0.0],[113.22873,-8.00398,0.0],[113.22737,-8.00678,0.0],[113.23257,-8.01394,0.0],[113.23216,-8.01909,0.0],[113.23711,-8.01731,0.0],[113.23973,-8.01899,0.0],[113.23842,-8.02034,0.0],[113.23839,-8.02314,0.0],[113.24045,-8.02402,0.0],[113.23926,-8.02463,0.0],[113.24043,-8.02873,0.0],[113.24318,-8.03,0.0],[113.24229,-8.03168,0.0],[113.24675,-8.03124,0.0],[113.24688,-8.02934,0.0],[113.24784,-8.03079,0.0],[113.25121,-8.03916,0.0],[113.25097,-8.04232,0.0],[113.24936,-8.04359,0.0],[113.25074,-8.04761,0.0],[113.25003,-8.05176,0.0],[113.25817,-8.05105,0.0],[113.2582,-8.05273,0.0],[113.26038,-8.05271,0.0],[113.26052,-8.05936,0.0],[113.26303,-8.06126,0.0],[113.26277,-8.06276,0.0],[113.26109,-8.06344,0.0],[113.26908,-8.06546,0.0],[113.27002,-8.06365,0.0],[113.27165,-8.06375,0.0],[113.273,-8.06844,0.0],[113.27522,-8.06932,0.0],[113.27583,-8.06834,0.0],[113.27724,-8.07026,0.0],[113.27688,-8.06786,0.0],[113.2783,-8.06574,0.0],[113.28862,-8.06479,0.0],[113.28944,-8.06744,0.0],[113.2881,-8.0695,0.0],[113.2894,-8.07046,0.0],[113.2906,-8.07736,0.0],[113.29,-8.08034,0.0],[113.2883,-8.08057,0.0],[113.28782,-8.07936,0.0],[113.28642,-8.08278,0.0],[113.27738,-8.08198,0.0],[113.27694,-8.08348,0.0],[113.27364,-8.08319,0.0],[113.27115,-8.09438,0.0],[113.26338,-8.08995,0.0],[113.26322,-8.09112,0.0],[113.26032,-8.09115,0.0],[113.26039,-8.09376,0.0],[113.25699,-8.09215,0.0],[113.25633,-8.09057,0.0],[113.25364,-8.09039,0.0],[113.2504,-8.08565,0.0],[113.24845,-8.08491,0.0],[113.24826,-8.08313,0.0],[113.24679,-8.08309,0.0],[113.24635,-8.08094,0.0],[113.24271,-8.08184,0.0],[113.23869,-8.07871,0.0],[113.23908,-8.08004,0.0],[113.23559,-8.08204,0.0],[113.23204,-8.07745,0.0],[113.23152,-8.07947,0.0],[113.22921,-8.07908,0.0],[113.23048,-8.08012,0.0],[113.22976,-8.08087,0.0]]]}},{"type":"Feature","properties":{"kecamatan":"Jatiroto","kab_kota":"Lumajang"},"geometry":{"type":"MultiPolygon","coordinates":[[[[113.3436,-8.14855,0.0],[113.33097,-8.16078,0.0],[113.33034,-8.16372,0.0],[113.32826,-8.16261,0.0],[113.32203,-8.1509,0.0],[113.31764,-8.14825,0.0],[113.3177,-8.14575,0.0],[113.31584,-8.14565,0.0],[113.31604,-8.13762,0.0],[113.30951,-8.13744,0.0],[113.3084,-8.14207,0.0],[113.29502,-8.14169,0.0],[113.2941,-8.14301,0.0],[113.29098,-8.13933,0.0],[113.27805,-8.13566,0.0],[113.27478,-8.13692,0.0],[113.27501,-8.13436,0.0],[113.27901,-8.13003,0.0],[113.27699,-8.13031,0.0],[113.27697,-8.12684,0.0],[113.27243,-8.12637,0.0],[113.27317,-8.12304,0.0],[113.26962,-8.12172,0.0],[113.27361,-8.12125,0.0],[113.27312,-8.1191,0.0],[113.27083,-8.1185,0.0],[113.27476,-8.11198,0.0],[113.27413,-8.10893,0.0],[113.28035,-8.1085,0.0],[113.30918,-8.1146,0.0],[113.33772,-8.11382,0.0],[113.33725,-8.10853,0.0],[113.3338,-8.10831,0.0],[113.33055,-8.10601,0.0],[113.33071,-8.0969,0.0],[113.33237,-8.09045,0.0],[113.34276,-8.09557,0.0],[113.34551,-8.09854,0.0],[113.34712,-8.09351,0.0],[113.35085,-8.09574,0.0],[113.35911,-8.09663,0.0],[113.35895,-8.09807,0.0],[113.36265,-8.09957,0.0],[113.36193,-8.10072,0.0],[113.36371,-8.1021,0.0],[113.36379,-8.10439,0.0],[113.36514,-8.1048,0.0],[113.36839,-8.11064,0.0],[113.36618,-8.1146,0.0],[113.36503,-8.11389,0.0],[113.36294,-8.1159,0.0],[113.3627,-8.11913,0.0],[113.36749,-8.12011,0.0],[113.36752,-8.12209,0.0],[113.37015,-8.12775,0.0],[113.376,-8.13102,0.0],[113.37656,-8.13558,0.0],[113.37295,-8.1414,0.0],[113.37236,-8.14637,0.0],[113.37612,-8.14916,0.0],[113.37911,-8.14866,0.0],[113.37927,-8.1585,0.0],[113.37758,-8.16179,0.0],[113.37626,-8.16147,0.0],[113.37578,-8.16333,0.0],[113.37449,-8.16354,0.0],[113.37495,-8.16503,0.0],[113.37272,-8.16479,0.0],[113.37229,-8.16689,0.0],[113.36715,-8.16608,0.0],[113.36751,-8.15244,0.0],[113.34926,-8.15181,0.0],[113.34935,-8.14952,0.0],[113.3436,-8.14855,0.0]]],[[[113.36846,-8.12342,0.0],[113.36846,-8.12342,0.0],[113.36846,-8.12342,0.0],[113.36846,-8.12342,0.0]]]]}},{"type":"Feature","properties":{"kecamatan":"Lumajang","kab_kota":"Lumajang"},"geometry":{"type":"Polygon","coordinates":[[[113.25541,-8.14866,0.0],[113.24554,-8.14767,0.0],[113.24453,-8.14543,0.0],[113.24332,-8.14533,0.0],[113.24015,-8.14802,0.0],[113.23694,-8.14476,0.0],[113.23426,-8.14958,0.0],[113.23764,-8.15145,0.0],[113.23434,-8.1515,0.0],[113.23087,-8.15329,0.0],[113.23026,-8.1549,0.0],[113.22635,-8.15625,0.0],[113.22705,-8.15106,0.0],[113.21302,-8.14615,0.0],[113.21241,-8.14382,0.0],[113.20626,-8.14257,0.0],[113.20565,-8.14347,0.0],[113.19846,-8.14137,0.0],[113.19647,-8.14298,0.0],[113.19437,-8.14222,0.0],[113.19,-8.14434,0.0],[113.18597,-8.14347,0.0],[113.1914,-8.13951,0.0],[113.1908,-8.13796,0.0],[113.19272,-8.13701,0.0],[113.19459,-8.13348,0.0],[113.19736,-8.13379,0.0],[113.19741,-8.13156,0.0],[113.19222,-8.13252,0.0],[113.19122,-8.13209,0.0],[113.19281,-8.13122,0.0],[113.1882,-8.13002,0.0],[113.18635,-8.13096,0.0],[113.18591,-8.13407,0.0],[113.17733,-8.13168,0.0],[113.17764,-8.13019,0.0],[113.1789,-8.12619,0.0],[113.18058,-8.12818,0.0],[113.18236,-8.12754,0.0],[113.184,-8.12394,0.0],[113.18821,-8.12484,0.0],[113.19475,-8.12163,0.0],[113.19671,-8.12444,0.0],[113.19648,-8.12771,0.0],[113.19943,-8.12873,0.0],[113.19906,-8.13103,0.0],[113.20127,-8.13163,0.0],[113.20226,-8.12841,0.0],[113.20504,-8.1279,0.0],[113.20702,-8.12593,0.0],[113.20796,-8.12258,0.0],[113.21096,-8.12031,0.0],[113.21222,-8.12071,0.0],[113.21167,-8.11888,0.0],[113.22329,-8.11905,0.0],[113.22486,-8.11231,0.0],[113.22627,-8.11254,0.0],[113.22561,-8.1103,0.0],[113.22771,-8.10818,0.0],[113.22562,-8.1058,0.0],[113.22636,-8.10438,0.0],[113.24012,-8.10793,0.0],[113.24161,-8.10568,0.0],[113.24288,-8.10572,0.0],[113.24936,-8.1086,0.0],[113.25273,-8.10881,0.0],[113.25561,-8.11317,0.0],[113.25016,-8.11336,0.0],[113.24844,-8.11194,0.0],[113.24781,-8.11307,0.0],[113.24374,-8.11207,0.0],[113.24341,-8.11337,0.0],[113.24002,-8.11276,0.0],[113.23838,-8.11687,0.0],[113.2362,-8.11636,0.0],[113.23559,-8.11836,0.0],[113.23363,-8.11662,0.0],[113.23192,-8.12221,0.0],[113.23489,-8.12191,0.0],[113.23564,-8.12379,0.0],[113.23626,-8.12208,0.0],[113.23765,-8.12428,0.0],[113.24036,-8.12186,0.0],[113.24042,-8.12491,0.0],[113.24451,-8.12447,0.0],[113.246,-8.12651,0.0],[113.24877,-8.12659,0.0],[113.24783,-8.12932,0.0],[113.24943,-8.13093,0.0],[113.25079,-8.12881,0.0],[113.25265,-8.12921,0.0],[113.25127,-8.13237,0.0],[113.2524,-8.13345,0.0],[113.25435,-8.1327,0.0],[113.25466,-8.1291,0.0],[113.25621,-8.12928,0.0],[113.25725,-8.12745,0.0],[113.25703,-8.12363,0.0],[113.2606,-8.12445,0.0],[113.26144,-8.12752,0.0],[113.2635,-8.12827,0.0],[113.2647,-8.12637,0.0],[113.27685,-8.12681,0.0],[113.27699,-8.13031,0.0],[113.27901,-8.13003,0.0],[113.27501,-8.13436,0.0],[113.27478,-8.13692,0.0],[113.2769,-8.13675,0.0],[113.27433,-8.13899,0.0],[113.27687,-8.14037,0.0],[113.27656,-8.14309,0.0],[113.27826,-8.1438,0.0],[113.27606,-8.14402,0.0],[113.27444,-8.14608,0.0],[113.27543,-8.14932,0.0],[113.27331,-8.15028,0.0],[113.27456,-8.15147,0.0],[113.27722,-8.1514,0.0],[113.27718,-8.15276,0.0],[113.2725,-8.15747,0.0],[113.27441,-8.15827,0.0],[113.27719,-8.1616,0.0],[113.27661,-8.16222,0.0],[113.26581,-8.15848,0.0],[113.26302,-8.15585,0.0],[113.25653,-8.15448,0.0],[113.25539,-8.15304,0.0],[113.25663,-8.15159,0.0],[113.25491,-8.15006,0.0],[113.25541,-8.14866,0.0]]]}},{"type":"Feature","properties":{"kecamatan":"Pasrujambe","kab_kota":"Lumajang"},"geometry":{"type":"Polygon","coordinates":[[[113.15481,-8.14377,0.0],[113.15329,-8.14739,0.0],[113.15143,-8.14621,0.0],[113.14722,-8.147,0.0],[113.14482,-8.14842,0.0],[113.14415,-8.15055,0.0],[113.1236,-8.14831,0.0],[113.12421,-8.13915,0.0],[113.11926,-8.13894,0.0],[113.11666,-8.13613,0.0],[113.11292,-8.13563,0.0],[113.11157,-8.13921,0.0],[113.1089,-8.13982,0.0],[113.10894,-8.14554,0.0],[113.10672,-8.14926,0.0],[113.10198,-8.1475,0.0],[113.10092,-8.1451,0.0],[113.09536,-8.14422,0.0],[113.09435,-8.14988,0.0],[113.09165,-8.15413,0.0],[113.08053,-8.14183,0.0],[113.07992,-8.14296,0.0],[113.07657,-8.142,0.0],[113.06961,-8.1357,0.0],[113.05997,-8.13137,0.0],[113.05048,-8.12989,0.0],[113.03431,-8.12352,0.0],[113.02681,-8.12271,0.0],[113.02436,-8.12092,0.0],[113.02038,-8.12101,0.0],[113.01845,-8.12309,0.0],[113.00767,-8.12445,0.0],[113.00493,-8.12442,0.0],[113.00361,-8.12302,0.0],[112.98403,-8.12339,0.0],[112.97853,-8.12148,0.0],[112.97375,-8.12257,0.0],[112.9686,-8.12059,0.0],[112.96209,-8.12152,0.0],[112.95653,-8.11831,0.0],[112.94927,-8.11686,0.0],[112.93336,-8.10948,0.0],[112.92195,-8.10787,0.0],[112.92034,-8.08786,0.0],[112.91625,-8.08698,0.0],[112.91342,-8.08073,0.0],[112.90908,-8.08228,0.0],[112.90539,-8.08089,0.0],[112.90313,-8.07422,0.0],[112.90164,-8.07306,0.0],[112.90026,-8.0609,0.0],[112.90279,-8.0565,0.0],[112.90908,-8.05172,0.0],[112.90818,-8.04232,0.0],[112.91016,-8.04086,0.0],[112.91098,-8.03815,0.0],[112.91357,-8.03661,0.0],[112.91479,-8.03281,0.0],[112.91731,-8.03164,0.0],[112.92731,-8.03306,0.0],[112.93301,-8.03659,0.0],[112.94401,-8.03682,0.0],[112.958,-8.04046,0.0],[112.98147,-8.03327,0.0],[112.9877,-8.03834,0.0],[112.99949,-8.04378,0.0],[113.00512,-8.04865,0.0],[113.01139,-8.05068,0.0],[113.02286,-8.06213,0.0],[113.02701,-8.06419,0.0],[113.03018,-8.06934,0.0],[113.03792,-8.07491,0.0],[113.0407,-8.08145,0.0],[113.0423,-8.0814,0.0],[113.04368,-8.08322,0.0],[113.04551,-8.08286,0.0],[113.04932,-8.08693,0.0],[113.05082,-8.08658,0.0],[113.05219,-8.0884,0.0],[113.05554,-8.08884,0.0],[113.06594,-8.09462,0.0],[113.06798,-8.09407,0.0],[113.07187,-8.08984,0.0],[113.07993,-8.09377,0.0],[113.08226,-8.09084,0.0],[113.08384,-8.09075,0.0],[113.08444,-8.09412,0.0],[113.08653,-8.09561,0.0],[113.08632,-8.09762,0.0],[113.08849,-8.0984,0.0],[113.08878,-8.10084,0.0],[113.08656,-8.104,0.0],[113.08915,-8.10446,0.0],[113.08972,-8.10617,0.0],[113.09391,-8.10804,0.0],[113.09661,-8.10656,0.0],[113.10038,-8.10934,0.0],[113.10624,-8.10774,0.0],[113.11177,-8.1099,0.0],[113.11236,-8.1131,0.0],[113.11472,-8.11275,0.0],[113.11753,-8.1145,0.0],[113.11822,-8.11762,0.0],[113.12012,-8.11774,0.0],[113.12547,-8.12315,0.0],[113.13118,-8.1263,0.0],[113.13341,-8.1288,0.0],[113.1331,-8.13168,0.0],[113.13458,-8.13431,0.0],[113.13974,-8.12884,0.0],[113.14927,-8.14179,0.0],[113.15481,-8.14377,0.0]]]}},{"type":"Feature","properties":{"kecamatan":"Padang","kab_kota":"Lumajang"},"geometry":{"type":"Polygon","coordinates":[[[113.20099,-8.10891,0.0],[113.20321,-8.11467,0.0],[113.20139,-8.11649,0.0],[113.19822,-8.11693,0.0],[113.1937,-8.12268,0.0],[113.18835,-8.1248,0.0],[113.17614,-8.12306,0.0],[113.16993,-8.12082,0.0],[113.17376,-8.12592,0.0],[113.17173,-8.12704,0.0],[113.17026,-8.1311,0.0],[113.16407,-8.129,0.0],[113.16355,-8.13,0.0],[113.15991,-8.12897,0.0],[113.15928,-8.12729,0.0],[113.14979,-8.12353,0.0],[113.1501,-8.12191,0.0],[113.14261,-8.12053,0.0],[113.14134,-8.11913,0.0],[113.14205,-8.11674,0.0],[113.13874,-8.11485,0.0],[113.13778,-8.11282,0.0],[113.13644,-8.11354,0.0],[113.13094,-8.10978,0.0],[113.12953,-8.10782,0.0],[113.1299,-8.09298,0.0],[113.12682,-8.09042,0.0],[113.12652,-8.08855,0.0],[113.13124,-8.08581,0.0],[113.13633,-8.08697,0.0],[113.1406,-8.08959,0.0],[113.14497,-8.08405,0.0],[113.14945,-8.08534,0.0],[113.15159,-8.08131,0.0],[113.15092,-8.07903,0.0],[113.14822,-8.07822,0.0],[113.14652,-8.07565,0.0],[113.14605,-8.07406,0.0],[113.14824,-8.07134,0.0],[113.14937,-8.07025,0.0],[113.15075,-8.07121,0.0],[113.15144,-8.06863,0.0],[113.15353,-8.06899,0.0],[113.15461,-8.0678,0.0],[113.15663,-8.06972,0.0],[113.16413,-8.06621,0.0],[113.16482,-8.0682,0.0],[113.167,-8.06847,0.0],[113.16943,-8.06697,0.0],[113.17054,-8.06406,0.0],[113.176,-8.06486,0.0],[113.17407,-8.06345,0.0],[113.17573,-8.05934,0.0],[113.18057,-8.06001,0.0],[113.18389,-8.05912,0.0],[113.18664,-8.05662,0.0],[113.18805,-8.0566,0.0],[113.18761,-8.05885,0.0],[113.19109,-8.05763,0.0],[113.19617,-8.05998,0.0],[113.19717,-8.05847,0.0],[113.2008,-8.05959,0.0],[113.20242,-8.05832,0.0],[113.20565,-8.05889,0.0],[113.20827,-8.06038,0.0],[113.20942,-8.06771,0.0],[113.21244,-8.06907,0.0],[113.21416,-8.07324,0.0],[113.21912,-8.07499,0.0],[113.22147,-8.07418,0.0],[113.22643,-8.07793,0.0],[113.22754,-8.07649,0.0],[113.22866,-8.07941,0.0],[113.22508,-8.0829,0.0],[113.22631,-8.0837,0.0],[113.22349,-8.0851,0.0],[113.22415,-8.08662,0.0],[113.21951,-8.08673,0.0],[113.219,-8.08837,0.0],[113.21677,-8.08842,0.0],[113.21296,-8.09226,0.0],[113.20937,-8.09189,0.0],[113.20904,-8.09504,0.0],[113.20233,-8.10017,0.0],[113.20237,-8.10166,0.0],[113.2004,-8.10123,0.0],[113.1975,-8.10349,0.0],[113.19656,-8.10563,0.0],[113.2017,-8.10705,0.0],[113.20099,-8.10891,0.0]]]}},{"type":"Feature","properties":{"kecamatan":"Sukodono","kab_kota":"Lumajang"},"geometry":{"type":"Polygon","coordinates":[[[113.21096,-8.12031,0.0],[113.20504,-8.1279,0.0],[113.20226,-8.12841,0.0],[113.20127,-8.13163,0.0],[113.19906,-8.13103,0.0],[113.19943,-8.12873,0.0],[113.19648,-8.12771,0.0],[113.19671,-8.12444,0.0],[113.19507,-8.12027,0.0],[113.19822,-8.11693,0.0],[113.20139,-8.11649,0.0],[113.20324,-8.114,0.0],[113.20099,-8.10891,0.0],[113.2017,-8.10705,0.0],[113.19656,-8.10563,0.0],[113.1969,-8.1043,0.0],[113.2004,-8.10123,0.0],[113.20237,-8.10166,0.0],[113.20233,-8.10017,0.0],[113.20885,-8.09528,0.0],[113.20937,-8.09189,0.0],[113.21296,-8.09226,0.0],[113.21677,-8.08842,0.0],[113.219,-8.08837,0.0],[113.21951,-8.08673,0.0],[113.22415,-8.08662,0.0],[113.22349,-8.0851,0.0],[113.22652,-8.08345,0.0],[113.22501,-8.08314,0.0],[113.22741,-8.07987,0.0],[113.22866,-8.07941,0.0],[113.23002,-8.08076,0.0],[113.22921,-8.07908,0.0],[113.23152,-8.07947,0.0],[113.23204,-8.07745,0.0],[113.23559,-8.08204,0.0],[113.23908,-8.08004,0.0],[113.23869,-8.07871,0.0],[113.24271,-8.08184,0.0],[113.24635,-8.08094,0.0],[113.24679,-8.08309,0.0],[113.24826,-8.08313,0.0],[113.24845,-8.08491,0.0],[113.2504,-8.08565,0.0],[113.25337,-8.09023,0.0],[113.25633,-8.09057,0.0],[113.25699,-8.09215,0.0],[113.26683,-8.09904,0.0],[113.26753,-8.10221,0.0],[113.26614,-8.10526,0.0],[113.26915,-8.10237,0.0],[113.26884,-8.10401,0.0],[113.27063,-8.1048,0.0],[113.27056,-8.10817,0.0],[113.27504,-8.10996,0.0],[113.27196,-8.11553,0.0],[113.2726,-8.11697,0.0],[113.27083,-8.1185,0.0],[113.27312,-8.1191,0.0],[113.27361,-8.12125,0.0],[113.26963,-8.12151,0.0],[113.27335,-8.12334,0.0],[113.27251,-8.12728,0.0],[113.2647,-8.12637,0.0],[113.2635,-8.12827,0.0],[113.26144,-8.12752,0.0],[113.2606,-8.12445,0.0],[113.25703,-8.12363,0.0],[113.25725,-8.12745,0.0],[113.25621,-8.12928,0.0],[113.25466,-8.1291,0.0],[113.25506,-8.13176,0.0],[113.25287,-8.1335,0.0],[113.25127,-8.13237,0.0],[113.25253,-8.12909,0.0],[113.25079,-8.12881,0.0],[113.24943,-8.13093,0.0],[113.24783,-8.12932,0.0],[113.24877,-8.12659,0.0],[113.246,-8.12651,0.0],[113.24451,-8.12447,0.0],[113.24042,-8.12491,0.0],[113.24036,-8.12186,0.0],[113.23765,-8.12428,0.0],[113.23626,-8.12208,0.0],[113.23564,-8.12379,0.0],[113.23489,-8.12191,0.0],[113.23192,-8.12221,0.0],[113.23363,-8.11662,0.0],[113.23559,-8.11836,0.0],[113.2362,-8.11636,0.0],[113.23838,-8.11687,0.0],[113.24002,-8.11276,0.0],[113.24341,-8.11337,0.0],[113.24374,-8.11207,0.0],[113.24781,-8.11307,0.0],[113.24844,-8.11194,0.0],[113.25016,-8.11336,0.0],[113.25561,-8.11317,0.0],[113.25273,-8.10881,0.0],[113.24936,-8.1086,0.0],[113.24288,-8.10572,0.0],[113.24161,-8.10568,0.0],[113.24012,-8.10793,0.0],[113.22636,-8.10438,0.0],[113.22562,-8.1058,0.0],[113.22771,-8.10818,0.0],[113.22561,-8.1103,0.0],[113.22627,-8.11254,0.0],[113.22486,-8.11231,0.0],[113.22329,-8.11905,0.0],[113.21206,-8.11875,0.0],[113.21222,-8.12071,0.0],[113.21096,-8.12031,0.0]]]}},{"type":"Feature","properties":{"kecamatan":"Senduro","kab_kota":"Lumajang"},"geometry":{"type":"Polygon","coordinates":[[[113.08352,-8.09085,0.0],[113.08226,-8.09084,0.0],[113.07993,-8.09377,0.0],[113.07187,-8.08984,0.0],[113.06798,-8.09407,0.0],[113.06594,-8.09462,0.0],[113.05554,-8.08884,0.0],[113.05219,-8.0884,0.0],[113.05082,-8.08658,0.0],[113.04932,-8.08693,0.0],[113.04551,-8.08286,0.0],[113.04368,-8.08322,0.0],[113.0423,-8.0814,0.0],[113.0407,-8.08145,0.0],[113.03792,-8.07491,0.0],[113.03018,-8.06934,0.0],[113.02701,-8.06419,0.0],[113.02286,-8.06213,0.0],[113.01139,-8.05068,0.0],[113.00512,-8.04865,0.0],[112.99949,-8.04378,0.0],[112.9877,-8.03834,0.0],[112.98147,-8.03327,0.0],[112.958,-8.04046,0.0],[112.94401,-8.03682,0.0],[112.93301,-8.03659,0.0],[112.92822,-8.03337,0.0],[112.92263,-8.03177,0.0],[112.92616,-8.02445,0.0],[112.92686,-8.02011,0.0],[112.93059,-8.01597,0.0],[112.9329,-8.01515,0.0],[112.93392,-8.01297,0.0],[112.93069,-8.01226,0.0],[112.93101,-8.00568,0.0],[112.92513,-8.00055,0.0],[112.93028,-7.99869,0.0],[112.93276,-8.00066,0.0],[112.9366,-7.99863,0.0],[112.93864,-7.99915,0.0],[112.93889,-7.99451,0.0],[112.94237,-7.98701,0.0],[112.94073,-7.98194,0.0],[112.94384,-7.98557,0.0],[112.9501,-7.98703,0.0],[112.96061,-7.98486,0.0],[112.97128,-7.98029,0.0],[112.97245,-7.981,0.0],[112.97598,-7.97923,0.0],[112.97927,-7.97445,0.0],[112.98416,-7.9711,0.0],[112.99347,-7.95999,0.0],[113.00082,-7.96298,0.0],[113.00896,-7.96339,0.0],[113.01452,-7.96889,0.0],[113.02265,-7.9695,0.0],[113.03177,-7.97923,0.0],[113.03614,-7.98056,0.0],[113.04261,-7.98854,0.0],[113.04411,-7.99395,0.0],[113.05044,-7.99911,0.0],[113.05239,-8.00357,0.0],[113.0569,-8.00653,0.0],[113.05913,-8.01045,0.0],[113.06275,-8.00941,0.0],[113.065,-7.99926,0.0],[113.06921,-7.99562,0.0],[113.0747,-8.00552,0.0],[113.09796,-8.02963,0.0],[113.10301,-8.03201,0.0],[113.11487,-8.04537,0.0],[113.12021,-8.0629,0.0],[113.11951,-8.06588,0.0],[113.12155,-8.07194,0.0],[113.12571,-8.07548,0.0],[113.12757,-8.07972,0.0],[113.12514,-8.08126,0.0],[113.12676,-8.0843,0.0],[113.12665,-8.09015,0.0],[113.1299,-8.09298,0.0],[113.12971,-8.10824,0.0],[113.13365,-8.11229,0.0],[113.13644,-8.11354,0.0],[113.13778,-8.11282,0.0],[113.13874,-8.11485,0.0],[113.14205,-8.11674,0.0],[113.14134,-8.11913,0.0],[113.14261,-8.12053,0.0],[113.14697,-8.12066,0.0],[113.1501,-8.12191,0.0],[113.14979,-8.12353,0.0],[113.15483,-8.12535,0.0],[113.1521,-8.13283,0.0],[113.15288,-8.13469,0.0],[113.15852,-8.13669,0.0],[113.15794,-8.13939,0.0],[113.15687,-8.13888,0.0],[113.15481,-8.14377,0.0],[113.14969,-8.1421,0.0],[113.13974,-8.12884,0.0],[113.13458,-8.13431,0.0],[113.1331,-8.13168,0.0],[113.13341,-8.1288,0.0],[113.13118,-8.1263,0.0],[113.12547,-8.12315,0.0],[113.12012,-8.11774,0.0],[113.11822,-8.11762,0.0],[113.11753,-8.1145,0.0],[113.11472,-8.11275,0.0],[113.11236,-8.1131,0.0],[113.11177,-8.1099,0.0],[113.10624,-8.10774,0.0],[113.10038,-8.10934,0.0],[113.09689,-8.10663,0.0],[113.09391,-8.10804,0.0],[113.08972,-8.10617,0.0],[113.08915,-8.10446,0.0],[113.08656,-8.104,0.0],[113.08878,-8.10084,0.0],[113.08849,-8.0984,0.0],[113.08632,-8.09762,0.0],[113.08653,-8.09561,0.0],[113.08444,-8.09412,0.0],[113.08352,-8.09085,0.0]]]}},{"type":"Feature","properties":{"kecamatan":"Gucialit","kab_kota":"Lumajang"},"geometry":{"type":"Polygon","coordinates":[[[113.14629,-8.07441,0.0],[113.14766,-8.07762,0.0],[113.15085,-8.07896,0.0],[113.15159,-8.08131,0.0],[113.14945,-8.08534,0.0],[113.14497,-8.08405,0.0],[113.1406,-8.08959,0.0],[113.13633,-8.08697,0.0],[113.13124,-8.08581,0.0],[113.12729,-8.0883,0.0],[113.12653,-8.08303,0.0],[113.12514,-8.08126,0.0],[113.12757,-8.07972,0.0],[113.12571,-8.07548,0.0],[113.12155,-8.07194,0.0],[113.11951,-8.06588,0.0],[113.12021,-8.0629,0.0],[113.11436,-8.04455,0.0],[113.1025,-8.03151,0.0],[113.09796,-8.02963,0.0],[113.0747,-8.00552,0.0],[113.06939,-7.99639,0.0],[113.07875,-7.98416,0.0],[113.10587,-7.98432,0.0],[113.11263,-7.99525,0.0],[113.12093,-7.99128,0.0],[113.12576,-7.98241,0.0],[113.12764,-7.98269,0.0],[113.13163,-7.98063,0.0],[113.13598,-7.97646,0.0],[113.14949,-7.97977,0.0],[113.15219,-7.97659,0.0],[113.15402,-7.97756,0.0],[113.15775,-7.97543,0.0],[113.16003,-7.97791,0.0],[113.16486,-7.9791,0.0],[113.16416,-7.98176,0.0],[113.15916,-7.98477,0.0],[113.1618,-7.98739,0.0],[113.16727,-7.9896,0.0],[113.17373,-7.98953,0.0],[113.17843,-7.9928,0.0],[113.18183,-7.99237,0.0],[113.18556,-8.0022,0.0],[113.18902,-8.00716,0.0],[113.18646,-8.00915,0.0],[113.18786,-8.00986,0.0],[113.18778,-8.01445,0.0],[113.18562,-8.01468,0.0],[113.18616,-8.01991,0.0],[113.18368,-8.02287,0.0],[113.18711,-8.02838,0.0],[113.18636,-8.02963,0.0],[113.18733,-8.03203,0.0],[113.18524,-8.03745,0.0],[113.18739,-8.0392,0.0],[113.19002,-8.04648,0.0],[113.19424,-8.04757,0.0],[113.19572,-8.05098,0.0],[113.19764,-8.05182,0.0],[113.19735,-8.05808,0.0],[113.19617,-8.05998,0.0],[113.19109,-8.05763,0.0],[113.18879,-8.0591,0.0],[113.18761,-8.05885,0.0],[113.18805,-8.0566,0.0],[113.18664,-8.05662,0.0],[113.18389,-8.05912,0.0],[113.18057,-8.06001,0.0],[113.17573,-8.05934,0.0],[113.17407,-8.06345,0.0],[113.176,-8.06486,0.0],[113.17054,-8.06406,0.0],[113.16943,-8.06697,0.0],[113.167,-8.06847,0.0],[113.16482,-8.0682,0.0],[113.16413,-8.06621,0.0],[113.15663,-8.06972,0.0],[113.15461,-8.0678,0.0],[113.15353,-8.06899,0.0],[113.15144,-8.06863,0.0],[113.15075,-8.07121,0.0],[113.14937,-8.07025,0.0],[113.14629,-8.07441,0.0]]]}},{"type":"Feature","properties":{"kecamatan":"Sumbersuko","kab_kota":"Lumajang"},"geometry":{"type":"Polygon","coordinates":[[[113.21302,-8.14615,0.0],[113.22705,-8.15106,0.0],[113.22636,-8.15604,0.0],[113.22243,-8.15471,0.0],[113.21991,-8.15541,0.0],[113.21975,-8.15721,0.0],[113.223,-8.1595,0.0],[113.22462,-8.15922,0.0],[113.22405,-8.16134,0.0],[113.22069,-8.16179,0.0],[113.22046,-8.16388,0.0],[113.21764,-8.1648,0.0],[113.21869,-8.16617,0.0],[113.21762,-8.1733,0.0],[113.21871,-8.17368,0.0],[113.21748,-8.1778,0.0],[113.20184,-8.17324,0.0],[113.20246,-8.17065,0.0],[113.19983,-8.17007,0.0],[113.2004,-8.16741,0.0],[113.19189,-8.16791,0.0],[113.18462,-8.17289,0.0],[113.17644,-8.1707,0.0],[113.15904,-8.17205,0.0],[113.16035,-8.16405,0.0],[113.1633,-8.15996,0.0],[113.16026,-8.16046,0.0],[113.15691,-8.15933,0.0],[113.15848,-8.15143,0.0],[113.15329,-8.14739,0.0],[113.15852,-8.13669,0.0],[113.15288,-8.13469,0.0],[113.1521,-8.13283,0.0],[113.15483,-8.12535,0.0],[113.15928,-8.12729,0.0],[113.15991,-8.12897,0.0],[113.16355,-8.13,0.0],[113.16407,-8.129,0.0],[113.17026,-8.1311,0.0],[113.17173,-8.12704,0.0],[113.17376,-8.12592,0.0],[113.16993,-8.12082,0.0],[113.18348,-8.12427,0.0],[113.18236,-8.12754,0.0],[113.18042,-8.12821,0.0],[113.17879,-8.12631,0.0],[113.17733,-8.13168,0.0],[113.18591,-8.13407,0.0],[113.18635,-8.13096,0.0],[113.1882,-8.13002,0.0],[113.19281,-8.13122,0.0],[113.19122,-8.13209,0.0],[113.19222,-8.13252,0.0],[113.19786,-8.13207,0.0],[113.19721,-8.13393,0.0],[113.19431,-8.13374,0.0],[113.19272,-8.13701,0.0],[113.1908,-8.13796,0.0],[113.1914,-8.13951,0.0],[113.18622,-8.1437,0.0],[113.19,-8.14434,0.0],[113.19437,-8.14222,0.0],[113.19647,-8.14298,0.0],[113.19846,-8.14137,0.0],[113.20565,-8.14347,0.0],[113.20626,-8.14257,0.0],[113.2126,-8.14388,0.0],[113.21302,-8.14615,0.0]]]}},{"type":"Feature","properties":{"kecamatan":"Ranuyoso","kab_kota":"Lumajang"},"geometry":{"type":"Polygon","coordinates":[[[113.26912,-7.96819,0.0],[113.26102,-7.96789,0.0],[113.25686,-7.97209,0.0],[113.25312,-7.97161,0.0],[113.2528,-7.97291,0.0],[113.25468,-7.97286,0.0],[113.25287,-7.97609,0.0],[113.24791,-7.97602,0.0],[113.24389,-7.97383,0.0],[113.23626,-7.97218,0.0],[113.23291,-7.96852,0.0],[113.23219,-7.96539,0.0],[113.2334,-7.96324,0.0],[113.22981,-7.96163,0.0],[113.23249,-7.95579,0.0],[113.22544,-7.95355,0.0],[113.22584,-7.95011,0.0],[113.22443,-7.94986,0.0],[113.22476,-7.95091,0.0],[113.22213,-7.95198,0.0],[113.22342,-7.95216,0.0],[113.22342,-7.95377,0.0],[113.22065,-7.95709,0.0],[113.21544,-7.95367,0.0],[113.21248,-7.95529,0.0],[113.21237,-7.95882,0.0],[113.21421,-7.96147,0.0],[113.21368,-7.96424,0.0],[113.21672,-7.9687,0.0],[113.21418,-7.97155,0.0],[113.21175,-7.96994,0.0],[113.2044,-7.96969,0.0],[113.20234,-7.96853,0.0],[113.19893,-7.96928,0.0],[113.19518,-7.96754,0.0],[113.18309,-7.96897,0.0],[113.17954,-7.97098,0.0],[113.16915,-7.97315,0.0],[113.16589,-7.9761,0.0],[113.15935,-7.97684,0.0],[113.15775,-7.97543,0.0],[113.15402,-7.97756,0.0],[113.15219,-7.97659,0.0],[113.15361,-7.97163,0.0],[113.16118,-7.96832,0.0],[113.1633,-7.96573,0.0],[113.16589,-7.96556,0.0],[113.16795,-7.96208,0.0],[113.17154,-7.96153,0.0],[113.17434,-7.95814,0.0],[113.17554,-7.95822,0.0],[113.17775,-7.95375,0.0],[113.17979,-7.95304,0.0],[113.17997,-7.95006,0.0],[113.18562,-7.94713,0.0],[113.18514,-7.94605,0.0],[113.18686,-7.94608,0.0],[113.18751,-7.9448,0.0],[113.19035,-7.94506,0.0],[113.19467,-7.93728,0.0],[113.19711,-7.93525,0.0],[113.19943,-7.92963,0.0],[113.20611,-7.92572,0.0],[113.207,-7.92194,0.0],[113.20604,-7.91943,0.0],[113.20751,-7.91597,0.0],[113.21052,-7.915,0.0],[113.21185,-7.91104,0.0],[113.21081,-7.90781,0.0],[113.20887,-7.90747,0.0],[113.20934,-7.90524,0.0],[113.20832,-7.90496,0.0],[113.20862,-7.9016,0.0],[113.20738,-7.89988,0.0],[113.21469,-7.90189,0.0],[113.2163,-7.90131,0.0],[113.21838,-7.90278,0.0],[113.22352,-7.90301,0.0],[113.22364,-7.90201,0.0],[113.22807,-7.90399,0.0],[113.22806,-7.90271,0.0],[113.23565,-7.90351,0.0],[113.24844,-7.90652,0.0],[113.24849,-7.90774,0.0],[113.25045,-7.90645,0.0],[113.25457,-7.90732,0.0],[113.25731,-7.90624,0.0],[113.25778,-7.90044,0.0],[113.26182,-7.89897,0.0],[113.26253,-7.89591,0.0],[113.26795,-7.90308,0.0],[113.26799,-7.91774,0.0],[113.27402,-7.91867,0.0],[113.27472,-7.92531,0.0],[113.29498,-7.92801,0.0],[113.29443,-7.92411,0.0],[113.30374,-7.92491,0.0],[113.3136,-7.9284,0.0],[113.31432,-7.93144,0.0],[113.32876,-7.93561,0.0],[113.32766,-7.93967,0.0],[113.33059,-7.94263,0.0],[113.33241,-7.94282,0.0],[113.33474,-7.93996,0.0],[113.34129,-7.94247,0.0],[113.34106,-7.94897,0.0],[113.34626,-7.96252,0.0],[113.34687,-7.97212,0.0],[113.34648,-7.97555,0.0],[113.34128,-7.98097,0.0],[113.32775,-7.98819,0.0],[113.30613,-7.98736,0.0],[113.28467,-7.98952,0.0],[113.27921,-7.98884,0.0],[113.2781,-7.98177,0.0],[113.27417,-7.97633,0.0],[113.27674,-7.97126,0.0],[113.27696,-7.96664,0.0],[113.27306,-7.96575,0.0],[113.26912,-7.96819,0.0]]]}}]}