{"type":"FeatureCollection","features":[{"type":"Feature","properties":{"kecamatan":"Jatikalen","kab_kota":"Nganjuk"},"geometry":{"type":"Polygon","coordinates":[[[112.12077,-7.52252,0.0],[112.11921,-7.52635,0.0],[112.11641,-7.52324,0.0],[112.11552,-7.52469,0.0],[112.11283,-7.52351,0.0],[112.11124,-7.52006,0.0],[112.10714,-7.52122,0.0],[112.09954,-7.51837,0.0],[112.09956,-7.51674,0.0],[112.10071,-7.51746,0.0],[112.09957,-7.50933,0.0],[112.10193,-7.50316,0.0],[112.10687,-7.50287,0.0],[112.11078,-7.50491,0.0],[112.11368,-7.50334,0.0],[112.10887,-7.49619,0.0],[112.10605,-7.49527,0.0],[112.10495,-7.49267,0.0],[112.09654,-7.48833,0.0],[112.0943,-7.48403,0.0],[112.09495,-7.48044,0.0],[112.09991,-7.47773,0.0],[112.10211,-7.47823,0.0],[112.10442,-7.47229,0.0],[112.10039,-7.47224,0.0],[112.09819,-7.47497,0.0],[112.0925,-7.47385,0.0],[112.09015,-7.47462,0.0],[112.08772,-7.4709,0.0],[112.09175,-7.47026,0.0],[112.09091,-7.46872,0.0],[112.09376,-7.46909,0.0],[112.09464,-7.46736,0.0],[112.093,-7.46507,0.0],[112.09512,-7.46547,0.0],[112.09828,-7.46401,0.0],[112.09813,-7.46098,0.0],[112.09985,-7.46122,0.0],[112.10058,-7.46323,0.0],[112.10175,-7.46225,0.0],[112.10385,-7.46323,0.0],[112.10448,-7.45983,0.0],[112.10658,-7.46242,0.0],[112.1105,-7.46215,0.0],[112.11241,-7.46518,0.0],[112.11256,-7.46255,0.0],[112.11433,-7.46389,0.0],[112.11662,-7.45934,0.0],[112.12001,-7.46201,0.0],[112.12357,-7.46243,0.0],[112.1225,-7.4594,0.0],[112.1242,-7.45852,0.0],[112.12344,-7.45487,0.0],[112.12519,-7.45207,0.0],[112.12762,-7.45326,0.0],[112.12794,-7.45798,0.0],[112.13393,-7.4588,0.0],[112.1344,-7.46082,0.0],[112.13841,-7.46063,0.0],[112.13991,-7.45891,0.0],[112.14127,-7.46133,0.0],[112.14268,-7.46007,0.0],[112.1435,-7.46153,0.0],[112.15092,-7.46205,0.0],[112.15224,-7.46602,0.0],[112.15359,-7.46469,0.0],[112.15298,-7.46385,0.0],[112.15485,-7.46325,0.0],[112.15479,-7.46482,0.0],[112.15703,-7.46581,0.0],[112.15603,-7.46776,0.0],[112.15923,-7.47067,0.0],[112.15713,-7.47192,0.0],[112.15978,-7.47423,0.0],[112.15843,-7.47503,0.0],[112.15907,-7.47649,0.0],[112.15783,-7.47658,0.0],[112.16074,-7.47725,0.0],[112.15936,-7.47919,0.0],[112.16241,-7.47991,0.0],[112.16229,-7.47739,0.0],[112.1643,-7.47854,0.0],[112.16505,-7.48209,0.0],[112.1639,-7.48446,0.0],[112.16601,-7.48545,0.0],[112.16427,-7.48981,0.0],[112.16784,-7.4883,0.0],[112.16911,-7.48977,0.0],[112.16638,-7.49548,0.0],[112.15842,-7.49997,0.0],[112.15911,-7.50187,0.0],[112.15602,-7.50268,0.0],[112.15209,-7.50611,0.0],[112.15279,-7.51356,0.0],[112.15139,-7.5206,0.0],[112.14888,-7.52046,0.0],[112.14823,-7.51985,0.0],[112.14974,-7.51798,0.0],[112.14431,-7.51566,0.0],[112.14163,-7.51894,0.0],[112.13383,-7.52211,0.0],[112.13279,-7.52361,0.0],[112.12904,-7.5221,0.0],[112.12883,-7.52522,0.0],[112.12733,-7.52645,0.0],[112.12284,-7.52474,0.0],[112.12077,-7.52252,0.0]]]}},{"type":"Feature","properties":{"kecamatan":"Prambon","kab_kota":"Nganjuk"},"geometry":{"type":"Polygon","coordinates":[[[112.02061,-7.74254,0.0],[112.02228,-7.76195,0.0],[112.01793,-7.76219,0.0],[112.01466,-7.76038,0.0],[112.0097,-7.76,0.0],[112.004,-7.75549,0.0],[112.00224,-7.75235,0.0],[112.00118,-7.7445,0.0],[111.99824,-7.74292,0.0],[111.99928,-7.74174,0.0],[111.99756,-7.7293,0.0],[111.99332,-7.72838,0.0],[111.98825,-7.7238,0.0],[111.98224,-7.71096,0.0],[111.98379,-7.70812,0.0],[111.98239,-7.7055,0.0],[111.98287,-7.69572,0.0],[111.98572,-7.69162,0.0],[111.98542,-7.68713,0.0],[111.98261,-7.68381,0.0],[111.97776,-7.68299,0.0],[111.97959,-7.67418,0.0],[111.99532,-7.67461,0.0],[111.99614,-7.6687,0.0],[112.00058,-7.66569,0.0],[112.00171,-7.66182,0.0],[112.00388,-7.66091,0.0],[112.01301,-7.66148,0.0],[112.01248,-7.6547,0.0],[112.0331,-7.65781,0.0],[112.03751,-7.65941,0.0],[112.03852,-7.66132,0.0],[112.03531,-7.66551,0.0],[112.03164,-7.66708,0.0],[112.02999,-7.66939,0.0],[112.02745,-7.67932,0.0],[112.02497,-7.68348,0.0],[112.02023,-7.68501,0.0],[112.01978,-7.68714,0.0],[112.02515,-7.68807,0.0],[112.02473,-7.69064,0.0],[112.02738,-7.69117,0.0],[112.02543,-7.69925,0.0],[112.02618,-7.70545,0.0],[112.03044,-7.70771,0.0],[112.0289,-7.71326,0.0],[112.03029,-7.71367,0.0],[112.02987,-7.71663,0.0],[112.03167,-7.71755,0.0],[112.03446,-7.72556,0.0],[112.02722,-7.72569,0.0],[112.02061,-7.74254,0.0]]]}},{"type":"Feature","properties":{"kecamatan":"Ngronggot","kab_kota":"Nganjuk"},"geometry":{"type":"Polygon","coordinates":[[[112.06768,-7.70969,0.0],[112.06394,-7.71502,0.0],[112.06269,-7.72053,0.0],[112.05907,-7.72352,0.0],[112.04909,-7.72627,0.0],[112.04476,-7.72457,0.0],[112.03446,-7.72556,0.0],[112.03167,-7.71755,0.0],[112.02987,-7.71663,0.0],[112.03029,-7.71367,0.0],[112.0289,-7.71326,0.0],[112.03044,-7.70771,0.0],[112.02618,-7.70545,0.0],[112.02543,-7.69925,0.0],[112.02738,-7.69117,0.0],[112.02473,-7.69064,0.0],[112.02515,-7.68807,0.0],[112.01978,-7.68714,0.0],[112.02023,-7.68501,0.0],[112.02497,-7.68348,0.0],[112.02596,-7.68048,0.0],[112.02691,-7.68064,0.0],[112.03038,-7.66877,0.0],[112.03842,-7.66178,0.0],[112.03678,-7.65932,0.0],[112.03727,-7.65651,0.0],[112.03515,-7.65606,0.0],[112.03746,-7.64499,0.0],[112.0369,-7.642,0.0],[112.0425,-7.62779,0.0],[112.04412,-7.62807,0.0],[112.04691,-7.62051,0.0],[112.04666,-7.61728,0.0],[112.04827,-7.61727,0.0],[112.04872,-7.6198,0.0],[112.05124,-7.62059,0.0],[112.05514,-7.6249,0.0],[112.05509,-7.62686,0.0],[112.05757,-7.62757,0.0],[112.05906,-7.63036,0.0],[112.06429,-7.63254,0.0],[112.06851,-7.6358,0.0],[112.07003,-7.6394,0.0],[112.0753,-7.64227,0.0],[112.08312,-7.64418,0.0],[112.08537,-7.64304,0.0],[112.08566,-7.64077,0.0],[112.0891,-7.63995,0.0],[112.08888,-7.64141,0.0],[112.09328,-7.63931,0.0],[112.09821,-7.63974,0.0],[112.09835,-7.64411,0.0],[112.09683,-7.64652,0.0],[112.09175,-7.64958,0.0],[112.09029,-7.65566,0.0],[112.08548,-7.65815,0.0],[112.08441,-7.66322,0.0],[112.08201,-7.66696,0.0],[112.08278,-7.67291,0.0],[112.07859,-7.67489,0.0],[112.07587,-7.67876,0.0],[112.07656,-7.68535,0.0],[112.07514,-7.69307,0.0],[112.07631,-7.7015,0.0],[112.06768,-7.70969,0.0]]]}},{"type":"Feature","properties":{"kecamatan":"Loceret","kab_kota":"Nganjuk"},"geometry":{"type":"Polygon","coordinates":[[[111.88571,-7.75486,0.0],[111.88157,-7.7636,0.0],[111.86278,-7.77603,0.0],[111.85398,-7.78636,0.0],[111.84129,-7.79436,0.0],[111.8414,-7.79099,0.0],[111.83929,-7.78521,0.0],[111.83892,-7.77323,0.0],[111.84097,-7.76341,0.0],[111.84401,-7.76195,0.0],[111.84752,-7.75266,0.0],[111.84942,-7.74999,0.0],[111.85152,-7.74972,0.0],[111.85225,-7.7449,0.0],[111.85487,-7.74107,0.0],[111.85471,-7.73619,0.0],[111.85803,-7.72982,0.0],[111.85877,-7.72326,0.0],[111.86035,-7.72282,0.0],[111.86016,-7.72091,0.0],[111.86209,-7.72045,0.0],[111.85889,-7.71873,0.0],[111.86011,-7.71712,0.0],[111.85982,-7.71293,0.0],[111.86628,-7.7109,0.0],[111.86709,-7.70845,0.0],[111.87204,-7.70465,0.0],[111.87508,-7.69961,0.0],[111.87607,-7.69324,0.0],[111.87185,-7.69088,0.0],[111.87546,-7.67988,0.0],[111.87661,-7.66972,0.0],[111.88242,-7.66165,0.0],[111.88768,-7.66193,0.0],[111.88942,-7.65856,0.0],[111.88883,-7.65613,0.0],[111.88568,-7.65588,0.0],[111.88519,-7.65468,0.0],[111.87879,-7.65607,0.0],[111.87608,-7.6545,0.0],[111.87509,-7.65294,0.0],[111.87677,-7.64939,0.0],[111.87552,-7.64851,0.0],[111.87656,-7.64304,0.0],[111.87583,-7.64069,0.0],[111.88307,-7.62977,0.0],[111.88739,-7.6302,0.0],[111.89022,-7.62364,0.0],[111.90116,-7.62367,0.0],[111.90231,-7.61712,0.0],[111.90533,-7.6173,0.0],[111.9062,-7.61875,0.0],[111.91538,-7.61975,0.0],[111.91659,-7.61826,0.0],[111.92212,-7.6186,0.0],[111.92254,-7.61722,0.0],[111.92686,-7.61823,0.0],[111.92819,-7.62152,0.0],[111.93309,-7.62544,0.0],[111.93376,-7.62284,0.0],[111.94234,-7.6246,0.0],[111.94137,-7.62842,0.0],[111.9332,-7.6273,0.0],[111.93084,-7.63262,0.0],[111.93503,-7.63389,0.0],[111.93337,-7.64396,0.0],[111.93976,-7.64428,0.0],[111.93995,-7.64749,0.0],[111.92942,-7.64829,0.0],[111.92228,-7.64592,0.0],[111.91887,-7.65397,0.0],[111.91642,-7.65487,0.0],[111.92065,-7.65605,0.0],[111.92087,-7.65886,0.0],[111.91708,-7.659,0.0],[111.91786,-7.65771,0.0],[111.9125,-7.6554,0.0],[111.90679,-7.65519,0.0],[111.90442,-7.66067,0.0],[111.89921,-7.66718,0.0],[111.90252,-7.66909,0.0],[111.90066,-7.67224,0.0],[111.89784,-7.67322,0.0],[111.89822,-7.67663,0.0],[111.8954,-7.68134,0.0],[111.89419,-7.68558,0.0],[111.89517,-7.68653,0.0],[111.89369,-7.68758,0.0],[111.89245,-7.69248,0.0],[111.90282,-7.70902,0.0],[111.89453,-7.71522,0.0],[111.8912,-7.72001,0.0],[111.89085,-7.72555,0.0],[111.89399,-7.74777,0.0],[111.88571,-7.75486,0.0]]]}},{"type":"Feature","properties":{"kecamatan":"Pace","kab_kota":"Nganjuk"},"geometry":{"type":"Polygon","coordinates":[[[111.93554,-7.70334,0.0],[111.93163,-7.70917,0.0],[111.93187,-7.71617,0.0],[111.92805,-7.72256,0.0],[111.91934,-7.72576,0.0],[111.9074,-7.73384,0.0],[111.90565,-7.73665,0.0],[111.9003,-7.73973,0.0],[111.89374,-7.74781,0.0],[111.89085,-7.72555,0.0],[111.8912,-7.72001,0.0],[111.89453,-7.71522,0.0],[111.90282,-7.70902,0.0],[111.89245,-7.69248,0.0],[111.89369,-7.68758,0.0],[111.89517,-7.68653,0.0],[111.89419,-7.68558,0.0],[111.8954,-7.68134,0.0],[111.89822,-7.67663,0.0],[111.89784,-7.67322,0.0],[111.90066,-7.67224,0.0],[111.90252,-7.66909,0.0],[111.89921,-7.66718,0.0],[111.90442,-7.66067,0.0],[111.90679,-7.65519,0.0],[111.9125,-7.6554,0.0],[111.91786,-7.65771,0.0],[111.91708,-7.659,0.0],[111.92087,-7.65886,0.0],[111.92065,-7.65605,0.0],[111.91642,-7.65487,0.0],[111.91887,-7.65397,0.0],[111.92228,-7.64592,0.0],[111.92942,-7.64829,0.0],[111.93995,-7.64749,0.0],[111.93976,-7.64428,0.0],[111.93337,-7.64396,0.0],[111.93503,-7.63389,0.0],[111.93084,-7.63262,0.0],[111.9332,-7.6273,0.0],[111.94137,-7.62842,0.0],[111.94316,-7.62587,0.0],[111.95129,-7.62709,0.0],[111.95464,-7.62898,0.0],[111.95033,-7.63052,0.0],[111.94779,-7.64212,0.0],[111.94875,-7.64243,0.0],[111.94561,-7.64727,0.0],[111.95115,-7.6488,0.0],[111.95082,-7.65001,0.0],[111.95273,-7.6506,0.0],[111.95323,-7.65277,0.0],[111.95549,-7.65302,0.0],[111.95435,-7.65656,0.0],[111.95836,-7.65789,0.0],[111.96652,-7.65713,0.0],[111.96733,-7.65831,0.0],[111.96597,-7.6602,0.0],[111.96434,-7.6599,0.0],[111.96401,-7.66123,0.0],[111.95973,-7.66194,0.0],[111.9581,-7.66365,0.0],[111.95845,-7.67054,0.0],[111.95675,-7.67319,0.0],[111.95696,-7.67909,0.0],[111.95398,-7.67971,0.0],[111.95245,-7.68648,0.0],[111.94998,-7.68592,0.0],[111.94576,-7.69404,0.0],[111.94231,-7.69405,0.0],[111.93958,-7.70045,0.0],[111.93554,-7.70334,0.0]]]}},{"type":"Feature","properties":{"kecamatan":"Kertosono","kab_kota":"Nganjuk"},"geometry":{"type":"Polygon","coordinates":[[[112.0891,-7.63995,0.0],[112.08566,-7.64077,0.0],[112.08537,-7.64304,0.0],[112.08312,-7.64418,0.0],[112.07568,-7.64244,0.0],[112.07003,-7.6394,0.0],[112.06851,-7.6358,0.0],[112.06296,-7.63179,0.0],[112.06464,-7.63145,0.0],[112.06427,-7.62807,0.0],[112.06751,-7.6301,0.0],[112.06875,-7.62772,0.0],[112.06785,-7.62444,0.0],[112.06903,-7.62081,0.0],[112.07541,-7.61524,0.0],[112.07254,-7.61438,0.0],[112.07193,-7.6079,0.0],[112.07457,-7.60616,0.0],[112.07523,-7.5998,0.0],[112.07717,-7.59838,0.0],[112.07756,-7.59274,0.0],[112.08372,-7.59129,0.0],[112.08946,-7.58704,0.0],[112.08929,-7.58038,0.0],[112.0805,-7.5769,0.0],[112.08201,-7.5755,0.0],[112.08342,-7.56679,0.0],[112.08801,-7.56756,0.0],[112.09032,-7.56871,0.0],[112.08978,-7.56978,0.0],[112.09212,-7.57018,0.0],[112.09099,-7.57106,0.0],[112.09185,-7.57139,0.0],[112.0913,-7.57306,0.0],[112.09316,-7.57239,0.0],[112.09422,-7.57372,0.0],[112.09069,-7.57435,0.0],[112.09289,-7.57531,0.0],[112.09278,-7.57734,0.0],[112.09445,-7.57815,0.0],[112.09524,-7.5759,0.0],[112.10339,-7.57508,0.0],[112.1022,-7.57999,0.0],[112.10351,-7.58032,0.0],[112.10292,-7.58113,0.0],[112.11437,-7.58389,0.0],[112.1134,-7.58936,0.0],[112.10954,-7.59512,0.0],[112.10909,-7.6039,0.0],[112.10309,-7.60947,0.0],[112.10389,-7.61435,0.0],[112.10085,-7.62833,0.0],[112.10119,-7.63517,0.0],[112.09821,-7.63974,0.0],[112.09328,-7.63931,0.0],[112.08888,-7.64141,0.0],[112.0891,-7.63995,0.0]]]}},{"type":"Feature","properties":{"kecamatan":"Patianrowo","kab_kota":"Nganjuk"},"geometry":{"type":"Polygon","coordinates":[[[112.10292,-7.58113,0.0],[112.10339,-7.57508,0.0],[112.10142,-7.57454,0.0],[112.10012,-7.57606,0.0],[112.09524,-7.5759,0.0],[112.09445,-7.57815,0.0],[112.09278,-7.57734,0.0],[112.09289,-7.57531,0.0],[112.09069,-7.57435,0.0],[112.09422,-7.57372,0.0],[112.09316,-7.57239,0.0],[112.0913,-7.57306,0.0],[112.09185,-7.57139,0.0],[112.09099,-7.57106,0.0],[112.09212,-7.57018,0.0],[112.08978,-7.56978,0.0],[112.09032,-7.56871,0.0],[112.08801,-7.56756,0.0],[112.07795,-7.56549,0.0],[112.07808,-7.56432,0.0],[112.07227,-7.56443,0.0],[112.06621,-7.56971,0.0],[112.05532,-7.56557,0.0],[112.05491,-7.55752,0.0],[112.05194,-7.5569,0.0],[112.05294,-7.54589,0.0],[112.05484,-7.54784,0.0],[112.05532,-7.54468,0.0],[112.05585,-7.54599,0.0],[112.05738,-7.54511,0.0],[112.05634,-7.54256,0.0],[112.05779,-7.54174,0.0],[112.06419,-7.5451,0.0],[112.06609,-7.54281,0.0],[112.06472,-7.54025,0.0],[112.06514,-7.53819,0.0],[112.07169,-7.53937,0.0],[112.08121,-7.53528,0.0],[112.08328,-7.53668,0.0],[112.08709,-7.53289,0.0],[112.08909,-7.53357,0.0],[112.09068,-7.53817,0.0],[112.0922,-7.53835,0.0],[112.09431,-7.53578,0.0],[112.09569,-7.53661,0.0],[112.09878,-7.5358,0.0],[112.09975,-7.53496,0.0],[112.09931,-7.52733,0.0],[112.10047,-7.52633,0.0],[112.10576,-7.52796,0.0],[112.11262,-7.52298,0.0],[112.11552,-7.52469,0.0],[112.11646,-7.52327,0.0],[112.11921,-7.52635,0.0],[112.12024,-7.52243,0.0],[112.12733,-7.52645,0.0],[112.12883,-7.52522,0.0],[112.12904,-7.5221,0.0],[112.13279,-7.52361,0.0],[112.13383,-7.52211,0.0],[112.14163,-7.51894,0.0],[112.14398,-7.51577,0.0],[112.14966,-7.51791,0.0],[112.14823,-7.51985,0.0],[112.15139,-7.5206,0.0],[112.15079,-7.52925,0.0],[112.14421,-7.53535,0.0],[112.14029,-7.53536,0.0],[112.13801,-7.53403,0.0],[112.13414,-7.53534,0.0],[112.13173,-7.54115,0.0],[112.12681,-7.54722,0.0],[112.11931,-7.55302,0.0],[112.11433,-7.56374,0.0],[112.11187,-7.56537,0.0],[112.11134,-7.56669,0.0],[112.11522,-7.57958,0.0],[112.11437,-7.58389,0.0],[112.10292,-7.58113,0.0]]]}},{"type":"Feature","properties":{"kecamatan":"Ngetos","kab_kota":"Nganjuk"},"geometry":{"type":"Polygon","coordinates":[[[111.85487,-7.74107,0.0],[111.85152,-7.74972,0.0],[111.84878,-7.75052,0.0],[111.84401,-7.76195,0.0],[111.84097,-7.76341,0.0],[111.83892,-7.77323,0.0],[111.83929,-7.78521,0.0],[111.8414,-7.79099,0.0],[111.84129,-7.79436,0.0],[111.83797,-7.79919,0.0],[111.82472,-7.81122,0.0],[111.81401,-7.81297,0.0],[111.81304,-7.81578,0.0],[111.81406,-7.81988,0.0],[111.81329,-7.82266,0.0],[111.81058,-7.8255,0.0],[111.80497,-7.82833,0.0],[111.80043,-7.82585,0.0],[111.79853,-7.82078,0.0],[111.79527,-7.81893,0.0],[111.7942,-7.8164,0.0],[111.79128,-7.81579,0.0],[111.7889,-7.81076,0.0],[111.78916,-7.8054,0.0],[111.78701,-7.80384,0.0],[111.79011,-7.80132,0.0],[111.79038,-7.79587,0.0],[111.79359,-7.78844,0.0],[111.79256,-7.78546,0.0],[111.79667,-7.77944,0.0],[111.79863,-7.77059,0.0],[111.80051,-7.76822,0.0],[111.80056,-7.75616,0.0],[111.80289,-7.75193,0.0],[111.80011,-7.74476,0.0],[111.79882,-7.73353,0.0],[111.80999,-7.73013,0.0],[111.8177,-7.72076,0.0],[111.82413,-7.70931,0.0],[111.82768,-7.69662,0.0],[111.82582,-7.69374,0.0],[111.81574,-7.68895,0.0],[111.81505,-7.68633,0.0],[111.81246,-7.68506,0.0],[111.81216,-7.68357,0.0],[111.8166,-7.68381,0.0],[111.8241,-7.67971,0.0],[111.82613,-7.68241,0.0],[111.82769,-7.68043,0.0],[111.83027,-7.68131,0.0],[111.83462,-7.67888,0.0],[111.83817,-7.67863,0.0],[111.84323,-7.67344,0.0],[111.84547,-7.66908,0.0],[111.85481,-7.67042,0.0],[111.86503,-7.6668,0.0],[111.867,-7.66906,0.0],[111.86392,-7.67747,0.0],[111.86443,-7.68188,0.0],[111.86259,-7.6848,0.0],[111.86305,-7.68636,0.0],[111.86114,-7.68703,0.0],[111.8612,-7.68985,0.0],[111.85867,-7.69124,0.0],[111.85967,-7.69523,0.0],[111.86103,-7.69651,0.0],[111.86681,-7.69637,0.0],[111.86739,-7.69307,0.0],[111.87214,-7.69128,0.0],[111.87607,-7.69324,0.0],[111.87607,-7.69525,0.0],[111.87508,-7.69961,0.0],[111.87204,-7.70465,0.0],[111.86894,-7.70642,0.0],[111.86609,-7.71106,0.0],[111.85982,-7.71293,0.0],[111.86011,-7.71712,0.0],[111.85889,-7.71873,0.0],[111.86209,-7.72045,0.0],[111.86016,-7.72091,0.0],[111.86035,-7.72282,0.0],[111.85882,-7.72312,0.0],[111.85883,-7.72721,0.0],[111.85523,-7.73411,0.0],[111.85487,-7.74107,0.0]]]}},{"type":"Feature","properties":{"kecamatan":"Berbek","kab_kota":"Nganjuk"},"geometry":{"type":"Polygon","coordinates":[[[111.82386,-7.67991,0.0],[111.8166,-7.68381,0.0],[111.81345,-7.68295,0.0],[111.80724,-7.68375,0.0],[111.80238,-7.69151,0.0],[111.79736,-7.69197,0.0],[111.79478,-7.69006,0.0],[111.79,-7.68104,0.0],[111.80197,-7.65965,0.0],[111.80954,-7.65299,0.0],[111.81546,-7.64035,0.0],[111.81527,-7.63605,0.0],[111.81801,-7.63455,0.0],[111.81835,-7.63182,0.0],[111.82005,-7.63127,0.0],[111.81959,-7.62986,0.0],[111.82285,-7.62566,0.0],[111.83004,-7.62172,0.0],[111.83471,-7.61673,0.0],[111.83653,-7.6166,0.0],[111.83762,-7.6139,0.0],[111.84141,-7.61433,0.0],[111.84274,-7.61301,0.0],[111.84603,-7.61357,0.0],[111.84822,-7.61242,0.0],[111.85662,-7.616,0.0],[111.85936,-7.61371,0.0],[111.86191,-7.61419,0.0],[111.86245,-7.61293,0.0],[111.86818,-7.61665,0.0],[111.86953,-7.61451,0.0],[111.87252,-7.61365,0.0],[111.8735,-7.61115,0.0],[111.87645,-7.61229,0.0],[111.87573,-7.61595,0.0],[111.88265,-7.61783,0.0],[111.88205,-7.61986,0.0],[111.88999,-7.6239,0.0],[111.88739,-7.6302,0.0],[111.88307,-7.62977,0.0],[111.87583,-7.64069,0.0],[111.87656,-7.64304,0.0],[111.87552,-7.64851,0.0],[111.87677,-7.64939,0.0],[111.87509,-7.65294,0.0],[111.87879,-7.65607,0.0],[111.88519,-7.65468,0.0],[111.88568,-7.65588,0.0],[111.88883,-7.65613,0.0],[111.88942,-7.65856,0.0],[111.88768,-7.66193,0.0],[111.88242,-7.66165,0.0],[111.8774,-7.66811,0.0],[111.87546,-7.67988,0.0],[111.87202,-7.68824,0.0],[111.8719,-7.69133,0.0],[111.86739,-7.69307,0.0],[111.86681,-7.69637,0.0],[111.86082,-7.69641,0.0],[111.85866,-7.69131,0.0],[111.86119,-7.68986,0.0],[111.86101,-7.6872,0.0],[111.86293,-7.68655,0.0],[111.86261,-7.68476,0.0],[111.86383,-7.6842,0.0],[111.86392,-7.67749,0.0],[111.867,-7.66906,0.0],[111.86586,-7.66697,0.0],[111.86202,-7.6672,0.0],[111.85438,-7.67047,0.0],[111.84547,-7.66908,0.0],[111.84323,-7.67344,0.0],[111.83817,-7.67863,0.0],[111.83462,-7.67888,0.0],[111.83027,-7.68131,0.0],[111.82769,-7.68043,0.0],[111.8263,-7.68239,0.0],[111.82386,-7.67991,0.0]]]}},{"type":"Feature","properties":{"kecamatan":"Sawahan","kab_kota":"Nganjuk"},"geometry":{"type":"Polygon","coordinates":[[[111.79359,-7.78844,0.0],[111.78997,-7.80165,0.0],[111.78701,-7.80384,0.0],[111.78916,-7.8054,0.0],[111.7889,-7.81076,0.0],[111.79047,-7.81437,0.0],[111.7987,-7.82097,0.0],[111.80043,-7.82585,0.0],[111.80497,-7.82833,0.0],[111.80112,-7.83523,0.0],[111.7992,-7.83657,0.0],[111.79468,-7.83654,0.0],[111.78581,-7.83347,0.0],[111.78475,-7.82978,0.0],[111.77666,-7.8202,0.0],[111.77499,-7.82128,0.0],[111.77295,-7.82033,0.0],[111.76883,-7.82411,0.0],[111.7671,-7.82323,0.0],[111.76542,-7.81547,0.0],[111.76009,-7.81366,0.0],[111.75545,-7.80303,0.0],[111.74183,-7.79035,0.0],[111.73644,-7.78802,0.0],[111.73459,-7.78483,0.0],[111.72535,-7.77661,0.0],[111.72455,-7.77136,0.0],[111.72696,-7.76379,0.0],[111.72674,-7.75873,0.0],[111.72944,-7.75407,0.0],[111.73092,-7.74496,0.0],[111.72922,-7.74062,0.0],[111.72952,-7.73728,0.0],[111.73091,-7.73204,0.0],[111.73256,-7.73023,0.0],[111.73294,-7.7263,0.0],[111.74144,-7.71759,0.0],[111.7418,-7.71446,0.0],[111.74594,-7.71219,0.0],[111.74935,-7.70858,0.0],[111.74962,-7.70656,0.0],[111.75281,-7.70528,0.0],[111.75235,-7.70352,0.0],[111.75415,-7.70281,0.0],[111.75751,-7.69336,0.0],[111.75752,-7.68956,0.0],[111.75583,-7.68901,0.0],[111.75614,-7.68391,0.0],[111.75855,-7.67985,0.0],[111.76139,-7.67827,0.0],[111.76975,-7.68041,0.0],[111.78137,-7.67651,0.0],[111.78497,-7.67799,0.0],[111.78642,-7.67719,0.0],[111.78992,-7.68091,0.0],[111.79518,-7.69061,0.0],[111.79736,-7.69197,0.0],[111.80238,-7.69151,0.0],[111.80724,-7.68375,0.0],[111.81216,-7.68357,0.0],[111.81728,-7.6902,0.0],[111.81934,-7.69021,0.0],[111.81895,-7.69097,0.0],[111.82766,-7.69513,0.0],[111.82662,-7.7031,0.0],[111.8177,-7.72076,0.0],[111.80999,-7.73013,0.0],[111.79882,-7.73353,0.0],[111.80011,-7.74476,0.0],[111.80284,-7.75233,0.0],[111.80056,-7.75616,0.0],[111.80051,-7.76822,0.0],[111.79863,-7.77059,0.0],[111.79667,-7.77944,0.0],[111.79256,-7.78546,0.0],[111.79359,-7.78844,0.0]]]}},{"type":"Feature","properties":{"kecamatan":"Gondang","kab_kota":"Nganjuk"},"geometry":{"type":"Polygon","coordinates":[[[111.98848,-7.58289,0.0],[111.99077,-7.58559,0.0],[111.98718,-7.58929,0.0],[111.98384,-7.58831,0.0],[111.98352,-7.59014,0.0],[111.98082,-7.59077,0.0],[111.97582,-7.58838,0.0],[111.97488,-7.59019,0.0],[111.97397,-7.58961,0.0],[111.97464,-7.58782,0.0],[111.97322,-7.58685,0.0],[111.96964,-7.5883,0.0],[111.96576,-7.58787,0.0],[111.96607,-7.59011,0.0],[111.96139,-7.58756,0.0],[111.9617,-7.57992,0.0],[111.96011,-7.57999,0.0],[111.95836,-7.57761,0.0],[111.95666,-7.57899,0.0],[111.95649,-7.57745,0.0],[111.95338,-7.57864,0.0],[111.95104,-7.57784,0.0],[111.95417,-7.56925,0.0],[111.95231,-7.56726,0.0],[111.94957,-7.54865,0.0],[111.94862,-7.54841,0.0],[111.94897,-7.54207,0.0],[111.94648,-7.5393,0.0],[111.94797,-7.5381,0.0],[111.94797,-7.533,0.0],[111.94299,-7.52903,0.0],[111.94662,-7.51252,0.0],[111.94954,-7.507,0.0],[111.95026,-7.50007,0.0],[111.95655,-7.48576,0.0],[111.95817,-7.48922,0.0],[111.96496,-7.49221,0.0],[111.96726,-7.4893,0.0],[111.97394,-7.48521,0.0],[111.9734,-7.48176,0.0],[111.97739,-7.47833,0.0],[111.97998,-7.47239,0.0],[111.98496,-7.47475,0.0],[111.98754,-7.47188,0.0],[111.99672,-7.47151,0.0],[111.99958,-7.46985,0.0],[112.0012,-7.46507,0.0],[112.00207,-7.46564,0.0],[112.00225,-7.46453,0.0],[112.00443,-7.46398,0.0],[112.00576,-7.46583,0.0],[112.01049,-7.46656,0.0],[112.01048,-7.46781,0.0],[112.01335,-7.46769,0.0],[112.01372,-7.46877,0.0],[112.02177,-7.46683,0.0],[112.02191,-7.46964,0.0],[112.02316,-7.46955,0.0],[112.02231,-7.47117,0.0],[112.02593,-7.46863,0.0],[112.02601,-7.46726,0.0],[112.02779,-7.4676,0.0],[112.02835,-7.47049,0.0],[112.03123,-7.47354,0.0],[112.03258,-7.47222,0.0],[112.03267,-7.47425,0.0],[112.03588,-7.4765,0.0],[112.03377,-7.48393,0.0],[112.03503,-7.48417,0.0],[112.03734,-7.48916,0.0],[112.03906,-7.48941,0.0],[112.03915,-7.49232,0.0],[112.04229,-7.4959,0.0],[112.02847,-7.50209,0.0],[112.02938,-7.50299,0.0],[112.02783,-7.5062,0.0],[112.02981,-7.50624,0.0],[112.02918,-7.51037,0.0],[112.03076,-7.51463,0.0],[112.03327,-7.51499,0.0],[112.03789,-7.52014,0.0],[112.04127,-7.52158,0.0],[112.04273,-7.52314,0.0],[112.04224,-7.52426,0.0],[112.04562,-7.52746,0.0],[112.04712,-7.53556,0.0],[112.04421,-7.5449,0.0],[112.04435,-7.54528,0.0],[112.04488,-7.54551,0.0],[112.04503,-7.54561,0.0],[112.04516,-7.54579,0.0],[112.04516,-7.54581,0.0],[112.04303,-7.54534,0.0],[112.04191,-7.54711,0.0],[112.04226,-7.54973,0.0],[112.04007,-7.55067,0.0],[112.03997,-7.54817,0.0],[112.03628,-7.54877,0.0],[112.03457,-7.55336,0.0],[112.03099,-7.55658,0.0],[112.02724,-7.55692,0.0],[112.02716,-7.5583,0.0],[112.01927,-7.56156,0.0],[112.01697,-7.56678,0.0],[112.007,-7.57526,0.0],[112.00382,-7.5752,0.0],[111.99906,-7.56949,0.0],[111.99472,-7.57075,0.0],[111.98848,-7.58289,0.0]]]}},{"type":"Feature","properties":{"kecamatan":"Ngluyu","kab_kota":"Nganjuk"},"geometry":{"type":"Polygon","coordinates":[[[112.02595,-7.46731,0.0],[112.02593,-7.46863,0.0],[112.02231,-7.47117,0.0],[112.02316,-7.46955,0.0],[112.02191,-7.46964,0.0],[112.02177,-7.46683,0.0],[112.01372,-7.46877,0.0],[112.01335,-7.46769,0.0],[112.01048,-7.46781,0.0],[112.01049,-7.46656,0.0],[112.00576,-7.46583,0.0],[112.00443,-7.46398,0.0],[112.00225,-7.46453,0.0],[112.00207,-7.46564,0.0],[112.0012,-7.46507,0.0],[111.99958,-7.46985,0.0],[111.99672,-7.47151,0.0],[111.98754,-7.47188,0.0],[111.98496,-7.47475,0.0],[111.97998,-7.47239,0.0],[111.97739,-7.47833,0.0],[111.9734,-7.48176,0.0],[111.97394,-7.48521,0.0],[111.96385,-7.49232,0.0],[111.95805,-7.48907,0.0],[111.94778,-7.47354,0.0],[111.9472,-7.46852,0.0],[111.93899,-7.46581,0.0],[111.93512,-7.46217,0.0],[111.93069,-7.46009,0.0],[111.92914,-7.45537,0.0],[111.92308,-7.44937,0.0],[111.92619,-7.43962,0.0],[111.92537,-7.43668,0.0],[111.93464,-7.44037,0.0],[111.93972,-7.44028,0.0],[111.9474,-7.43424,0.0],[111.95465,-7.43227,0.0],[111.95906,-7.42921,0.0],[111.95977,-7.42642,0.0],[111.95798,-7.42445,0.0],[111.95992,-7.42281,0.0],[111.95769,-7.41828,0.0],[111.94645,-7.41124,0.0],[111.94243,-7.41096,0.0],[111.94154,-7.40924,0.0],[111.94321,-7.40907,0.0],[111.94238,-7.40732,0.0],[111.94366,-7.40612,0.0],[111.95071,-7.40741,0.0],[111.95802,-7.41332,0.0],[111.96342,-7.40893,0.0],[111.96783,-7.4085,0.0],[111.97126,-7.40498,0.0],[111.97719,-7.40469,0.0],[111.97843,-7.40681,0.0],[111.98199,-7.40637,0.0],[111.98404,-7.40743,0.0],[111.99867,-7.40338,0.0],[112.0125,-7.40571,0.0],[112.01965,-7.40983,0.0],[112.02024,-7.39991,0.0],[112.02419,-7.39559,0.0],[112.02817,-7.39707,0.0],[112.02979,-7.40018,0.0],[112.03172,-7.39977,0.0],[112.03518,-7.40184,0.0],[112.04211,-7.40073,0.0],[112.04385,-7.40331,0.0],[112.04281,-7.40855,0.0],[112.04506,-7.40896,0.0],[112.04616,-7.41225,0.0],[112.04429,-7.4174,0.0],[112.04772,-7.42057,0.0],[112.04888,-7.42628,0.0],[112.05034,-7.42797,0.0],[112.04944,-7.42884,0.0],[112.05108,-7.43052,0.0],[112.0528,-7.43034,0.0],[112.05218,-7.43333,0.0],[112.04878,-7.43645,0.0],[112.04416,-7.43691,0.0],[112.04342,-7.4398,0.0],[112.04008,-7.44164,0.0],[112.03826,-7.44558,0.0],[112.03716,-7.45021,0.0],[112.0383,-7.45329,0.0],[112.03719,-7.454,0.0],[112.03582,-7.46041,0.0],[112.03956,-7.47438,0.0],[112.03657,-7.47602,0.0],[112.03404,-7.47586,0.0],[112.03258,-7.47222,0.0],[112.03119,-7.47351,0.0],[112.02829,-7.4704,0.0],[112.02786,-7.46764,0.0],[112.02595,-7.46731,0.0]]]}},{"type":"Feature","properties":{"kecamatan":"Wilangan","kab_kota":"Nganjuk"},"geometry":{"type":"Polygon","coordinates":[[[111.80104,-7.66116,0.0],[111.79,-7.68104,0.0],[111.78713,-7.67747,0.0],[111.78497,-7.67799,0.0],[111.78221,-7.67639,0.0],[111.76975,-7.68041,0.0],[111.76183,-7.67823,0.0],[111.76228,-7.67548,0.0],[111.76565,-7.67292,0.0],[111.76777,-7.66917,0.0],[111.76813,-7.66554,0.0],[111.76917,-7.66442,0.0],[111.77038,-7.66563,0.0],[111.77169,-7.66519,0.0],[111.77041,-7.66171,0.0],[111.77296,-7.66075,0.0],[111.77766,-7.65532,0.0],[111.77881,-7.6559,0.0],[111.78094,-7.65128,0.0],[111.78294,-7.65044,0.0],[111.78121,-7.64829,0.0],[111.78373,-7.64743,0.0],[111.78359,-7.63983,0.0],[111.78489,-7.6386,0.0],[111.78484,-7.63546,0.0],[111.78625,-7.63556,0.0],[111.78461,-7.63412,0.0],[111.78409,-7.63103,0.0],[111.78572,-7.62937,0.0],[111.78434,-7.62695,0.0],[111.78528,-7.62246,0.0],[111.78938,-7.62049,0.0],[111.78847,-7.61705,0.0],[111.79,-7.61421,0.0],[111.78572,-7.60303,0.0],[111.79087,-7.59617,0.0],[111.79233,-7.59612,0.0],[111.79204,-7.59374,0.0],[111.79458,-7.58993,0.0],[111.79385,-7.58412,0.0],[111.79512,-7.58014,0.0],[111.79389,-7.57651,0.0],[111.79559,-7.57436,0.0],[111.79434,-7.57408,0.0],[111.7959,-7.5726,0.0],[111.79573,-7.57083,0.0],[111.79872,-7.56958,0.0],[111.79786,-7.56792,0.0],[111.80153,-7.5566,0.0],[111.80235,-7.55704,0.0],[111.80202,-7.55557,0.0],[111.80418,-7.55487,0.0],[111.80212,-7.5488,0.0],[111.80308,-7.54737,0.0],[111.80446,-7.54767,0.0],[111.80419,-7.54557,0.0],[111.80654,-7.54365,0.0],[111.81437,-7.54193,0.0],[111.81581,-7.54284,0.0],[111.81563,-7.54627,0.0],[111.81763,-7.54843,0.0],[111.82578,-7.54457,0.0],[111.8331,-7.54881,0.0],[111.83878,-7.54037,0.0],[111.8379,-7.5286,0.0],[111.83949,-7.5226,0.0],[111.84592,-7.52398,0.0],[111.84696,-7.53241,0.0],[111.84945,-7.53348,0.0],[111.84982,-7.53682,0.0],[111.85149,-7.53789,0.0],[111.85091,-7.53915,0.0],[111.84908,-7.53859,0.0],[111.8484,-7.54044,0.0],[111.85381,-7.54209,0.0],[111.85866,-7.54711,0.0],[111.85916,-7.55022,0.0],[111.86058,-7.55053,0.0],[111.85906,-7.55603,0.0],[111.85625,-7.5556,0.0],[111.85017,-7.55125,0.0],[111.84826,-7.55578,0.0],[111.84177,-7.55315,0.0],[111.84019,-7.5547,0.0],[111.84136,-7.5552,0.0],[111.84148,-7.55872,0.0],[111.84583,-7.56189,0.0],[111.84163,-7.56445,0.0],[111.83215,-7.56283,0.0],[111.83216,-7.56497,0.0],[111.82832,-7.57074,0.0],[111.82476,-7.58112,0.0],[111.82039,-7.58926,0.0],[111.80146,-7.61825,0.0],[111.80143,-7.62088,0.0],[111.80304,-7.62042,0.0],[111.8051,-7.62411,0.0],[111.81415,-7.63064,0.0],[111.8157,-7.63775,0.0],[111.80954,-7.65299,0.0],[111.80104,-7.66116,0.0]]]}},{"type":"Feature","properties":{"kecamatan":"Rejoso","kab_kota":"Nganjuk"},"geometry":{"type":"Polygon","coordinates":[[[111.90512,-7.56264,0.0],[111.89926,-7.57391,0.0],[111.89492,-7.57253,0.0],[111.89468,-7.5713,0.0],[111.89028,-7.57067,0.0],[111.88917,-7.5764,0.0],[111.88775,-7.57584,0.0],[111.88762,-7.57337,0.0],[111.8836,-7.5727,0.0],[111.88411,-7.56997,0.0],[111.88625,-7.56934,0.0],[111.88709,-7.56658,0.0],[111.88187,-7.56571,0.0],[111.88196,-7.56719,0.0],[111.87996,-7.5675,0.0],[111.8785,-7.56656,0.0],[111.87956,-7.56476,0.0],[111.87737,-7.56456,0.0],[111.87707,-7.56651,0.0],[111.86887,-7.56594,0.0],[111.86535,-7.56729,0.0],[111.86537,-7.56604,0.0],[111.86406,-7.56586,0.0],[111.86461,-7.56216,0.0],[111.8664,-7.56295,0.0],[111.8677,-7.55377,0.0],[111.8703,-7.55376,0.0],[111.87117,-7.54932,0.0],[111.86419,-7.54585,0.0],[111.86751,-7.54118,0.0],[111.86289,-7.53292,0.0],[111.86171,-7.53384,0.0],[111.85843,-7.5262,0.0],[111.85272,-7.52435,0.0],[111.85017,-7.51891,0.0],[111.84413,-7.51364,0.0],[111.84932,-7.50959,0.0],[111.84958,-7.50722,0.0],[111.84578,-7.50303,0.0],[111.84058,-7.50309,0.0],[111.8386,-7.49803,0.0],[111.82563,-7.49526,0.0],[111.81863,-7.48305,0.0],[111.81858,-7.47763,0.0],[111.82171,-7.47478,0.0],[111.82131,-7.47229,0.0],[111.81338,-7.46324,0.0],[111.80379,-7.45973,0.0],[111.80059,-7.46066,0.0],[111.80525,-7.45431,0.0],[111.81487,-7.45068,0.0],[111.821,-7.43955,0.0],[111.82821,-7.44062,0.0],[111.8446,-7.43983,0.0],[111.86157,-7.43591,0.0],[111.86673,-7.43891,0.0],[111.87595,-7.44105,0.0],[111.87946,-7.44063,0.0],[111.88238,-7.43736,0.0],[111.89392,-7.43773,0.0],[111.90446,-7.43333,0.0],[111.92296,-7.43549,0.0],[111.92537,-7.43668,0.0],[111.92619,-7.43962,0.0],[111.92308,-7.44937,0.0],[111.92914,-7.45537,0.0],[111.93069,-7.46009,0.0],[111.93512,-7.46217,0.0],[111.93899,-7.46581,0.0],[111.94498,-7.46704,0.0],[111.94796,-7.46967,0.0],[111.94778,-7.47354,0.0],[111.95655,-7.48576,0.0],[111.95026,-7.50007,0.0],[111.94954,-7.507,0.0],[111.94747,-7.50974,0.0],[111.94302,-7.52744,0.0],[111.9442,-7.53063,0.0],[111.94797,-7.533,0.0],[111.94797,-7.5381,0.0],[111.94648,-7.5393,0.0],[111.94897,-7.54207,0.0],[111.94859,-7.54822,0.0],[111.94957,-7.54865,0.0],[111.9527,-7.56835,0.0],[111.95002,-7.56671,0.0],[111.9482,-7.56277,0.0],[111.94418,-7.56286,0.0],[111.94437,-7.56151,0.0],[111.941,-7.55932,0.0],[111.92991,-7.55717,0.0],[111.92782,-7.55774,0.0],[111.92838,-7.56043,0.0],[111.92496,-7.56024,0.0],[111.92131,-7.56182,0.0],[111.91791,-7.56122,0.0],[111.91614,-7.56257,0.0],[111.91634,-7.56149,0.0],[111.91352,-7.56113,0.0],[111.91326,-7.56206,0.0],[111.90512,-7.56264,0.0]]]}},{"type":"Feature","properties":{"kecamatan":"Lengkong","kab_kota":"Nganjuk"},"geometry":{"type":"Polygon","coordinates":[[[112.08121,-7.53528,0.0],[112.07169,-7.53937,0.0],[112.06495,-7.53829,0.0],[112.06609,-7.54281,0.0],[112.06419,-7.5451,0.0],[112.05747,-7.54176,0.0],[112.05631,-7.54293,0.0],[112.05738,-7.54511,0.0],[112.05585,-7.54599,0.0],[112.05532,-7.54468,0.0],[112.05484,-7.54784,0.0],[112.0529,-7.54434,0.0],[112.04898,-7.54824,0.0],[112.04686,-7.54809,0.0],[112.0442,-7.54513,0.0],[112.04707,-7.53685,0.0],[112.04562,-7.52746,0.0],[112.04224,-7.52426,0.0],[112.04273,-7.52314,0.0],[112.04127,-7.52158,0.0],[112.03789,-7.52014,0.0],[112.03327,-7.51499,0.0],[112.03076,-7.51463,0.0],[112.02918,-7.51037,0.0],[112.02981,-7.50624,0.0],[112.02783,-7.5062,0.0],[112.02938,-7.50299,0.0],[112.02847,-7.50209,0.0],[112.04228,-7.49608,0.0],[112.03915,-7.49232,0.0],[112.03906,-7.48941,0.0],[112.03734,-7.48916,0.0],[112.03503,-7.48417,0.0],[112.03376,-7.4839,0.0],[112.03544,-7.47617,0.0],[112.03956,-7.47438,0.0],[112.03582,-7.46041,0.0],[112.03719,-7.454,0.0],[112.0383,-7.45329,0.0],[112.03716,-7.45021,0.0],[112.03826,-7.44558,0.0],[112.04008,-7.44164,0.0],[112.04342,-7.4398,0.0],[112.04416,-7.43691,0.0],[112.04878,-7.43645,0.0],[112.04918,-7.43508,0.0],[112.05202,-7.43398,0.0],[112.0528,-7.43049,0.0],[112.04944,-7.42884,0.0],[112.05034,-7.42797,0.0],[112.04888,-7.42628,0.0],[112.04772,-7.42057,0.0],[112.04429,-7.4174,0.0],[112.04616,-7.41225,0.0],[112.04506,-7.40896,0.0],[112.04281,-7.40855,0.0],[112.04385,-7.40331,0.0],[112.04211,-7.40073,0.0],[112.048,-7.39952,0.0],[112.0463,-7.39378,0.0],[112.05193,-7.39402,0.0],[112.05697,-7.396,0.0],[112.06476,-7.39551,0.0],[112.06929,-7.39702,0.0],[112.07233,-7.39957,0.0],[112.07019,-7.40056,0.0],[112.06874,-7.40322,0.0],[112.07079,-7.40383,0.0],[112.07159,-7.4062,0.0],[112.06264,-7.41743,0.0],[112.06334,-7.42155,0.0],[112.06529,-7.42558,0.0],[112.06777,-7.42653,0.0],[112.06921,-7.43099,0.0],[112.06827,-7.43566,0.0],[112.074,-7.43642,0.0],[112.07315,-7.44122,0.0],[112.07741,-7.44356,0.0],[112.07727,-7.44644,0.0],[112.0785,-7.44777,0.0],[112.0777,-7.44906,0.0],[112.08089,-7.45221,0.0],[112.07616,-7.46011,0.0],[112.07879,-7.46288,0.0],[112.07831,-7.46672,0.0],[112.07976,-7.46794,0.0],[112.07912,-7.47296,0.0],[112.08356,-7.47468,0.0],[112.08685,-7.4726,0.0],[112.08701,-7.47071,0.0],[112.0897,-7.47455,0.0],[112.0925,-7.47385,0.0],[112.09819,-7.47497,0.0],[112.10039,-7.47224,0.0],[112.10392,-7.47178,0.0],[112.10446,-7.47428,0.0],[112.10265,-7.4776,0.0],[112.09991,-7.47773,0.0],[112.09495,-7.48044,0.0],[112.0943,-7.48403,0.0],[112.09654,-7.48833,0.0],[112.10495,-7.49267,0.0],[112.10605,-7.49527,0.0],[112.10887,-7.49619,0.0],[112.11368,-7.50334,0.0],[112.11078,-7.50491,0.0],[112.10687,-7.50287,0.0],[112.10245,-7.50281,0.0],[112.09943,-7.51027,0.0],[112.10071,-7.51746,0.0],[112.09956,-7.51674,0.0],[112.09954,-7.51837,0.0],[112.10714,-7.52122,0.0],[112.11124,-7.52006,0.0],[112.11262,-7.52298,0.0],[112.10576,-7.52796,0.0],[112.09974,-7.52662,0.0],[112.09975,-7.53496,0.0],[112.09878,-7.5358,0.0],[112.09569,-7.53661,0.0],[112.09431,-7.53578,0.0],[112.09182,-7.53841,0.0],[112.0898,-7.53745,0.0],[112.09026,-7.536,0.0],[112.08837,-7.53306,0.0],[112.08664,-7.53309,0.0],[112.08328,-7.53668,0.0],[112.08121,-7.53528,0.0]]]}},{"type":"Feature","properties":{"kecamatan":"Baron","kab_kota":"Nganjuk"},"geometry":{"type":"Polygon","coordinates":[[[112.04666,-7.61728,0.0],[112.04866,-7.60821,0.0],[112.04126,-7.60275,0.0],[112.03869,-7.60294,0.0],[112.02859,-7.59381,0.0],[112.02696,-7.59718,0.0],[112.01431,-7.59584,0.0],[112.01385,-7.59392,0.0],[112.01541,-7.5899,0.0],[112.01886,-7.5891,0.0],[112.02079,-7.58711,0.0],[112.01867,-7.58579,0.0],[112.0193,-7.57894,0.0],[112.02078,-7.57593,0.0],[112.01876,-7.57471,0.0],[112.01804,-7.57189,0.0],[112.01564,-7.57059,0.0],[112.01894,-7.56188,0.0],[112.02716,-7.5583,0.0],[112.02724,-7.55692,0.0],[112.03099,-7.55658,0.0],[112.03457,-7.55336,0.0],[112.03636,-7.54873,0.0],[112.03997,-7.54817,0.0],[112.04007,-7.55067,0.0],[112.04226,-7.54973,0.0],[112.04191,-7.54711,0.0],[112.04303,-7.54534,0.0],[112.04874,-7.54828,0.0],[112.0529,-7.54434,0.0],[112.05194,-7.5569,0.0],[112.05491,-7.55752,0.0],[112.05532,-7.56557,0.0],[112.06621,-7.56971,0.0],[112.07227,-7.56443,0.0],[112.07808,-7.56432,0.0],[112.07795,-7.56549,0.0],[112.08342,-7.56679,0.0],[112.08201,-7.5755,0.0],[112.0805,-7.5769,0.0],[112.08929,-7.58038,0.0],[112.08948,-7.58698,0.0],[112.08372,-7.59129,0.0],[112.07738,-7.59306,0.0],[112.07717,-7.59838,0.0],[112.07523,-7.5998,0.0],[112.07457,-7.60616,0.0],[112.07201,-7.6077,0.0],[112.07156,-7.61193,0.0],[112.07276,-7.61233,0.0],[112.07254,-7.61438,0.0],[112.07541,-7.61524,0.0],[112.06903,-7.62081,0.0],[112.06785,-7.62444,0.0],[112.06875,-7.62772,0.0],[112.06751,-7.6301,0.0],[112.06427,-7.62807,0.0],[112.06464,-7.63145,0.0],[112.06291,-7.63179,0.0],[112.05906,-7.63036,0.0],[112.05757,-7.62757,0.0],[112.05509,-7.62686,0.0],[112.05514,-7.6249,0.0],[112.05124,-7.62059,0.0],[112.04872,-7.6198,0.0],[112.04827,-7.61727,0.0],[112.04666,-7.61728,0.0]]]}},{"type":"Feature","properties":{"kecamatan":"Nganjuk","kab_kota":"Nganjuk"},"geometry":{"type":"Polygon","coordinates":[[[111.9036,-7.61697,0.0],[111.90212,-7.61757,0.0],[111.90083,-7.62388,0.0],[111.88999,-7.6239,0.0],[111.88205,-7.61986,0.0],[111.88265,-7.61783,0.0],[111.87573,-7.61595,0.0],[111.87645,-7.61229,0.0],[111.88226,-7.61112,0.0],[111.88374,-7.60033,0.0],[111.88077,-7.59922,0.0],[111.88137,-7.59608,0.0],[111.88612,-7.59555,0.0],[111.88854,-7.59326,0.0],[111.89009,-7.58373,0.0],[111.88881,-7.58285,0.0],[111.89242,-7.58124,0.0],[111.89123,-7.57951,0.0],[111.8925,-7.57983,0.0],[111.89329,-7.57856,0.0],[111.89538,-7.57794,0.0],[111.89623,-7.57936,0.0],[111.8982,-7.57924,0.0],[111.89872,-7.57653,0.0],[111.8999,-7.57623,0.0],[111.89926,-7.57391,0.0],[111.90512,-7.56264,0.0],[111.91326,-7.56206,0.0],[111.91352,-7.56113,0.0],[111.91634,-7.56149,0.0],[111.91614,-7.56257,0.0],[111.91791,-7.56122,0.0],[111.92131,-7.56182,0.0],[111.92496,-7.56024,0.0],[111.92838,-7.56043,0.0],[111.92782,-7.55774,0.0],[111.92991,-7.55717,0.0],[111.94102,-7.55954,0.0],[111.93866,-7.56591,0.0],[111.93683,-7.56452,0.0],[111.93269,-7.56593,0.0],[111.92637,-7.56428,0.0],[111.9239,-7.57285,0.0],[111.91739,-7.56974,0.0],[111.91688,-7.57134,0.0],[111.91128,-7.57151,0.0],[111.911,-7.57322,0.0],[111.90587,-7.57501,0.0],[111.90718,-7.57784,0.0],[111.90603,-7.5834,0.0],[111.91261,-7.58399,0.0],[111.91394,-7.58124,0.0],[111.92254,-7.58275,0.0],[111.9245,-7.58901,0.0],[111.92866,-7.59015,0.0],[111.92749,-7.59751,0.0],[111.92468,-7.60077,0.0],[111.92563,-7.603,0.0],[111.92212,-7.6186,0.0],[111.91659,-7.61826,0.0],[111.91538,-7.61975,0.0],[111.9062,-7.61875,0.0],[111.9036,-7.61697,0.0]]]}},{"type":"Feature","properties":{"kecamatan":"Bagor","kab_kota":"Nganjuk"},"geometry":{"type":"Polygon","coordinates":[[[111.87289,-7.61301,0.0],[111.86953,-7.61451,0.0],[111.86818,-7.61665,0.0],[111.86245,-7.61293,0.0],[111.86191,-7.61419,0.0],[111.85936,-7.61371,0.0],[111.85662,-7.616,0.0],[111.84822,-7.61242,0.0],[111.84603,-7.61357,0.0],[111.84274,-7.61301,0.0],[111.84141,-7.61433,0.0],[111.83762,-7.6139,0.0],[111.83653,-7.6166,0.0],[111.83471,-7.61673,0.0],[111.83004,-7.62172,0.0],[111.82285,-7.62566,0.0],[111.81959,-7.62986,0.0],[111.82005,-7.63127,0.0],[111.81835,-7.63182,0.0],[111.81801,-7.63455,0.0],[111.81485,-7.63638,0.0],[111.81415,-7.63064,0.0],[111.8051,-7.62411,0.0],[111.80304,-7.62042,0.0],[111.80117,-7.62002,0.0],[111.82412,-7.58243,0.0],[111.82832,-7.57074,0.0],[111.83216,-7.56497,0.0],[111.83215,-7.56283,0.0],[111.84163,-7.56445,0.0],[111.84583,-7.56189,0.0],[111.84148,-7.55872,0.0],[111.84136,-7.5552,0.0],[111.84019,-7.5547,0.0],[111.84177,-7.55315,0.0],[111.84826,-7.55578,0.0],[111.85017,-7.55125,0.0],[111.85625,-7.5556,0.0],[111.85906,-7.55603,0.0],[111.86058,-7.55053,0.0],[111.85916,-7.55022,0.0],[111.85866,-7.54711,0.0],[111.85381,-7.54209,0.0],[111.8484,-7.54044,0.0],[111.84908,-7.53859,0.0],[111.85091,-7.53915,0.0],[111.85149,-7.53789,0.0],[111.84982,-7.53682,0.0],[111.84945,-7.53348,0.0],[111.84696,-7.53241,0.0],[111.84673,-7.52482,0.0],[111.83949,-7.5226,0.0],[111.84362,-7.51372,0.0],[111.85017,-7.51891,0.0],[111.85272,-7.52435,0.0],[111.85843,-7.5262,0.0],[111.86171,-7.53384,0.0],[111.86289,-7.53292,0.0],[111.86751,-7.54118,0.0],[111.86419,-7.54585,0.0],[111.87117,-7.54932,0.0],[111.8703,-7.55376,0.0],[111.8677,-7.55377,0.0],[111.8664,-7.56295,0.0],[111.86461,-7.56216,0.0],[111.86384,-7.56525,0.0],[111.86535,-7.56729,0.0],[111.86887,-7.56594,0.0],[111.87707,-7.56651,0.0],[111.87737,-7.56456,0.0],[111.87956,-7.56476,0.0],[111.8785,-7.56656,0.0],[111.87996,-7.5675,0.0],[111.88196,-7.56719,0.0],[111.88187,-7.56571,0.0],[111.88709,-7.56658,0.0],[111.88625,-7.56934,0.0],[111.88411,-7.56997,0.0],[111.8836,-7.5727,0.0],[111.88762,-7.57337,0.0],[111.88869,-7.57631,0.0],[111.88978,-7.57619,0.0],[111.89028,-7.57066,0.0],[111.89468,-7.5713,0.0],[111.89461,-7.57235,0.0],[111.89971,-7.5743,0.0],[111.8982,-7.57924,0.0],[111.89623,-7.57936,0.0],[111.89538,-7.57794,0.0],[111.89329,-7.57856,0.0],[111.8925,-7.57983,0.0],[111.89123,-7.57951,0.0],[111.89242,-7.58124,0.0],[111.88881,-7.58285,0.0],[111.89009,-7.58373,0.0],[111.88842,-7.59342,0.0],[111.88612,-7.59555,0.0],[111.88137,-7.59608,0.0],[111.88077,-7.59922,0.0],[111.88374,-7.60033,0.0],[111.88226,-7.61112,0.0],[111.87872,-7.61245,0.0],[111.87332,-7.61116,0.0],[111.87289,-7.61301,0.0]]]}},{"type":"Feature","properties":{"kecamatan":"Tanjunganom","kab_kota":"Nganjuk"},"geometry":{"type":"Polygon","coordinates":[[[111.97894,-7.67614,0.0],[111.97789,-7.68336,0.0],[111.97598,-7.68389,0.0],[111.96359,-7.68162,0.0],[111.95629,-7.67865,0.0],[111.95724,-7.67721,0.0],[111.95675,-7.67319,0.0],[111.95845,-7.67054,0.0],[111.9581,-7.66365,0.0],[111.95973,-7.66194,0.0],[111.96401,-7.66123,0.0],[111.96434,-7.6599,0.0],[111.96597,-7.6602,0.0],[111.96733,-7.65831,0.0],[111.96652,-7.65713,0.0],[111.95836,-7.65789,0.0],[111.95435,-7.65656,0.0],[111.95549,-7.65302,0.0],[111.95323,-7.65277,0.0],[111.95273,-7.6506,0.0],[111.95082,-7.65001,0.0],[111.95115,-7.6488,0.0],[111.94561,-7.64727,0.0],[111.94875,-7.64243,0.0],[111.94779,-7.64212,0.0],[111.95033,-7.63052,0.0],[111.95573,-7.62914,0.0],[111.95596,-7.62809,0.0],[111.95855,-7.62866,0.0],[111.95932,-7.62596,0.0],[111.96117,-7.6271,0.0],[111.96344,-7.62533,0.0],[111.96676,-7.62604,0.0],[111.96637,-7.62439,0.0],[111.96771,-7.62267,0.0],[111.9719,-7.62396,0.0],[111.97118,-7.62309,0.0],[111.97301,-7.62139,0.0],[111.97454,-7.62234,0.0],[111.97389,-7.6204,0.0],[111.97649,-7.61701,0.0],[111.97587,-7.61535,0.0],[111.97882,-7.61508,0.0],[111.97805,-7.61282,0.0],[111.98002,-7.61276,0.0],[111.9801,-7.61051,0.0],[111.98283,-7.60613,0.0],[111.9856,-7.60593,0.0],[111.98876,-7.59277,0.0],[111.98844,-7.58956,0.0],[111.98718,-7.58929,0.0],[111.99077,-7.58559,0.0],[111.98836,-7.5832,0.0],[111.99412,-7.57122,0.0],[111.99906,-7.56949,0.0],[112.00347,-7.57492,0.0],[112.00578,-7.57564,0.0],[112.01659,-7.56712,0.0],[112.01564,-7.57059,0.0],[112.01804,-7.57189,0.0],[112.01876,-7.57471,0.0],[112.02078,-7.57593,0.0],[112.0193,-7.57894,0.0],[112.01867,-7.58579,0.0],[112.02079,-7.58711,0.0],[112.01886,-7.5891,0.0],[112.01541,-7.5899,0.0],[112.01422,-7.59578,0.0],[112.02696,-7.59718,0.0],[112.02859,-7.59381,0.0],[112.03869,-7.60294,0.0],[112.04126,-7.60275,0.0],[112.04866,-7.60821,0.0],[112.04634,-7.62229,0.0],[112.04412,-7.62807,0.0],[112.0425,-7.62779,0.0],[112.0369,-7.642,0.0],[112.03746,-7.64499,0.0],[112.03515,-7.65606,0.0],[112.03727,-7.65651,0.0],[112.03687,-7.659,0.0],[112.01248,-7.6547,0.0],[112.01301,-7.66148,0.0],[112.00388,-7.66091,0.0],[112.00171,-7.66182,0.0],[112.00058,-7.66569,0.0],[111.99614,-7.6687,0.0],[111.99532,-7.67461,0.0],[111.9803,-7.67409,0.0],[111.97894,-7.67614,0.0]]]}},{"type":"Feature","properties":{"kecamatan":"Sukomoro","kab_kota":"Nganjuk"},"geometry":{"type":"MultiPolygon","coordinates":[[[[111.92766,-7.62001,0.0],[111.92762,-7.61852,0.0],[111.92254,-7.61722,0.0],[111.92563,-7.603,0.0],[111.92468,-7.60077,0.0],[111.92749,-7.59751,0.0],[111.92866,-7.59015,0.0],[111.9245,-7.58901,0.0],[111.92254,-7.58275,0.0],[111.91394,-7.58124,0.0],[111.91261,-7.58399,0.0],[111.90603,-7.5834,0.0],[111.90718,-7.57784,0.0],[111.90587,-7.57501,0.0],[111.911,-7.57322,0.0],[111.91128,-7.57151,0.0],[111.91688,-7.57134,0.0],[111.91752,-7.56974,0.0],[111.9239,-7.57285,0.0],[111.92637,-7.56428,0.0],[111.93269,-7.56593,0.0],[111.93683,-7.56452,0.0],[111.93866,-7.56591,0.0],[111.94123,-7.55968,0.0],[111.94437,-7.56151,0.0],[111.94417,-7.56285,0.0],[111.9483,-7.56283,0.0],[111.95004,-7.56672,0.0],[111.95408,-7.56906,0.0],[111.95104,-7.57784,0.0],[111.95338,-7.57864,0.0],[111.95649,-7.57745,0.0],[111.95666,-7.57899,0.0],[111.95836,-7.57761,0.0],[111.96011,-7.57999,0.0],[111.96173,-7.57995,0.0],[111.96139,-7.58756,0.0],[111.96607,-7.59011,0.0],[111.96576,-7.58787,0.0],[111.96964,-7.5883,0.0],[111.97322,-7.58685,0.0],[111.97464,-7.58782,0.0],[111.97397,-7.58961,0.0],[111.97488,-7.59019,0.0],[111.97582,-7.58838,0.0],[111.98082,-7.59077,0.0],[111.98352,-7.59014,0.0],[111.98388,-7.58831,0.0],[111.98844,-7.58956,0.0],[111.98876,-7.59277,0.0],[111.9856,-7.60593,0.0],[111.98283,-7.60613,0.0],[111.9801,-7.61051,0.0],[111.98002,-7.61276,0.0],[111.97805,-7.61282,0.0],[111.97882,-7.61508,0.0],[111.97577,-7.61553,0.0],[111.97649,-7.61701,0.0],[111.97389,-7.6204,0.0],[111.97454,-7.62234,0.0],[111.97301,-7.62139,0.0],[111.97118,-7.62309,0.0],[111.9719,-7.62396,0.0],[111.96771,-7.62267,0.0],[111.96637,-7.62439,0.0],[111.96676,-7.62604,0.0],[111.96344,-7.62533,0.0],[111.96117,-7.6271,0.0],[111.95932,-7.62596,0.0],[111.95855,-7.62866,0.0],[111.95596,-7.62809,0.0],[111.95573,-7.62914,0.0],[111.93376,-7.62284,0.0],[111.93309,-7.62544,0.0],[111.92766,-7.62001,0.0]]],[[[111.93984,-7.55922,0.0],[111.94121,-7.55967,0.0],[111.93979,-7.55924,0.0],[111.93984,-7.55922,0.0]]]]}}]}