{"type":"FeatureCollection","features":[{"type":"Feature","properties":{"kecamatan":"Proppo","kab_kota":"Pamekasan"},"geometry":{"type":"Polygon","coordinates":[[[113.39427,-7.16832,0.0],[113.39243,-7.17266,0.0],[113.38982,-7.17424,0.0],[113.38172,-7.17521,0.0],[113.37901,-7.16672,0.0],[113.3795,-7.15467,0.0],[113.38128,-7.1533,0.0],[113.37926,-7.1484,0.0],[113.37626,-7.14717,0.0],[113.37245,-7.15037,0.0],[113.36651,-7.15209,0.0],[113.36528,-7.15114,0.0],[113.36217,-7.15186,0.0],[113.36077,-7.14859,0.0],[113.36064,-7.14462,0.0],[113.36418,-7.14212,0.0],[113.36498,-7.13825,0.0],[113.36741,-7.13745,0.0],[113.36449,-7.13114,0.0],[113.36581,-7.12897,0.0],[113.36721,-7.129,0.0],[113.36646,-7.12531,0.0],[113.36794,-7.12124,0.0],[113.36662,-7.11727,0.0],[113.36826,-7.11334,0.0],[113.37003,-7.11233,0.0],[113.36964,-7.10993,0.0],[113.36699,-7.10864,0.0],[113.36487,-7.10915,0.0],[113.36277,-7.10686,0.0],[113.36327,-7.10158,0.0],[113.36725,-7.09803,0.0],[113.37818,-7.09372,0.0],[113.38046,-7.08987,0.0],[113.3846,-7.08886,0.0],[113.38687,-7.0844,0.0],[113.38117,-7.08076,0.0],[113.39074,-7.08241,0.0],[113.39234,-7.0878,0.0],[113.39753,-7.09418,0.0],[113.39808,-7.09783,0.0],[113.401,-7.1016,0.0],[113.40282,-7.10247,0.0],[113.40746,-7.10073,0.0],[113.40784,-7.10187,0.0],[113.40914,-7.10136,0.0],[113.40871,-7.10349,0.0],[113.41201,-7.10426,0.0],[113.41221,-7.10718,0.0],[113.41489,-7.11074,0.0],[113.41355,-7.11386,0.0],[113.41533,-7.11523,0.0],[113.41471,-7.11694,0.0],[113.41586,-7.11731,0.0],[113.41617,-7.11956,0.0],[113.41695,-7.11847,0.0],[113.41883,-7.1187,0.0],[113.4181,-7.12,0.0],[113.41973,-7.11964,0.0],[113.41983,-7.12104,0.0],[113.4207,-7.12031,0.0],[113.4206,-7.12267,0.0],[113.42297,-7.12349,0.0],[113.42412,-7.12172,0.0],[113.42643,-7.11062,0.0],[113.43073,-7.10761,0.0],[113.43175,-7.10282,0.0],[113.43317,-7.10278,0.0],[113.43665,-7.0989,0.0],[113.44595,-7.09917,0.0],[113.44873,-7.10921,0.0],[113.44811,-7.11463,0.0],[113.44911,-7.1177,0.0],[113.44568,-7.12617,0.0],[113.45517,-7.12944,0.0],[113.45588,-7.12786,0.0],[113.45385,-7.12716,0.0],[113.45479,-7.12549,0.0],[113.45843,-7.12224,0.0],[113.45929,-7.11929,0.0],[113.46152,-7.11933,0.0],[113.46246,-7.12148,0.0],[113.46465,-7.12222,0.0],[113.46407,-7.12887,0.0],[113.46785,-7.13079,0.0],[113.46339,-7.1382,0.0],[113.46183,-7.13879,0.0],[113.46321,-7.14072,0.0],[113.46101,-7.13996,0.0],[113.45966,-7.14497,0.0],[113.45482,-7.14428,0.0],[113.45483,-7.147,0.0],[113.44698,-7.14542,0.0],[113.44639,-7.1473,0.0],[113.44802,-7.14764,0.0],[113.4482,-7.15026,0.0],[113.45148,-7.15406,0.0],[113.44806,-7.1546,0.0],[113.44704,-7.15943,0.0],[113.443,-7.16311,0.0],[113.43966,-7.16145,0.0],[113.43414,-7.16099,0.0],[113.43138,-7.16293,0.0],[113.43182,-7.16599,0.0],[113.43682,-7.16538,0.0],[113.43875,-7.16889,0.0],[113.43578,-7.17097,0.0],[113.43728,-7.17226,0.0],[113.43688,-7.17359,0.0],[113.43425,-7.17602,0.0],[113.43209,-7.1763,0.0],[113.43049,-7.17976,0.0],[113.41795,-7.17713,0.0],[113.41184,-7.17334,0.0],[113.40352,-7.17157,0.0],[113.39651,-7.16802,0.0],[113.39427,-7.16832,0.0]]]}},{"type":"Feature","properties":{"kecamatan":"Palenggaan","kab_kota":"Pamekasan"},"geometry":{"type":"Polygon","coordinates":[[[113.44413,-7.06092,0.0],[113.4559,-7.06241,0.0],[113.4556,-7.06412,0.0],[113.45663,-7.06471,0.0],[113.4591,-7.06381,0.0],[113.46388,-7.06769,0.0],[113.46708,-7.07265,0.0],[113.47809,-7.07374,0.0],[113.47752,-7.07724,0.0],[113.4792,-7.08122,0.0],[113.4773,-7.08228,0.0],[113.47618,-7.08529,0.0],[113.47704,-7.08679,0.0],[113.47621,-7.08799,0.0],[113.47727,-7.08824,0.0],[113.47641,-7.09423,0.0],[113.47397,-7.09782,0.0],[113.47196,-7.09704,0.0],[113.47048,-7.09918,0.0],[113.47351,-7.10192,0.0],[113.47435,-7.10008,0.0],[113.4755,-7.10168,0.0],[113.47873,-7.10243,0.0],[113.48416,-7.11191,0.0],[113.48902,-7.1145,0.0],[113.48729,-7.12156,0.0],[113.48765,-7.12806,0.0],[113.48317,-7.13016,0.0],[113.48168,-7.13554,0.0],[113.47933,-7.13574,0.0],[113.4786,-7.13746,0.0],[113.47356,-7.13586,0.0],[113.46942,-7.13103,0.0],[113.46407,-7.12887,0.0],[113.46465,-7.12222,0.0],[113.46246,-7.12148,0.0],[113.46152,-7.11933,0.0],[113.45929,-7.11929,0.0],[113.45843,-7.12224,0.0],[113.45479,-7.12549,0.0],[113.45385,-7.12716,0.0],[113.45588,-7.12786,0.0],[113.45517,-7.12944,0.0],[113.44568,-7.12617,0.0],[113.44911,-7.1177,0.0],[113.44811,-7.11463,0.0],[113.44873,-7.10921,0.0],[113.44595,-7.09917,0.0],[113.43665,-7.0989,0.0],[113.43317,-7.10278,0.0],[113.43175,-7.10282,0.0],[113.43073,-7.10761,0.0],[113.42643,-7.11062,0.0],[113.42412,-7.12172,0.0],[113.42297,-7.12349,0.0],[113.4206,-7.12267,0.0],[113.4207,-7.12031,0.0],[113.41983,-7.12104,0.0],[113.41973,-7.11964,0.0],[113.4181,-7.12,0.0],[113.41883,-7.1187,0.0],[113.41695,-7.11847,0.0],[113.41617,-7.11956,0.0],[113.41586,-7.11731,0.0],[113.41471,-7.11694,0.0],[113.41533,-7.11523,0.0],[113.41355,-7.11386,0.0],[113.41489,-7.11074,0.0],[113.41221,-7.10718,0.0],[113.41201,-7.10426,0.0],[113.40871,-7.10349,0.0],[113.40914,-7.10136,0.0],[113.40784,-7.10187,0.0],[113.40746,-7.10073,0.0],[113.40282,-7.10247,0.0],[113.401,-7.1016,0.0],[113.39808,-7.09783,0.0],[113.39753,-7.09418,0.0],[113.39234,-7.0878,0.0],[113.39074,-7.08241,0.0],[113.38117,-7.08076,0.0],[113.38026,-7.07828,0.0],[113.38023,-7.0774,0.0],[113.38481,-7.07804,0.0],[113.39103,-7.07557,0.0],[113.39528,-7.07067,0.0],[113.39555,-7.06243,0.0],[113.3921,-7.05684,0.0],[113.39724,-7.05681,0.0],[113.39738,-7.0554,0.0],[113.39523,-7.05167,0.0],[113.39716,-7.04296,0.0],[113.39579,-7.04166,0.0],[113.39716,-7.03919,0.0],[113.39496,-7.03592,0.0],[113.39245,-7.03477,0.0],[113.3945,-7.03048,0.0],[113.39712,-7.02822,0.0],[113.4001,-7.02985,0.0],[113.40265,-7.02811,0.0],[113.41037,-7.01889,0.0],[113.4126,-7.02031,0.0],[113.41386,-7.01969,0.0],[113.41271,-7.01921,0.0],[113.41671,-7.01693,0.0],[113.41754,-7.013,0.0],[113.41966,-7.01307,0.0],[113.42206,-7.00902,0.0],[113.42912,-7.00909,0.0],[113.43132,-7.01075,0.0],[113.43831,-7.01172,0.0],[113.43902,-7.01694,0.0],[113.43628,-7.01887,0.0],[113.43643,-7.02216,0.0],[113.43453,-7.02471,0.0],[113.43717,-7.03806,0.0],[113.43607,-7.04323,0.0],[113.43881,-7.0498,0.0],[113.44248,-7.05063,0.0],[113.44511,-7.05297,0.0],[113.44391,-7.05775,0.0],[113.44504,-7.05917,0.0],[113.44317,-7.05939,0.0],[113.44413,-7.06092,0.0]]]}},{"type":"Feature","properties":{"kecamatan":"Galis","kab_kota":"Pamekasan"},"geometry":{"type":"Polygon","coordinates":[[[113.56638,-7.18244,0.0],[113.56689,-7.18578,0.0],[113.56496,-7.19689,0.0],[113.55804,-7.20041,0.0],[113.55645,-7.20273,0.0],[113.5577,-7.20378,0.0],[113.55485,-7.2064,0.0],[113.55069,-7.20609,0.0],[113.5478,-7.20011,0.0],[113.54372,-7.19785,0.0],[113.53775,-7.18189,0.0],[113.53859,-7.178,0.0],[113.54297,-7.17776,0.0],[113.54449,-7.17374,0.0],[113.53449,-7.16996,0.0],[113.53005,-7.16667,0.0],[113.52938,-7.16242,0.0],[113.52553,-7.16135,0.0],[113.52505,-7.15834,0.0],[113.52042,-7.15819,0.0],[113.51989,-7.15691,0.0],[113.5201,-7.15139,0.0],[113.52435,-7.14544,0.0],[113.52733,-7.14605,0.0],[113.52934,-7.14868,0.0],[113.53567,-7.14572,0.0],[113.53662,-7.14376,0.0],[113.54108,-7.14368,0.0],[113.53671,-7.13693,0.0],[113.53772,-7.13682,0.0],[113.53778,-7.13456,0.0],[113.53604,-7.1292,0.0],[113.54982,-7.13179,0.0],[113.5503,-7.12892,0.0],[113.55141,-7.12923,0.0],[113.55171,-7.12354,0.0],[113.55362,-7.1205,0.0],[113.55725,-7.12079,0.0],[113.55691,-7.12479,0.0],[113.5588,-7.12561,0.0],[113.56,-7.1296,0.0],[113.56519,-7.12992,0.0],[113.56733,-7.12803,0.0],[113.57264,-7.12964,0.0],[113.575,-7.13246,0.0],[113.57624,-7.13668,0.0],[113.5815,-7.1391,0.0],[113.58117,-7.14119,0.0],[113.58324,-7.1448,0.0],[113.58487,-7.14596,0.0],[113.58651,-7.1436,0.0],[113.57826,-7.15767,0.0],[113.57374,-7.16142,0.0],[113.57303,-7.16868,0.0],[113.57391,-7.17148,0.0],[113.5716,-7.17353,0.0],[113.57118,-7.17892,0.0],[113.56638,-7.18244,0.0]]]}},{"type":"Feature","properties":{"kecamatan":"Pamekasan","kab_kota":"Pamekasan"},"geometry":{"type":"Polygon","coordinates":[[[113.47368,-7.18209,0.0],[113.46945,-7.18373,0.0],[113.46947,-7.18658,0.0],[113.46717,-7.18708,0.0],[113.46645,-7.18433,0.0],[113.46295,-7.18466,0.0],[113.46177,-7.1862,0.0],[113.45987,-7.18538,0.0],[113.46008,-7.1825,0.0],[113.45877,-7.18157,0.0],[113.45993,-7.18057,0.0],[113.45716,-7.17735,0.0],[113.4558,-7.17896,0.0],[113.44873,-7.17962,0.0],[113.44922,-7.17153,0.0],[113.44759,-7.17172,0.0],[113.447,-7.17034,0.0],[113.44809,-7.16736,0.0],[113.44301,-7.16297,0.0],[113.44704,-7.15943,0.0],[113.44806,-7.1546,0.0],[113.45148,-7.15406,0.0],[113.4482,-7.15026,0.0],[113.44802,-7.14764,0.0],[113.44639,-7.1473,0.0],[113.4473,-7.14515,0.0],[113.45483,-7.147,0.0],[113.45482,-7.14428,0.0],[113.45966,-7.14497,0.0],[113.46101,-7.13996,0.0],[113.46321,-7.14072,0.0],[113.46183,-7.13879,0.0],[113.46339,-7.1382,0.0],[113.46623,-7.13196,0.0],[113.46823,-7.13085,0.0],[113.4725,-7.13516,0.0],[113.47695,-7.13724,0.0],[113.4815,-7.1358,0.0],[113.48317,-7.13016,0.0],[113.48636,-7.12938,0.0],[113.48814,-7.12639,0.0],[113.48729,-7.12156,0.0],[113.48902,-7.1145,0.0],[113.48494,-7.11251,0.0],[113.49884,-7.11792,0.0],[113.49558,-7.12187,0.0],[113.49547,-7.12771,0.0],[113.49351,-7.13158,0.0],[113.49922,-7.13333,0.0],[113.49699,-7.13927,0.0],[113.49821,-7.14306,0.0],[113.4954,-7.14623,0.0],[113.49317,-7.14571,0.0],[113.492,-7.14862,0.0],[113.48994,-7.14912,0.0],[113.48873,-7.15337,0.0],[113.4865,-7.15387,0.0],[113.48606,-7.15605,0.0],[113.48897,-7.15636,0.0],[113.48838,-7.15828,0.0],[113.48956,-7.16047,0.0],[113.4888,-7.16333,0.0],[113.48626,-7.16312,0.0],[113.48481,-7.16892,0.0],[113.48533,-7.17463,0.0],[113.49175,-7.17427,0.0],[113.49566,-7.17784,0.0],[113.49629,-7.18494,0.0],[113.495,-7.19338,0.0],[113.48909,-7.1906,0.0],[113.4886,-7.18803,0.0],[113.48669,-7.18975,0.0],[113.4795,-7.18751,0.0],[113.48078,-7.18559,0.0],[113.47995,-7.18323,0.0],[113.47702,-7.18353,0.0],[113.47368,-7.18209,0.0]]]}},{"type":"Feature","properties":{"kecamatan":"Pakong","kab_kota":"Pamekasan"},"geometry":{"type":"Polygon","coordinates":[[[113.56392,-7.06796,0.0],[113.55337,-7.0646,0.0],[113.55215,-7.06145,0.0],[113.54538,-7.06092,0.0],[113.54375,-7.06229,0.0],[113.53765,-7.06229,0.0],[113.53495,-7.06,0.0],[113.53432,-7.05531,0.0],[113.53538,-7.05021,0.0],[113.53374,-7.04713,0.0],[113.53134,-7.04436,0.0],[113.52295,-7.03994,0.0],[113.52002,-7.03662,0.0],[113.51971,-7.03244,0.0],[113.5171,-7.03129,0.0],[113.51841,-7.02367,0.0],[113.52009,-7.02307,0.0],[113.52106,-7.02045,0.0],[113.52488,-7.02041,0.0],[113.52822,-7.02254,0.0],[113.54272,-7.02285,0.0],[113.57846,-7.01781,0.0],[113.58033,-7.0184,0.0],[113.57914,-7.0222,0.0],[113.57779,-7.02252,0.0],[113.57933,-7.02524,0.0],[113.57624,-7.03139,0.0],[113.57864,-7.03808,0.0],[113.57843,-7.04143,0.0],[113.58221,-7.04357,0.0],[113.58383,-7.04173,0.0],[113.58668,-7.04214,0.0],[113.58845,-7.03965,0.0],[113.59802,-7.03892,0.0],[113.6,-7.04213,0.0],[113.6034,-7.04131,0.0],[113.60573,-7.04365,0.0],[113.60467,-7.04529,0.0],[113.60191,-7.0459,0.0],[113.60086,-7.04913,0.0],[113.59698,-7.05242,0.0],[113.59145,-7.06155,0.0],[113.58493,-7.06105,0.0],[113.58277,-7.05843,0.0],[113.57559,-7.05745,0.0],[113.57176,-7.06283,0.0],[113.57252,-7.06522,0.0],[113.57051,-7.06805,0.0],[113.56846,-7.06645,0.0],[113.56392,-7.06796,0.0]]]}},{"type":"Feature","properties":{"kecamatan":"Pegantenan","kab_kota":"Pamekasan"},"geometry":{"type":"Polygon","coordinates":[[[113.50725,-7.07116,0.0],[113.5025,-7.07939,0.0],[113.50514,-7.09172,0.0],[113.50121,-7.0924,0.0],[113.50301,-7.09448,0.0],[113.50162,-7.09488,0.0],[113.50089,-7.09766,0.0],[113.50295,-7.10062,0.0],[113.50431,-7.10056,0.0],[113.50232,-7.10746,0.0],[113.50039,-7.1072,0.0],[113.4986,-7.109,0.0],[113.5008,-7.11025,0.0],[113.49693,-7.11658,0.0],[113.48494,-7.11251,0.0],[113.48119,-7.1082,0.0],[113.47907,-7.10273,0.0],[113.4755,-7.10168,0.0],[113.47435,-7.10008,0.0],[113.47351,-7.10192,0.0],[113.47048,-7.09918,0.0],[113.47196,-7.09704,0.0],[113.47397,-7.09782,0.0],[113.47641,-7.09423,0.0],[113.47727,-7.08824,0.0],[113.47621,-7.08799,0.0],[113.47704,-7.08679,0.0],[113.47618,-7.08529,0.0],[113.4773,-7.08228,0.0],[113.4792,-7.08122,0.0],[113.47752,-7.07724,0.0],[113.47809,-7.07374,0.0],[113.46708,-7.07265,0.0],[113.46388,-7.06769,0.0],[113.4591,-7.06381,0.0],[113.4589,-7.06473,0.0],[113.45585,-7.06454,0.0],[113.4559,-7.06241,0.0],[113.44353,-7.06098,0.0],[113.44318,-7.05931,0.0],[113.44506,-7.05908,0.0],[113.44391,-7.05775,0.0],[113.44511,-7.05297,0.0],[113.44248,-7.05063,0.0],[113.43881,-7.0498,0.0],[113.43607,-7.04323,0.0],[113.43717,-7.03806,0.0],[113.43453,-7.02471,0.0],[113.43643,-7.02216,0.0],[113.43628,-7.01887,0.0],[113.43902,-7.01694,0.0],[113.43831,-7.01172,0.0],[113.43132,-7.01075,0.0],[113.42912,-7.00909,0.0],[113.42274,-7.00952,0.0],[113.42258,-7.00805,0.0],[113.41974,-7.00695,0.0],[113.41955,-7.00484,0.0],[113.42175,-7.0034,0.0],[113.42095,-7.00179,0.0],[113.42255,-7.00217,0.0],[113.42339,-6.99803,0.0],[113.4218,-6.99623,0.0],[113.42069,-6.99665,0.0],[113.42001,-6.99469,0.0],[113.42165,-6.99313,0.0],[113.42058,-6.99176,0.0],[113.4211,-6.98921,0.0],[113.42511,-6.9816,0.0],[113.42917,-6.98028,0.0],[113.43,-6.97446,0.0],[113.43332,-6.97518,0.0],[113.43629,-6.98149,0.0],[113.43826,-6.97846,0.0],[113.43941,-6.97947,0.0],[113.44243,-6.97883,0.0],[113.4426,-6.97993,0.0],[113.44452,-6.97924,0.0],[113.44588,-6.98124,0.0],[113.44507,-6.98342,0.0],[113.44733,-6.98382,0.0],[113.44637,-6.98463,0.0],[113.44727,-6.98707,0.0],[113.45095,-6.986,0.0],[113.44996,-6.98371,0.0],[113.45214,-6.98305,0.0],[113.45374,-6.98379,0.0],[113.45245,-6.98565,0.0],[113.45429,-6.98636,0.0],[113.45445,-6.98782,0.0],[113.45614,-6.98687,0.0],[113.46326,-6.99209,0.0],[113.47242,-6.9918,0.0],[113.47574,-6.99281,0.0],[113.48048,-7.00168,0.0],[113.48419,-7.00297,0.0],[113.48536,-7.00494,0.0],[113.48756,-7.01151,0.0],[113.4863,-7.01259,0.0],[113.48686,-7.01427,0.0],[113.48481,-7.01564,0.0],[113.48583,-7.01725,0.0],[113.48871,-7.01739,0.0],[113.48886,-7.01853,0.0],[113.4933,-7.01374,0.0],[113.5064,-7.01116,0.0],[113.52125,-7.01543,0.0],[113.52181,-7.01815,0.0],[113.51862,-7.02125,0.0],[113.52051,-7.02199,0.0],[113.51841,-7.02367,0.0],[113.5171,-7.03129,0.0],[113.51971,-7.03244,0.0],[113.52002,-7.03662,0.0],[113.52295,-7.03994,0.0],[113.53134,-7.04436,0.0],[113.53374,-7.04713,0.0],[113.53538,-7.05021,0.0],[113.53432,-7.05531,0.0],[113.53495,-7.06,0.0],[113.52332,-7.06197,0.0],[113.52139,-7.06346,0.0],[113.52117,-7.0663,0.0],[113.51884,-7.06975,0.0],[113.5156,-7.06971,0.0],[113.51372,-7.07214,0.0],[113.50725,-7.07116,0.0]]]}},{"type":"Feature","properties":{"kecamatan":"Larangan","kab_kota":"Pamekasan"},"geometry":{"type":"Polygon","coordinates":[[[113.53671,-7.13693,0.0],[113.54087,-7.14385,0.0],[113.53662,-7.14376,0.0],[113.53567,-7.14572,0.0],[113.52934,-7.14868,0.0],[113.52733,-7.14605,0.0],[113.52435,-7.14544,0.0],[113.52459,-7.14377,0.0],[113.51857,-7.14611,0.0],[113.51387,-7.14385,0.0],[113.51306,-7.14162,0.0],[113.51472,-7.13892,0.0],[113.51299,-7.13608,0.0],[113.51493,-7.12921,0.0],[113.50649,-7.1287,0.0],[113.49922,-7.13333,0.0],[113.49351,-7.13158,0.0],[113.49547,-7.12771,0.0],[113.49558,-7.12187,0.0],[113.49883,-7.11807,0.0],[113.49693,-7.11658,0.0],[113.49837,-7.11286,0.0],[113.5,-7.1111,0.0],[113.50168,-7.11162,0.0],[113.5061,-7.10592,0.0],[113.50968,-7.10804,0.0],[113.51302,-7.10674,0.0],[113.52027,-7.10737,0.0],[113.52424,-7.10514,0.0],[113.52476,-7.10185,0.0],[113.52762,-7.10078,0.0],[113.53598,-7.10343,0.0],[113.53786,-7.10624,0.0],[113.54141,-7.10672,0.0],[113.54172,-7.10261,0.0],[113.54692,-7.10163,0.0],[113.54798,-7.09935,0.0],[113.55483,-7.10193,0.0],[113.56551,-7.09913,0.0],[113.56826,-7.09499,0.0],[113.57303,-7.09484,0.0],[113.57574,-7.09606,0.0],[113.58088,-7.0916,0.0],[113.58312,-7.09121,0.0],[113.58403,-7.09279,0.0],[113.5831,-7.09617,0.0],[113.58393,-7.10909,0.0],[113.58635,-7.11147,0.0],[113.58815,-7.11133,0.0],[113.58986,-7.114,0.0],[113.5876,-7.11535,0.0],[113.58649,-7.12199,0.0],[113.5907,-7.12187,0.0],[113.59085,-7.11619,0.0],[113.59229,-7.11601,0.0],[113.5925,-7.11419,0.0],[113.59375,-7.11488,0.0],[113.59717,-7.11306,0.0],[113.59929,-7.1082,0.0],[113.60488,-7.10779,0.0],[113.61217,-7.1049,0.0],[113.61059,-7.11284,0.0],[113.60644,-7.11807,0.0],[113.6055,-7.12131,0.0],[113.60166,-7.12473,0.0],[113.60202,-7.12845,0.0],[113.58915,-7.13857,0.0],[113.58487,-7.14596,0.0],[113.58117,-7.14119,0.0],[113.5815,-7.1391,0.0],[113.57624,-7.13668,0.0],[113.57299,-7.12984,0.0],[113.56733,-7.12803,0.0],[113.56519,-7.12992,0.0],[113.56,-7.1296,0.0],[113.5588,-7.12561,0.0],[113.55691,-7.12479,0.0],[113.55725,-7.12079,0.0],[113.55381,-7.1205,0.0],[113.55171,-7.12354,0.0],[113.55141,-7.12923,0.0],[113.5503,-7.12892,0.0],[113.54982,-7.13179,0.0],[113.53604,-7.1292,0.0],[113.53778,-7.13456,0.0],[113.53772,-7.13682,0.0],[113.53671,-7.13693,0.0]]]}},{"type":"Feature","properties":{"kecamatan":"Tlanakan","kab_kota":"Pamekasan"},"geometry":{"type":"Polygon","coordinates":[[[113.44568,-7.22076,0.0],[113.43312,-7.22047,0.0],[113.42754,-7.22201,0.0],[113.42262,-7.22089,0.0],[113.42215,-7.2218,0.0],[113.41789,-7.22115,0.0],[113.41838,-7.219,0.0],[113.41101,-7.21748,0.0],[113.40386,-7.21847,0.0],[113.39369,-7.21764,0.0],[113.39381,-7.20884,0.0],[113.39485,-7.20873,0.0],[113.39483,-7.20603,0.0],[113.39767,-7.20169,0.0],[113.39592,-7.1991,0.0],[113.38843,-7.19744,0.0],[113.38609,-7.18997,0.0],[113.38346,-7.18886,0.0],[113.38045,-7.19115,0.0],[113.38204,-7.20306,0.0],[113.37899,-7.21087,0.0],[113.37726,-7.20843,0.0],[113.37671,-7.19907,0.0],[113.3741,-7.19828,0.0],[113.37193,-7.19462,0.0],[113.37653,-7.18911,0.0],[113.37888,-7.1822,0.0],[113.38121,-7.17937,0.0],[113.38134,-7.17495,0.0],[113.38982,-7.17424,0.0],[113.39243,-7.17266,0.0],[113.39391,-7.1686,0.0],[113.39568,-7.16792,0.0],[113.40352,-7.17157,0.0],[113.41184,-7.17334,0.0],[113.41795,-7.17713,0.0],[113.43049,-7.17976,0.0],[113.43209,-7.1763,0.0],[113.43425,-7.17602,0.0],[113.43688,-7.17359,0.0],[113.43728,-7.17226,0.0],[113.43578,-7.17097,0.0],[113.43875,-7.16889,0.0],[113.43682,-7.16538,0.0],[113.43182,-7.16599,0.0],[113.43138,-7.16293,0.0],[113.43287,-7.16111,0.0],[113.43966,-7.16145,0.0],[113.44792,-7.16689,0.0],[113.447,-7.17034,0.0],[113.44759,-7.17172,0.0],[113.44922,-7.17153,0.0],[113.44873,-7.17962,0.0],[113.4558,-7.17896,0.0],[113.45716,-7.17735,0.0],[113.45993,-7.18057,0.0],[113.45877,-7.18157,0.0],[113.46008,-7.1825,0.0],[113.45987,-7.18538,0.0],[113.46177,-7.1862,0.0],[113.46295,-7.18466,0.0],[113.46645,-7.18433,0.0],[113.46717,-7.18708,0.0],[113.46947,-7.18658,0.0],[113.46945,-7.18373,0.0],[113.47156,-7.18247,0.0],[113.47543,-7.18216,0.0],[113.47702,-7.18353,0.0],[113.4789,-7.18269,0.0],[113.48065,-7.18439,0.0],[113.4795,-7.18751,0.0],[113.48669,-7.18975,0.0],[113.48513,-7.19331,0.0],[113.48625,-7.19587,0.0],[113.48243,-7.20876,0.0],[113.47421,-7.22183,0.0],[113.46642,-7.22163,0.0],[113.4608,-7.22318,0.0],[113.45543,-7.22207,0.0],[113.455,-7.22335,0.0],[113.45206,-7.22114,0.0],[113.45096,-7.22216,0.0],[113.44568,-7.22076,0.0]]]}},{"type":"Feature","properties":{"kecamatan":"Pademawu","kab_kota":"Pamekasan"},"geometry":{"type":"Polygon","coordinates":[[[113.50882,-7.24088,0.0],[113.51255,-7.24243,0.0],[113.51331,-7.24416,0.0],[113.51367,-7.24276,0.0],[113.51444,-7.24504,0.0],[113.51497,-7.24389,0.0],[113.51611,-7.24537,0.0],[113.51488,-7.24278,0.0],[113.51698,-7.24577,0.0],[113.51591,-7.24251,0.0],[113.51348,-7.24175,0.0],[113.51549,-7.24191,0.0],[113.51628,-7.24126,0.0],[113.51349,-7.24137,0.0],[113.51094,-7.23945,0.0],[113.51351,-7.23936,0.0],[113.51418,-7.23839,0.0],[113.5132,-7.2392,0.0],[113.50819,-7.2374,0.0],[113.50851,-7.23605,0.0],[113.50231,-7.22918,0.0],[113.49721,-7.22781,0.0],[113.49715,-7.2269,0.0],[113.49471,-7.22728,0.0],[113.49227,-7.22543,0.0],[113.47697,-7.22451,0.0],[113.47404,-7.22217,0.0],[113.48243,-7.20876,0.0],[113.48625,-7.19587,0.0],[113.48519,-7.19444,0.0],[113.48587,-7.19053,0.0],[113.4886,-7.18803,0.0],[113.48909,-7.1906,0.0],[113.495,-7.19338,0.0],[113.49548,-7.1922,0.0],[113.49562,-7.17776,0.0],[113.49175,-7.17427,0.0],[113.48782,-7.17375,0.0],[113.48575,-7.17479,0.0],[113.48499,-7.17323,0.0],[113.48626,-7.16312,0.0],[113.4888,-7.16333,0.0],[113.48956,-7.16047,0.0],[113.48838,-7.15828,0.0],[113.48897,-7.15636,0.0],[113.48606,-7.15605,0.0],[113.4865,-7.15387,0.0],[113.48873,-7.15337,0.0],[113.48994,-7.14912,0.0],[113.492,-7.14862,0.0],[113.49317,-7.14571,0.0],[113.4954,-7.14623,0.0],[113.49821,-7.14306,0.0],[113.49699,-7.13927,0.0],[113.49922,-7.13333,0.0],[113.50835,-7.12849,0.0],[113.51493,-7.12921,0.0],[113.51299,-7.13608,0.0],[113.51472,-7.13892,0.0],[113.51306,-7.14162,0.0],[113.51387,-7.14385,0.0],[113.51857,-7.14611,0.0],[113.52459,-7.14377,0.0],[113.52403,-7.14697,0.0],[113.5201,-7.15139,0.0],[113.52042,-7.15819,0.0],[113.52505,-7.15834,0.0],[113.52553,-7.16135,0.0],[113.52985,-7.16297,0.0],[113.53005,-7.16667,0.0],[113.53449,-7.16996,0.0],[113.54449,-7.17374,0.0],[113.54297,-7.17776,0.0],[113.53859,-7.178,0.0],[113.53775,-7.18189,0.0],[113.54372,-7.19785,0.0],[113.5478,-7.20011,0.0],[113.55147,-7.20641,0.0],[113.55433,-7.20665,0.0],[113.55865,-7.20347,0.0],[113.5608,-7.20957,0.0],[113.55997,-7.21366,0.0],[113.55735,-7.21529,0.0],[113.55617,-7.22156,0.0],[113.54975,-7.23013,0.0],[113.55167,-7.23414,0.0],[113.54822,-7.23254,0.0],[113.5389,-7.23589,0.0],[113.53783,-7.23474,0.0],[113.5248,-7.24548,0.0],[113.52085,-7.24594,0.0],[113.51941,-7.24924,0.0],[113.5113,-7.25386,0.0],[113.50359,-7.25232,0.0],[113.50282,-7.24888,0.0],[113.49847,-7.24374,0.0],[113.50327,-7.24761,0.0],[113.49996,-7.24426,0.0],[113.49995,-7.2423,0.0],[113.50212,-7.24063,0.0],[113.50882,-7.24088,0.0]]]}},{"type":"Feature","properties":{"kecamatan":"Kadur","kab_kota":"Pamekasan"},"geometry":{"type":"Polygon","coordinates":[[[113.59774,-7.11208,0.0],[113.59375,-7.11488,0.0],[113.5925,-7.11419,0.0],[113.59229,-7.11601,0.0],[113.59085,-7.11619,0.0],[113.5907,-7.12187,0.0],[113.58649,-7.12199,0.0],[113.5876,-7.11535,0.0],[113.58986,-7.114,0.0],[113.58815,-7.11133,0.0],[113.58635,-7.11147,0.0],[113.58393,-7.10909,0.0],[113.5831,-7.09617,0.0],[113.58403,-7.09279,0.0],[113.58312,-7.09121,0.0],[113.58088,-7.0916,0.0],[113.57574,-7.09606,0.0],[113.57303,-7.09484,0.0],[113.56826,-7.09499,0.0],[113.56551,-7.09913,0.0],[113.55483,-7.10193,0.0],[113.54798,-7.09935,0.0],[113.54692,-7.10163,0.0],[113.54172,-7.10261,0.0],[113.54141,-7.10672,0.0],[113.53786,-7.10624,0.0],[113.53598,-7.10343,0.0],[113.52741,-7.10078,0.0],[113.52476,-7.10185,0.0],[113.52424,-7.10514,0.0],[113.52027,-7.10737,0.0],[113.51302,-7.10674,0.0],[113.50968,-7.10804,0.0],[113.5061,-7.10592,0.0],[113.5012,-7.11173,0.0],[113.5,-7.1111,0.0],[113.50062,-7.1099,0.0],[113.4986,-7.109,0.0],[113.50039,-7.1072,0.0],[113.50232,-7.10746,0.0],[113.50431,-7.10056,0.0],[113.50295,-7.10062,0.0],[113.50089,-7.09766,0.0],[113.50162,-7.09488,0.0],[113.50301,-7.09448,0.0],[113.50121,-7.0924,0.0],[113.50514,-7.09172,0.0],[113.5026,-7.07887,0.0],[113.50573,-7.07533,0.0],[113.5072,-7.07119,0.0],[113.51398,-7.07207,0.0],[113.5156,-7.06971,0.0],[113.51892,-7.06967,0.0],[113.52239,-7.06253,0.0],[113.52988,-7.06051,0.0],[113.53495,-7.06,0.0],[113.53765,-7.06229,0.0],[113.54375,-7.06229,0.0],[113.54538,-7.06092,0.0],[113.55215,-7.06145,0.0],[113.55437,-7.06521,0.0],[113.56392,-7.06796,0.0],[113.56846,-7.06645,0.0],[113.57,-7.06804,0.0],[113.57133,-7.06734,0.0],[113.57135,-7.06555,0.0],[113.57252,-7.06522,0.0],[113.57176,-7.06283,0.0],[113.57559,-7.05745,0.0],[113.58277,-7.05843,0.0],[113.58622,-7.06135,0.0],[113.5994,-7.06264,0.0],[113.60071,-7.0659,0.0],[113.60775,-7.07046,0.0],[113.61336,-7.07765,0.0],[113.61371,-7.07968,0.0],[113.62119,-7.08484,0.0],[113.62163,-7.09333,0.0],[113.62263,-7.09367,0.0],[113.62305,-7.09724,0.0],[113.62269,-7.10403,0.0],[113.61704,-7.10352,0.0],[113.60488,-7.10779,0.0],[113.59929,-7.1082,0.0],[113.59774,-7.11208,0.0]]]}},{"type":"Feature","properties":{"kecamatan":"Pasean","kab_kota":"Pamekasan"},"geometry":{"type":"Polygon","coordinates":[[[113.6261,-6.94764,0.0],[113.62399,-6.95385,0.0],[113.62533,-6.95685,0.0],[113.62329,-6.96077,0.0],[113.62625,-6.96289,0.0],[113.62653,-6.96478,0.0],[113.6204,-6.96509,0.0],[113.61252,-6.96738,0.0],[113.60841,-6.97387,0.0],[113.61003,-6.97875,0.0],[113.61234,-6.98091,0.0],[113.61191,-6.98447,0.0],[113.61082,-6.9872,0.0],[113.61009,-6.98558,0.0],[113.60675,-6.98644,0.0],[113.6071,-6.98364,0.0],[113.6052,-6.97752,0.0],[113.60179,-6.97246,0.0],[113.59925,-6.97208,0.0],[113.59789,-6.96846,0.0],[113.59489,-6.96685,0.0],[113.59087,-6.96812,0.0],[113.58771,-6.96454,0.0],[113.58298,-6.96379,0.0],[113.58326,-6.96126,0.0],[113.58036,-6.96084,0.0],[113.57873,-6.9592,0.0],[113.57877,-6.95706,0.0],[113.5815,-6.95466,0.0],[113.58268,-6.95551,0.0],[113.5843,-6.95451,0.0],[113.58552,-6.95227,0.0],[113.58479,-6.9508,0.0],[113.58291,-6.95156,0.0],[113.57666,-6.94646,0.0],[113.57522,-6.94729,0.0],[113.57287,-6.94297,0.0],[113.57035,-6.94213,0.0],[113.57425,-6.94044,0.0],[113.57439,-6.93697,0.0],[113.57652,-6.93565,0.0],[113.57509,-6.9352,0.0],[113.57662,-6.93104,0.0],[113.57503,-6.92429,0.0],[113.57063,-6.92787,0.0],[113.56665,-6.92849,0.0],[113.5667,-6.9257,0.0],[113.56902,-6.92414,0.0],[113.56997,-6.92165,0.0],[113.57,-6.91941,0.0],[113.56885,-6.91932,0.0],[113.56152,-6.92333,0.0],[113.5589,-6.92772,0.0],[113.55122,-6.92701,0.0],[113.53123,-6.92947,0.0],[113.53007,-6.92483,0.0],[113.53224,-6.92337,0.0],[113.53213,-6.91987,0.0],[113.53364,-6.91794,0.0],[113.53293,-6.91174,0.0],[113.52847,-6.9055,0.0],[113.52723,-6.89928,0.0],[113.52528,-6.89805,0.0],[113.52458,-6.8955,0.0],[113.52621,-6.89445,0.0],[113.54179,-6.89323,0.0],[113.55627,-6.89357,0.0],[113.56402,-6.89215,0.0],[113.5722,-6.8929,0.0],[113.58914,-6.88858,0.0],[113.60461,-6.88862,0.0],[113.6073,-6.8898,0.0],[113.61248,-6.88861,0.0],[113.62522,-6.88998,0.0],[113.64235,-6.88739,0.0],[113.64184,-6.89723,0.0],[113.63901,-6.90073,0.0],[113.63655,-6.90691,0.0],[113.63655,-6.91593,0.0],[113.63561,-6.91717,0.0],[113.6431,-6.91589,0.0],[113.64888,-6.91752,0.0],[113.64982,-6.91933,0.0],[113.64701,-6.92444,0.0],[113.64416,-6.9251,0.0],[113.64287,-6.92732,0.0],[113.64008,-6.9277,0.0],[113.63879,-6.92976,0.0],[113.63931,-6.93107,0.0],[113.63729,-6.93612,0.0],[113.63847,-6.93898,0.0],[113.63161,-6.93869,0.0],[113.6261,-6.94764,0.0]]]}},{"type":"Feature","properties":{"kecamatan":"Waru","kab_kota":"Pamekasan"},"geometry":{"type":"Polygon","coordinates":[[[113.57703,-7.01776,0.0],[113.54272,-7.02285,0.0],[113.52822,-7.02254,0.0],[113.52303,-7.01991,0.0],[113.52106,-7.02045,0.0],[113.52051,-7.02199,0.0],[113.51862,-7.02125,0.0],[113.5213,-7.01945,0.0],[113.52149,-7.01579,0.0],[113.5233,-7.0157,0.0],[113.52399,-7.01239,0.0],[113.53158,-7.00351,0.0],[113.52982,-6.99983,0.0],[113.53156,-6.99573,0.0],[113.53289,-6.99447,0.0],[113.53503,-6.99541,0.0],[113.53563,-6.99346,0.0],[113.5328,-6.98946,0.0],[113.53211,-6.98573,0.0],[113.53619,-6.97689,0.0],[113.5337,-6.96775,0.0],[113.53578,-6.96426,0.0],[113.53622,-6.95508,0.0],[113.53352,-6.95087,0.0],[113.53324,-6.94649,0.0],[113.53044,-6.94133,0.0],[113.52921,-6.93184,0.0],[113.53123,-6.92947,0.0],[113.53628,-6.92848,0.0],[113.55122,-6.92701,0.0],[113.5589,-6.92772,0.0],[113.56152,-6.92333,0.0],[113.5699,-6.91929,0.0],[113.56904,-6.92411,0.0],[113.56598,-6.92778,0.0],[113.56958,-6.92828,0.0],[113.57503,-6.92429,0.0],[113.57662,-6.93104,0.0],[113.57509,-6.9352,0.0],[113.57652,-6.93565,0.0],[113.57439,-6.93697,0.0],[113.57436,-6.94029,0.0],[113.57035,-6.94213,0.0],[113.57287,-6.94297,0.0],[113.57522,-6.94729,0.0],[113.57666,-6.94646,0.0],[113.58291,-6.95156,0.0],[113.58479,-6.9508,0.0],[113.58552,-6.95227,0.0],[113.5843,-6.95451,0.0],[113.58268,-6.95551,0.0],[113.5815,-6.95466,0.0],[113.57877,-6.95706,0.0],[113.57873,-6.9592,0.0],[113.58036,-6.96084,0.0],[113.58326,-6.96126,0.0],[113.58247,-6.96336,0.0],[113.5839,-6.96444,0.0],[113.58771,-6.96454,0.0],[113.59087,-6.96812,0.0],[113.59489,-6.96685,0.0],[113.59789,-6.96846,0.0],[113.59947,-6.97233,0.0],[113.60258,-6.97321,0.0],[113.6071,-6.98364,0.0],[113.60632,-6.98619,0.0],[113.61009,-6.98558,0.0],[113.61082,-6.9872,0.0],[113.60916,-6.993,0.0],[113.61051,-6.9955,0.0],[113.60839,-6.99647,0.0],[113.60979,-6.99795,0.0],[113.60925,-7.00057,0.0],[113.6113,-7.004,0.0],[113.61499,-7.00477,0.0],[113.61478,-7.00686,0.0],[113.61914,-7.00905,0.0],[113.61765,-7.01064,0.0],[113.61193,-7.01136,0.0],[113.59293,-7.00924,0.0],[113.59123,-7.01181,0.0],[113.59239,-7.01646,0.0],[113.58714,-7.01661,0.0],[113.58781,-7.01757,0.0],[113.58664,-7.01843,0.0],[113.57703,-7.01776,0.0]]]}},{"type":"Feature","properties":{"kecamatan":"Batumarmar","kab_kota":"Pamekasan"},"geometry":{"type":"Polygon","coordinates":[[[113.50813,-7.01122,0.0],[113.4933,-7.01374,0.0],[113.48886,-7.01853,0.0],[113.48871,-7.01739,0.0],[113.48583,-7.01725,0.0],[113.48481,-7.01564,0.0],[113.48686,-7.01427,0.0],[113.4863,-7.01259,0.0],[113.48756,-7.01151,0.0],[113.48536,-7.00494,0.0],[113.48419,-7.00297,0.0],[113.48048,-7.00168,0.0],[113.47574,-6.99281,0.0],[113.47242,-6.9918,0.0],[113.46326,-6.99209,0.0],[113.45614,-6.98687,0.0],[113.45445,-6.98782,0.0],[113.45429,-6.98636,0.0],[113.45245,-6.98565,0.0],[113.45374,-6.98379,0.0],[113.45214,-6.98305,0.0],[113.44996,-6.98371,0.0],[113.45095,-6.986,0.0],[113.44727,-6.98707,0.0],[113.44637,-6.98463,0.0],[113.44733,-6.98382,0.0],[113.44507,-6.98342,0.0],[113.44588,-6.98124,0.0],[113.44452,-6.97924,0.0],[113.4426,-6.97993,0.0],[113.44243,-6.97883,0.0],[113.43941,-6.97947,0.0],[113.43826,-6.97846,0.0],[113.43611,-6.98142,0.0],[113.43502,-6.98048,0.0],[113.43528,-6.9777,0.0],[113.4332,-6.97507,0.0],[113.43052,-6.97411,0.0],[113.43379,-6.96895,0.0],[113.4344,-6.96138,0.0],[113.43578,-6.96154,0.0],[113.43749,-6.95842,0.0],[113.44464,-6.95567,0.0],[113.44841,-6.95141,0.0],[113.45448,-6.95302,0.0],[113.46,-6.95071,0.0],[113.46043,-6.94822,0.0],[113.459,-6.94489,0.0],[113.46123,-6.93946,0.0],[113.4611,-6.9355,0.0],[113.46601,-6.93513,0.0],[113.46791,-6.92924,0.0],[113.47013,-6.9317,0.0],[113.47228,-6.93113,0.0],[113.47362,-6.92776,0.0],[113.47784,-6.92432,0.0],[113.47592,-6.91721,0.0],[113.47694,-6.91024,0.0],[113.47603,-6.90818,0.0],[113.48283,-6.9015,0.0],[113.4841,-6.89654,0.0],[113.50665,-6.89733,0.0],[113.51348,-6.8952,0.0],[113.52385,-6.89522,0.0],[113.52723,-6.89928,0.0],[113.52847,-6.9055,0.0],[113.53293,-6.91174,0.0],[113.53364,-6.91794,0.0],[113.53213,-6.91987,0.0],[113.53224,-6.92337,0.0],[113.53015,-6.92416,0.0],[113.53141,-6.92899,0.0],[113.52921,-6.93184,0.0],[113.53044,-6.94133,0.0],[113.53628,-6.95563,0.0],[113.53578,-6.96426,0.0],[113.5337,-6.96775,0.0],[113.53619,-6.97689,0.0],[113.53211,-6.98573,0.0],[113.53449,-6.993,0.0],[113.5357,-6.99259,0.0],[113.53524,-6.99515,0.0],[113.53289,-6.99447,0.0],[113.53156,-6.99573,0.0],[113.52982,-6.99983,0.0],[113.53158,-7.00351,0.0],[113.52399,-7.01239,0.0],[113.52324,-7.01577,0.0],[113.51001,-7.01273,0.0],[113.50813,-7.01122,0.0]]]}}]}