{"type":"FeatureCollection","features":[{"type":"Feature","properties":{"kecamatan":"Balongpanggang","kab_kota":"Gresik"},"geometry":{"type":"MultiPolygon","coordinates":[[[[112.39852,-7.32107,0.0],[112.39882,-7.32268,0.0],[112.39673,-7.3246,0.0],[112.39624,-7.32726,0.0],[112.39409,-7.32714,0.0],[112.3947,-7.3311,0.0],[112.3912,-7.33351,0.0],[112.38854,-7.33096,0.0],[112.38526,-7.33131,0.0],[112.38479,-7.3333,0.0],[112.38348,-7.33189,0.0],[112.38193,-7.33327,0.0],[112.3823,-7.33064,0.0],[112.3851,-7.33105,0.0],[112.38355,-7.32852,0.0],[112.38177,-7.32857,0.0],[112.38242,-7.33008,0.0],[112.38113,-7.33029,0.0],[112.3798,-7.32911,0.0],[112.37994,-7.32721,0.0],[112.37538,-7.32777,0.0],[112.37739,-7.32648,0.0],[112.37562,-7.32668,0.0],[112.3759,-7.32386,0.0],[112.37471,-7.32547,0.0],[112.37462,-7.32363,0.0],[112.37172,-7.32428,0.0],[112.37251,-7.32568,0.0],[112.3716,-7.32657,0.0],[112.37038,-7.32402,0.0],[112.37045,-7.32165,0.0],[112.37201,-7.32037,0.0],[112.38886,-7.32147,0.0],[112.39195,-7.31314,0.0],[112.39391,-7.31246,0.0],[112.39554,-7.31415,0.0],[112.40074,-7.31089,0.0],[112.40338,-7.31145,0.0],[112.40542,-7.30829,0.0],[112.41073,-7.3045,0.0],[112.41163,-7.29628,0.0],[112.40956,-7.29556,0.0],[112.40711,-7.29106,0.0],[112.40873,-7.28432,0.0],[112.41087,-7.28231,0.0],[112.41241,-7.27291,0.0],[112.4081,-7.27073,0.0],[112.408,-7.26938,0.0],[112.39702,-7.26431,0.0],[112.39975,-7.26015,0.0],[112.4033,-7.25798,0.0],[112.40541,-7.25408,0.0],[112.40971,-7.25257,0.0],[112.41181,-7.24904,0.0],[112.41323,-7.2493,0.0],[112.41408,-7.24431,0.0],[112.41602,-7.24215,0.0],[112.41419,-7.23745,0.0],[112.41535,-7.23731,0.0],[112.41555,-7.23532,0.0],[112.41849,-7.23406,0.0],[112.4191,-7.23179,0.0],[112.42153,-7.23275,0.0],[112.4254,-7.23207,0.0],[112.42805,-7.22889,0.0],[112.43294,-7.22755,0.0],[112.43478,-7.22849,0.0],[112.43714,-7.22423,0.0],[112.4371,-7.22105,0.0],[112.4389,-7.22113,0.0],[112.44273,-7.21844,0.0],[112.44627,-7.21354,0.0],[112.44985,-7.21381,0.0],[112.45258,-7.21162,0.0],[112.45524,-7.2114,0.0],[112.45566,-7.2072,0.0],[112.45879,-7.20663,0.0],[112.4639,-7.20862,0.0],[112.46479,-7.20709,0.0],[112.46986,-7.20859,0.0],[112.46934,-7.21378,0.0],[112.47084,-7.21649,0.0],[112.46905,-7.2189,0.0],[112.47061,-7.22268,0.0],[112.47502,-7.22705,0.0],[112.47445,-7.22905,0.0],[112.47707,-7.22962,0.0],[112.47765,-7.23129,0.0],[112.476,-7.23374,0.0],[112.47147,-7.23421,0.0],[112.47014,-7.23922,0.0],[112.46897,-7.23926,0.0],[112.4668,-7.24473,0.0],[112.4643,-7.24706,0.0],[112.46171,-7.24745,0.0],[112.46118,-7.24877,0.0],[112.45912,-7.2481,0.0],[112.45838,-7.24937,0.0],[112.45648,-7.2487,0.0],[112.45576,-7.25034,0.0],[112.45692,-7.25107,0.0],[112.45722,-7.25431,0.0],[112.45901,-7.25469,0.0],[112.46017,-7.25709,0.0],[112.4583,-7.26674,0.0],[112.46209,-7.26798,0.0],[112.46106,-7.26793,0.0],[112.46069,-7.26976,0.0],[112.46065,-7.27301,0.0],[112.46161,-7.27329,0.0],[112.45511,-7.27276,0.0],[112.45337,-7.27683,0.0],[112.46206,-7.2795,0.0],[112.4638,-7.28395,0.0],[112.4634,-7.2863,0.0],[112.46436,-7.2859,0.0],[112.46491,-7.28749,0.0],[112.46274,-7.29344,0.0],[112.46426,-7.29422,0.0],[112.46232,-7.29523,0.0],[112.46257,-7.29817,0.0],[112.46143,-7.29958,0.0],[112.45924,-7.29948,0.0],[112.45801,-7.30221,0.0],[112.45596,-7.30279,0.0],[112.45634,-7.30437,0.0],[112.45904,-7.30441,0.0],[112.45715,-7.30768,0.0],[112.45901,-7.30896,0.0],[112.45536,-7.30842,0.0],[112.45595,-7.30986,0.0],[112.45406,-7.3111,0.0],[112.45083,-7.30819,0.0],[112.45073,-7.30545,0.0],[112.44961,-7.30745,0.0],[112.44756,-7.3065,0.0],[112.44745,-7.30314,0.0],[112.4444,-7.30533,0.0],[112.44528,-7.30776,0.0],[112.44302,-7.30695,0.0],[112.44173,-7.3097,0.0],[112.44447,-7.31167,0.0],[112.44042,-7.31173,0.0],[112.44194,-7.31265,0.0],[112.4418,-7.31421,0.0],[112.43894,-7.31432,0.0],[112.43794,-7.31172,0.0],[112.4375,-7.31347,0.0],[112.43392,-7.31319,0.0],[112.43279,-7.31445,0.0],[112.42984,-7.31297,0.0],[112.42892,-7.31081,0.0],[112.42133,-7.31718,0.0],[112.4212,-7.31445,0.0],[112.42292,-7.31231,0.0],[112.41929,-7.31233,0.0],[112.41884,-7.31389,0.0],[112.41812,-7.31254,0.0],[112.41591,-7.31257,0.0],[112.41487,-7.31073,0.0],[112.41427,-7.31336,0.0],[112.41668,-7.31486,0.0],[112.41553,-7.31621,0.0],[112.41362,-7.31573,0.0],[112.41339,-7.31324,0.0],[112.41052,-7.31649,0.0],[112.41177,-7.31351,0.0],[112.41109,-7.31185,0.0],[112.40795,-7.3161,0.0],[112.40426,-7.31663,0.0],[112.40475,-7.31813,0.0],[112.40683,-7.31693,0.0],[112.4078,-7.31772,0.0],[112.40474,-7.31946,0.0],[112.40382,-7.31777,0.0],[112.40371,-7.31939,0.0],[112.402,-7.31931,0.0],[112.40481,-7.32187,0.0],[112.40436,-7.32265,0.0],[112.403,-7.32056,0.0],[112.40146,-7.3217,0.0],[112.40108,-7.31908,0.0],[112.39852,-7.32107,0.0]]],[[[112.46193,-7.27356,0.0],[112.46222,-7.27357,0.0],[112.46228,-7.2736,0.0],[112.46202,-7.2736,0.0],[112.46193,-7.27356,0.0]]]]}},{"type":"Feature","properties":{"kecamatan":"Panceng","kab_kota":"Gresik"},"geometry":{"type":"Polygon","coordinates":[[[112.45055,-6.95942,0.0],[112.44362,-6.95417,0.0],[112.43866,-6.96558,0.0],[112.43461,-6.96462,0.0],[112.43438,-6.96104,0.0],[112.43207,-6.96049,0.0],[112.43172,-6.95907,0.0],[112.42966,-6.95915,0.0],[112.42919,-6.95633,0.0],[112.42769,-6.9561,0.0],[112.42535,-6.95204,0.0],[112.42624,-6.94861,0.0],[112.4239,-6.94851,0.0],[112.42336,-6.9469,0.0],[112.42435,-6.93938,0.0],[112.43006,-6.93007,0.0],[112.42138,-6.9245,0.0],[112.42489,-6.91666,0.0],[112.42339,-6.91446,0.0],[112.42407,-6.91087,0.0],[112.42746,-6.90527,0.0],[112.42979,-6.90191,0.0],[112.43405,-6.90022,0.0],[112.43699,-6.90175,0.0],[112.43798,-6.89742,0.0],[112.44265,-6.89345,0.0],[112.44845,-6.88481,0.0],[112.44739,-6.88251,0.0],[112.44571,-6.88275,0.0],[112.44588,-6.88171,0.0],[112.44329,-6.87995,0.0],[112.44153,-6.88358,0.0],[112.44063,-6.8826,0.0],[112.44224,-6.87935,0.0],[112.43959,-6.87682,0.0],[112.44003,-6.87429,0.0],[112.44423,-6.8738,0.0],[112.4462,-6.87405,0.0],[112.44861,-6.87934,0.0],[112.45291,-6.88326,0.0],[112.45582,-6.88405,0.0],[112.45747,-6.88083,0.0],[112.45616,-6.88467,0.0],[112.45783,-6.88433,0.0],[112.45782,-6.88136,0.0],[112.45843,-6.88253,0.0],[112.45779,-6.88555,0.0],[112.461,-6.88666,0.0],[112.46564,-6.89152,0.0],[112.46805,-6.89155,0.0],[112.46773,-6.89338,0.0],[112.46863,-6.89165,0.0],[112.47385,-6.8938,0.0],[112.47342,-6.89791,0.0],[112.4807,-6.90047,0.0],[112.48219,-6.89808,0.0],[112.4838,-6.89893,0.0],[112.48335,-6.90129,0.0],[112.48638,-6.90207,0.0],[112.48669,-6.90024,0.0],[112.49046,-6.90247,0.0],[112.48529,-6.91585,0.0],[112.4837,-6.91496,0.0],[112.48173,-6.91738,0.0],[112.48909,-6.92126,0.0],[112.48855,-6.92214,0.0],[112.49005,-6.9239,0.0],[112.48825,-6.92502,0.0],[112.48609,-6.92391,0.0],[112.48649,-6.92733,0.0],[112.491,-6.9276,0.0],[112.49202,-6.9292,0.0],[112.49131,-6.93045,0.0],[112.49322,-6.93254,0.0],[112.49213,-6.93614,0.0],[112.49403,-6.93782,0.0],[112.49381,-6.93918,0.0],[112.49935,-6.93994,0.0],[112.50032,-6.94706,0.0],[112.49923,-6.9513,0.0],[112.50349,-6.9541,0.0],[112.50442,-6.95958,0.0],[112.50771,-6.96174,0.0],[112.5064,-6.96387,0.0],[112.50528,-6.9625,0.0],[112.49964,-6.96092,0.0],[112.49803,-6.96302,0.0],[112.49493,-6.96259,0.0],[112.4952,-6.96917,0.0],[112.49254,-6.97322,0.0],[112.48972,-6.98254,0.0],[112.48666,-6.98167,0.0],[112.48579,-6.98366,0.0],[112.48173,-6.98588,0.0],[112.47732,-6.99457,0.0],[112.47544,-6.99565,0.0],[112.47374,-6.99519,0.0],[112.47359,-6.99355,0.0],[112.47764,-6.98026,0.0],[112.4745,-6.97574,0.0],[112.47325,-6.95827,0.0],[112.46762,-6.96161,0.0],[112.46324,-6.9618,0.0],[112.45738,-6.96972,0.0],[112.44784,-6.96683,0.0],[112.44896,-6.96254,0.0],[112.45041,-6.96205,0.0],[112.45055,-6.95942,0.0]]]}},{"type":"Feature","properties":{"kecamatan":"Dukun","kab_kota":"Gresik"},"geometry":{"type":"Polygon","coordinates":[[[112.45264,-7.00152,0.0],[112.42792,-7.00239,0.0],[112.42283,-6.99695,0.0],[112.41721,-6.99382,0.0],[112.4048,-6.9909,0.0],[112.39873,-6.99342,0.0],[112.39606,-6.99137,0.0],[112.39421,-6.98733,0.0],[112.39119,-6.98576,0.0],[112.38229,-6.98864,0.0],[112.37719,-6.98757,0.0],[112.37196,-6.9846,0.0],[112.36856,-6.98804,0.0],[112.36731,-6.98774,0.0],[112.36691,-6.97961,0.0],[112.36855,-6.97109,0.0],[112.37217,-6.96654,0.0],[112.37664,-6.95281,0.0],[112.38092,-6.95368,0.0],[112.38182,-6.95742,0.0],[112.38713,-6.95894,0.0],[112.39059,-6.95921,0.0],[112.39256,-6.95563,0.0],[112.39434,-6.95511,0.0],[112.40516,-6.96046,0.0],[112.40716,-6.95926,0.0],[112.40711,-6.95684,0.0],[112.40806,-6.95712,0.0],[112.4124,-6.95189,0.0],[112.41753,-6.95359,0.0],[112.42094,-6.95075,0.0],[112.42382,-6.9507,0.0],[112.42769,-6.9561,0.0],[112.42916,-6.9563,0.0],[112.42966,-6.95915,0.0],[112.43172,-6.95907,0.0],[112.43207,-6.96049,0.0],[112.43438,-6.96104,0.0],[112.43461,-6.96462,0.0],[112.43866,-6.96558,0.0],[112.44362,-6.95417,0.0],[112.45055,-6.95942,0.0],[112.44784,-6.96683,0.0],[112.45738,-6.96972,0.0],[112.46324,-6.9618,0.0],[112.46762,-6.96161,0.0],[112.47325,-6.95827,0.0],[112.4745,-6.97574,0.0],[112.47767,-6.98094,0.0],[112.47374,-6.99519,0.0],[112.47661,-6.99554,0.0],[112.48059,-6.98715,0.0],[112.48579,-6.98366,0.0],[112.48666,-6.98167,0.0],[112.49323,-6.98315,0.0],[112.49468,-6.98487,0.0],[112.50252,-6.98805,0.0],[112.50468,-6.9916,0.0],[112.50515,-6.99845,0.0],[112.50646,-6.99958,0.0],[112.51373,-6.9999,0.0],[112.5156,-6.99792,0.0],[112.51866,-6.99943,0.0],[112.5196,-7.004,0.0],[112.52545,-7.00485,0.0],[112.52633,-7.00353,0.0],[112.5298,-7.00336,0.0],[112.53062,-7.0062,0.0],[112.53228,-7.00711,0.0],[112.53556,-7.00553,0.0],[112.53563,-7.00653,0.0],[112.53844,-7.00723,0.0],[112.53521,-7.01461,0.0],[112.53376,-7.01483,0.0],[112.5329,-7.01817,0.0],[112.53066,-7.01945,0.0],[112.52393,-7.01626,0.0],[112.51316,-7.01727,0.0],[112.51232,-7.02057,0.0],[112.51128,-7.02045,0.0],[112.5103,-7.02251,0.0],[112.50653,-7.02119,0.0],[112.51092,-7.01829,0.0],[112.51251,-7.01429,0.0],[112.51176,-7.01271,0.0],[112.50137,-7.01085,0.0],[112.50048,-7.01562,0.0],[112.49746,-7.01723,0.0],[112.49685,-7.01548,0.0],[112.49838,-7.00985,0.0],[112.49576,-7.0086,0.0],[112.48877,-7.0073,0.0],[112.48351,-7.01128,0.0],[112.48036,-7.01066,0.0],[112.47996,-7.00804,0.0],[112.48295,-7.00465,0.0],[112.48226,-7.00291,0.0],[112.46149,-7.00809,0.0],[112.45844,-7.01031,0.0],[112.45701,-7.01481,0.0],[112.45022,-7.01519,0.0],[112.44867,-7.01266,0.0],[112.45264,-7.00152,0.0]]]}},{"type":"Feature","properties":{"kecamatan":"Wringinanom","kab_kota":"Gresik"},"geometry":{"type":"Polygon","coordinates":[[[112.52593,-7.3973,0.0],[112.507,-7.40674,0.0],[112.49889,-7.40672,0.0],[112.49461,-7.40852,0.0],[112.49362,-7.39938,0.0],[112.48936,-7.3994,0.0],[112.4881,-7.40369,0.0],[112.48525,-7.40386,0.0],[112.48359,-7.40152,0.0],[112.48439,-7.39707,0.0],[112.48322,-7.39484,0.0],[112.48111,-7.39396,0.0],[112.4806,-7.39128,0.0],[112.4779,-7.39016,0.0],[112.478,-7.38729,0.0],[112.47569,-7.38519,0.0],[112.47596,-7.3814,0.0],[112.47793,-7.37938,0.0],[112.47408,-7.37245,0.0],[112.47817,-7.37026,0.0],[112.4796,-7.36239,0.0],[112.478,-7.35766,0.0],[112.47307,-7.35638,0.0],[112.47301,-7.35321,0.0],[112.4763,-7.35293,0.0],[112.47884,-7.34945,0.0],[112.48081,-7.34915,0.0],[112.48391,-7.34391,0.0],[112.48385,-7.34185,0.0],[112.48552,-7.34087,0.0],[112.48499,-7.33795,0.0],[112.48632,-7.33777,0.0],[112.4886,-7.3331,0.0],[112.49047,-7.33365,0.0],[112.48882,-7.33713,0.0],[112.48937,-7.33842,0.0],[112.49214,-7.3395,0.0],[112.49638,-7.33909,0.0],[112.49818,-7.33753,0.0],[112.498,-7.33557,0.0],[112.49487,-7.33456,0.0],[112.49616,-7.33334,0.0],[112.49855,-7.33395,0.0],[112.50348,-7.33825,0.0],[112.51241,-7.33795,0.0],[112.51534,-7.33538,0.0],[112.52155,-7.3359,0.0],[112.52508,-7.3382,0.0],[112.5253,-7.33965,0.0],[112.53064,-7.34029,0.0],[112.52895,-7.34988,0.0],[112.53055,-7.35541,0.0],[112.54674,-7.35851,0.0],[112.54773,-7.35694,0.0],[112.55005,-7.36015,0.0],[112.56001,-7.36036,0.0],[112.56195,-7.36103,0.0],[112.56283,-7.36315,0.0],[112.56534,-7.36303,0.0],[112.56553,-7.36448,0.0],[112.57595,-7.36765,0.0],[112.57554,-7.37157,0.0],[112.5732,-7.37329,0.0],[112.57711,-7.3876,0.0],[112.57181,-7.39199,0.0],[112.57002,-7.38798,0.0],[112.56789,-7.38794,0.0],[112.56698,-7.3976,0.0],[112.55235,-7.40039,0.0],[112.54949,-7.40335,0.0],[112.54396,-7.40471,0.0],[112.53387,-7.40081,0.0],[112.52923,-7.40367,0.0],[112.52593,-7.3973,0.0]]]}},{"type":"Feature","properties":{"kecamatan":"Ujungpangkah","kab_kota":"Gresik"},"geometry":{"type":"Polygon","coordinates":[[[112.53665,-6.96565,0.0],[112.53305,-6.96708,0.0],[112.53098,-6.97173,0.0],[112.52398,-6.9705,0.0],[112.51828,-6.96821,0.0],[112.51828,-6.96106,0.0],[112.51451,-6.95732,0.0],[112.51114,-6.95731,0.0],[112.50837,-6.95901,0.0],[112.50771,-6.96174,0.0],[112.50442,-6.95958,0.0],[112.50349,-6.9541,0.0],[112.49923,-6.9513,0.0],[112.50032,-6.94706,0.0],[112.49935,-6.93994,0.0],[112.49381,-6.93918,0.0],[112.49403,-6.93782,0.0],[112.49213,-6.93614,0.0],[112.49322,-6.93254,0.0],[112.49131,-6.93045,0.0],[112.49202,-6.9292,0.0],[112.491,-6.9276,0.0],[112.48649,-6.92733,0.0],[112.48609,-6.92391,0.0],[112.48825,-6.92502,0.0],[112.49005,-6.9239,0.0],[112.48855,-6.92214,0.0],[112.48909,-6.92126,0.0],[112.48173,-6.91738,0.0],[112.4837,-6.91496,0.0],[112.48529,-6.91585,0.0],[112.48872,-6.90912,0.0],[112.48805,-6.90807,0.0],[112.48932,-6.90489,0.0],[112.49036,-6.90342,0.0],[112.49089,-6.90423,0.0],[112.49233,-6.90347,0.0],[112.49361,-6.89926,0.0],[112.495,-6.90268,0.0],[112.49561,-6.90151,0.0],[112.49594,-6.90308,0.0],[112.4977,-6.90382,0.0],[112.50004,-6.90422,0.0],[112.50121,-6.90312,0.0],[112.5013,-6.90492,0.0],[112.50484,-6.90689,0.0],[112.50675,-6.90685,0.0],[112.50806,-6.90527,0.0],[112.50917,-6.90744,0.0],[112.51997,-6.90583,0.0],[112.52582,-6.90115,0.0],[112.52829,-6.90208,0.0],[112.52739,-6.89822,0.0],[112.53608,-6.88653,0.0],[112.54014,-6.88431,0.0],[112.54178,-6.87754,0.0],[112.53476,-6.87429,0.0],[112.52415,-6.87274,0.0],[112.52118,-6.87059,0.0],[112.52348,-6.86483,0.0],[112.53132,-6.86076,0.0],[112.53071,-6.85822,0.0],[112.53422,-6.85708,0.0],[112.53867,-6.85768,0.0],[112.54439,-6.85356,0.0],[112.5491,-6.85242,0.0],[112.54932,-6.84765,0.0],[112.55078,-6.84741,0.0],[112.54981,-6.84805,0.0],[112.55115,-6.84811,0.0],[112.55044,-6.84954,0.0],[112.55153,-6.84902,0.0],[112.55119,-6.84768,0.0],[112.55217,-6.84751,0.0],[112.55247,-6.8495,0.0],[112.55398,-6.8487,0.0],[112.55474,-6.84977,0.0],[112.55454,-6.84773,0.0],[112.55619,-6.84697,0.0],[112.55732,-6.84839,0.0],[112.56017,-6.84848,0.0],[112.56396,-6.85391,0.0],[112.5655,-6.8543,0.0],[112.56508,-6.8554,0.0],[112.56718,-6.85627,0.0],[112.57012,-6.85122,0.0],[112.57193,-6.85079,0.0],[112.57201,-6.84874,0.0],[112.57379,-6.84826,0.0],[112.57582,-6.85092,0.0],[112.57759,-6.85085,0.0],[112.57855,-6.8533,0.0],[112.5755,-6.85583,0.0],[112.5767,-6.86015,0.0],[112.57507,-6.86063,0.0],[112.57622,-6.86228,0.0],[112.57369,-6.86607,0.0],[112.57632,-6.87015,0.0],[112.57485,-6.87298,0.0],[112.57595,-6.87552,0.0],[112.57539,-6.87896,0.0],[112.57911,-6.88393,0.0],[112.5778,-6.88284,0.0],[112.57746,-6.8839,0.0],[112.57961,-6.88634,0.0],[112.58071,-6.88548,0.0],[112.58153,-6.8872,0.0],[112.58033,-6.88735,0.0],[112.58415,-6.8902,0.0],[112.58331,-6.88861,0.0],[112.58717,-6.88824,0.0],[112.59238,-6.88391,0.0],[112.6011,-6.88193,0.0],[112.60408,-6.88017,0.0],[112.60461,-6.87716,0.0],[112.60717,-6.87663,0.0],[112.60617,-6.88085,0.0],[112.60896,-6.88003,0.0],[112.61339,-6.8903,0.0],[112.61708,-6.89092,0.0],[112.6163,-6.89405,0.0],[112.61902,-6.90458,0.0],[112.61949,-6.91374,0.0],[112.61878,-6.91306,0.0],[112.61729,-6.91459,0.0],[112.61649,-6.91785,0.0],[112.61194,-6.9198,0.0],[112.61072,-6.92405,0.0],[112.60829,-6.92574,0.0],[112.60066,-6.92528,0.0],[112.60075,-6.92316,0.0],[112.59828,-6.92161,0.0],[112.59946,-6.91767,0.0],[112.59705,-6.91785,0.0],[112.59689,-6.91681,0.0],[112.59562,-6.9179,0.0],[112.59267,-6.92907,0.0],[112.59468,-6.93545,0.0],[112.59409,-6.93772,0.0],[112.5952,-6.93812,0.0],[112.60126,-6.95469,0.0],[112.59451,-6.95711,0.0],[112.59253,-6.96017,0.0],[112.58661,-6.96146,0.0],[112.58539,-6.96066,0.0],[112.5843,-6.95179,0.0],[112.57171,-6.9522,0.0],[112.57184,-6.95762,0.0],[112.56725,-6.95791,0.0],[112.56879,-6.97436,0.0],[112.56648,-6.97518,0.0],[112.56606,-6.97768,0.0],[112.56318,-6.97836,0.0],[112.56313,-6.97598,0.0],[112.56125,-6.97621,0.0],[112.5603,-6.97496,0.0],[112.55857,-6.97915,0.0],[112.54785,-6.97585,0.0],[112.54764,-6.97691,0.0],[112.5443,-6.97595,0.0],[112.54489,-6.96965,0.0],[112.54236,-6.9699,0.0],[112.54214,-6.96792,0.0],[112.53665,-6.96565,0.0]]]}},{"type":"Feature","properties":{"kecamatan":"Benjeng","kab_kota":"Gresik"},"geometry":{"type":"Polygon","coordinates":[[[112.48614,-7.29922,0.0],[112.48493,-7.30295,0.0],[112.48773,-7.30262,0.0],[112.48819,-7.30765,0.0],[112.48274,-7.30705,0.0],[112.47912,-7.30809,0.0],[112.47823,-7.30485,0.0],[112.46931,-7.30395,0.0],[112.46738,-7.31096,0.0],[112.46496,-7.31194,0.0],[112.45806,-7.31134,0.0],[112.45906,-7.30877,0.0],[112.45715,-7.30768,0.0],[112.45907,-7.30452,0.0],[112.45634,-7.30437,0.0],[112.45596,-7.30279,0.0],[112.45801,-7.30221,0.0],[112.45924,-7.29948,0.0],[112.46143,-7.29958,0.0],[112.46257,-7.29817,0.0],[112.46232,-7.29523,0.0],[112.46426,-7.29422,0.0],[112.46274,-7.29344,0.0],[112.46491,-7.28749,0.0],[112.46436,-7.2859,0.0],[112.4634,-7.2863,0.0],[112.4638,-7.28395,0.0],[112.46206,-7.2795,0.0],[112.45337,-7.27683,0.0],[112.45511,-7.27276,0.0],[112.46161,-7.27329,0.0],[112.46065,-7.27301,0.0],[112.46069,-7.26976,0.0],[112.46106,-7.26793,0.0],[112.46209,-7.26798,0.0],[112.4583,-7.26674,0.0],[112.46017,-7.25709,0.0],[112.45901,-7.25469,0.0],[112.45722,-7.25431,0.0],[112.45692,-7.25107,0.0],[112.45576,-7.25034,0.0],[112.45648,-7.2487,0.0],[112.45838,-7.24937,0.0],[112.45912,-7.2481,0.0],[112.46118,-7.24877,0.0],[112.46171,-7.24745,0.0],[112.4643,-7.24706,0.0],[112.4668,-7.24473,0.0],[112.46897,-7.23926,0.0],[112.47014,-7.23922,0.0],[112.47147,-7.23421,0.0],[112.476,-7.23374,0.0],[112.47765,-7.23129,0.0],[112.47707,-7.22962,0.0],[112.47445,-7.22905,0.0],[112.47502,-7.22705,0.0],[112.47061,-7.22268,0.0],[112.46905,-7.2189,0.0],[112.47084,-7.21649,0.0],[112.46934,-7.21378,0.0],[112.46998,-7.20874,0.0],[112.4652,-7.20738,0.0],[112.46736,-7.20165,0.0],[112.47073,-7.2016,0.0],[112.4746,-7.20407,0.0],[112.47571,-7.20097,0.0],[112.47902,-7.19788,0.0],[112.48333,-7.19749,0.0],[112.48665,-7.19467,0.0],[112.50151,-7.19183,0.0],[112.50303,-7.18711,0.0],[112.50166,-7.18439,0.0],[112.50401,-7.18351,0.0],[112.50447,-7.18205,0.0],[112.50385,-7.17812,0.0],[112.50755,-7.17577,0.0],[112.51181,-7.17972,0.0],[112.51301,-7.17835,0.0],[112.51743,-7.17862,0.0],[112.51672,-7.18197,0.0],[112.51526,-7.18149,0.0],[112.51474,-7.1831,0.0],[112.51638,-7.18452,0.0],[112.51792,-7.19467,0.0],[112.51243,-7.20145,0.0],[112.51173,-7.20494,0.0],[112.51786,-7.20543,0.0],[112.51938,-7.2034,0.0],[112.52361,-7.20836,0.0],[112.52324,-7.21095,0.0],[112.52561,-7.21205,0.0],[112.52359,-7.22125,0.0],[112.52078,-7.22131,0.0],[112.51725,-7.2195,0.0],[112.51192,-7.21985,0.0],[112.5079,-7.22458,0.0],[112.50863,-7.22751,0.0],[112.5064,-7.23011,0.0],[112.5079,-7.23625,0.0],[112.51022,-7.23636,0.0],[112.51112,-7.2382,0.0],[112.51257,-7.23598,0.0],[112.51361,-7.23815,0.0],[112.51494,-7.23694,0.0],[112.51535,-7.23823,0.0],[112.51349,-7.23986,0.0],[112.51404,-7.2408,0.0],[112.51565,-7.23996,0.0],[112.51446,-7.24335,0.0],[112.51596,-7.24519,0.0],[112.5125,-7.2471,0.0],[112.51363,-7.24934,0.0],[112.51202,-7.25292,0.0],[112.5099,-7.25275,0.0],[112.50871,-7.26233,0.0],[112.51067,-7.26245,0.0],[112.5126,-7.26493,0.0],[112.51559,-7.26536,0.0],[112.5119,-7.26794,0.0],[112.51023,-7.27322,0.0],[112.50699,-7.27375,0.0],[112.50708,-7.28089,0.0],[112.50897,-7.28163,0.0],[112.50916,-7.28512,0.0],[112.50335,-7.28456,0.0],[112.50343,-7.29059,0.0],[112.50133,-7.29111,0.0],[112.4977,-7.28626,0.0],[112.49123,-7.28409,0.0],[112.4884,-7.28997,0.0],[112.48832,-7.29419,0.0],[112.48943,-7.29521,0.0],[112.48614,-7.29922,0.0]],[[112.46193,-7.27356,0.0],[112.46215,-7.2736,0.0],[112.46228,-7.2736,0.0],[112.46193,-7.27356,0.0]]]}},{"type":"Feature","properties":{"kecamatan":"Duduksampeyan","kab_kota":"Gresik"},"geometry":{"type":"Polygon","coordinates":[[[112.51711,-7.17852,0.0],[112.51096,-7.17941,0.0],[112.50709,-7.17574,0.0],[112.50737,-7.17463,0.0],[112.50477,-7.17357,0.0],[112.50371,-7.17209,0.0],[112.5058,-7.16599,0.0],[112.5059,-7.16361,0.0],[112.50491,-7.16316,0.0],[112.49843,-7.16268,0.0],[112.49622,-7.16495,0.0],[112.48014,-7.16323,0.0],[112.47878,-7.16473,0.0],[112.4774,-7.16214,0.0],[112.47005,-7.15895,0.0],[112.47204,-7.15287,0.0],[112.47143,-7.14101,0.0],[112.47268,-7.14085,0.0],[112.47343,-7.13406,0.0],[112.47679,-7.12518,0.0],[112.47804,-7.12471,0.0],[112.47961,-7.12667,0.0],[112.48193,-7.12623,0.0],[112.48426,-7.12838,0.0],[112.48554,-7.12635,0.0],[112.48736,-7.12621,0.0],[112.48659,-7.12805,0.0],[112.48764,-7.12878,0.0],[112.4943,-7.12297,0.0],[112.49577,-7.12523,0.0],[112.49932,-7.12461,0.0],[112.49577,-7.12162,0.0],[112.49558,-7.12007,0.0],[112.49642,-7.11743,0.0],[112.4989,-7.11533,0.0],[112.50133,-7.10681,0.0],[112.51725,-7.10747,0.0],[112.51643,-7.10276,0.0],[112.51754,-7.10392,0.0],[112.52002,-7.10301,0.0],[112.52224,-7.09957,0.0],[112.52531,-7.10148,0.0],[112.52643,-7.09988,0.0],[112.52991,-7.09978,0.0],[112.53636,-7.09559,0.0],[112.54146,-7.10084,0.0],[112.54959,-7.10204,0.0],[112.55097,-7.10294,0.0],[112.55126,-7.10318,0.0],[112.55052,-7.10492,0.0],[112.55319,-7.10655,0.0],[112.56178,-7.10698,0.0],[112.5643,-7.10936,0.0],[112.56718,-7.11621,0.0],[112.56639,-7.12113,0.0],[112.56741,-7.12225,0.0],[112.5656,-7.12743,0.0],[112.56663,-7.13429,0.0],[112.57092,-7.13671,0.0],[112.57187,-7.14018,0.0],[112.56877,-7.14286,0.0],[112.56893,-7.14557,0.0],[112.57363,-7.15251,0.0],[112.5728,-7.15772,0.0],[112.5796,-7.16489,0.0],[112.57974,-7.16951,0.0],[112.57642,-7.17373,0.0],[112.5712,-7.17455,0.0],[112.56783,-7.18172,0.0],[112.56291,-7.18013,0.0],[112.55837,-7.18098,0.0],[112.55331,-7.1798,0.0],[112.54888,-7.18182,0.0],[112.54103,-7.18068,0.0],[112.53998,-7.18582,0.0],[112.53824,-7.18632,0.0],[112.53358,-7.18579,0.0],[112.53305,-7.18404,0.0],[112.52972,-7.18225,0.0],[112.52946,-7.19362,0.0],[112.53027,-7.19381,0.0],[112.52894,-7.20037,0.0],[112.52224,-7.20446,0.0],[112.51938,-7.2034,0.0],[112.51786,-7.20543,0.0],[112.51201,-7.2053,0.0],[112.51243,-7.20145,0.0],[112.51792,-7.19467,0.0],[112.51638,-7.18452,0.0],[112.51474,-7.1831,0.0],[112.51526,-7.18149,0.0],[112.5168,-7.18183,0.0],[112.51711,-7.17852,0.0]]]}},{"type":"Feature","properties":{"kecamatan":"Kedamean","kab_kota":"Gresik"},"geometry":{"type":"Polygon","coordinates":[[[112.50407,-7.33823,0.0],[112.49616,-7.33334,0.0],[112.49487,-7.33456,0.0],[112.49824,-7.33594,0.0],[112.49728,-7.33844,0.0],[112.49019,-7.33919,0.0],[112.48882,-7.33713,0.0],[112.49047,-7.33365,0.0],[112.48889,-7.33302,0.0],[112.48627,-7.33783,0.0],[112.48365,-7.33785,0.0],[112.48098,-7.33551,0.0],[112.48239,-7.33498,0.0],[112.48132,-7.33239,0.0],[112.47813,-7.33244,0.0],[112.47803,-7.32999,0.0],[112.47647,-7.32992,0.0],[112.47633,-7.32867,0.0],[112.47977,-7.32836,0.0],[112.47899,-7.32233,0.0],[112.48017,-7.30816,0.0],[112.4886,-7.30698,0.0],[112.48773,-7.30262,0.0],[112.48492,-7.30256,0.0],[112.48513,-7.30056,0.0],[112.48943,-7.29521,0.0],[112.48831,-7.29411,0.0],[112.4893,-7.2864,0.0],[112.49127,-7.28407,0.0],[112.49423,-7.28442,0.0],[112.49898,-7.28737,0.0],[112.50043,-7.29057,0.0],[112.50343,-7.29059,0.0],[112.50335,-7.28456,0.0],[112.50916,-7.28512,0.0],[112.50897,-7.28163,0.0],[112.50708,-7.28089,0.0],[112.50699,-7.27375,0.0],[112.51023,-7.27322,0.0],[112.5119,-7.26794,0.0],[112.51429,-7.2672,0.0],[112.51559,-7.26536,0.0],[112.51442,-7.26512,0.0],[112.5157,-7.26441,0.0],[112.51965,-7.2705,0.0],[112.52693,-7.27215,0.0],[112.52879,-7.27077,0.0],[112.52738,-7.2763,0.0],[112.52769,-7.28239,0.0],[112.52856,-7.28365,0.0],[112.53127,-7.28251,0.0],[112.53317,-7.28357,0.0],[112.53231,-7.28525,0.0],[112.52949,-7.28548,0.0],[112.52845,-7.29513,0.0],[112.53667,-7.29646,0.0],[112.54285,-7.2944,0.0],[112.544,-7.29599,0.0],[112.5516,-7.29705,0.0],[112.55242,-7.30127,0.0],[112.56229,-7.30445,0.0],[112.56125,-7.30978,0.0],[112.5683,-7.31249,0.0],[112.57077,-7.31221,0.0],[112.57106,-7.3074,0.0],[112.57723,-7.3081,0.0],[112.57957,-7.30948,0.0],[112.57894,-7.31081,0.0],[112.58665,-7.31325,0.0],[112.58727,-7.31121,0.0],[112.59107,-7.31064,0.0],[112.5907,-7.32928,0.0],[112.59254,-7.33344,0.0],[112.57297,-7.33329,0.0],[112.57271,-7.33896,0.0],[112.56787,-7.34446,0.0],[112.56636,-7.34434,0.0],[112.56517,-7.34679,0.0],[112.56666,-7.34876,0.0],[112.56621,-7.35113,0.0],[112.56768,-7.35502,0.0],[112.56592,-7.36454,0.0],[112.56534,-7.36303,0.0],[112.56283,-7.36315,0.0],[112.56195,-7.36103,0.0],[112.56001,-7.36036,0.0],[112.55005,-7.36015,0.0],[112.54773,-7.35694,0.0],[112.54674,-7.35851,0.0],[112.53055,-7.35541,0.0],[112.52895,-7.34988,0.0],[112.53064,-7.34029,0.0],[112.5253,-7.33965,0.0],[112.52508,-7.3382,0.0],[112.52155,-7.3359,0.0],[112.51534,-7.33538,0.0],[112.51241,-7.33795,0.0],[112.50407,-7.33823,0.0]]]}},{"type":"Feature","properties":{"kecamatan":"Sidayu","kab_kota":"Gresik"},"geometry":{"type":"Polygon","coordinates":[[[112.56093,-7.00862,0.0],[112.56057,-7.01053,0.0],[112.55827,-7.00963,0.0],[112.5567,-7.01042,0.0],[112.55479,-7.00869,0.0],[112.55211,-7.0098,0.0],[112.55161,-7.00706,0.0],[112.5467,-7.00634,0.0],[112.54573,-7.00967,0.0],[112.54306,-7.00906,0.0],[112.54393,-7.00637,0.0],[112.54272,-7.00756,0.0],[112.53761,-7.00448,0.0],[112.53546,-7.00437,0.0],[112.53555,-7.00557,0.0],[112.53258,-7.0072,0.0],[112.53062,-7.0062,0.0],[112.5298,-7.00336,0.0],[112.52633,-7.00353,0.0],[112.52545,-7.00485,0.0],[112.5196,-7.004,0.0],[112.51866,-6.99943,0.0],[112.5156,-6.99792,0.0],[112.51373,-6.9999,0.0],[112.50646,-6.99958,0.0],[112.50515,-6.99845,0.0],[112.50468,-6.9916,0.0],[112.50252,-6.98805,0.0],[112.49468,-6.98487,0.0],[112.49323,-6.98315,0.0],[112.48972,-6.98254,0.0],[112.49254,-6.97322,0.0],[112.4952,-6.96917,0.0],[112.49493,-6.96259,0.0],[112.49803,-6.96302,0.0],[112.49964,-6.96092,0.0],[112.50528,-6.9625,0.0],[112.5064,-6.96387,0.0],[112.50837,-6.95901,0.0],[112.51114,-6.95731,0.0],[112.51451,-6.95732,0.0],[112.51828,-6.96106,0.0],[112.51833,-6.96824,0.0],[112.53098,-6.97173,0.0],[112.53305,-6.96708,0.0],[112.5368,-6.9656,0.0],[112.54214,-6.96792,0.0],[112.54236,-6.9699,0.0],[112.54489,-6.96965,0.0],[112.5443,-6.97595,0.0],[112.54764,-6.97691,0.0],[112.54785,-6.97585,0.0],[112.55857,-6.97915,0.0],[112.56006,-6.97499,0.0],[112.56313,-6.97598,0.0],[112.56298,-6.97796,0.0],[112.56402,-6.97838,0.0],[112.56606,-6.97768,0.0],[112.56648,-6.97518,0.0],[112.56879,-6.97436,0.0],[112.56725,-6.95791,0.0],[112.57184,-6.95762,0.0],[112.57171,-6.9522,0.0],[112.5843,-6.95179,0.0],[112.58539,-6.96066,0.0],[112.58661,-6.96146,0.0],[112.59253,-6.96017,0.0],[112.59451,-6.95711,0.0],[112.60126,-6.95469,0.0],[112.60389,-6.95866,0.0],[112.60389,-6.96116,0.0],[112.60002,-6.96532,0.0],[112.60001,-6.97146,0.0],[112.59629,-6.97854,0.0],[112.59758,-6.98334,0.0],[112.59369,-7.00221,0.0],[112.58985,-7.00269,0.0],[112.58898,-7.00179,0.0],[112.58466,-7.0099,0.0],[112.58073,-7.01266,0.0],[112.57904,-7.00725,0.0],[112.57379,-7.00824,0.0],[112.5731,-7.01108,0.0],[112.57102,-7.01155,0.0],[112.56884,-7.00857,0.0],[112.56093,-7.00862,0.0]]]}},{"type":"Feature","properties":{"kecamatan":"Menganti","kab_kota":"Gresik"},"geometry":{"type":"Polygon","coordinates":[[[112.57925,-7.30943,0.0],[112.57723,-7.3081,0.0],[112.57106,-7.3074,0.0],[112.57077,-7.31221,0.0],[112.5683,-7.31249,0.0],[112.56125,-7.30978,0.0],[112.56229,-7.30445,0.0],[112.55242,-7.30127,0.0],[112.5516,-7.29705,0.0],[112.544,-7.29599,0.0],[112.54285,-7.2944,0.0],[112.53667,-7.29646,0.0],[112.52845,-7.29513,0.0],[112.52949,-7.28548,0.0],[112.53231,-7.28525,0.0],[112.53317,-7.28346,0.0],[112.53127,-7.28251,0.0],[112.52846,-7.28359,0.0],[112.52745,-7.27568,0.0],[112.52969,-7.26986,0.0],[112.53874,-7.27082,0.0],[112.54031,-7.26884,0.0],[112.53987,-7.26744,0.0],[112.54115,-7.268,0.0],[112.54149,-7.26607,0.0],[112.54331,-7.26669,0.0],[112.54223,-7.26449,0.0],[112.54449,-7.26476,0.0],[112.54495,-7.25882,0.0],[112.54728,-7.25901,0.0],[112.54724,-7.2571,0.0],[112.54937,-7.25829,0.0],[112.55029,-7.25677,0.0],[112.55187,-7.25925,0.0],[112.55393,-7.25863,0.0],[112.55525,-7.25976,0.0],[112.55519,-7.25774,0.0],[112.55715,-7.2582,0.0],[112.55744,-7.26167,0.0],[112.55869,-7.25759,0.0],[112.55954,-7.25901,0.0],[112.56256,-7.2593,0.0],[112.5624,-7.2572,0.0],[112.56069,-7.25681,0.0],[112.56209,-7.25486,0.0],[112.56062,-7.25376,0.0],[112.5617,-7.25183,0.0],[112.56442,-7.25406,0.0],[112.56568,-7.25212,0.0],[112.56297,-7.25004,0.0],[112.56425,-7.24823,0.0],[112.56237,-7.24759,0.0],[112.56421,-7.24428,0.0],[112.56669,-7.24554,0.0],[112.56866,-7.24325,0.0],[112.56971,-7.24571,0.0],[112.57237,-7.24707,0.0],[112.57455,-7.24639,0.0],[112.57223,-7.245,0.0],[112.57213,-7.24111,0.0],[112.57607,-7.24174,0.0],[112.57719,-7.23833,0.0],[112.57573,-7.23826,0.0],[112.57572,-7.23693,0.0],[112.58013,-7.23355,0.0],[112.57865,-7.22967,0.0],[112.58298,-7.2312,0.0],[112.58873,-7.23064,0.0],[112.58952,-7.22944,0.0],[112.58769,-7.22777,0.0],[112.5887,-7.2265,0.0],[112.58991,-7.22707,0.0],[112.59017,-7.23094,0.0],[112.59284,-7.2322,0.0],[112.59432,-7.23091,0.0],[112.59414,-7.22686,0.0],[112.59144,-7.22562,0.0],[112.59201,-7.22426,0.0],[112.59892,-7.22892,0.0],[112.60006,-7.23239,0.0],[112.60459,-7.2329,0.0],[112.60719,-7.23723,0.0],[112.60617,-7.24138,0.0],[112.60179,-7.24625,0.0],[112.60413,-7.24957,0.0],[112.60591,-7.25077,0.0],[112.60763,-7.24796,0.0],[112.61261,-7.24968,0.0],[112.61465,-7.25097,0.0],[112.61407,-7.25464,0.0],[112.61838,-7.25568,0.0],[112.61834,-7.25772,0.0],[112.62514,-7.26071,0.0],[112.63064,-7.26004,0.0],[112.63106,-7.26277,0.0],[112.63288,-7.26354,0.0],[112.63229,-7.26616,0.0],[112.63034,-7.26671,0.0],[112.62911,-7.27362,0.0],[112.62736,-7.27347,0.0],[112.62583,-7.27759,0.0],[112.62287,-7.2794,0.0],[112.62175,-7.28271,0.0],[112.6253,-7.28601,0.0],[112.62528,-7.28964,0.0],[112.6278,-7.29058,0.0],[112.6273,-7.29865,0.0],[112.6288,-7.30143,0.0],[112.63008,-7.31459,0.0],[112.62452,-7.3152,0.0],[112.61073,-7.31348,0.0],[112.60387,-7.31129,0.0],[112.60197,-7.30887,0.0],[112.59912,-7.30811,0.0],[112.59734,-7.31151,0.0],[112.58897,-7.31039,0.0],[112.58881,-7.31154,0.0],[112.58707,-7.31141,0.0],[112.58665,-7.31325,0.0],[112.57894,-7.31081,0.0],[112.57925,-7.30943,0.0]]]}},{"type":"Feature","properties":{"kecamatan":"Kebomas","kab_kota":"Gresik"},"geometry":{"type":"Polygon","coordinates":[[[112.62729,-7.1961,0.0],[112.62153,-7.20101,0.0],[112.62573,-7.20156,0.0],[112.62423,-7.20763,0.0],[112.61986,-7.20865,0.0],[112.62028,-7.20172,0.0],[112.61792,-7.20332,0.0],[112.6168,-7.20714,0.0],[112.61469,-7.2077,0.0],[112.61511,-7.20229,0.0],[112.6125,-7.20071,0.0],[112.60982,-7.20204,0.0],[112.61266,-7.20496,0.0],[112.61181,-7.20719,0.0],[112.60963,-7.2078,0.0],[112.60781,-7.20234,0.0],[112.60651,-7.20338,0.0],[112.60614,-7.20683,0.0],[112.6048,-7.20752,0.0],[112.60409,-7.20531,0.0],[112.60576,-7.20133,0.0],[112.60285,-7.20056,0.0],[112.60208,-7.19774,0.0],[112.59906,-7.19788,0.0],[112.60002,-7.19435,0.0],[112.59722,-7.19575,0.0],[112.59689,-7.19416,0.0],[112.59524,-7.19427,0.0],[112.59704,-7.1918,0.0],[112.59661,-7.18615,0.0],[112.60026,-7.1776,0.0],[112.59088,-7.17535,0.0],[112.58771,-7.17304,0.0],[112.58576,-7.16925,0.0],[112.58223,-7.1673,0.0],[112.57974,-7.16951,0.0],[112.5796,-7.16489,0.0],[112.57742,-7.16224,0.0],[112.57957,-7.15975,0.0],[112.58356,-7.16139,0.0],[112.58597,-7.16092,0.0],[112.58722,-7.15473,0.0],[112.58946,-7.15542,0.0],[112.58989,-7.1541,0.0],[112.59861,-7.15765,0.0],[112.60368,-7.16145,0.0],[112.60604,-7.16117,0.0],[112.60593,-7.15972,0.0],[112.60826,-7.15979,0.0],[112.60867,-7.15812,0.0],[112.6128,-7.15939,0.0],[112.61431,-7.15682,0.0],[112.61737,-7.15602,0.0],[112.61696,-7.15405,0.0],[112.62055,-7.14901,0.0],[112.64038,-7.15755,0.0],[112.63994,-7.1591,0.0],[112.64338,-7.16206,0.0],[112.63935,-7.16594,0.0],[112.64022,-7.17025,0.0],[112.64187,-7.17133,0.0],[112.64364,-7.16678,0.0],[112.64277,-7.16559,0.0],[112.64505,-7.1646,0.0],[112.64606,-7.16251,0.0],[112.64848,-7.16391,0.0],[112.64977,-7.16667,0.0],[112.65678,-7.16993,0.0],[112.65612,-7.17236,0.0],[112.65799,-7.17309,0.0],[112.65765,-7.1741,0.0],[112.65982,-7.17474,0.0],[112.65989,-7.17292,0.0],[112.66286,-7.1739,0.0],[112.66282,-7.17715,0.0],[112.66502,-7.17834,0.0],[112.67466,-7.17546,0.0],[112.67442,-7.178,0.0],[112.67628,-7.18212,0.0],[112.66689,-7.18208,0.0],[112.66526,-7.18408,0.0],[112.66712,-7.18501,0.0],[112.66659,-7.18806,0.0],[112.66535,-7.1915,0.0],[112.66321,-7.19325,0.0],[112.64759,-7.19525,0.0],[112.64006,-7.19245,0.0],[112.6348,-7.19497,0.0],[112.62729,-7.1961,0.0]]]}},{"type":"Feature","properties":{"kecamatan":"Cerme","kab_kota":"Gresik"},"geometry":{"type":"Polygon","coordinates":[[[112.54509,-7.2585,0.0],[112.54456,-7.26466,0.0],[112.54223,-7.26449,0.0],[112.54339,-7.26659,0.0],[112.54149,-7.26607,0.0],[112.54115,-7.268,0.0],[112.53987,-7.26744,0.0],[112.53896,-7.27073,0.0],[112.5337,-7.26969,0.0],[112.53241,-7.27094,0.0],[112.52993,-7.26981,0.0],[112.52718,-7.27214,0.0],[112.51965,-7.2705,0.0],[112.51934,-7.26869,0.0],[112.51722,-7.26807,0.0],[112.51633,-7.26458,0.0],[112.5126,-7.26493,0.0],[112.51067,-7.26245,0.0],[112.50871,-7.26233,0.0],[112.5099,-7.25275,0.0],[112.51202,-7.25292,0.0],[112.51363,-7.24934,0.0],[112.5125,-7.2471,0.0],[112.51596,-7.24519,0.0],[112.51446,-7.24335,0.0],[112.51565,-7.23996,0.0],[112.51404,-7.2408,0.0],[112.51349,-7.23986,0.0],[112.51535,-7.23823,0.0],[112.51494,-7.23694,0.0],[112.51361,-7.23815,0.0],[112.51257,-7.23598,0.0],[112.51112,-7.2382,0.0],[112.51027,-7.2364,0.0],[112.50803,-7.23632,0.0],[112.50672,-7.23459,0.0],[112.5064,-7.23011,0.0],[112.50863,-7.22751,0.0],[112.5079,-7.22458,0.0],[112.51192,-7.21985,0.0],[112.51725,-7.2195,0.0],[112.52078,-7.22131,0.0],[112.5236,-7.22123,0.0],[112.52563,-7.21189,0.0],[112.52324,-7.21095,0.0],[112.52361,-7.20836,0.0],[112.52113,-7.20456,0.0],[112.52453,-7.20356,0.0],[112.52918,-7.19975,0.0],[112.53027,-7.19381,0.0],[112.52946,-7.19362,0.0],[112.52972,-7.18225,0.0],[112.53305,-7.18404,0.0],[112.53358,-7.18579,0.0],[112.53824,-7.18632,0.0],[112.53998,-7.18582,0.0],[112.54103,-7.18068,0.0],[112.54888,-7.18182,0.0],[112.55331,-7.1798,0.0],[112.55837,-7.18098,0.0],[112.56291,-7.18013,0.0],[112.56783,-7.18172,0.0],[112.5712,-7.17455,0.0],[112.57642,-7.17373,0.0],[112.58223,-7.1673,0.0],[112.58576,-7.16925,0.0],[112.58771,-7.17304,0.0],[112.59088,-7.17535,0.0],[112.60026,-7.1776,0.0],[112.59661,-7.18615,0.0],[112.59704,-7.1918,0.0],[112.59524,-7.19427,0.0],[112.59689,-7.19416,0.0],[112.59722,-7.19575,0.0],[112.60002,-7.19435,0.0],[112.59906,-7.19788,0.0],[112.60208,-7.19774,0.0],[112.60285,-7.20056,0.0],[112.60576,-7.20133,0.0],[112.60435,-7.20523,0.0],[112.60101,-7.20245,0.0],[112.59745,-7.20396,0.0],[112.59619,-7.20618,0.0],[112.59849,-7.20715,0.0],[112.60075,-7.21058,0.0],[112.60058,-7.21345,0.0],[112.59794,-7.21236,0.0],[112.59473,-7.21458,0.0],[112.59608,-7.21614,0.0],[112.59926,-7.21519,0.0],[112.60113,-7.21619,0.0],[112.59753,-7.21945,0.0],[112.59922,-7.22331,0.0],[112.59751,-7.22324,0.0],[112.59579,-7.22098,0.0],[112.59425,-7.21543,0.0],[112.59044,-7.21404,0.0],[112.59011,-7.21515,0.0],[112.59177,-7.22347,0.0],[112.59686,-7.22341,0.0],[112.59874,-7.22767,0.0],[112.59725,-7.22819,0.0],[112.59126,-7.22427,0.0],[112.59144,-7.22562,0.0],[112.59408,-7.22653,0.0],[112.59432,-7.23091,0.0],[112.59284,-7.2322,0.0],[112.59017,-7.23094,0.0],[112.58991,-7.22707,0.0],[112.5887,-7.2265,0.0],[112.58769,-7.22777,0.0],[112.58952,-7.22944,0.0],[112.58873,-7.23064,0.0],[112.58298,-7.2312,0.0],[112.57865,-7.22967,0.0],[112.58013,-7.23355,0.0],[112.57572,-7.23693,0.0],[112.57573,-7.23826,0.0],[112.57719,-7.23833,0.0],[112.57607,-7.24174,0.0],[112.57213,-7.24111,0.0],[112.57223,-7.245,0.0],[112.57455,-7.24639,0.0],[112.57237,-7.24707,0.0],[112.56971,-7.24571,0.0],[112.56866,-7.24325,0.0],[112.56675,-7.24552,0.0],[112.56477,-7.24401,0.0],[112.56287,-7.24611,0.0],[112.56237,-7.24759,0.0],[112.56425,-7.24823,0.0],[112.56297,-7.25004,0.0],[112.5657,-7.25205,0.0],[112.56455,-7.25406,0.0],[112.56188,-7.25185,0.0],[112.56075,-7.25311,0.0],[112.56079,-7.25478,0.0],[112.5621,-7.25504,0.0],[112.56069,-7.25681,0.0],[112.5624,-7.2572,0.0],[112.56244,-7.25939,0.0],[112.55954,-7.25901,0.0],[112.55869,-7.25759,0.0],[112.55744,-7.26167,0.0],[112.55715,-7.2582,0.0],[112.55519,-7.25774,0.0],[112.55525,-7.25976,0.0],[112.55393,-7.25863,0.0],[112.55195,-7.25927,0.0],[112.55003,-7.25674,0.0],[112.54943,-7.25827,0.0],[112.54726,-7.25709,0.0],[112.54728,-7.25901,0.0],[112.54509,-7.2585,0.0]]]}},{"type":"Feature","properties":{"kecamatan":"Bungah","kab_kota":"Gresik"},"geometry":{"type":"Polygon","coordinates":[[[112.52508,-7.01662,0.0],[112.52874,-7.01927,0.0],[112.5329,-7.01817,0.0],[112.53844,-7.00723,0.0],[112.53563,-7.00653,0.0],[112.5356,-7.00431,0.0],[112.54272,-7.00756,0.0],[112.54393,-7.00637,0.0],[112.54331,-7.00923,0.0],[112.54616,-7.00962,0.0],[112.5467,-7.00634,0.0],[112.55161,-7.00706,0.0],[112.55179,-7.00965,0.0],[112.55479,-7.00869,0.0],[112.5567,-7.01042,0.0],[112.55827,-7.00963,0.0],[112.56057,-7.01053,0.0],[112.56093,-7.00862,0.0],[112.56884,-7.00857,0.0],[112.5707,-7.01154,0.0],[112.5731,-7.01108,0.0],[112.57379,-7.00824,0.0],[112.57904,-7.00725,0.0],[112.58029,-7.01244,0.0],[112.58202,-7.01196,0.0],[112.58598,-7.00814,0.0],[112.58898,-7.00179,0.0],[112.58985,-7.00269,0.0],[112.59369,-7.00221,0.0],[112.59758,-6.98334,0.0],[112.59629,-6.97854,0.0],[112.60001,-6.97146,0.0],[112.59968,-6.9664,0.0],[112.60264,-6.96256,0.0],[112.60575,-6.9616,0.0],[112.60683,-6.9631,0.0],[112.60726,-6.97553,0.0],[112.61528,-6.99321,0.0],[112.62458,-7.00115,0.0],[112.62574,-7.00297,0.0],[112.62507,-7.00415,0.0],[112.62941,-7.00916,0.0],[112.63929,-7.01164,0.0],[112.64459,-7.01729,0.0],[112.65037,-7.01866,0.0],[112.64827,-7.02229,0.0],[112.64569,-7.0226,0.0],[112.64522,-7.02642,0.0],[112.64324,-7.02643,0.0],[112.64329,-7.02835,0.0],[112.64516,-7.02783,0.0],[112.64534,-7.0285,0.0],[112.64419,-7.02867,0.0],[112.6427,-7.03225,0.0],[112.64676,-7.034,0.0],[112.653,-7.04183,0.0],[112.65156,-7.04419,0.0],[112.65213,-7.04957,0.0],[112.64974,-7.05295,0.0],[112.65066,-7.05613,0.0],[112.64782,-7.05933,0.0],[112.64491,-7.05935,0.0],[112.64214,-7.05649,0.0],[112.63789,-7.05859,0.0],[112.63699,-7.05638,0.0],[112.638,-7.05362,0.0],[112.63048,-7.04593,0.0],[112.62826,-7.03962,0.0],[112.62126,-7.03321,0.0],[112.61929,-7.03475,0.0],[112.62085,-7.04622,0.0],[112.61911,-7.04623,0.0],[112.61691,-7.04859,0.0],[112.61348,-7.04876,0.0],[112.61437,-7.05123,0.0],[112.60992,-7.05149,0.0],[112.60983,-7.05527,0.0],[112.60783,-7.05887,0.0],[112.60155,-7.06176,0.0],[112.60535,-7.06447,0.0],[112.60266,-7.06533,0.0],[112.60219,-7.06756,0.0],[112.60086,-7.06809,0.0],[112.60381,-7.0719,0.0],[112.60253,-7.07269,0.0],[112.60284,-7.07521,0.0],[112.60001,-7.07712,0.0],[112.59917,-7.0794,0.0],[112.59701,-7.07866,0.0],[112.59755,-7.07742,0.0],[112.59606,-7.07582,0.0],[112.58951,-7.07795,0.0],[112.59316,-7.07979,0.0],[112.59247,-7.08156,0.0],[112.60066,-7.08177,0.0],[112.60055,-7.08244,0.0],[112.59235,-7.08268,0.0],[112.58998,-7.08114,0.0],[112.58784,-7.07531,0.0],[112.59427,-7.07623,0.0],[112.59699,-7.07379,0.0],[112.59956,-7.07417,0.0],[112.59933,-7.06756,0.0],[112.59755,-7.06584,0.0],[112.59612,-7.06969,0.0],[112.58958,-7.07072,0.0],[112.5872,-7.06996,0.0],[112.58732,-7.06828,0.0],[112.59174,-7.06525,0.0],[112.58799,-7.05784,0.0],[112.58694,-7.05763,0.0],[112.58346,-7.06251,0.0],[112.57833,-7.06339,0.0],[112.57443,-7.05769,0.0],[112.57149,-7.05714,0.0],[112.56276,-7.05883,0.0],[112.55404,-7.05153,0.0],[112.54607,-7.04749,0.0],[112.54451,-7.04822,0.0],[112.54418,-7.05315,0.0],[112.54212,-7.05369,0.0],[112.52425,-7.03906,0.0],[112.52242,-7.04026,0.0],[112.52262,-7.04573,0.0],[112.51922,-7.04706,0.0],[112.51277,-7.04015,0.0],[112.49901,-7.03128,0.0],[112.49635,-7.02752,0.0],[112.4965,-7.02489,0.0],[112.49969,-7.02264,0.0],[112.50653,-7.02119,0.0],[112.51072,-7.0223,0.0],[112.51316,-7.01727,0.0],[112.52508,-7.01662,0.0]]]}},{"type":"Feature","properties":{"kecamatan":"Sangkapura","kab_kota":"Gresik"},"geometry":{"type":"MultiPolygon","coordinates":[[[[112.62502,-5.86064,0.0],[112.62455,-5.86018,0.0],[112.62518,-5.86051,0.0],[112.62502,-5.86064,0.0]]],[[[112.66481,-5.85243,0.0],[112.66157,-5.85109,0.0],[112.6606,-5.85269,0.0],[112.65777,-5.85275,0.0],[112.65578,-5.85656,0.0],[112.6572,-5.85318,0.0],[112.65599,-5.85198,0.0],[112.65173,-5.85265,0.0],[112.64895,-5.84896,0.0],[112.64813,-5.85348,0.0],[112.64782,-5.85375,0.0],[112.64711,-5.85369,0.0],[112.64884,-5.8489,0.0],[112.64743,-5.84788,0.0],[112.64688,-5.84912,0.0],[112.64565,-5.84873,0.0],[112.64484,-5.85087,0.0],[112.64578,-5.84809,0.0],[112.64299,-5.84617,0.0],[112.64365,-5.85159,0.0],[112.64318,-5.85239,0.0],[112.64192,-5.85295,0.0],[112.6431,-5.85229,0.0],[112.64252,-5.84603,0.0],[112.63202,-5.84462,0.0],[112.63162,-5.84863,0.0],[112.6261,-5.85218,0.0],[112.62824,-5.8562,0.0],[112.62746,-5.85974,0.0],[112.62616,-5.86103,0.0],[112.62475,-5.85945,0.0],[112.62298,-5.86051,0.0],[112.62244,-5.86286,0.0],[112.62455,-5.86649,0.0],[112.62064,-5.87144,0.0],[112.61867,-5.86794,0.0],[112.61917,-5.86307,0.0],[112.62269,-5.8604,0.0],[112.62101,-5.85567,0.0],[112.61525,-5.85502,0.0],[112.61045,-5.85649,0.0],[112.60924,-5.85831,0.0],[112.60803,-5.85643,0.0],[112.60025,-5.85363,0.0],[112.59445,-5.85383,0.0],[112.5917,-5.85562,0.0],[112.58677,-5.84672,0.0],[112.58268,-5.84353,0.0],[112.58034,-5.84269,0.0],[112.57623,-5.84496,0.0],[112.57878,-5.83699,0.0],[112.58194,-5.83798,0.0],[112.58471,-5.8317,0.0],[112.57452,-5.82714,0.0],[112.57574,-5.82636,0.0],[112.58,-5.8147,0.0],[112.57699,-5.81184,0.0],[112.57376,-5.81295,0.0],[112.56991,-5.81078,0.0],[112.56955,-5.80923,0.0],[112.57232,-5.80368,0.0],[112.57645,-5.80754,0.0],[112.58248,-5.80585,0.0],[112.58212,-5.80375,0.0],[112.58484,-5.79535,0.0],[112.57933,-5.78935,0.0],[112.58743,-5.78831,0.0],[112.59034,-5.78387,0.0],[112.59616,-5.78704,0.0],[112.59798,-5.79052,0.0],[112.60117,-5.78787,0.0],[112.60313,-5.78824,0.0],[112.61245,-5.79716,0.0],[112.61882,-5.79568,0.0],[112.62732,-5.79163,0.0],[112.62995,-5.79335,0.0],[112.6288,-5.79013,0.0],[112.62632,-5.78956,0.0],[112.62628,-5.7855,0.0],[112.62762,-5.78283,0.0],[112.6312,-5.78168,0.0],[112.6343,-5.78417,0.0],[112.6363,-5.78422,0.0],[112.63696,-5.78697,0.0],[112.63827,-5.78742,0.0],[112.64006,-5.78722,0.0],[112.64357,-5.78231,0.0],[112.64635,-5.78335,0.0],[112.66652,-5.78259,0.0],[112.66662,-5.77206,0.0],[112.68117,-5.77246,0.0],[112.68287,-5.77136,0.0],[112.68387,-5.76718,0.0],[112.68642,-5.76926,0.0],[112.68761,-5.76871,0.0],[112.68921,-5.77265,0.0],[112.69338,-5.77537,0.0],[112.69528,-5.77243,0.0],[112.69425,-5.76786,0.0],[112.69534,-5.76661,0.0],[112.69506,-5.76262,0.0],[112.69739,-5.75914,0.0],[112.69957,-5.75969,0.0],[112.70053,-5.76344,0.0],[112.70593,-5.7679,0.0],[112.70627,-5.77118,0.0],[112.70947,-5.77585,0.0],[112.70692,-5.78051,0.0],[112.70892,-5.78396,0.0],[112.71326,-5.7854,0.0],[112.71576,-5.7841,0.0],[112.72056,-5.78793,0.0],[112.72557,-5.78803,0.0],[112.72704,-5.79024,0.0],[112.72859,-5.78966,0.0],[112.72886,-5.78803,0.0],[112.73463,-5.78638,0.0],[112.73247,-5.78416,0.0],[112.73524,-5.78433,0.0],[112.73644,-5.7857,0.0],[112.73997,-5.78402,0.0],[112.7412,-5.78956,0.0],[112.73971,-5.78928,0.0],[112.73757,-5.79174,0.0],[112.73529,-5.79499,0.0],[112.73563,-5.79755,0.0],[112.73206,-5.80017,0.0],[112.73286,-5.80298,0.0],[112.73199,-5.80448,0.0],[112.73086,-5.80423,0.0],[112.73021,-5.80768,0.0],[112.73137,-5.81215,0.0],[112.72761,-5.81735,0.0],[112.72919,-5.82154,0.0],[112.7328,-5.8236,0.0],[112.7328,-5.82889,0.0],[112.73395,-5.83101,0.0],[112.73167,-5.83365,0.0],[112.72524,-5.8349,0.0],[112.72107,-5.83293,0.0],[112.71978,-5.83728,0.0],[112.72073,-5.83856,0.0],[112.71839,-5.84286,0.0],[112.71688,-5.84249,0.0],[112.71312,-5.84658,0.0],[112.7098,-5.848,0.0],[112.70574,-5.84595,0.0],[112.70308,-5.84668,0.0],[112.70195,-5.85144,0.0],[112.69988,-5.85264,0.0],[112.69482,-5.85072,0.0],[112.69253,-5.85273,0.0],[112.69238,-5.85444,0.0],[112.68921,-5.8548,0.0],[112.68815,-5.85366,0.0],[112.68509,-5.85587,0.0],[112.68242,-5.85317,0.0],[112.67957,-5.85316,0.0],[112.6789,-5.85187,0.0],[112.67025,-5.85542,0.0],[112.66599,-5.85071,0.0],[112.66481,-5.85074,0.0],[112.66481,-5.85243,0.0]]],[[[112.70515,-5.87081,0.0],[112.70758,-5.87157,0.0],[112.70468,-5.87153,0.0],[112.70515,-5.87081,0.0]]],[[[112.69009,-5.8681,0.0],[112.69076,-5.86763,0.0],[112.69081,-5.86794,0.0],[112.69009,-5.8681,0.0]]],[[[112.68955,-5.86234,0.0],[112.68945,-5.8669,0.0],[112.6856,-5.8687,0.0],[112.68379,-5.86503,0.0],[112.68605,-5.85861,0.0],[112.68766,-5.85881,0.0],[112.68955,-5.86234,0.0]]],[[[112.7679,-5.81231,0.0],[112.76887,-5.81081,0.0],[112.76787,-5.81346,0.0],[112.7679,-5.81231,0.0]]],[[[112.77807,-5.8025,0.0],[112.77837,-5.80276,0.0],[112.7775,-5.80297,0.0],[112.77807,-5.8025,0.0]]],[[[112.76772,-5.79523,0.0],[112.7714,-5.79614,0.0],[112.77337,-5.80244,0.0],[112.7761,-5.80336,0.0],[112.77507,-5.80496,0.0],[112.77039,-5.80376,0.0],[112.76759,-5.79721,0.0],[112.76772,-5.79523,0.0]]]]}},{"type":"Feature","properties":{"kecamatan":"Tambak","kab_kota":"Gresik"},"geometry":{"type":"MultiPolygon","coordinates":[[[[112.59806,-5.76896,0.0],[112.60131,-5.7703,0.0],[112.6039,-5.77365,0.0],[112.61061,-5.77171,0.0],[112.61245,-5.76866,0.0],[112.61212,-5.75725,0.0],[112.61417,-5.75469,0.0],[112.61291,-5.75053,0.0],[112.61645,-5.74883,0.0],[112.62355,-5.74949,0.0],[112.62391,-5.74811,0.0],[112.62823,-5.74739,0.0],[112.62981,-5.74464,0.0],[112.63238,-5.74391,0.0],[112.63663,-5.73623,0.0],[112.64588,-5.73056,0.0],[112.65701,-5.73022,0.0],[112.66295,-5.73251,0.0],[112.66454,-5.73543,0.0],[112.66849,-5.73714,0.0],[112.67283,-5.73585,0.0],[112.67546,-5.73296,0.0],[112.67439,-5.72277,0.0],[112.67734,-5.72244,0.0],[112.68121,-5.71781,0.0],[112.68635,-5.71577,0.0],[112.6886,-5.71876,0.0],[112.68774,-5.72263,0.0],[112.68959,-5.72544,0.0],[112.69884,-5.73002,0.0],[112.69972,-5.73252,0.0],[112.7044,-5.7354,0.0],[112.70977,-5.73468,0.0],[112.71127,-5.7337,0.0],[112.71103,-5.73161,0.0],[112.71283,-5.73155,0.0],[112.72054,-5.73781,0.0],[112.72623,-5.73704,0.0],[112.72717,-5.74,0.0],[112.72453,-5.74305,0.0],[112.72553,-5.74951,0.0],[112.72423,-5.76002,0.0],[112.72618,-5.76205,0.0],[112.72845,-5.76194,0.0],[112.73135,-5.75948,0.0],[112.73268,-5.76363,0.0],[112.73561,-5.76523,0.0],[112.73598,-5.76642,0.0],[112.73341,-5.76834,0.0],[112.73282,-5.77062,0.0],[112.73039,-5.77178,0.0],[112.73187,-5.77627,0.0],[112.73503,-5.7788,0.0],[112.7355,-5.78193,0.0],[112.73842,-5.78173,0.0],[112.73983,-5.78388,0.0],[112.73644,-5.7857,0.0],[112.73524,-5.78433,0.0],[112.73247,-5.78416,0.0],[112.73463,-5.78638,0.0],[112.72886,-5.78803,0.0],[112.72859,-5.78966,0.0],[112.72704,-5.79024,0.0],[112.72557,-5.78803,0.0],[112.72056,-5.78793,0.0],[112.71576,-5.7841,0.0],[112.71326,-5.7854,0.0],[112.70892,-5.78396,0.0],[112.70692,-5.78051,0.0],[112.70947,-5.77585,0.0],[112.70627,-5.77118,0.0],[112.70593,-5.7679,0.0],[112.70053,-5.76344,0.0],[112.69957,-5.75969,0.0],[112.69739,-5.75914,0.0],[112.69506,-5.76262,0.0],[112.69534,-5.76661,0.0],[112.69425,-5.76786,0.0],[112.69528,-5.77243,0.0],[112.69338,-5.77537,0.0],[112.68921,-5.77265,0.0],[112.68761,-5.76871,0.0],[112.68642,-5.76926,0.0],[112.68387,-5.76718,0.0],[112.68287,-5.77136,0.0],[112.68117,-5.77246,0.0],[112.66662,-5.77206,0.0],[112.66652,-5.78259,0.0],[112.64635,-5.78335,0.0],[112.64357,-5.78231,0.0],[112.64006,-5.78722,0.0],[112.63827,-5.78742,0.0],[112.63696,-5.78697,0.0],[112.6363,-5.78422,0.0],[112.6343,-5.78417,0.0],[112.6312,-5.78168,0.0],[112.62762,-5.78283,0.0],[112.62628,-5.7855,0.0],[112.62632,-5.78956,0.0],[112.6288,-5.79013,0.0],[112.62995,-5.79335,0.0],[112.62732,-5.79163,0.0],[112.61882,-5.79568,0.0],[112.61245,-5.79716,0.0],[112.60313,-5.78824,0.0],[112.60117,-5.78787,0.0],[112.59798,-5.79052,0.0],[112.59603,-5.78694,0.0],[112.59373,-5.78651,0.0],[112.5918,-5.78418,0.0],[112.58908,-5.78462,0.0],[112.58822,-5.78331,0.0],[112.59001,-5.78003,0.0],[112.58976,-5.77605,0.0],[112.59114,-5.77714,0.0],[112.59225,-5.77389,0.0],[112.59806,-5.76896,0.0]]],[[[112.58097,-5.77561,0.0],[112.58112,-5.77489,0.0],[112.58181,-5.77504,0.0],[112.58097,-5.77561,0.0]]],[[[112.58529,-5.76709,0.0],[112.58835,-5.76759,0.0],[112.58776,-5.76996,0.0],[112.58687,-5.76853,0.0],[112.58558,-5.76914,0.0],[112.58528,-5.77102,0.0],[112.58705,-5.77282,0.0],[112.58626,-5.77517,0.0],[112.58356,-5.77442,0.0],[112.58093,-5.76862,0.0],[112.58529,-5.76709,0.0]]],[[[112.60721,-5.73734,0.0],[112.60671,-5.73894,0.0],[112.60594,-5.73906,0.0],[112.60524,-5.73745,0.0],[112.60721,-5.73734,0.0]]],[[[112.70446,-5.73336,0.0],[112.70387,-5.73482,0.0],[112.70373,-5.7338,0.0],[112.70446,-5.73336,0.0]]]]}},{"type":"Feature","properties":{"kecamatan":"Driyorejo","kab_kota":"Gresik"},"geometry":{"type":"Polygon","coordinates":[[[112.60494,-7.37083,0.0],[112.59272,-7.3723,0.0],[112.58851,-7.3703,0.0],[112.58827,-7.3756,0.0],[112.58404,-7.37969,0.0],[112.58396,-7.38297,0.0],[112.57937,-7.38367,0.0],[112.57855,-7.38681,0.0],[112.57711,-7.3876,0.0],[112.5732,-7.37329,0.0],[112.57554,-7.37157,0.0],[112.57595,-7.36765,0.0],[112.56592,-7.36454,0.0],[112.56768,-7.35502,0.0],[112.56621,-7.35113,0.0],[112.56666,-7.34876,0.0],[112.56517,-7.34679,0.0],[112.56636,-7.34434,0.0],[112.56787,-7.34446,0.0],[112.57271,-7.33896,0.0],[112.57297,-7.33329,0.0],[112.59254,-7.33344,0.0],[112.5907,-7.32928,0.0],[112.59107,-7.31064,0.0],[112.59734,-7.31151,0.0],[112.59912,-7.30811,0.0],[112.60197,-7.30887,0.0],[112.60387,-7.31129,0.0],[112.61073,-7.31348,0.0],[112.62021,-7.31483,0.0],[112.62508,-7.3152,0.0],[112.62649,-7.31418,0.0],[112.62871,-7.31536,0.0],[112.63049,-7.31307,0.0],[112.63052,-7.31437,0.0],[112.63072,-7.31314,0.0],[112.63097,-7.31414,0.0],[112.63104,-7.31313,0.0],[112.63124,-7.31404,0.0],[112.63626,-7.31281,0.0],[112.64924,-7.31456,0.0],[112.64831,-7.31899,0.0],[112.65089,-7.32145,0.0],[112.65099,-7.32517,0.0],[112.64819,-7.33347,0.0],[112.65413,-7.334,0.0],[112.65446,-7.33207,0.0],[112.65776,-7.3305,0.0],[112.66138,-7.33723,0.0],[112.66496,-7.34041,0.0],[112.66459,-7.35144,0.0],[112.6586,-7.35402,0.0],[112.65417,-7.3589,0.0],[112.65342,-7.36218,0.0],[112.64271,-7.36081,0.0],[112.6397,-7.36316,0.0],[112.6351,-7.36406,0.0],[112.63024,-7.36779,0.0],[112.625,-7.3668,0.0],[112.62159,-7.36801,0.0],[112.61824,-7.36636,0.0],[112.60494,-7.37083,0.0]]]}},{"type":"Feature","properties":{"kecamatan":"Gresik","kab_kota":"Gresik"},"geometry":{"type":"Polygon","coordinates":[[[112.64602,-7.1626,0.0],[112.64505,-7.1646,0.0],[112.64277,-7.16559,0.0],[112.64364,-7.16678,0.0],[112.64187,-7.17133,0.0],[112.64022,-7.17025,0.0],[112.63935,-7.16594,0.0],[112.64338,-7.16206,0.0],[112.63994,-7.1591,0.0],[112.64038,-7.15755,0.0],[112.62928,-7.1533,0.0],[112.62882,-7.1511,0.0],[112.63671,-7.14832,0.0],[112.64014,-7.14926,0.0],[112.64102,-7.14785,0.0],[112.64672,-7.15127,0.0],[112.64913,-7.14717,0.0],[112.65266,-7.14542,0.0],[112.65224,-7.1466,0.0],[112.65467,-7.14576,0.0],[112.65363,-7.1473,0.0],[112.65487,-7.14634,0.0],[112.65691,-7.14866,0.0],[112.65877,-7.14765,0.0],[112.66001,-7.15207,0.0],[112.6616,-7.15214,0.0],[112.66293,-7.15508,0.0],[112.66073,-7.15574,0.0],[112.66046,-7.15816,0.0],[112.66466,-7.15711,0.0],[112.6631,-7.15939,0.0],[112.66633,-7.15774,0.0],[112.66657,-7.15805,0.0],[112.66318,-7.15944,0.0],[112.66038,-7.16241,0.0],[112.66622,-7.15949,0.0],[112.66851,-7.16276,0.0],[112.66394,-7.1649,0.0],[112.66282,-7.16327,0.0],[112.66375,-7.1653,0.0],[112.66789,-7.16389,0.0],[112.6692,-7.16666,0.0],[112.66684,-7.16908,0.0],[112.67105,-7.16854,0.0],[112.66609,-7.16932,0.0],[112.66655,-7.1709,0.0],[112.66983,-7.16987,0.0],[112.6692,-7.17123,0.0],[112.67104,-7.17074,0.0],[112.67127,-7.17089,0.0],[112.67021,-7.17112,0.0],[112.67072,-7.17313,0.0],[112.66969,-7.17418,0.0],[112.67257,-7.17406,0.0],[112.67466,-7.17546,0.0],[112.66502,-7.17834,0.0],[112.66282,-7.17715,0.0],[112.66286,-7.1739,0.0],[112.65989,-7.17292,0.0],[112.65982,-7.17474,0.0],[112.65765,-7.1741,0.0],[112.65799,-7.17309,0.0],[112.65612,-7.17236,0.0],[112.65678,-7.16993,0.0],[112.64977,-7.16667,0.0],[112.64848,-7.16391,0.0],[112.64602,-7.1626,0.0]]]}},{"type":"Feature","properties":{"kecamatan":"Manyar","kab_kota":"Gresik"},"geometry":{"type":"MultiPolygon","coordinates":[[[[112.59057,-7.15469,0.0],[112.58722,-7.15473,0.0],[112.58597,-7.16092,0.0],[112.58356,-7.16139,0.0],[112.57957,-7.15975,0.0],[112.57706,-7.16249,0.0],[112.57424,-7.15975,0.0],[112.5728,-7.15772,0.0],[112.57363,-7.15251,0.0],[112.5689,-7.14539,0.0],[112.56877,-7.14286,0.0],[112.57184,-7.14056,0.0],[112.57092,-7.13671,0.0],[112.56663,-7.13429,0.0],[112.5656,-7.12743,0.0],[112.56741,-7.12225,0.0],[112.56639,-7.12113,0.0],[112.56718,-7.11621,0.0],[112.5643,-7.10936,0.0],[112.56178,-7.10698,0.0],[112.55319,-7.10655,0.0],[112.55052,-7.10492,0.0],[112.55126,-7.10318,0.0],[112.54959,-7.10204,0.0],[112.548,-7.10258,0.0],[112.54578,-7.102,0.0],[112.54555,-7.10082,0.0],[112.54036,-7.10018,0.0],[112.53926,-7.09764,0.0],[112.53522,-7.09484,0.0],[112.5348,-7.09251,0.0],[112.53121,-7.09097,0.0],[112.53101,-7.08537,0.0],[112.53244,-7.08423,0.0],[112.5317,-7.08221,0.0],[112.53529,-7.07908,0.0],[112.53754,-7.08102,0.0],[112.54029,-7.07499,0.0],[112.54196,-7.06623,0.0],[112.54644,-7.06654,0.0],[112.54691,-7.05925,0.0],[112.5459,-7.05695,0.0],[112.54899,-7.05223,0.0],[112.55093,-7.05237,0.0],[112.55234,-7.05044,0.0],[112.56276,-7.05883,0.0],[112.57149,-7.05714,0.0],[112.57443,-7.05769,0.0],[112.57589,-7.05886,0.0],[112.57672,-7.06244,0.0],[112.57875,-7.06349,0.0],[112.58386,-7.06227,0.0],[112.58694,-7.05763,0.0],[112.58799,-7.05784,0.0],[112.59174,-7.06525,0.0],[112.58732,-7.06828,0.0],[112.587,-7.06976,0.0],[112.58958,-7.07072,0.0],[112.59612,-7.06969,0.0],[112.5978,-7.06586,0.0],[112.59927,-7.06724,0.0],[112.59975,-7.07238,0.0],[112.59956,-7.07417,0.0],[112.59699,-7.07379,0.0],[112.59427,-7.07623,0.0],[112.58803,-7.07503,0.0],[112.58982,-7.08087,0.0],[112.59281,-7.0828,0.0],[112.60055,-7.08244,0.0],[112.59247,-7.08156,0.0],[112.59316,-7.07979,0.0],[112.58951,-7.07795,0.0],[112.59606,-7.07582,0.0],[112.59755,-7.07742,0.0],[112.59701,-7.07866,0.0],[112.59917,-7.0794,0.0],[112.60001,-7.07712,0.0],[112.60284,-7.07521,0.0],[112.60253,-7.07269,0.0],[112.60381,-7.0719,0.0],[112.60086,-7.06809,0.0],[112.60219,-7.06756,0.0],[112.60266,-7.06533,0.0],[112.60535,-7.06447,0.0],[112.60155,-7.06176,0.0],[112.60783,-7.05887,0.0],[112.60983,-7.05527,0.0],[112.60992,-7.05149,0.0],[112.61437,-7.05123,0.0],[112.61348,-7.04876,0.0],[112.61691,-7.04859,0.0],[112.61911,-7.04623,0.0],[112.62085,-7.04622,0.0],[112.61929,-7.03475,0.0],[112.62138,-7.0332,0.0],[112.62826,-7.03962,0.0],[112.63048,-7.04593,0.0],[112.638,-7.05362,0.0],[112.63699,-7.05638,0.0],[112.63755,-7.0598,0.0],[112.63209,-7.06928,0.0],[112.63603,-7.07152,0.0],[112.63785,-7.06932,0.0],[112.63481,-7.08589,0.0],[112.63433,-7.098,0.0],[112.63295,-7.09933,0.0],[112.62696,-7.09851,0.0],[112.62748,-7.10138,0.0],[112.62514,-7.10283,0.0],[112.62262,-7.11083,0.0],[112.63591,-7.1117,0.0],[112.63621,-7.10959,0.0],[112.64142,-7.10727,0.0],[112.64738,-7.10834,0.0],[112.64609,-7.11038,0.0],[112.64762,-7.11145,0.0],[112.64636,-7.11275,0.0],[112.62262,-7.11114,0.0],[112.62406,-7.1174,0.0],[112.6265,-7.1204,0.0],[112.6408,-7.12052,0.0],[112.63244,-7.12097,0.0],[112.63313,-7.12344,0.0],[112.64645,-7.12287,0.0],[112.63354,-7.12368,0.0],[112.63384,-7.12582,0.0],[112.62544,-7.1261,0.0],[112.62486,-7.12858,0.0],[112.63095,-7.1349,0.0],[112.63017,-7.13628,0.0],[112.63425,-7.13349,0.0],[112.64778,-7.12824,0.0],[112.65012,-7.13356,0.0],[112.63955,-7.13771,0.0],[112.64894,-7.13505,0.0],[112.65042,-7.13906,0.0],[112.64944,-7.14028,0.0],[112.65224,-7.14021,0.0],[112.64748,-7.14202,0.0],[112.6522,-7.14419,0.0],[112.65688,-7.14434,0.0],[112.65253,-7.1446,0.0],[112.64913,-7.14717,0.0],[112.64672,-7.15127,0.0],[112.64102,-7.14785,0.0],[112.64014,-7.14926,0.0],[112.63671,-7.14832,0.0],[112.63326,-7.14903,0.0],[112.63192,-7.15058,0.0],[112.63057,-7.14985,0.0],[112.62882,-7.1511,0.0],[112.62949,-7.15282,0.0],[112.62055,-7.14901,0.0],[112.61696,-7.15405,0.0],[112.61779,-7.15495,0.0],[112.61684,-7.15649,0.0],[112.61565,-7.15584,0.0],[112.61276,-7.1594,0.0],[112.60867,-7.15812,0.0],[112.60826,-7.15979,0.0],[112.60593,-7.15972,0.0],[112.60604,-7.16117,0.0],[112.60198,-7.16092,0.0],[112.59861,-7.15765,0.0],[112.59057,-7.15469,0.0]]],[[[112.64845,-7.08706,0.0],[112.63946,-7.09296,0.0],[112.6385,-7.09244,0.0],[112.63912,-7.08116,0.0],[112.64845,-7.08078,0.0],[112.64845,-7.08706,0.0]]]]}}]}