{"type":"FeatureCollection","features":[{"type":"Feature","properties":{"kecamatan":"Wungu","kab_kota":"Madiun"},"geometry":{"type":"Polygon","coordinates":[[[111.55902,-7.67552,0.0],[111.56034,-7.67826,0.0],[111.55784,-7.67771,0.0],[111.5478,-7.68124,0.0],[111.54607,-7.67993,0.0],[111.54609,-7.67491,0.0],[111.54261,-7.67136,0.0],[111.53774,-7.67142,0.0],[111.5346,-7.66872,0.0],[111.53299,-7.66309,0.0],[111.53345,-7.66031,0.0],[111.5411,-7.66018,0.0],[111.54148,-7.65827,0.0],[111.54424,-7.65907,0.0],[111.54174,-7.65682,0.0],[111.54162,-7.65305,0.0],[111.54294,-7.65269,0.0],[111.53954,-7.65145,0.0],[111.53893,-7.64864,0.0],[111.53971,-7.64638,0.0],[111.54612,-7.64783,0.0],[111.5463,-7.64636,0.0],[111.54964,-7.6452,0.0],[111.55125,-7.64234,0.0],[111.55063,-7.63519,0.0],[111.55353,-7.63427,0.0],[111.55195,-7.62883,0.0],[111.55274,-7.62716,0.0],[111.55176,-7.62571,0.0],[111.55056,-7.62797,0.0],[111.54848,-7.62729,0.0],[111.54863,-7.62597,0.0],[111.55167,-7.6219,0.0],[111.55345,-7.61625,0.0],[111.55521,-7.61566,0.0],[111.55547,-7.61247,0.0],[111.55444,-7.6119,0.0],[111.55598,-7.60827,0.0],[111.56066,-7.61197,0.0],[111.56967,-7.61555,0.0],[111.57015,-7.61741,0.0],[111.57373,-7.61816,0.0],[111.57412,-7.61686,0.0],[111.57543,-7.61732,0.0],[111.57502,-7.61971,0.0],[111.58623,-7.62323,0.0],[111.5871,-7.62835,0.0],[111.58574,-7.62959,0.0],[111.58879,-7.63099,0.0],[111.58948,-7.63284,0.0],[111.59379,-7.63379,0.0],[111.59712,-7.63941,0.0],[111.6005,-7.64219,0.0],[111.6077,-7.64197,0.0],[111.60992,-7.63953,0.0],[111.60592,-7.63404,0.0],[111.59963,-7.63025,0.0],[111.5965,-7.62664,0.0],[111.59712,-7.62548,0.0],[111.59141,-7.62066,0.0],[111.57219,-7.61246,0.0],[111.57258,-7.60946,0.0],[111.57614,-7.60926,0.0],[111.57818,-7.60456,0.0],[111.58185,-7.60343,0.0],[111.58281,-7.6017,0.0],[111.58395,-7.60242,0.0],[111.58506,-7.6011,0.0],[111.58961,-7.60107,0.0],[111.59587,-7.60321,0.0],[111.60128,-7.60712,0.0],[111.60288,-7.61252,0.0],[111.61329,-7.6215,0.0],[111.61776,-7.63106,0.0],[111.62454,-7.63609,0.0],[111.63241,-7.64863,0.0],[111.63404,-7.65022,0.0],[111.63626,-7.6496,0.0],[111.63952,-7.65677,0.0],[111.64395,-7.66037,0.0],[111.64464,-7.67298,0.0],[111.63953,-7.69348,0.0],[111.64119,-7.69952,0.0],[111.64251,-7.69886,0.0],[111.64629,-7.70022,0.0],[111.63959,-7.71493,0.0],[111.63423,-7.71667,0.0],[111.62928,-7.71448,0.0],[111.625,-7.70827,0.0],[111.62347,-7.70857,0.0],[111.62201,-7.70501,0.0],[111.61844,-7.70408,0.0],[111.61875,-7.70235,0.0],[111.61692,-7.70078,0.0],[111.6114,-7.70227,0.0],[111.6085,-7.70025,0.0],[111.60745,-7.70153,0.0],[111.60609,-7.69843,0.0],[111.60095,-7.69481,0.0],[111.59949,-7.69521,0.0],[111.59751,-7.69338,0.0],[111.5931,-7.69462,0.0],[111.58966,-7.69264,0.0],[111.59132,-7.69112,0.0],[111.59791,-7.69031,0.0],[111.59858,-7.68798,0.0],[111.60574,-7.68836,0.0],[111.60697,-7.68513,0.0],[111.60585,-7.68395,0.0],[111.60717,-7.68226,0.0],[111.60145,-7.6758,0.0],[111.59907,-7.6787,0.0],[111.5977,-7.67805,0.0],[111.5972,-7.67902,0.0],[111.58912,-7.67652,0.0],[111.58574,-7.67399,0.0],[111.58402,-7.67003,0.0],[111.57782,-7.66536,0.0],[111.57713,-7.669,0.0],[111.57333,-7.66916,0.0],[111.57263,-7.67269,0.0],[111.57402,-7.67395,0.0],[111.57288,-7.67597,0.0],[111.56607,-7.67425,0.0],[111.56346,-7.67178,0.0],[111.56158,-7.67203,0.0],[111.56105,-7.67516,0.0],[111.55902,-7.67552,0.0]],[[111.62435,-7.68993,0.0],[111.62307,-7.6924,0.0],[111.62656,-7.69322,0.0],[111.62745,-7.69527,0.0],[111.62928,-7.69517,0.0],[111.62939,-7.69326,0.0],[111.62755,-7.69247,0.0],[111.62878,-7.69069,0.0],[111.62435,-7.68993,0.0]]]}},{"type":"Feature","properties":{"kecamatan":"Madiun","kab_kota":"Madiun"},"geometry":{"type":"Polygon","coordinates":[[[111.55868,-7.6048,0.0],[111.55746,-7.60412,0.0],[111.55803,-7.59632,0.0],[111.55727,-7.597,0.0],[111.55112,-7.59484,0.0],[111.5496,-7.59487,0.0],[111.54779,-7.59816,0.0],[111.54406,-7.59747,0.0],[111.54247,-7.60008,0.0],[111.54023,-7.59956,0.0],[111.53889,-7.60118,0.0],[111.53657,-7.59907,0.0],[111.53514,-7.60136,0.0],[111.53217,-7.60213,0.0],[111.5324,-7.60103,0.0],[111.53432,-7.60075,0.0],[111.53302,-7.59577,0.0],[111.53627,-7.59272,0.0],[111.53221,-7.58907,0.0],[111.53644,-7.59001,0.0],[111.53692,-7.58872,0.0],[111.53387,-7.58517,0.0],[111.53721,-7.57866,0.0],[111.53638,-7.56989,0.0],[111.54098,-7.5665,0.0],[111.53612,-7.56095,0.0],[111.5403,-7.55824,0.0],[111.5408,-7.5553,0.0],[111.54241,-7.55612,0.0],[111.54323,-7.55526,0.0],[111.53797,-7.55023,0.0],[111.53866,-7.54896,0.0],[111.5455,-7.55073,0.0],[111.54761,-7.54947,0.0],[111.54942,-7.54507,0.0],[111.5457,-7.545,0.0],[111.54631,-7.54271,0.0],[111.54827,-7.54247,0.0],[111.54997,-7.54341,0.0],[111.55,-7.54503,0.0],[111.55334,-7.54495,0.0],[111.55582,-7.54688,0.0],[111.55887,-7.54631,0.0],[111.55562,-7.54972,0.0],[111.55654,-7.5509,0.0],[111.55482,-7.55083,0.0],[111.55517,-7.55531,0.0],[111.5518,-7.55725,0.0],[111.55332,-7.55911,0.0],[111.55085,-7.563,0.0],[111.55064,-7.56641,0.0],[111.55921,-7.56975,0.0],[111.5598,-7.56662,0.0],[111.56433,-7.57093,0.0],[111.56442,-7.56999,0.0],[111.56754,-7.57058,0.0],[111.56955,-7.56418,0.0],[111.58424,-7.56837,0.0],[111.58585,-7.56944,0.0],[111.58535,-7.57186,0.0],[111.58629,-7.57149,0.0],[111.5871,-7.57465,0.0],[111.59145,-7.57669,0.0],[111.59116,-7.57818,0.0],[111.59252,-7.57861,0.0],[111.59166,-7.57982,0.0],[111.59417,-7.57969,0.0],[111.59672,-7.58344,0.0],[111.60209,-7.58499,0.0],[111.60106,-7.59034,0.0],[111.59892,-7.59371,0.0],[111.60532,-7.60149,0.0],[111.60313,-7.60374,0.0],[111.60365,-7.60462,0.0],[111.60531,-7.60333,0.0],[111.60763,-7.60959,0.0],[111.61285,-7.61184,0.0],[111.61248,-7.61432,0.0],[111.61546,-7.61492,0.0],[111.61667,-7.61687,0.0],[111.61802,-7.61629,0.0],[111.6199,-7.61836,0.0],[111.62044,-7.62367,0.0],[111.62554,-7.63305,0.0],[111.63597,-7.6454,0.0],[111.63626,-7.6496,0.0],[111.63359,-7.65006,0.0],[111.62454,-7.63609,0.0],[111.61776,-7.63106,0.0],[111.61329,-7.6215,0.0],[111.60301,-7.61267,0.0],[111.60128,-7.60712,0.0],[111.59587,-7.60321,0.0],[111.58784,-7.60062,0.0],[111.58395,-7.60242,0.0],[111.58281,-7.6017,0.0],[111.58185,-7.60343,0.0],[111.57818,-7.60456,0.0],[111.57614,-7.60926,0.0],[111.57275,-7.60925,0.0],[111.57219,-7.61246,0.0],[111.59141,-7.62066,0.0],[111.59712,-7.62548,0.0],[111.5965,-7.62664,0.0],[111.59963,-7.63025,0.0],[111.60719,-7.63554,0.0],[111.60992,-7.63953,0.0],[111.6077,-7.64197,0.0],[111.6005,-7.64219,0.0],[111.59712,-7.63941,0.0],[111.59379,-7.63379,0.0],[111.58948,-7.63284,0.0],[111.58879,-7.63099,0.0],[111.58574,-7.62959,0.0],[111.5871,-7.62835,0.0],[111.58623,-7.62323,0.0],[111.57502,-7.61971,0.0],[111.57543,-7.61732,0.0],[111.57412,-7.61686,0.0],[111.57373,-7.61816,0.0],[111.57015,-7.61741,0.0],[111.56967,-7.61555,0.0],[111.56066,-7.61197,0.0],[111.55598,-7.60827,0.0],[111.55642,-7.60703,0.0],[111.55792,-7.60761,0.0],[111.55868,-7.6048,0.0]]]}},{"type":"Feature","properties":{"kecamatan":"Kare","kab_kota":"Madiun"},"geometry":{"type":"MultiPolygon","coordinates":[[[[111.72668,-7.76532,0.0],[111.72455,-7.77136,0.0],[111.72595,-7.77799,0.0],[111.73459,-7.78483,0.0],[111.73744,-7.78883,0.0],[111.74183,-7.79035,0.0],[111.75054,-7.7991,0.0],[111.73599,-7.80244,0.0],[111.73248,-7.80111,0.0],[111.72844,-7.80555,0.0],[111.72462,-7.80575,0.0],[111.72257,-7.80985,0.0],[111.71941,-7.81115,0.0],[111.71427,-7.81092,0.0],[111.70882,-7.80728,0.0],[111.70478,-7.80806,0.0],[111.6938,-7.80533,0.0],[111.69528,-7.80038,0.0],[111.69263,-7.79738,0.0],[111.68838,-7.78568,0.0],[111.68307,-7.78751,0.0],[111.67906,-7.78377,0.0],[111.67567,-7.78349,0.0],[111.67552,-7.77875,0.0],[111.67773,-7.77408,0.0],[111.67439,-7.77317,0.0],[111.66761,-7.76755,0.0],[111.66324,-7.76862,0.0],[111.66062,-7.76672,0.0],[111.66126,-7.76198,0.0],[111.65665,-7.75868,0.0],[111.6547,-7.75477,0.0],[111.65515,-7.75321,0.0],[111.64698,-7.74451,0.0],[111.64293,-7.74318,0.0],[111.64238,-7.74163,0.0],[111.64062,-7.74186,0.0],[111.63785,-7.73763,0.0],[111.63462,-7.73833,0.0],[111.62894,-7.73685,0.0],[111.62734,-7.73524,0.0],[111.62821,-7.73218,0.0],[111.62096,-7.72624,0.0],[111.61657,-7.72566,0.0],[111.61341,-7.72791,0.0],[111.60881,-7.72299,0.0],[111.5934,-7.71826,0.0],[111.59298,-7.71124,0.0],[111.58954,-7.70998,0.0],[111.59021,-7.70384,0.0],[111.59436,-7.69588,0.0],[111.60095,-7.69481,0.0],[111.60609,-7.69843,0.0],[111.60745,-7.70153,0.0],[111.6085,-7.70025,0.0],[111.6114,-7.70227,0.0],[111.61692,-7.70078,0.0],[111.61875,-7.70235,0.0],[111.61844,-7.70408,0.0],[111.62201,-7.70501,0.0],[111.62347,-7.70857,0.0],[111.625,-7.70827,0.0],[111.62928,-7.71448,0.0],[111.63584,-7.71674,0.0],[111.64008,-7.71422,0.0],[111.64629,-7.70022,0.0],[111.64251,-7.69886,0.0],[111.64119,-7.69952,0.0],[111.63953,-7.69348,0.0],[111.64464,-7.67298,0.0],[111.64401,-7.66053,0.0],[111.63952,-7.65677,0.0],[111.63638,-7.65052,0.0],[111.63597,-7.6454,0.0],[111.64037,-7.6446,0.0],[111.64554,-7.65155,0.0],[111.64956,-7.65205,0.0],[111.65145,-7.64875,0.0],[111.6553,-7.64804,0.0],[111.65464,-7.64541,0.0],[111.66453,-7.64655,0.0],[111.67348,-7.64155,0.0],[111.68353,-7.64048,0.0],[111.68593,-7.6416,0.0],[111.68526,-7.64684,0.0],[111.68853,-7.64969,0.0],[111.68976,-7.649,0.0],[111.68987,-7.65161,0.0],[111.6916,-7.65129,0.0],[111.69227,-7.65238,0.0],[111.691,-7.65468,0.0],[111.6918,-7.66012,0.0],[111.69329,-7.65991,0.0],[111.69554,-7.65692,0.0],[111.70085,-7.65549,0.0],[111.71142,-7.6562,0.0],[111.71177,-7.65842,0.0],[111.71503,-7.65793,0.0],[111.71533,-7.66104,0.0],[111.71392,-7.66204,0.0],[111.71505,-7.66239,0.0],[111.71526,-7.66847,0.0],[111.71803,-7.67642,0.0],[111.71866,-7.6891,0.0],[111.7144,-7.69628,0.0],[111.70698,-7.69304,0.0],[111.70683,-7.68998,0.0],[111.70357,-7.68955,0.0],[111.70245,-7.69063,0.0],[111.70274,-7.69271,0.0],[111.7048,-7.69298,0.0],[111.70634,-7.6969,0.0],[111.70536,-7.69745,0.0],[111.70561,-7.69989,0.0],[111.70675,-7.70119,0.0],[111.70657,-7.70434,0.0],[111.70791,-7.70527,0.0],[111.70609,-7.7056,0.0],[111.7074,-7.70698,0.0],[111.70679,-7.70963,0.0],[111.71448,-7.70936,0.0],[111.72799,-7.73443,0.0],[111.7278,-7.74129,0.0],[111.73021,-7.74847,0.0],[111.72884,-7.75588,0.0],[111.72674,-7.75873,0.0],[111.72668,-7.76532,0.0]]],[[[111.62878,-7.69069,0.0],[111.62755,-7.69247,0.0],[111.62939,-7.69326,0.0],[111.62928,-7.69517,0.0],[111.62745,-7.69527,0.0],[111.62656,-7.69322,0.0],[111.62307,-7.6924,0.0],[111.62406,-7.68985,0.0],[111.62878,-7.69069,0.0]]]]}},{"type":"Feature","properties":{"kecamatan":"Gemarang","kab_kota":"Madiun"},"geometry":{"type":"Polygon","coordinates":[[[111.75751,-7.69336,0.0],[111.75415,-7.70281,0.0],[111.75235,-7.70352,0.0],[111.75281,-7.70528,0.0],[111.74962,-7.70656,0.0],[111.74935,-7.70858,0.0],[111.74594,-7.71219,0.0],[111.7418,-7.71446,0.0],[111.74144,-7.71759,0.0],[111.73294,-7.7263,0.0],[111.73256,-7.73023,0.0],[111.73091,-7.73204,0.0],[111.72952,-7.73728,0.0],[111.72922,-7.74062,0.0],[111.73092,-7.74496,0.0],[111.73021,-7.74847,0.0],[111.72784,-7.7415,0.0],[111.72799,-7.73443,0.0],[111.72654,-7.7332,0.0],[111.72617,-7.72978,0.0],[111.72375,-7.72747,0.0],[111.71448,-7.70936,0.0],[111.70684,-7.70972,0.0],[111.7074,-7.70698,0.0],[111.70609,-7.7056,0.0],[111.70791,-7.70527,0.0],[111.70657,-7.70434,0.0],[111.70675,-7.70119,0.0],[111.70561,-7.69989,0.0],[111.70536,-7.69745,0.0],[111.70634,-7.6969,0.0],[111.7048,-7.69298,0.0],[111.70274,-7.69271,0.0],[111.7025,-7.69002,0.0],[111.70683,-7.68998,0.0],[111.70645,-7.69242,0.0],[111.70792,-7.69379,0.0],[111.70866,-7.6929,0.0],[111.7105,-7.69526,0.0],[111.71527,-7.6961,0.0],[111.71866,-7.6891,0.0],[111.71803,-7.67642,0.0],[111.71526,-7.66847,0.0],[111.71505,-7.66239,0.0],[111.71392,-7.66204,0.0],[111.71533,-7.66104,0.0],[111.71503,-7.65793,0.0],[111.71177,-7.65842,0.0],[111.71142,-7.6562,0.0],[111.70085,-7.65549,0.0],[111.69554,-7.65692,0.0],[111.69201,-7.66022,0.0],[111.691,-7.65468,0.0],[111.69227,-7.65238,0.0],[111.6916,-7.65129,0.0],[111.68987,-7.65161,0.0],[111.68976,-7.649,0.0],[111.68853,-7.64969,0.0],[111.68526,-7.64684,0.0],[111.6858,-7.64141,0.0],[111.68353,-7.64048,0.0],[111.67714,-7.64126,0.0],[111.67808,-7.63775,0.0],[111.67695,-7.62685,0.0],[111.67858,-7.6252,0.0],[111.68083,-7.62517,0.0],[111.68179,-7.62216,0.0],[111.68059,-7.6114,0.0],[111.68159,-7.60487,0.0],[111.69069,-7.60595,0.0],[111.69158,-7.61037,0.0],[111.7,-7.61202,0.0],[111.70357,-7.61771,0.0],[111.70353,-7.62242,0.0],[111.7073,-7.63442,0.0],[111.71264,-7.63458,0.0],[111.71515,-7.63179,0.0],[111.71127,-7.62413,0.0],[111.71059,-7.60965,0.0],[111.71228,-7.60154,0.0],[111.71042,-7.59913,0.0],[111.70933,-7.59378,0.0],[111.71018,-7.59041,0.0],[111.7139,-7.5873,0.0],[111.71276,-7.58345,0.0],[111.71265,-7.58073,0.0],[111.71408,-7.57977,0.0],[111.71334,-7.57581,0.0],[111.72377,-7.5772,0.0],[111.72767,-7.58063,0.0],[111.73233,-7.58211,0.0],[111.74238,-7.5825,0.0],[111.74149,-7.58509,0.0],[111.74646,-7.587,0.0],[111.74576,-7.58938,0.0],[111.74868,-7.59026,0.0],[111.74976,-7.58221,0.0],[111.75253,-7.5817,0.0],[111.75256,-7.58004,0.0],[111.77273,-7.57647,0.0],[111.78378,-7.56873,0.0],[111.77594,-7.56509,0.0],[111.77454,-7.56189,0.0],[111.77648,-7.56207,0.0],[111.77683,-7.56064,0.0],[111.78122,-7.56172,0.0],[111.78594,-7.56381,0.0],[111.78671,-7.56595,0.0],[111.7952,-7.56126,0.0],[111.80078,-7.55979,0.0],[111.79786,-7.56792,0.0],[111.79872,-7.56958,0.0],[111.79573,-7.57083,0.0],[111.7959,-7.5726,0.0],[111.79434,-7.57408,0.0],[111.79559,-7.57436,0.0],[111.79389,-7.57651,0.0],[111.79512,-7.58014,0.0],[111.79385,-7.58412,0.0],[111.79458,-7.58993,0.0],[111.79204,-7.59374,0.0],[111.79233,-7.59612,0.0],[111.79087,-7.59617,0.0],[111.78572,-7.60303,0.0],[111.79,-7.61421,0.0],[111.78847,-7.61705,0.0],[111.78938,-7.62049,0.0],[111.78528,-7.62246,0.0],[111.78434,-7.62695,0.0],[111.78572,-7.62937,0.0],[111.78409,-7.63103,0.0],[111.78461,-7.63412,0.0],[111.78625,-7.63556,0.0],[111.78484,-7.63546,0.0],[111.78489,-7.6386,0.0],[111.78359,-7.63983,0.0],[111.78373,-7.64743,0.0],[111.78121,-7.64829,0.0],[111.78294,-7.65044,0.0],[111.78094,-7.65128,0.0],[111.77881,-7.6559,0.0],[111.77766,-7.65532,0.0],[111.77296,-7.66075,0.0],[111.77041,-7.66171,0.0],[111.77159,-7.66537,0.0],[111.76893,-7.66454,0.0],[111.76671,-7.67127,0.0],[111.76228,-7.67548,0.0],[111.76215,-7.67812,0.0],[111.75701,-7.68159,0.0],[111.75582,-7.6889,0.0],[111.75752,-7.68956,0.0],[111.75751,-7.69336,0.0]]]}},{"type":"Feature","properties":{"kecamatan":"Jiwan","kab_kota":"Madiun"},"geometry":{"type":"Polygon","coordinates":[[[111.4645,-7.63752,0.0],[111.46632,-7.63767,0.0],[111.46612,-7.63539,0.0],[111.46207,-7.63276,0.0],[111.46241,-7.62839,0.0],[111.46,-7.62812,0.0],[111.46007,-7.6263,0.0],[111.45415,-7.62479,0.0],[111.45305,-7.62855,0.0],[111.45072,-7.62792,0.0],[111.45166,-7.62023,0.0],[111.45462,-7.61893,0.0],[111.45817,-7.61962,0.0],[111.46418,-7.61561,0.0],[111.46884,-7.61475,0.0],[111.47061,-7.609,0.0],[111.47453,-7.60864,0.0],[111.47529,-7.60633,0.0],[111.47321,-7.6056,0.0],[111.47277,-7.6034,0.0],[111.47352,-7.59976,0.0],[111.47668,-7.59488,0.0],[111.4768,-7.59164,0.0],[111.47505,-7.59008,0.0],[111.4753,-7.58647,0.0],[111.47738,-7.58516,0.0],[111.47917,-7.57541,0.0],[111.48474,-7.57435,0.0],[111.48644,-7.56589,0.0],[111.48984,-7.56518,0.0],[111.49297,-7.56631,0.0],[111.49303,-7.56733,0.0],[111.50009,-7.56749,0.0],[111.4996,-7.56858,0.0],[111.50149,-7.56928,0.0],[111.50198,-7.57102,0.0],[111.50111,-7.57334,0.0],[111.50252,-7.5737,0.0],[111.50086,-7.58277,0.0],[111.49765,-7.58769,0.0],[111.50262,-7.58954,0.0],[111.50564,-7.58693,0.0],[111.50883,-7.58913,0.0],[111.51653,-7.59103,0.0],[111.51736,-7.59379,0.0],[111.52104,-7.59482,0.0],[111.51761,-7.60305,0.0],[111.51372,-7.60326,0.0],[111.51314,-7.60747,0.0],[111.50745,-7.60825,0.0],[111.50376,-7.60628,0.0],[111.50333,-7.60769,0.0],[111.50017,-7.60838,0.0],[111.50062,-7.6183,0.0],[111.50229,-7.6204,0.0],[111.5005,-7.6234,0.0],[111.49649,-7.62308,0.0],[111.49568,-7.62473,0.0],[111.50043,-7.62636,0.0],[111.49805,-7.63424,0.0],[111.49657,-7.63386,0.0],[111.49569,-7.63771,0.0],[111.49835,-7.63913,0.0],[111.49686,-7.6451,0.0],[111.49845,-7.64543,0.0],[111.49917,-7.64073,0.0],[111.50241,-7.64144,0.0],[111.50324,-7.63931,0.0],[111.50454,-7.64074,0.0],[111.50761,-7.64103,0.0],[111.5085,-7.63599,0.0],[111.5105,-7.63554,0.0],[111.51061,-7.63411,0.0],[111.51237,-7.64392,0.0],[111.51167,-7.64886,0.0],[111.50558,-7.64967,0.0],[111.50493,-7.64617,0.0],[111.49971,-7.64605,0.0],[111.49873,-7.64747,0.0],[111.50215,-7.64807,0.0],[111.50205,-7.64958,0.0],[111.50384,-7.64997,0.0],[111.50345,-7.65549,0.0],[111.50119,-7.65662,0.0],[111.50141,-7.65873,0.0],[111.49062,-7.65775,0.0],[111.48792,-7.66101,0.0],[111.48413,-7.66277,0.0],[111.48176,-7.66036,0.0],[111.48408,-7.65449,0.0],[111.48496,-7.64638,0.0],[111.48701,-7.64447,0.0],[111.48694,-7.64147,0.0],[111.48136,-7.64101,0.0],[111.48694,-7.63235,0.0],[111.48529,-7.63141,0.0],[111.48369,-7.63386,0.0],[111.48132,-7.63233,0.0],[111.47938,-7.63343,0.0],[111.47911,-7.63644,0.0],[111.48125,-7.63633,0.0],[111.48027,-7.64,0.0],[111.47701,-7.63898,0.0],[111.47629,-7.64009,0.0],[111.47124,-7.63991,0.0],[111.46957,-7.64151,0.0],[111.46836,-7.63921,0.0],[111.46309,-7.63899,0.0],[111.4645,-7.63752,0.0]]]}},{"type":"Feature","properties":{"kecamatan":"Geger","kab_kota":"Madiun"},"geometry":{"type":"Polygon","coordinates":[[[111.52254,-7.74229,0.0],[111.52122,-7.74788,0.0],[111.5156,-7.74536,0.0],[111.51572,-7.74352,0.0],[111.51366,-7.74206,0.0],[111.51116,-7.74266,0.0],[111.51238,-7.73717,0.0],[111.50995,-7.73492,0.0],[111.51185,-7.73117,0.0],[111.51029,-7.72935,0.0],[111.51105,-7.72324,0.0],[111.51366,-7.72318,0.0],[111.51481,-7.7193,0.0],[111.51139,-7.71496,0.0],[111.51212,-7.71285,0.0],[111.51629,-7.71453,0.0],[111.51771,-7.714,0.0],[111.51539,-7.71243,0.0],[111.51587,-7.70705,0.0],[111.51238,-7.70619,0.0],[111.51214,-7.70749,0.0],[111.50985,-7.70757,0.0],[111.51127,-7.70577,0.0],[111.51154,-7.70071,0.0],[111.50903,-7.699,0.0],[111.50524,-7.69941,0.0],[111.50061,-7.70434,0.0],[111.49483,-7.70208,0.0],[111.49833,-7.69831,0.0],[111.49733,-7.69452,0.0],[111.50121,-7.6912,0.0],[111.49865,-7.67407,0.0],[111.50167,-7.67139,0.0],[111.50273,-7.66862,0.0],[111.50583,-7.66736,0.0],[111.50819,-7.662,0.0],[111.51093,-7.66121,0.0],[111.51069,-7.65925,0.0],[111.51272,-7.66132,0.0],[111.52069,-7.66207,0.0],[111.52465,-7.66393,0.0],[111.53282,-7.66327,0.0],[111.5346,-7.66872,0.0],[111.53774,-7.67142,0.0],[111.54261,-7.67136,0.0],[111.54609,-7.67491,0.0],[111.54673,-7.67892,0.0],[111.54535,-7.68225,0.0],[111.54142,-7.68046,0.0],[111.53864,-7.68119,0.0],[111.53926,-7.68475,0.0],[111.54113,-7.6858,0.0],[111.54037,-7.68677,0.0],[111.54347,-7.68989,0.0],[111.54143,-7.69405,0.0],[111.54448,-7.69594,0.0],[111.54389,-7.69722,0.0],[111.54511,-7.69916,0.0],[111.54429,-7.70156,0.0],[111.54187,-7.70189,0.0],[111.54015,-7.70409,0.0],[111.54064,-7.7069,0.0],[111.54332,-7.70844,0.0],[111.54307,-7.71008,0.0],[111.54626,-7.71076,0.0],[111.54606,-7.71881,0.0],[111.54736,-7.72853,0.0],[111.55278,-7.72936,0.0],[111.55443,-7.73339,0.0],[111.56087,-7.73671,0.0],[111.55898,-7.73766,0.0],[111.56044,-7.73824,0.0],[111.56098,-7.74116,0.0],[111.56383,-7.74493,0.0],[111.56192,-7.74952,0.0],[111.55757,-7.74701,0.0],[111.55486,-7.74734,0.0],[111.55321,-7.75063,0.0],[111.55027,-7.7499,0.0],[111.55022,-7.75279,0.0],[111.54867,-7.75352,0.0],[111.54377,-7.75172,0.0],[111.53598,-7.75204,0.0],[111.53377,-7.75096,0.0],[111.53235,-7.74722,0.0],[111.53391,-7.74323,0.0],[111.53226,-7.74287,0.0],[111.53217,-7.74092,0.0],[111.52932,-7.741,0.0],[111.52737,-7.74252,0.0],[111.52884,-7.74301,0.0],[111.52495,-7.74389,0.0],[111.52254,-7.74229,0.0]],[[111.50787,-7.66495,0.0],[111.50609,-7.6698,0.0],[111.50762,-7.67032,0.0],[111.5041,-7.67249,0.0],[111.50328,-7.67553,0.0],[111.50708,-7.67764,0.0],[111.50789,-7.67518,0.0],[111.51365,-7.67592,0.0],[111.51611,-7.66783,0.0],[111.51513,-7.66681,0.0],[111.5155,-7.66382,0.0],[111.51372,-7.66431,0.0],[111.51179,-7.66157,0.0],[111.5094,-7.66562,0.0],[111.50787,-7.66495,0.0]],[[111.50661,-7.6794,0.0],[111.50874,-7.68051,0.0],[111.51018,-7.67843,0.0],[111.50708,-7.67764,0.0],[111.50661,-7.6794,0.0]]]}},{"type":"Feature","properties":{"kecamatan":"Dagangan","kab_kota":"Madiun"},"geometry":{"type":"Polygon","coordinates":[[[111.56072,-7.7366,0.0],[111.55443,-7.73339,0.0],[111.55278,-7.72936,0.0],[111.54704,-7.72783,0.0],[111.54626,-7.71076,0.0],[111.54301,-7.71004,0.0],[111.54334,-7.70848,0.0],[111.54071,-7.70706,0.0],[111.54016,-7.70425,0.0],[111.54187,-7.70189,0.0],[111.54429,-7.70156,0.0],[111.54511,-7.69916,0.0],[111.54389,-7.69722,0.0],[111.54448,-7.69594,0.0],[111.54143,-7.69405,0.0],[111.54347,-7.68989,0.0],[111.54037,-7.68677,0.0],[111.54113,-7.6858,0.0],[111.53926,-7.68475,0.0],[111.53864,-7.68119,0.0],[111.54142,-7.68046,0.0],[111.54535,-7.68225,0.0],[111.54592,-7.6798,0.0],[111.5483,-7.68132,0.0],[111.55784,-7.67771,0.0],[111.56026,-7.6783,0.0],[111.55887,-7.67524,0.0],[111.56108,-7.67513,0.0],[111.56158,-7.67203,0.0],[111.56396,-7.67183,0.0],[111.56607,-7.67425,0.0],[111.57288,-7.67597,0.0],[111.57402,-7.67395,0.0],[111.57263,-7.67269,0.0],[111.57333,-7.66916,0.0],[111.57713,-7.669,0.0],[111.57782,-7.66536,0.0],[111.58402,-7.67003,0.0],[111.58574,-7.67399,0.0],[111.58887,-7.67638,0.0],[111.5972,-7.67902,0.0],[111.5977,-7.67805,0.0],[111.59907,-7.6787,0.0],[111.60145,-7.6758,0.0],[111.60717,-7.68226,0.0],[111.60585,-7.68395,0.0],[111.60697,-7.68513,0.0],[111.60559,-7.68851,0.0],[111.59858,-7.68798,0.0],[111.59791,-7.69031,0.0],[111.59132,-7.69112,0.0],[111.58966,-7.69264,0.0],[111.5931,-7.69462,0.0],[111.59758,-7.69339,0.0],[111.59949,-7.69521,0.0],[111.59436,-7.69588,0.0],[111.59021,-7.70384,0.0],[111.58954,-7.70998,0.0],[111.59298,-7.71124,0.0],[111.5934,-7.71826,0.0],[111.60881,-7.72299,0.0],[111.61341,-7.72791,0.0],[111.61657,-7.72566,0.0],[111.62096,-7.72624,0.0],[111.62821,-7.73218,0.0],[111.62734,-7.73524,0.0],[111.62894,-7.73685,0.0],[111.6344,-7.73831,0.0],[111.63659,-7.73716,0.0],[111.63849,-7.73795,0.0],[111.64062,-7.74186,0.0],[111.64567,-7.74351,0.0],[111.65369,-7.75121,0.0],[111.65626,-7.75814,0.0],[111.66126,-7.76198,0.0],[111.66062,-7.76672,0.0],[111.65789,-7.76706,0.0],[111.6558,-7.77032,0.0],[111.65127,-7.7724,0.0],[111.64674,-7.77326,0.0],[111.64024,-7.77159,0.0],[111.63777,-7.77453,0.0],[111.63535,-7.77381,0.0],[111.62852,-7.77552,0.0],[111.6272,-7.77715,0.0],[111.62463,-7.77668,0.0],[111.61945,-7.78024,0.0],[111.61253,-7.77963,0.0],[111.61164,-7.7819,0.0],[111.60834,-7.78238,0.0],[111.6031,-7.78081,0.0],[111.6004,-7.77713,0.0],[111.59905,-7.77699,0.0],[111.60042,-7.76848,0.0],[111.59126,-7.76444,0.0],[111.58802,-7.76454,0.0],[111.57615,-7.76084,0.0],[111.57511,-7.76778,0.0],[111.57611,-7.77168,0.0],[111.57113,-7.77185,0.0],[111.57068,-7.76833,0.0],[111.56851,-7.76712,0.0],[111.56902,-7.76553,0.0],[111.56521,-7.76491,0.0],[111.56236,-7.76217,0.0],[111.55901,-7.76154,0.0],[111.55776,-7.75993,0.0],[111.55867,-7.75668,0.0],[111.55022,-7.75279,0.0],[111.55027,-7.7499,0.0],[111.55321,-7.75063,0.0],[111.55486,-7.74734,0.0],[111.55757,-7.74701,0.0],[111.56175,-7.74949,0.0],[111.56254,-7.74872,0.0],[111.56383,-7.74493,0.0],[111.56098,-7.74116,0.0],[111.56044,-7.73824,0.0],[111.55898,-7.73766,0.0],[111.56072,-7.7366,0.0]]]}},{"type":"Feature","properties":{"kecamatan":"Kebon Sari","kab_kota":"Madiun"},"geometry":{"type":"Polygon","coordinates":[[[111.48751,-7.77717,0.0],[111.48762,-7.78792,0.0],[111.47596,-7.78332,0.0],[111.47428,-7.77941,0.0],[111.46898,-7.77709,0.0],[111.46217,-7.77925,0.0],[111.46134,-7.77762,0.0],[111.45793,-7.77789,0.0],[111.45545,-7.78399,0.0],[111.45075,-7.7814,0.0],[111.44979,-7.77872,0.0],[111.45193,-7.77178,0.0],[111.45023,-7.76996,0.0],[111.45316,-7.76864,0.0],[111.45171,-7.76388,0.0],[111.45396,-7.76019,0.0],[111.45291,-7.75837,0.0],[111.45552,-7.75583,0.0],[111.45268,-7.7541,0.0],[111.45242,-7.75257,0.0],[111.45537,-7.74624,0.0],[111.45787,-7.7453,0.0],[111.45751,-7.7435,0.0],[111.45481,-7.74194,0.0],[111.45594,-7.73518,0.0],[111.46037,-7.72851,0.0],[111.45872,-7.72498,0.0],[111.4641,-7.71929,0.0],[111.47069,-7.71859,0.0],[111.47068,-7.71264,0.0],[111.48083,-7.7044,0.0],[111.48099,-7.70044,0.0],[111.48513,-7.70292,0.0],[111.48878,-7.69905,0.0],[111.49631,-7.69923,0.0],[111.49507,-7.70246,0.0],[111.50061,-7.70434,0.0],[111.50539,-7.69931,0.0],[111.50913,-7.69902,0.0],[111.51154,-7.70071,0.0],[111.51127,-7.70577,0.0],[111.50985,-7.70757,0.0],[111.51214,-7.70749,0.0],[111.51238,-7.70619,0.0],[111.51587,-7.70705,0.0],[111.51539,-7.71243,0.0],[111.51771,-7.714,0.0],[111.51629,-7.71453,0.0],[111.51212,-7.71285,0.0],[111.51147,-7.71531,0.0],[111.51481,-7.7193,0.0],[111.51366,-7.72318,0.0],[111.51105,-7.72324,0.0],[111.51029,-7.72935,0.0],[111.51185,-7.73117,0.0],[111.50991,-7.7339,0.0],[111.51238,-7.73717,0.0],[111.51094,-7.74527,0.0],[111.51704,-7.74983,0.0],[111.51674,-7.75167,0.0],[111.50814,-7.75062,0.0],[111.50622,-7.75869,0.0],[111.50854,-7.75883,0.0],[111.50663,-7.76071,0.0],[111.50862,-7.76405,0.0],[111.51065,-7.76413,0.0],[111.50965,-7.76985,0.0],[111.50742,-7.77229,0.0],[111.50786,-7.7746,0.0],[111.51004,-7.77492,0.0],[111.51037,-7.78295,0.0],[111.50899,-7.78287,0.0],[111.50751,-7.78544,0.0],[111.50236,-7.78426,0.0],[111.50288,-7.78114,0.0],[111.49832,-7.77964,0.0],[111.49801,-7.77789,0.0],[111.48751,-7.77717,0.0]]]}},{"type":"Feature","properties":{"kecamatan":"Dolopo","kab_kota":"Madiun"},"geometry":{"type":"Polygon","coordinates":[[[111.5243,-7.79959,0.0],[111.51962,-7.79913,0.0],[111.51681,-7.80042,0.0],[111.51023,-7.79848,0.0],[111.50868,-7.79945,0.0],[111.5055,-7.79677,0.0],[111.49689,-7.79401,0.0],[111.49466,-7.78928,0.0],[111.48907,-7.78904,0.0],[111.48762,-7.78792,0.0],[111.48751,-7.77714,0.0],[111.49801,-7.77789,0.0],[111.49832,-7.77964,0.0],[111.50288,-7.78114,0.0],[111.50236,-7.78426,0.0],[111.50751,-7.78544,0.0],[111.50899,-7.78287,0.0],[111.51037,-7.78295,0.0],[111.51004,-7.77492,0.0],[111.50786,-7.7746,0.0],[111.50742,-7.77229,0.0],[111.50965,-7.76985,0.0],[111.51065,-7.76413,0.0],[111.50862,-7.76405,0.0],[111.50663,-7.76071,0.0],[111.50854,-7.75883,0.0],[111.50622,-7.75869,0.0],[111.50814,-7.75062,0.0],[111.51674,-7.75167,0.0],[111.51704,-7.74983,0.0],[111.51103,-7.74548,0.0],[111.51116,-7.74266,0.0],[111.51366,-7.74206,0.0],[111.51572,-7.74352,0.0],[111.5156,-7.74536,0.0],[111.52122,-7.74788,0.0],[111.52254,-7.74229,0.0],[111.52495,-7.74389,0.0],[111.52884,-7.74301,0.0],[111.52737,-7.74252,0.0],[111.52932,-7.741,0.0],[111.53217,-7.74092,0.0],[111.53226,-7.74287,0.0],[111.53391,-7.74323,0.0],[111.53235,-7.74722,0.0],[111.53377,-7.75096,0.0],[111.53598,-7.75204,0.0],[111.54377,-7.75172,0.0],[111.54823,-7.75351,0.0],[111.55022,-7.75279,0.0],[111.55867,-7.75668,0.0],[111.55788,-7.76032,0.0],[111.56251,-7.76226,0.0],[111.56521,-7.76491,0.0],[111.56902,-7.76553,0.0],[111.56851,-7.76712,0.0],[111.57068,-7.76833,0.0],[111.57113,-7.77185,0.0],[111.57611,-7.77168,0.0],[111.57511,-7.76778,0.0],[111.57615,-7.76084,0.0],[111.58802,-7.76454,0.0],[111.5913,-7.76446,0.0],[111.60096,-7.76937,0.0],[111.59892,-7.77486,0.0],[111.59868,-7.78249,0.0],[111.5975,-7.78478,0.0],[111.59553,-7.78518,0.0],[111.59595,-7.78942,0.0],[111.59261,-7.79059,0.0],[111.59205,-7.79302,0.0],[111.58552,-7.79689,0.0],[111.57593,-7.80092,0.0],[111.57317,-7.80042,0.0],[111.57001,-7.80209,0.0],[111.5662,-7.80151,0.0],[111.56425,-7.80248,0.0],[111.56284,-7.80132,0.0],[111.55768,-7.80165,0.0],[111.55784,-7.80002,0.0],[111.55541,-7.80036,0.0],[111.55421,-7.79919,0.0],[111.54979,-7.80441,0.0],[111.54745,-7.80347,0.0],[111.53936,-7.80401,0.0],[111.53736,-7.80268,0.0],[111.53646,-7.80356,0.0],[111.5293,-7.80331,0.0],[111.52447,-7.80171,0.0],[111.5243,-7.79959,0.0]]]}},{"type":"Feature","properties":{"kecamatan":"Balerejo","kab_kota":"Madiun"},"geometry":{"type":"Polygon","coordinates":[[[111.61012,-7.57486,0.0],[111.59992,-7.5807,0.0],[111.59954,-7.5842,0.0],[111.59617,-7.58306,0.0],[111.59417,-7.57969,0.0],[111.59166,-7.57982,0.0],[111.59252,-7.57861,0.0],[111.59116,-7.57818,0.0],[111.59145,-7.57669,0.0],[111.5871,-7.57465,0.0],[111.58629,-7.57149,0.0],[111.58535,-7.57186,0.0],[111.58585,-7.56944,0.0],[111.58424,-7.56837,0.0],[111.56955,-7.56418,0.0],[111.56754,-7.57058,0.0],[111.56442,-7.56999,0.0],[111.56433,-7.57093,0.0],[111.5598,-7.56662,0.0],[111.55921,-7.56975,0.0],[111.55064,-7.56641,0.0],[111.55085,-7.563,0.0],[111.55332,-7.55911,0.0],[111.5518,-7.55725,0.0],[111.55517,-7.55531,0.0],[111.55482,-7.55083,0.0],[111.55664,-7.55076,0.0],[111.55562,-7.54972,0.0],[111.55716,-7.54911,0.0],[111.55858,-7.54571,0.0],[111.56166,-7.54663,0.0],[111.56329,-7.5412,0.0],[111.55952,-7.54102,0.0],[111.55984,-7.53643,0.0],[111.55399,-7.53631,0.0],[111.55318,-7.53837,0.0],[111.54739,-7.53719,0.0],[111.5492,-7.53427,0.0],[111.54855,-7.53205,0.0],[111.5501,-7.53196,0.0],[111.55199,-7.53471,0.0],[111.55315,-7.53391,0.0],[111.55148,-7.53186,0.0],[111.5522,-7.53002,0.0],[111.55066,-7.52678,0.0],[111.55252,-7.52768,0.0],[111.55262,-7.52908,0.0],[111.55318,-7.52829,0.0],[111.55391,-7.53062,0.0],[111.55482,-7.52871,0.0],[111.55649,-7.52942,0.0],[111.55915,-7.52548,0.0],[111.56244,-7.52608,0.0],[111.56189,-7.52515,0.0],[111.56362,-7.52509,0.0],[111.564,-7.5232,0.0],[111.56627,-7.5245,0.0],[111.5696,-7.52273,0.0],[111.56964,-7.52426,0.0],[111.57149,-7.5218,0.0],[111.57222,-7.5231,0.0],[111.57192,-7.52112,0.0],[111.57472,-7.52149,0.0],[111.57496,-7.5204,0.0],[111.58151,-7.52105,0.0],[111.58326,-7.52325,0.0],[111.58427,-7.52161,0.0],[111.58715,-7.52128,0.0],[111.58589,-7.51935,0.0],[111.58658,-7.51777,0.0],[111.57978,-7.51522,0.0],[111.58039,-7.51248,0.0],[111.58187,-7.51273,0.0],[111.58205,-7.51096,0.0],[111.58412,-7.51172,0.0],[111.58589,-7.5083,0.0],[111.58812,-7.5087,0.0],[111.58711,-7.50715,0.0],[111.58872,-7.50546,0.0],[111.59078,-7.50695,0.0],[111.58999,-7.5011,0.0],[111.59167,-7.50244,0.0],[111.5943,-7.49907,0.0],[111.59371,-7.49775,0.0],[111.59578,-7.49766,0.0],[111.59608,-7.49566,0.0],[111.59776,-7.49552,0.0],[111.59766,-7.49444,0.0],[111.59576,-7.49406,0.0],[111.59781,-7.48954,0.0],[111.59879,-7.49113,0.0],[111.5996,-7.49066,0.0],[111.59985,-7.48931,0.0],[111.59776,-7.48898,0.0],[111.59815,-7.48826,0.0],[111.59956,-7.48862,0.0],[111.6033,-7.49216,0.0],[111.60295,-7.4966,0.0],[111.60495,-7.49689,0.0],[111.60675,-7.49535,0.0],[111.60796,-7.4963,0.0],[111.60754,-7.50182,0.0],[111.60901,-7.50258,0.0],[111.60895,-7.5041,0.0],[111.61124,-7.50497,0.0],[111.60963,-7.50558,0.0],[111.60992,-7.50841,0.0],[111.61312,-7.50931,0.0],[111.61668,-7.50579,0.0],[111.61906,-7.5053,0.0],[111.62377,-7.50806,0.0],[111.62488,-7.50762,0.0],[111.62887,-7.51191,0.0],[111.63064,-7.51455,0.0],[111.62834,-7.51505,0.0],[111.62951,-7.51825,0.0],[111.62683,-7.52467,0.0],[111.63528,-7.52655,0.0],[111.63945,-7.53873,0.0],[111.63908,-7.54037,0.0],[111.63345,-7.54478,0.0],[111.63302,-7.55055,0.0],[111.62652,-7.55082,0.0],[111.62526,-7.55512,0.0],[111.62211,-7.55656,0.0],[111.6207,-7.55894,0.0],[111.61009,-7.55747,0.0],[111.60993,-7.56361,0.0],[111.61125,-7.5674,0.0],[111.6091,-7.57211,0.0],[111.61012,-7.57486,0.0]]]}},{"type":"Feature","properties":{"kecamatan":"Mejayan","kab_kota":"Madiun"},"geometry":{"type":"Polygon","coordinates":[[[111.65165,-7.60572,0.0],[111.64367,-7.59777,0.0],[111.64266,-7.58646,0.0],[111.64403,-7.57436,0.0],[111.64202,-7.5745,0.0],[111.64308,-7.574,0.0],[111.6426,-7.57016,0.0],[111.64109,-7.56847,0.0],[111.64202,-7.56557,0.0],[111.64517,-7.56805,0.0],[111.64685,-7.56551,0.0],[111.65021,-7.56543,0.0],[111.65314,-7.5597,0.0],[111.65419,-7.55308,0.0],[111.65287,-7.55265,0.0],[111.6527,-7.54865,0.0],[111.65107,-7.54701,0.0],[111.65072,-7.54115,0.0],[111.64667,-7.54062,0.0],[111.64542,-7.5396,0.0],[111.64593,-7.53802,0.0],[111.64379,-7.53725,0.0],[111.64531,-7.53402,0.0],[111.64301,-7.53287,0.0],[111.64425,-7.52885,0.0],[111.6423,-7.52704,0.0],[111.64199,-7.52477,0.0],[111.64683,-7.52789,0.0],[111.64843,-7.52776,0.0],[111.64851,-7.52542,0.0],[111.64946,-7.52521,0.0],[111.64942,-7.52652,0.0],[111.65226,-7.52727,0.0],[111.65332,-7.52969,0.0],[111.65748,-7.53078,0.0],[111.65744,-7.53196,0.0],[111.66409,-7.53261,0.0],[111.66208,-7.53373,0.0],[111.6631,-7.53512,0.0],[111.6611,-7.53577,0.0],[111.66144,-7.53718,0.0],[111.66025,-7.53785,0.0],[111.66256,-7.53844,0.0],[111.66443,-7.54197,0.0],[111.66723,-7.54154,0.0],[111.66943,-7.54281,0.0],[111.66919,-7.54009,0.0],[111.67128,-7.54001,0.0],[111.67791,-7.54155,0.0],[111.67699,-7.54533,0.0],[111.67342,-7.54464,0.0],[111.67304,-7.54903,0.0],[111.68993,-7.55012,0.0],[111.7004,-7.55338,0.0],[111.70946,-7.55258,0.0],[111.70963,-7.55515,0.0],[111.71249,-7.55996,0.0],[111.71209,-7.57005,0.0],[111.71416,-7.57757,0.0],[111.71408,-7.57979,0.0],[111.71265,-7.58073,0.0],[111.7139,-7.5873,0.0],[111.7094,-7.59234,0.0],[111.71042,-7.59913,0.0],[111.71228,-7.60154,0.0],[111.71059,-7.60965,0.0],[111.7107,-7.61818,0.0],[111.71127,-7.62413,0.0],[111.71466,-7.6291,0.0],[111.71506,-7.63246,0.0],[111.71264,-7.63458,0.0],[111.70777,-7.63502,0.0],[111.70353,-7.62242,0.0],[111.70357,-7.61771,0.0],[111.70042,-7.61246,0.0],[111.69158,-7.61037,0.0],[111.69069,-7.60595,0.0],[111.68159,-7.60487,0.0],[111.68059,-7.6114,0.0],[111.68179,-7.62216,0.0],[111.68083,-7.62517,0.0],[111.67858,-7.6252,0.0],[111.67695,-7.62685,0.0],[111.67808,-7.63775,0.0],[111.67714,-7.64126,0.0],[111.67348,-7.64155,0.0],[111.66935,-7.64368,0.0],[111.66736,-7.63775,0.0],[111.66539,-7.63671,0.0],[111.66103,-7.62875,0.0],[111.65874,-7.61351,0.0],[111.65768,-7.61347,0.0],[111.65694,-7.60992,0.0],[111.65295,-7.60801,0.0],[111.65297,-7.60524,0.0],[111.65165,-7.60572,0.0]]]}},{"type":"Feature","properties":{"kecamatan":"Sawahan","kab_kota":"Madiun"},"geometry":{"type":"Polygon","coordinates":[[[111.51634,-7.59097,0.0],[111.50883,-7.58913,0.0],[111.50564,-7.58693,0.0],[111.50262,-7.58954,0.0],[111.49765,-7.58769,0.0],[111.50086,-7.58277,0.0],[111.50252,-7.5737,0.0],[111.50111,-7.57334,0.0],[111.50164,-7.56944,0.0],[111.49958,-7.56835,0.0],[111.50137,-7.56517,0.0],[111.49975,-7.56521,0.0],[111.49961,-7.56343,0.0],[111.50158,-7.55664,0.0],[111.50359,-7.55753,0.0],[111.50419,-7.55269,0.0],[111.51345,-7.55359,0.0],[111.51457,-7.55128,0.0],[111.51101,-7.54827,0.0],[111.50789,-7.5474,0.0],[111.51143,-7.53833,0.0],[111.51814,-7.54011,0.0],[111.52274,-7.53836,0.0],[111.52241,-7.54027,0.0],[111.52444,-7.54105,0.0],[111.52473,-7.54444,0.0],[111.5321,-7.5469,0.0],[111.53278,-7.54555,0.0],[111.53548,-7.54537,0.0],[111.53605,-7.53819,0.0],[111.54025,-7.53793,0.0],[111.54109,-7.53585,0.0],[111.54522,-7.53924,0.0],[111.54821,-7.53892,0.0],[111.54827,-7.54247,0.0],[111.54556,-7.5429,0.0],[111.54602,-7.5452,0.0],[111.54942,-7.54507,0.0],[111.54761,-7.54947,0.0],[111.5455,-7.55073,0.0],[111.53866,-7.54896,0.0],[111.53797,-7.55023,0.0],[111.54325,-7.5551,0.0],[111.54241,-7.55612,0.0],[111.5408,-7.5553,0.0],[111.5403,-7.55824,0.0],[111.53612,-7.56095,0.0],[111.54098,-7.5665,0.0],[111.53638,-7.56989,0.0],[111.53721,-7.57866,0.0],[111.53387,-7.58517,0.0],[111.53692,-7.58808,0.0],[111.53644,-7.59001,0.0],[111.53221,-7.58907,0.0],[111.53623,-7.59235,0.0],[111.5329,-7.59614,0.0],[111.53424,-7.59996,0.0],[111.5204,-7.59715,0.0],[111.52104,-7.59482,0.0],[111.51736,-7.59379,0.0],[111.51634,-7.59097,0.0]]]}},{"type":"Feature","properties":{"kecamatan":"Wonoasri","kab_kota":"Madiun"},"geometry":{"type":"Polygon","coordinates":[[[111.65513,-7.64774,0.0],[111.65145,-7.64875,0.0],[111.64956,-7.65205,0.0],[111.64735,-7.65198,0.0],[111.64554,-7.65155,0.0],[111.64037,-7.6446,0.0],[111.63597,-7.6454,0.0],[111.63446,-7.64443,0.0],[111.62542,-7.63286,0.0],[111.62025,-7.62329,0.0],[111.6199,-7.61836,0.0],[111.61802,-7.61629,0.0],[111.61667,-7.61687,0.0],[111.61546,-7.61492,0.0],[111.61248,-7.61432,0.0],[111.61285,-7.61184,0.0],[111.60763,-7.60959,0.0],[111.60721,-7.60648,0.0],[111.60604,-7.60669,0.0],[111.60658,-7.60494,0.0],[111.60558,-7.60518,0.0],[111.60518,-7.60326,0.0],[111.60365,-7.60462,0.0],[111.60309,-7.60363,0.0],[111.60532,-7.60149,0.0],[111.59893,-7.5938,0.0],[111.60236,-7.58655,0.0],[111.60201,-7.58492,0.0],[111.59954,-7.5842,0.0],[111.59992,-7.5807,0.0],[111.61012,-7.57486,0.0],[111.6091,-7.57211,0.0],[111.61125,-7.5674,0.0],[111.60993,-7.56361,0.0],[111.60956,-7.55939,0.0],[111.61009,-7.55747,0.0],[111.6207,-7.55894,0.0],[111.62211,-7.55656,0.0],[111.62526,-7.55512,0.0],[111.62652,-7.55082,0.0],[111.63302,-7.55055,0.0],[111.63345,-7.54478,0.0],[111.63943,-7.53905,0.0],[111.63528,-7.52655,0.0],[111.63668,-7.52726,0.0],[111.63924,-7.52552,0.0],[111.64139,-7.52573,0.0],[111.64425,-7.52885,0.0],[111.64301,-7.53287,0.0],[111.64531,-7.53402,0.0],[111.64374,-7.53713,0.0],[111.64593,-7.53802,0.0],[111.64542,-7.5396,0.0],[111.64667,-7.54062,0.0],[111.65072,-7.54115,0.0],[111.65107,-7.54701,0.0],[111.6527,-7.54865,0.0],[111.65287,-7.55265,0.0],[111.65419,-7.55308,0.0],[111.65314,-7.5597,0.0],[111.65021,-7.56543,0.0],[111.64685,-7.56551,0.0],[111.64517,-7.56805,0.0],[111.64202,-7.56557,0.0],[111.64112,-7.56827,0.0],[111.6426,-7.57016,0.0],[111.64308,-7.574,0.0],[111.64202,-7.5745,0.0],[111.64403,-7.57436,0.0],[111.64266,-7.58646,0.0],[111.64367,-7.59777,0.0],[111.65165,-7.60572,0.0],[111.65297,-7.60524,0.0],[111.65315,-7.60823,0.0],[111.65704,-7.61004,0.0],[111.66002,-7.61739,0.0],[111.65936,-7.61943,0.0],[111.66103,-7.62875,0.0],[111.66539,-7.63671,0.0],[111.66736,-7.63775,0.0],[111.66959,-7.64313,0.0],[111.66453,-7.64655,0.0],[111.65464,-7.64541,0.0],[111.65513,-7.64774,0.0]]]}},{"type":"Feature","properties":{"kecamatan":"Saradan","kab_kota":"Madiun"},"geometry":{"type":"Polygon","coordinates":[[[111.69017,-7.55018,0.0],[111.67304,-7.54903,0.0],[111.67342,-7.54464,0.0],[111.67699,-7.54533,0.0],[111.67791,-7.54155,0.0],[111.67128,-7.54001,0.0],[111.66919,-7.54009,0.0],[111.66943,-7.54281,0.0],[111.66723,-7.54154,0.0],[111.66443,-7.54197,0.0],[111.66256,-7.53844,0.0],[111.66025,-7.53785,0.0],[111.66144,-7.53718,0.0],[111.6611,-7.53577,0.0],[111.6631,-7.53512,0.0],[111.66208,-7.53373,0.0],[111.66409,-7.53261,0.0],[111.65871,-7.5319,0.0],[111.66049,-7.52869,0.0],[111.66549,-7.52487,0.0],[111.66741,-7.52572,0.0],[111.66924,-7.52422,0.0],[111.67115,-7.52559,0.0],[111.67235,-7.51887,0.0],[111.67815,-7.51956,0.0],[111.67488,-7.51178,0.0],[111.67591,-7.50988,0.0],[111.67689,-7.50883,0.0],[111.68273,-7.50859,0.0],[111.68716,-7.50422,0.0],[111.6899,-7.49841,0.0],[111.69075,-7.49323,0.0],[111.69407,-7.4909,0.0],[111.69185,-7.48433,0.0],[111.70601,-7.47286,0.0],[111.70695,-7.46132,0.0],[111.71306,-7.4585,0.0],[111.71808,-7.45048,0.0],[111.71769,-7.44825,0.0],[111.72097,-7.44527,0.0],[111.72718,-7.44885,0.0],[111.73731,-7.4509,0.0],[111.74586,-7.45477,0.0],[111.76334,-7.46683,0.0],[111.77046,-7.46964,0.0],[111.80041,-7.4611,0.0],[111.80226,-7.45968,0.0],[111.81314,-7.4631,0.0],[111.82149,-7.47257,0.0],[111.82139,-7.47535,0.0],[111.81858,-7.47763,0.0],[111.81863,-7.48305,0.0],[111.82524,-7.49319,0.0],[111.82508,-7.49466,0.0],[111.8386,-7.49803,0.0],[111.84058,-7.50309,0.0],[111.84578,-7.50303,0.0],[111.84958,-7.50722,0.0],[111.84932,-7.50959,0.0],[111.84327,-7.5139,0.0],[111.84038,-7.51924,0.0],[111.8379,-7.5286,0.0],[111.83878,-7.54037,0.0],[111.8331,-7.54881,0.0],[111.82578,-7.54457,0.0],[111.81763,-7.54843,0.0],[111.81563,-7.54627,0.0],[111.81581,-7.54284,0.0],[111.81437,-7.54193,0.0],[111.80673,-7.54356,0.0],[111.80419,-7.54557,0.0],[111.80446,-7.54767,0.0],[111.803,-7.54742,0.0],[111.80204,-7.54897,0.0],[111.80418,-7.55487,0.0],[111.80202,-7.55557,0.0],[111.80251,-7.55683,0.0],[111.80153,-7.5566,0.0],[111.80078,-7.55979,0.0],[111.7952,-7.56126,0.0],[111.78671,-7.56595,0.0],[111.78594,-7.56381,0.0],[111.78122,-7.56172,0.0],[111.77683,-7.56064,0.0],[111.77648,-7.56207,0.0],[111.77454,-7.56189,0.0],[111.77594,-7.56509,0.0],[111.78378,-7.56873,0.0],[111.77273,-7.57647,0.0],[111.75256,-7.58004,0.0],[111.75253,-7.5817,0.0],[111.74976,-7.58221,0.0],[111.74868,-7.59026,0.0],[111.74576,-7.58938,0.0],[111.74646,-7.587,0.0],[111.74149,-7.58509,0.0],[111.74238,-7.5825,0.0],[111.73233,-7.58211,0.0],[111.72767,-7.58063,0.0],[111.72377,-7.5772,0.0],[111.71334,-7.57581,0.0],[111.71209,-7.57005,0.0],[111.71249,-7.55996,0.0],[111.70963,-7.55515,0.0],[111.70946,-7.55258,0.0],[111.69848,-7.55318,0.0],[111.69017,-7.55018,0.0]]]}},{"type":"Feature","properties":{"kecamatan":"Pilangkenceng","kab_kota":"Madiun"},"geometry":{"type":"Polygon","coordinates":[[[111.66486,-7.52541,0.0],[111.66049,-7.52869,0.0],[111.65911,-7.53174,0.0],[111.65757,-7.53199,0.0],[111.65576,-7.5297,0.0],[111.65332,-7.52969,0.0],[111.65226,-7.52727,0.0],[111.64942,-7.52652,0.0],[111.64946,-7.52521,0.0],[111.64851,-7.52542,0.0],[111.64843,-7.52776,0.0],[111.64683,-7.52789,0.0],[111.6421,-7.52479,0.0],[111.64245,-7.52691,0.0],[111.63924,-7.52552,0.0],[111.63668,-7.52726,0.0],[111.63109,-7.52482,0.0],[111.62683,-7.52467,0.0],[111.62895,-7.52127,0.0],[111.62951,-7.51825,0.0],[111.62834,-7.51505,0.0],[111.63064,-7.51455,0.0],[111.62984,-7.5132,0.0],[111.62488,-7.50762,0.0],[111.62377,-7.50806,0.0],[111.61924,-7.50534,0.0],[111.61668,-7.50579,0.0],[111.61312,-7.50931,0.0],[111.60992,-7.50841,0.0],[111.60963,-7.50558,0.0],[111.61124,-7.50497,0.0],[111.60895,-7.5041,0.0],[111.60901,-7.50258,0.0],[111.60754,-7.50182,0.0],[111.60796,-7.4963,0.0],[111.60675,-7.49535,0.0],[111.60495,-7.49689,0.0],[111.60295,-7.4966,0.0],[111.6033,-7.49216,0.0],[111.59956,-7.48862,0.0],[111.5995,-7.48666,0.0],[111.60291,-7.48491,0.0],[111.60064,-7.48522,0.0],[111.60046,-7.48252,0.0],[111.60376,-7.48374,0.0],[111.60248,-7.48084,0.0],[111.60474,-7.48027,0.0],[111.604,-7.47904,0.0],[111.60549,-7.47622,0.0],[111.6069,-7.47577,0.0],[111.60726,-7.47882,0.0],[111.60896,-7.47564,0.0],[111.61048,-7.47607,0.0],[111.61236,-7.46902,0.0],[111.61481,-7.468,0.0],[111.61256,-7.46704,0.0],[111.61295,-7.46626,0.0],[111.61644,-7.46477,0.0],[111.62184,-7.46695,0.0],[111.62274,-7.46881,0.0],[111.62355,-7.46722,0.0],[111.62681,-7.46713,0.0],[111.62905,-7.46334,0.0],[111.63143,-7.46388,0.0],[111.63443,-7.4615,0.0],[111.63714,-7.46278,0.0],[111.63772,-7.46046,0.0],[111.64009,-7.45982,0.0],[111.64217,-7.45481,0.0],[111.64178,-7.45098,0.0],[111.64382,-7.45188,0.0],[111.64919,-7.45039,0.0],[111.65168,-7.45101,0.0],[111.65081,-7.44584,0.0],[111.65238,-7.44467,0.0],[111.65061,-7.43867,0.0],[111.65522,-7.43851,0.0],[111.65487,-7.4367,0.0],[111.65843,-7.43361,0.0],[111.65966,-7.42722,0.0],[111.66127,-7.42695,0.0],[111.66335,-7.42398,0.0],[111.66846,-7.42316,0.0],[111.6701,-7.41596,0.0],[111.67249,-7.41384,0.0],[111.67361,-7.41066,0.0],[111.68454,-7.41662,0.0],[111.71086,-7.43665,0.0],[111.71619,-7.44289,0.0],[111.72097,-7.44527,0.0],[111.71769,-7.44825,0.0],[111.71808,-7.45048,0.0],[111.71306,-7.4585,0.0],[111.70695,-7.46132,0.0],[111.70601,-7.47286,0.0],[111.69185,-7.48433,0.0],[111.69407,-7.4909,0.0],[111.69075,-7.49323,0.0],[111.6899,-7.49841,0.0],[111.68716,-7.50422,0.0],[111.68273,-7.50859,0.0],[111.67689,-7.50883,0.0],[111.67591,-7.50988,0.0],[111.67488,-7.51178,0.0],[111.67815,-7.51956,0.0],[111.67235,-7.51887,0.0],[111.67115,-7.52559,0.0],[111.66924,-7.52422,0.0],[111.66741,-7.52572,0.0],[111.66486,-7.52541,0.0]]]}}]}