{"type":"FeatureCollection","features":[{"type":"Feature","properties":{"kecamatan":"Kedungkandang","kab_kota":"Kota Malang"},"geometry":{"type":"Polygon","coordinates":[[[112.64525,-8.04832,0.0],[112.64227,-8.0498,0.0],[112.63169,-8.04599,0.0],[112.63097,-8.03517,0.0],[112.62932,-8.03409,0.0],[112.62936,-8.02924,0.0],[112.63368,-8.02054,0.0],[112.63163,-8.01708,0.0],[112.63221,-8.01137,0.0],[112.63054,-8.00346,0.0],[112.63569,-7.98711,0.0],[112.64583,-7.99323,0.0],[112.64981,-7.98717,0.0],[112.64894,-7.98475,0.0],[112.65106,-7.98043,0.0],[112.65099,-7.97498,0.0],[112.65306,-7.97126,0.0],[112.65489,-7.9706,0.0],[112.65554,-7.9664,0.0],[112.65741,-7.96517,0.0],[112.66369,-7.96819,0.0],[112.66319,-7.97101,0.0],[112.66674,-7.97069,0.0],[112.66803,-7.96899,0.0],[112.67026,-7.9701,0.0],[112.6702,-7.97119,0.0],[112.67648,-7.97225,0.0],[112.67559,-7.97458,0.0],[112.67877,-7.97659,0.0],[112.6845,-7.97468,0.0],[112.68581,-7.97581,0.0],[112.69006,-7.97557,0.0],[112.69037,-7.98019,0.0],[112.69377,-7.9817,0.0],[112.69346,-7.98569,0.0],[112.68845,-7.99687,0.0],[112.68315,-8.00546,0.0],[112.67914,-8.00576,0.0],[112.67879,-8.01038,0.0],[112.67208,-8.009,0.0],[112.67338,-8.01737,0.0],[112.67244,-8.02322,0.0],[112.67681,-8.02565,0.0],[112.67315,-8.03137,0.0],[112.67153,-8.03056,0.0],[112.66977,-8.03216,0.0],[112.66747,-8.03823,0.0],[112.66634,-8.03798,0.0],[112.66522,-8.04075,0.0],[112.66181,-8.03962,0.0],[112.66006,-8.04414,0.0],[112.65793,-8.04372,0.0],[112.65749,-8.04541,0.0],[112.65615,-8.04465,0.0],[112.65468,-8.04909,0.0],[112.65244,-8.04777,0.0],[112.65173,-8.05013,0.0],[112.64766,-8.04842,0.0],[112.64584,-8.05157,0.0],[112.64525,-8.04832,0.0]]]}},{"type":"Feature","properties":{"kecamatan":"Sukun","kab_kota":"Kota Malang"},"geometry":{"type":"Polygon","coordinates":[[[112.6155,-8.00903,0.0],[112.61215,-8.01346,0.0],[112.61019,-8.01258,0.0],[112.60981,-8.01397,0.0],[112.60648,-8.01345,0.0],[112.60687,-8.01116,0.0],[112.60435,-8.00892,0.0],[112.59736,-8.00597,0.0],[112.6014,-7.99551,0.0],[112.60027,-7.99521,0.0],[112.59971,-7.99747,0.0],[112.5953,-7.99386,0.0],[112.58924,-7.99234,0.0],[112.5915,-7.98597,0.0],[112.58826,-7.98502,0.0],[112.58714,-7.98637,0.0],[112.58275,-7.98705,0.0],[112.57647,-7.98375,0.0],[112.57928,-7.97902,0.0],[112.58996,-7.98225,0.0],[112.59179,-7.984,0.0],[112.59529,-7.98168,0.0],[112.59687,-7.98379,0.0],[112.59826,-7.98102,0.0],[112.59683,-7.98038,0.0],[112.59749,-7.97909,0.0],[112.59104,-7.97609,0.0],[112.59111,-7.97406,0.0],[112.59189,-7.97283,0.0],[112.59927,-7.97344,0.0],[112.60328,-7.97119,0.0],[112.60084,-7.96842,0.0],[112.60275,-7.96751,0.0],[112.59805,-7.96318,0.0],[112.59963,-7.9598,0.0],[112.599,-7.95854,0.0],[112.5891,-7.95416,0.0],[112.58944,-7.95292,0.0],[112.58788,-7.9525,0.0],[112.58852,-7.95046,0.0],[112.58105,-7.94976,0.0],[112.58143,-7.94502,0.0],[112.58264,-7.94517,0.0],[112.58414,-7.94308,0.0],[112.5862,-7.94412,0.0],[112.58688,-7.94332,0.0],[112.58975,-7.94684,0.0],[112.59781,-7.94998,0.0],[112.60061,-7.94973,0.0],[112.6014,-7.95094,0.0],[112.60375,-7.94992,0.0],[112.60343,-7.9538,0.0],[112.60822,-7.95423,0.0],[112.60596,-7.95865,0.0],[112.61324,-7.96327,0.0],[112.61254,-7.97726,0.0],[112.6146,-7.98108,0.0],[112.61428,-7.98354,0.0],[112.62333,-7.98339,0.0],[112.62225,-7.98549,0.0],[112.62429,-7.9962,0.0],[112.62328,-7.99927,0.0],[112.62545,-7.99929,0.0],[112.62889,-7.99113,0.0],[112.63357,-7.99349,0.0],[112.63054,-8.00346,0.0],[112.63221,-8.01137,0.0],[112.63163,-8.01708,0.0],[112.63368,-8.02054,0.0],[112.62936,-8.02924,0.0],[112.62932,-8.03409,0.0],[112.62471,-8.02946,0.0],[112.61768,-8.02681,0.0],[112.61854,-8.02321,0.0],[112.61371,-8.02111,0.0],[112.61377,-8.01924,0.0],[112.6181,-8.0165,0.0],[112.6175,-8.0151,0.0],[112.61886,-8.01155,0.0],[112.6155,-8.00903,0.0]]]}},{"type":"Feature","properties":{"kecamatan":"Blimbing","kab_kota":"Kota Malang"},"geometry":{"type":"Polygon","coordinates":[[[112.64981,-7.98717,0.0],[112.64583,-7.99323,0.0],[112.63569,-7.98711,0.0],[112.63864,-7.97785,0.0],[112.63825,-7.96785,0.0],[112.63963,-7.965,0.0],[112.63832,-7.96409,0.0],[112.63973,-7.96256,0.0],[112.63689,-7.96054,0.0],[112.63893,-7.95297,0.0],[112.63804,-7.95282,0.0],[112.63818,-7.94746,0.0],[112.63712,-7.94655,0.0],[112.63815,-7.94539,0.0],[112.63716,-7.94478,0.0],[112.64298,-7.9342,0.0],[112.64158,-7.9317,0.0],[112.63823,-7.93068,0.0],[112.63974,-7.92816,0.0],[112.6373,-7.92607,0.0],[112.63841,-7.92408,0.0],[112.63957,-7.9247,0.0],[112.63977,-7.9233,0.0],[112.64153,-7.92288,0.0],[112.63932,-7.92231,0.0],[112.63939,-7.92081,0.0],[112.63998,-7.92157,0.0],[112.64495,-7.91364,0.0],[112.64707,-7.91753,0.0],[112.6502,-7.91699,0.0],[112.64984,-7.91938,0.0],[112.66288,-7.92691,0.0],[112.66247,-7.93217,0.0],[112.66584,-7.93938,0.0],[112.66481,-7.9409,0.0],[112.66561,-7.94331,0.0],[112.66889,-7.94624,0.0],[112.66709,-7.94752,0.0],[112.66714,-7.94895,0.0],[112.66605,-7.94607,0.0],[112.66392,-7.94816,0.0],[112.66467,-7.95026,0.0],[112.66327,-7.95432,0.0],[112.66362,-7.95883,0.0],[112.66202,-7.9587,0.0],[112.65949,-7.9617,0.0],[112.65945,-7.96363,0.0],[112.6547,-7.96772,0.0],[112.65489,-7.9706,0.0],[112.65306,-7.97126,0.0],[112.65099,-7.97498,0.0],[112.65106,-7.98043,0.0],[112.64894,-7.98475,0.0],[112.64981,-7.98717,0.0]]]}},{"type":"Feature","properties":{"kecamatan":"Klojen","kab_kota":"Kota Malang"},"geometry":{"type":"Polygon","coordinates":[[[112.62889,-7.99113,0.0],[112.62545,-7.99929,0.0],[112.62328,-7.99927,0.0],[112.62429,-7.9962,0.0],[112.62225,-7.98549,0.0],[112.62333,-7.98339,0.0],[112.61428,-7.98354,0.0],[112.6146,-7.98108,0.0],[112.61254,-7.97726,0.0],[112.61338,-7.96392,0.0],[112.61935,-7.96666,0.0],[112.6219,-7.9636,0.0],[112.62168,-7.96002,0.0],[112.61578,-7.95605,0.0],[112.61709,-7.95191,0.0],[112.61647,-7.94983,0.0],[112.62579,-7.9577,0.0],[112.63148,-7.96074,0.0],[112.63051,-7.96206,0.0],[112.63452,-7.96428,0.0],[112.63689,-7.96054,0.0],[112.63972,-7.96253,0.0],[112.63832,-7.96409,0.0],[112.63963,-7.965,0.0],[112.63825,-7.96785,0.0],[112.63862,-7.978,0.0],[112.63357,-7.99349,0.0],[112.62889,-7.99113,0.0]]]}},{"type":"Feature","properties":{"kecamatan":"Lowokwaru","kab_kota":"Kota Malang"},"geometry":{"type":"Polygon","coordinates":[[[112.61578,-7.95605,0.0],[112.62168,-7.96002,0.0],[112.6219,-7.9636,0.0],[112.61935,-7.96666,0.0],[112.61338,-7.96392,0.0],[112.61223,-7.96206,0.0],[112.60923,-7.96154,0.0],[112.60747,-7.95875,0.0],[112.60596,-7.95865,0.0],[112.60822,-7.95423,0.0],[112.60343,-7.9538,0.0],[112.60375,-7.94992,0.0],[112.6014,-7.95094,0.0],[112.60061,-7.94973,0.0],[112.59804,-7.95006,0.0],[112.59066,-7.94722,0.0],[112.58688,-7.94332,0.0],[112.5862,-7.94412,0.0],[112.58414,-7.94308,0.0],[112.58172,-7.94503,0.0],[112.57996,-7.94325,0.0],[112.56895,-7.93895,0.0],[112.56951,-7.937,0.0],[112.57385,-7.93538,0.0],[112.58988,-7.93619,0.0],[112.59697,-7.93789,0.0],[112.599,-7.93634,0.0],[112.59737,-7.93105,0.0],[112.59875,-7.9303,0.0],[112.60004,-7.92626,0.0],[112.59613,-7.92277,0.0],[112.5934,-7.92333,0.0],[112.59377,-7.91933,0.0],[112.5915,-7.91781,0.0],[112.59297,-7.91764,0.0],[112.59626,-7.92034,0.0],[112.59727,-7.92288,0.0],[112.60009,-7.92249,0.0],[112.60027,-7.9241,0.0],[112.60147,-7.92114,0.0],[112.6131,-7.92522,0.0],[112.60995,-7.9224,0.0],[112.61114,-7.91991,0.0],[112.60977,-7.91791,0.0],[112.61736,-7.9193,0.0],[112.61847,-7.91711,0.0],[112.62146,-7.91689,0.0],[112.62471,-7.91368,0.0],[112.62558,-7.91264,0.0],[112.62453,-7.91125,0.0],[112.63021,-7.91085,0.0],[112.63959,-7.92053,0.0],[112.63932,-7.92231,0.0],[112.64153,-7.92288,0.0],[112.63977,-7.9233,0.0],[112.63957,-7.9247,0.0],[112.63841,-7.92408,0.0],[112.6373,-7.92607,0.0],[112.63974,-7.92816,0.0],[112.63823,-7.93068,0.0],[112.64158,-7.9317,0.0],[112.64298,-7.9342,0.0],[112.63716,-7.94478,0.0],[112.63815,-7.94539,0.0],[112.63712,-7.94655,0.0],[112.63818,-7.94746,0.0],[112.63804,-7.95282,0.0],[112.63893,-7.95297,0.0],[112.6378,-7.95785,0.0],[112.63497,-7.96453,0.0],[112.63051,-7.96206,0.0],[112.63148,-7.96074,0.0],[112.62579,-7.9577,0.0],[112.61647,-7.94983,0.0],[112.61709,-7.95191,0.0],[112.61578,-7.95605,0.0]]]}}]}