{"type":"FeatureCollection","features":[{"type":"Feature","properties":{"kecamatan":"Magersari","kab_kota":"Kota Mojokerto"},"geometry":{"type":"Polygon","coordinates":[[[112.46132,-7.47339,0.0],[112.46049,-7.48294,0.0],[112.45085,-7.48175,0.0],[112.45287,-7.47486,0.0],[112.451,-7.47205,0.0],[112.44835,-7.47229,0.0],[112.44856,-7.47,0.0],[112.44518,-7.46983,0.0],[112.44458,-7.47429,0.0],[112.43967,-7.47422,0.0],[112.43961,-7.46979,0.0],[112.43748,-7.46954,0.0],[112.43815,-7.46637,0.0],[112.43955,-7.46637,0.0],[112.4395,-7.46424,0.0],[112.43726,-7.46423,0.0],[112.43714,-7.46298,0.0],[112.43195,-7.46405,0.0],[112.43196,-7.46016,0.0],[112.44033,-7.45607,0.0],[112.44742,-7.4502,0.0],[112.45509,-7.44738,0.0],[112.45755,-7.45692,0.0],[112.46519,-7.4555,0.0],[112.46519,-7.45325,0.0],[112.46711,-7.45324,0.0],[112.46711,-7.45533,0.0],[112.4681,-7.45525,0.0],[112.46848,-7.4607,0.0],[112.465,-7.46115,0.0],[112.465,-7.46218,0.0],[112.46764,-7.46209,0.0],[112.46683,-7.46712,0.0],[112.46476,-7.46699,0.0],[112.46477,-7.47319,0.0],[112.46132,-7.47339,0.0]]]}},{"type":"Feature","properties":{"kecamatan":"Kranggan","kab_kota":"Kota Mojokerto"},"geometry":{"type":"Polygon","coordinates":[[[112.44816,-7.46993,0.0],[112.44835,-7.47229,0.0],[112.451,-7.47205,0.0],[112.45287,-7.47486,0.0],[112.45087,-7.4815,0.0],[112.44978,-7.49344,0.0],[112.44379,-7.49079,0.0],[112.44376,-7.48186,0.0],[112.43654,-7.48172,0.0],[112.43529,-7.48754,0.0],[112.43346,-7.48711,0.0],[112.43357,-7.48484,0.0],[112.43008,-7.48412,0.0],[112.43041,-7.48269,0.0],[112.42829,-7.48235,0.0],[112.42865,-7.48046,0.0],[112.42634,-7.48097,0.0],[112.42878,-7.47245,0.0],[112.432,-7.47177,0.0],[112.43195,-7.46405,0.0],[112.43714,-7.46298,0.0],[112.43726,-7.46423,0.0],[112.4395,-7.46424,0.0],[112.43955,-7.46637,0.0],[112.43815,-7.46637,0.0],[112.43748,-7.46954,0.0],[112.43961,-7.46979,0.0],[112.43967,-7.47422,0.0],[112.44455,-7.47431,0.0],[112.44518,-7.46983,0.0],[112.44816,-7.46993,0.0]]]}},{"type":"Feature","properties":{"kecamatan":"Prajuritkulon","kab_kota":"Kota Mojokerto"},"geometry":{"type":"Polygon","coordinates":[[[112.42878,-7.47245,0.0],[112.4241,-7.48564,0.0],[112.42453,-7.48983,0.0],[112.42211,-7.49405,0.0],[112.42033,-7.49247,0.0],[112.41496,-7.49462,0.0],[112.41457,-7.4919,0.0],[112.40766,-7.49164,0.0],[112.40775,-7.47913,0.0],[112.40579,-7.47921,0.0],[112.40605,-7.47789,0.0],[112.41017,-7.47579,0.0],[112.41119,-7.47308,0.0],[112.41343,-7.47429,0.0],[112.41442,-7.47317,0.0],[112.41211,-7.46861,0.0],[112.41402,-7.46658,0.0],[112.41679,-7.46601,0.0],[112.41544,-7.46416,0.0],[112.41581,-7.45728,0.0],[112.4229,-7.45709,0.0],[112.43196,-7.46016,0.0],[112.432,-7.47177,0.0],[112.42878,-7.47245,0.0]]]}}]}