{"type":"FeatureCollection","features":[{"type":"Feature","properties":{"kecamatan":"Benowo","kab_kota":"Kota Surabaya"},"geometry":{"type":"Polygon","coordinates":[[[112.65692,-7.23944,0.0],[112.65444,-7.24216,0.0],[112.65528,-7.24982,0.0],[112.6544,-7.25426,0.0],[112.65471,-7.25545,0.0],[112.65994,-7.25598,0.0],[112.65974,-7.26015,0.0],[112.65871,-7.26092,0.0],[112.65941,-7.2626,0.0],[112.65526,-7.26407,0.0],[112.65486,-7.26557,0.0],[112.65186,-7.26442,0.0],[112.65305,-7.25875,0.0],[112.65088,-7.258,0.0],[112.64649,-7.25814,0.0],[112.64497,-7.26014,0.0],[112.63868,-7.25891,0.0],[112.63546,-7.2639,0.0],[112.63106,-7.26277,0.0],[112.63229,-7.25874,0.0],[112.63046,-7.25368,0.0],[112.63373,-7.24839,0.0],[112.63261,-7.24674,0.0],[112.63345,-7.24407,0.0],[112.63178,-7.24314,0.0],[112.63364,-7.23965,0.0],[112.63231,-7.23819,0.0],[112.63517,-7.22484,0.0],[112.6327,-7.22316,0.0],[112.6348,-7.22053,0.0],[112.63024,-7.22116,0.0],[112.62926,-7.22313,0.0],[112.62676,-7.22365,0.0],[112.62603,-7.2182,0.0],[112.62779,-7.21239,0.0],[112.62539,-7.21133,0.0],[112.6243,-7.20773,0.0],[112.62574,-7.2016,0.0],[112.62153,-7.20101,0.0],[112.62672,-7.19635,0.0],[112.6348,-7.19497,0.0],[112.64006,-7.19245,0.0],[112.64759,-7.19525,0.0],[112.66321,-7.19325,0.0],[112.66524,-7.19881,0.0],[112.66207,-7.20101,0.0],[112.66244,-7.20311,0.0],[112.66088,-7.20348,0.0],[112.66006,-7.20712,0.0],[112.66229,-7.21014,0.0],[112.66775,-7.2047,0.0],[112.66757,-7.20272,0.0],[112.67025,-7.20005,0.0],[112.67116,-7.20093,0.0],[112.67645,-7.1953,0.0],[112.67527,-7.19235,0.0],[112.67746,-7.19039,0.0],[112.68146,-7.19345,0.0],[112.68249,-7.19665,0.0],[112.68021,-7.1992,0.0],[112.67666,-7.19618,0.0],[112.66913,-7.2038,0.0],[112.66996,-7.20494,0.0],[112.66915,-7.20575,0.0],[112.66788,-7.2048,0.0],[112.662,-7.2111,0.0],[112.66885,-7.21902,0.0],[112.66672,-7.22235,0.0],[112.6639,-7.22255,0.0],[112.66355,-7.22761,0.0],[112.66138,-7.2285,0.0],[112.6627,-7.23158,0.0],[112.66259,-7.23588,0.0],[112.66044,-7.23597,0.0],[112.66081,-7.23746,0.0],[112.65919,-7.2393,0.0],[112.65692,-7.23944,0.0]]]}},{"type":"Feature","properties":{"kecamatan":"Kenjeran","kab_kota":"Kota Surabaya"},"geometry":{"type":"MultiPolygon","coordinates":[[[[112.78581,-7.23313,0.0],[112.78483,-7.23498,0.0],[112.78413,-7.23479,0.0],[112.7851,-7.23203,0.0],[112.78581,-7.23313,0.0]]],[[[112.77568,-7.21839,0.0],[112.77559,-7.22184,0.0],[112.77698,-7.2221,0.0],[112.77748,-7.21889,0.0],[112.78409,-7.22167,0.0],[112.78255,-7.22688,0.0],[112.78408,-7.22321,0.0],[112.78691,-7.22342,0.0],[112.78604,-7.22653,0.0],[112.78396,-7.22529,0.0],[112.78272,-7.22705,0.0],[112.78433,-7.22793,0.0],[112.78368,-7.23146,0.0],[112.78132,-7.23043,0.0],[112.78114,-7.22898,0.0],[112.77558,-7.22978,0.0],[112.77499,-7.23222,0.0],[112.77138,-7.23308,0.0],[112.76942,-7.23724,0.0],[112.76378,-7.23645,0.0],[112.76255,-7.23461,0.0],[112.75787,-7.23561,0.0],[112.75727,-7.23085,0.0],[112.759,-7.22777,0.0],[112.75802,-7.22501,0.0],[112.75956,-7.22477,0.0],[112.75916,-7.2221,0.0],[112.76247,-7.20707,0.0],[112.7613,-7.20722,0.0],[112.75807,-7.20361,0.0],[112.75699,-7.1977,0.0],[112.75909,-7.19614,0.0],[112.76341,-7.19575,0.0],[112.7704,-7.1998,0.0],[112.77257,-7.20321,0.0],[112.77347,-7.20133,0.0],[112.77469,-7.20154,0.0],[112.77387,-7.20549,0.0],[112.77521,-7.20805,0.0],[112.77627,-7.20709,0.0],[112.78001,-7.2087,0.0],[112.77725,-7.21893,0.0],[112.77568,-7.21839,0.0]]]]}},{"type":"Feature","properties":{"kecamatan":"Lakarsantri","kab_kota":"Kota Surabaya"},"geometry":{"type":"Polygon","coordinates":[[[112.67177,-7.31706,0.0],[112.67509,-7.31733,0.0],[112.68161,-7.32056,0.0],[112.67888,-7.32988,0.0],[112.6757,-7.33048,0.0],[112.67511,-7.33538,0.0],[112.67302,-7.3352,0.0],[112.67343,-7.33412,0.0],[112.66949,-7.33555,0.0],[112.66746,-7.33498,0.0],[112.66602,-7.33041,0.0],[112.66354,-7.32963,0.0],[112.65649,-7.33087,0.0],[112.65446,-7.33207,0.0],[112.65413,-7.334,0.0],[112.64819,-7.33347,0.0],[112.65099,-7.32517,0.0],[112.65089,-7.32145,0.0],[112.64831,-7.31899,0.0],[112.64924,-7.31456,0.0],[112.63626,-7.31281,0.0],[112.63124,-7.31404,0.0],[112.63104,-7.31313,0.0],[112.63097,-7.31414,0.0],[112.63072,-7.31314,0.0],[112.63052,-7.31437,0.0],[112.63049,-7.31307,0.0],[112.63008,-7.31461,0.0],[112.6288,-7.30143,0.0],[112.6273,-7.29865,0.0],[112.62758,-7.29028,0.0],[112.62974,-7.28881,0.0],[112.63342,-7.28941,0.0],[112.63904,-7.28771,0.0],[112.6477,-7.28845,0.0],[112.64918,-7.29202,0.0],[112.6526,-7.28967,0.0],[112.6585,-7.29393,0.0],[112.65981,-7.29285,0.0],[112.664,-7.29486,0.0],[112.66534,-7.29265,0.0],[112.66768,-7.29324,0.0],[112.67125,-7.2921,0.0],[112.67368,-7.29746,0.0],[112.67291,-7.30178,0.0],[112.67428,-7.30665,0.0],[112.67177,-7.31706,0.0]]]}},{"type":"Feature","properties":{"kecamatan":"Gayungan","kab_kota":"Kota Surabaya"},"geometry":{"type":"Polygon","coordinates":[[[112.73662,-7.34257,0.0],[112.73631,-7.34623,0.0],[112.73343,-7.34659,0.0],[112.73315,-7.34813,0.0],[112.7258,-7.34834,0.0],[112.72426,-7.34586,0.0],[112.71976,-7.34441,0.0],[112.71998,-7.34311,0.0],[112.71567,-7.34189,0.0],[112.71599,-7.33992,0.0],[112.71736,-7.34028,0.0],[112.71786,-7.33862,0.0],[112.71641,-7.33827,0.0],[112.71661,-7.33699,0.0],[112.71886,-7.33355,0.0],[112.71929,-7.32865,0.0],[112.71806,-7.32852,0.0],[112.72637,-7.31793,0.0],[112.72038,-7.31551,0.0],[112.72063,-7.308,0.0],[112.72402,-7.30763,0.0],[112.7299,-7.31009,0.0],[112.73521,-7.31057,0.0],[112.72937,-7.33942,0.0],[112.73324,-7.33992,0.0],[112.73322,-7.34106,0.0],[112.73662,-7.34257,0.0]]]}},{"type":"Feature","properties":{"kecamatan":"Jambangan","kab_kota":"Kota Surabaya"},"geometry":{"type":"Polygon","coordinates":[[[112.71929,-7.32865,0.0],[112.71838,-7.33557,0.0],[112.71723,-7.33537,0.0],[112.71661,-7.33699,0.0],[112.71641,-7.33827,0.0],[112.71786,-7.33862,0.0],[112.71736,-7.34028,0.0],[112.70428,-7.33651,0.0],[112.71043,-7.32868,0.0],[112.71143,-7.31096,0.0],[112.71358,-7.30784,0.0],[112.72063,-7.308,0.0],[112.72038,-7.31551,0.0],[112.72637,-7.31793,0.0],[112.71806,-7.32852,0.0],[112.71929,-7.32865,0.0]]]}},{"type":"Feature","properties":{"kecamatan":"Wiyung","kab_kota":"Kota Surabaya"},"geometry":{"type":"Polygon","coordinates":[[[112.68999,-7.32397,0.0],[112.69248,-7.32429,0.0],[112.69229,-7.32678,0.0],[112.69572,-7.33054,0.0],[112.69427,-7.33675,0.0],[112.69084,-7.33552,0.0],[112.67511,-7.33538,0.0],[112.6757,-7.33048,0.0],[112.67888,-7.32988,0.0],[112.68161,-7.32056,0.0],[112.67509,-7.31733,0.0],[112.67157,-7.31701,0.0],[112.67428,-7.30665,0.0],[112.67291,-7.30178,0.0],[112.67368,-7.29746,0.0],[112.67125,-7.2921,0.0],[112.67639,-7.28941,0.0],[112.67392,-7.28655,0.0],[112.67361,-7.28259,0.0],[112.67844,-7.2838,0.0],[112.67761,-7.28759,0.0],[112.67863,-7.28784,0.0],[112.67577,-7.29354,0.0],[112.67658,-7.29562,0.0],[112.68099,-7.2962,0.0],[112.68388,-7.29799,0.0],[112.68608,-7.29705,0.0],[112.69986,-7.30244,0.0],[112.70448,-7.30083,0.0],[112.70553,-7.30223,0.0],[112.707,-7.3016,0.0],[112.7074,-7.30693,0.0],[112.71358,-7.30784,0.0],[112.71176,-7.30965,0.0],[112.71133,-7.31284,0.0],[112.70256,-7.31406,0.0],[112.70266,-7.31533,0.0],[112.69833,-7.31938,0.0],[112.69769,-7.3239,0.0],[112.69041,-7.3224,0.0],[112.68999,-7.32397,0.0]]]}},{"type":"Feature","properties":{"kecamatan":"Dukuh Pakis","kab_kota":"Kota Surabaya"},"geometry":{"type":"Polygon","coordinates":[[[112.72491,-7.29252,0.0],[112.72464,-7.29389,0.0],[112.72094,-7.29596,0.0],[112.71963,-7.30804,0.0],[112.7074,-7.30693,0.0],[112.707,-7.3016,0.0],[112.70553,-7.30223,0.0],[112.70448,-7.30083,0.0],[112.69986,-7.30244,0.0],[112.68608,-7.29705,0.0],[112.68388,-7.29799,0.0],[112.68099,-7.2962,0.0],[112.67658,-7.29562,0.0],[112.67577,-7.29354,0.0],[112.67863,-7.28784,0.0],[112.67761,-7.28759,0.0],[112.6787,-7.28142,0.0],[112.68416,-7.27696,0.0],[112.68337,-7.27608,0.0],[112.68538,-7.27657,0.0],[112.68739,-7.2791,0.0],[112.68984,-7.27781,0.0],[112.69575,-7.27856,0.0],[112.69478,-7.27942,0.0],[112.69591,-7.27881,0.0],[112.69735,-7.28068,0.0],[112.69438,-7.28417,0.0],[112.6945,-7.2899,0.0],[112.7028,-7.29381,0.0],[112.70694,-7.28865,0.0],[112.70783,-7.28511,0.0],[112.70732,-7.28369,0.0],[112.70391,-7.28227,0.0],[112.70127,-7.28445,0.0],[112.69974,-7.2819,0.0],[112.70457,-7.2774,0.0],[112.70745,-7.27904,0.0],[112.7081,-7.27583,0.0],[112.71001,-7.27568,0.0],[112.7096,-7.27728,0.0],[112.71187,-7.27772,0.0],[112.71232,-7.27911,0.0],[112.71725,-7.27949,0.0],[112.71344,-7.29036,0.0],[112.72491,-7.29252,0.0]]]}},{"type":"Feature","properties":{"kecamatan":"Mulyorejo","kab_kota":"Kota Surabaya"},"geometry":{"type":"MultiPolygon","coordinates":[[[[112.77194,-7.28529,0.0],[112.77372,-7.28544,0.0],[112.77248,-7.2894,0.0],[112.77068,-7.28954,0.0],[112.77194,-7.28529,0.0]]],[[[112.78607,-7.27993,0.0],[112.78529,-7.28416,0.0],[112.78179,-7.2846,0.0],[112.7808,-7.28207,0.0],[112.77056,-7.28086,0.0],[112.76973,-7.2853,0.0],[112.76546,-7.28491,0.0],[112.76388,-7.29017,0.0],[112.76274,-7.29072,0.0],[112.76232,-7.27722,0.0],[112.7647,-7.27744,0.0],[112.76449,-7.27963,0.0],[112.77221,-7.28054,0.0],[112.77422,-7.26843,0.0],[112.77811,-7.26606,0.0],[112.77636,-7.26452,0.0],[112.77723,-7.26273,0.0],[112.77396,-7.2626,0.0],[112.77437,-7.26089,0.0],[112.77795,-7.25431,0.0],[112.78097,-7.25487,0.0],[112.78232,-7.25329,0.0],[112.7803,-7.25254,0.0],[112.78362,-7.24895,0.0],[112.78746,-7.24995,0.0],[112.78964,-7.24786,0.0],[112.79281,-7.24827,0.0],[112.79182,-7.25192,0.0],[112.80655,-7.25582,0.0],[112.81073,-7.25421,0.0],[112.81291,-7.25538,0.0],[112.81606,-7.2526,0.0],[112.8161,-7.24934,0.0],[112.82367,-7.25396,0.0],[112.82433,-7.25489,0.0],[112.82273,-7.25748,0.0],[112.82481,-7.25492,0.0],[112.83356,-7.2595,0.0],[112.83597,-7.26346,0.0],[112.83697,-7.26739,0.0],[112.81834,-7.27239,0.0],[112.81166,-7.28108,0.0],[112.80624,-7.28438,0.0],[112.80068,-7.28437,0.0],[112.80138,-7.28073,0.0],[112.79941,-7.27434,0.0],[112.78386,-7.27695,0.0],[112.78434,-7.28017,0.0],[112.78607,-7.27993,0.0]]]]}},{"type":"Feature","properties":{"kecamatan":"Sukomanunggal","kab_kota":"Kota Surabaya"},"geometry":{"type":"Polygon","coordinates":[[[112.70727,-7.28451,0.0],[112.70694,-7.28865,0.0],[112.7028,-7.29381,0.0],[112.6945,-7.2899,0.0],[112.69438,-7.28417,0.0],[112.69735,-7.28068,0.0],[112.69591,-7.27881,0.0],[112.69478,-7.27942,0.0],[112.69575,-7.27856,0.0],[112.68984,-7.27781,0.0],[112.68739,-7.2791,0.0],[112.68505,-7.27655,0.0],[112.68519,-7.27476,0.0],[112.68379,-7.27466,0.0],[112.68538,-7.27305,0.0],[112.68594,-7.26621,0.0],[112.68746,-7.26605,0.0],[112.69067,-7.2545,0.0],[112.69229,-7.25165,0.0],[112.69554,-7.24958,0.0],[112.69691,-7.25055,0.0],[112.69748,-7.25404,0.0],[112.70022,-7.25207,0.0],[112.70292,-7.2548,0.0],[112.71149,-7.25293,0.0],[112.71414,-7.25596,0.0],[112.7126,-7.26656,0.0],[112.71385,-7.26684,0.0],[112.71328,-7.26921,0.0],[112.71166,-7.26887,0.0],[112.71061,-7.27279,0.0],[112.70873,-7.27257,0.0],[112.70745,-7.27904,0.0],[112.70457,-7.2774,0.0],[112.69974,-7.2819,0.0],[112.70127,-7.28445,0.0],[112.70391,-7.28227,0.0],[112.70727,-7.28451,0.0]]]}},{"type":"Feature","properties":{"kecamatan":"Tenggilis Mejoyo","kab_kota":"Kota Surabaya"},"geometry":{"type":"Polygon","coordinates":[[[112.75865,-7.33041,0.0],[112.75905,-7.33581,0.0],[112.75546,-7.33552,0.0],[112.75346,-7.34223,0.0],[112.74782,-7.34237,0.0],[112.74204,-7.34066,0.0],[112.74386,-7.32274,0.0],[112.74677,-7.32309,0.0],[112.74802,-7.31741,0.0],[112.75091,-7.31815,0.0],[112.75424,-7.31526,0.0],[112.75315,-7.31169,0.0],[112.75685,-7.31235,0.0],[112.76078,-7.30588,0.0],[112.77269,-7.30901,0.0],[112.77164,-7.31141,0.0],[112.76857,-7.31063,0.0],[112.76872,-7.31384,0.0],[112.76546,-7.31442,0.0],[112.75735,-7.33027,0.0],[112.75865,-7.33041,0.0]]]}},{"type":"Feature","properties":{"kecamatan":"Gunung Anyar","kab_kota":"Kota Surabaya"},"geometry":{"type":"Polygon","coordinates":[[[112.79119,-7.33289,0.0],[112.8224,-7.33041,0.0],[112.8259,-7.33088,0.0],[112.8311,-7.33521,0.0],[112.82894,-7.33774,0.0],[112.82788,-7.34284,0.0],[112.81923,-7.34348,0.0],[112.81252,-7.34639,0.0],[112.79875,-7.3449,0.0],[112.79358,-7.34638,0.0],[112.78905,-7.34394,0.0],[112.78334,-7.34545,0.0],[112.77941,-7.34463,0.0],[112.77945,-7.34262,0.0],[112.77749,-7.34212,0.0],[112.77742,-7.34009,0.0],[112.77017,-7.33921,0.0],[112.76806,-7.34158,0.0],[112.76636,-7.33833,0.0],[112.75468,-7.33739,0.0],[112.75546,-7.33552,0.0],[112.75905,-7.33581,0.0],[112.75865,-7.33041,0.0],[112.76691,-7.332,0.0],[112.77063,-7.33115,0.0],[112.79119,-7.33289,0.0]]]}},{"type":"Feature","properties":{"kecamatan":"Asem Rowo","kab_kota":"Kota Surabaya"},"geometry":{"type":"Polygon","coordinates":[[[112.71774,-7.24555,0.0],[112.71474,-7.25638,0.0],[112.71175,-7.25296,0.0],[112.70292,-7.2548,0.0],[112.70022,-7.25207,0.0],[112.69748,-7.25404,0.0],[112.69691,-7.25055,0.0],[112.69554,-7.24958,0.0],[112.68915,-7.25416,0.0],[112.68888,-7.25241,0.0],[112.68197,-7.25269,0.0],[112.68218,-7.24976,0.0],[112.67457,-7.24827,0.0],[112.67388,-7.24494,0.0],[112.67531,-7.23842,0.0],[112.67339,-7.23826,0.0],[112.67277,-7.24013,0.0],[112.66932,-7.23979,0.0],[112.66887,-7.24159,0.0],[112.66649,-7.24239,0.0],[112.66509,-7.23951,0.0],[112.66097,-7.23813,0.0],[112.66044,-7.23597,0.0],[112.6625,-7.236,0.0],[112.66294,-7.23481,0.0],[112.66138,-7.2285,0.0],[112.66355,-7.22761,0.0],[112.6639,-7.22255,0.0],[112.6665,-7.22248,0.0],[112.66837,-7.2202,0.0],[112.67679,-7.22405,0.0],[112.67762,-7.22164,0.0],[112.67835,-7.22299,0.0],[112.67874,-7.22122,0.0],[112.67995,-7.22139,0.0],[112.68,-7.22365,0.0],[112.68505,-7.22564,0.0],[112.68946,-7.22368,0.0],[112.69404,-7.22414,0.0],[112.69886,-7.22293,0.0],[112.70031,-7.22099,0.0],[112.70308,-7.22027,0.0],[112.70331,-7.2216,0.0],[112.70545,-7.22216,0.0],[112.70714,-7.23048,0.0],[112.71022,-7.23174,0.0],[112.70795,-7.23599,0.0],[112.71113,-7.23598,0.0],[112.71116,-7.23796,0.0],[112.70915,-7.23759,0.0],[112.71014,-7.24088,0.0],[112.71234,-7.24069,0.0],[112.71333,-7.23915,0.0],[112.71387,-7.24268,0.0],[112.71693,-7.24285,0.0],[112.71774,-7.24555,0.0]]]}},{"type":"Feature","properties":{"kecamatan":"Bulak","kab_kota":"Kota Surabaya"},"geometry":{"type":"Polygon","coordinates":[[[112.79638,-7.23831,0.0],[112.7996,-7.24256,0.0],[112.80121,-7.24183,0.0],[112.80167,-7.24666,0.0],[112.80335,-7.24804,0.0],[112.80403,-7.25147,0.0],[112.80529,-7.24934,0.0],[112.80659,-7.25178,0.0],[112.80878,-7.25176,0.0],[112.81018,-7.25365,0.0],[112.81109,-7.25191,0.0],[112.8123,-7.25235,0.0],[112.81267,-7.25501,0.0],[112.81353,-7.25228,0.0],[112.81595,-7.25027,0.0],[112.81606,-7.2526,0.0],[112.81291,-7.25538,0.0],[112.81073,-7.25421,0.0],[112.80655,-7.25582,0.0],[112.79182,-7.25192,0.0],[112.79281,-7.24827,0.0],[112.78283,-7.24735,0.0],[112.784,-7.23516,0.0],[112.78041,-7.23574,0.0],[112.77951,-7.23302,0.0],[112.77798,-7.23309,0.0],[112.77756,-7.23521,0.0],[112.77463,-7.23697,0.0],[112.7706,-7.23574,0.0],[112.77138,-7.23308,0.0],[112.77499,-7.23222,0.0],[112.77558,-7.22978,0.0],[112.78114,-7.22898,0.0],[112.78132,-7.23043,0.0],[112.78368,-7.23146,0.0],[112.78433,-7.22793,0.0],[112.78272,-7.22705,0.0],[112.78339,-7.22635,0.0],[112.78396,-7.22529,0.0],[112.78625,-7.22632,0.0],[112.78691,-7.22342,0.0],[112.78435,-7.22304,0.0],[112.78408,-7.22321,0.0],[112.78414,-7.22375,0.0],[112.7839,-7.22481,0.0],[112.78378,-7.22528,0.0],[112.7834,-7.22609,0.0],[112.78193,-7.22657,0.0],[112.7837,-7.22536,0.0],[112.78409,-7.22167,0.0],[112.78001,-7.21986,0.0],[112.77748,-7.21889,0.0],[112.77698,-7.2221,0.0],[112.77559,-7.22184,0.0],[112.77568,-7.21839,0.0],[112.77725,-7.21893,0.0],[112.78001,-7.2087,0.0],[112.78484,-7.21727,0.0],[112.78739,-7.21934,0.0],[112.78868,-7.22591,0.0],[112.79127,-7.22701,0.0],[112.79298,-7.23076,0.0],[112.79398,-7.2306,0.0],[112.79638,-7.23831,0.0]],[[112.78427,-7.23481,0.0],[112.78606,-7.23349,0.0],[112.78575,-7.23219,0.0],[112.7851,-7.23203,0.0],[112.78427,-7.23481,0.0]]]}},{"type":"Feature","properties":{"kecamatan":"Sambikerep","kab_kota":"Kota Surabaya"},"geometry":{"type":"Polygon","coordinates":[[[112.67615,-7.26732,0.0],[112.67345,-7.26746,0.0],[112.67242,-7.27087,0.0],[112.67769,-7.27201,0.0],[112.6785,-7.27403,0.0],[112.68416,-7.27696,0.0],[112.67944,-7.28017,0.0],[112.6783,-7.28375,0.0],[112.6736,-7.2826,0.0],[112.67388,-7.28646,0.0],[112.67639,-7.28941,0.0],[112.67582,-7.29019,0.0],[112.66768,-7.29324,0.0],[112.66534,-7.29265,0.0],[112.664,-7.29486,0.0],[112.65981,-7.29285,0.0],[112.6585,-7.29393,0.0],[112.6526,-7.28967,0.0],[112.64918,-7.29202,0.0],[112.6477,-7.28845,0.0],[112.63904,-7.28771,0.0],[112.63342,-7.28941,0.0],[112.62974,-7.28881,0.0],[112.62737,-7.29035,0.0],[112.62528,-7.28964,0.0],[112.6253,-7.28601,0.0],[112.62175,-7.28271,0.0],[112.62287,-7.2794,0.0],[112.62583,-7.27759,0.0],[112.62736,-7.27347,0.0],[112.62911,-7.27362,0.0],[112.63034,-7.26671,0.0],[112.63229,-7.26616,0.0],[112.63301,-7.26399,0.0],[112.63638,-7.26349,0.0],[112.63868,-7.25891,0.0],[112.64497,-7.26014,0.0],[112.64649,-7.25814,0.0],[112.65287,-7.25805,0.0],[112.65144,-7.26398,0.0],[112.65486,-7.26557,0.0],[112.65526,-7.26407,0.0],[112.66042,-7.26299,0.0],[112.66285,-7.26601,0.0],[112.66175,-7.27014,0.0],[112.66504,-7.27034,0.0],[112.66532,-7.27202,0.0],[112.66819,-7.27109,0.0],[112.66839,-7.26946,0.0],[112.66638,-7.26664,0.0],[112.66732,-7.26351,0.0],[112.67558,-7.26181,0.0],[112.67615,-7.26732,0.0]]]}},{"type":"Feature","properties":{"kecamatan":"Pakal","kab_kota":"Kota Surabaya"},"geometry":{"type":"Polygon","coordinates":[[[112.63494,-7.2257,0.0],[112.63231,-7.23819,0.0],[112.63364,-7.23965,0.0],[112.63178,-7.24314,0.0],[112.63345,-7.24407,0.0],[112.63261,-7.24674,0.0],[112.63373,-7.24839,0.0],[112.63046,-7.25368,0.0],[112.63229,-7.25874,0.0],[112.63124,-7.26023,0.0],[112.62514,-7.26071,0.0],[112.61834,-7.25772,0.0],[112.61838,-7.25568,0.0],[112.61407,-7.25464,0.0],[112.61465,-7.25097,0.0],[112.61264,-7.24969,0.0],[112.60763,-7.24796,0.0],[112.60591,-7.25077,0.0],[112.60413,-7.24957,0.0],[112.60179,-7.24625,0.0],[112.60617,-7.24138,0.0],[112.60719,-7.23723,0.0],[112.60459,-7.2329,0.0],[112.60004,-7.23236,0.0],[112.59775,-7.22841,0.0],[112.59877,-7.22702,0.0],[112.59695,-7.22347,0.0],[112.59177,-7.22347,0.0],[112.59011,-7.21515,0.0],[112.59044,-7.21404,0.0],[112.59425,-7.21543,0.0],[112.59579,-7.22098,0.0],[112.59751,-7.22324,0.0],[112.59922,-7.22331,0.0],[112.59753,-7.21945,0.0],[112.60113,-7.21619,0.0],[112.59926,-7.21519,0.0],[112.59608,-7.21614,0.0],[112.59473,-7.21458,0.0],[112.59794,-7.21236,0.0],[112.59954,-7.21353,0.0],[112.60091,-7.2129,0.0],[112.5986,-7.20726,0.0],[112.59617,-7.2066,0.0],[112.5971,-7.20425,0.0],[112.60142,-7.20247,0.0],[112.60544,-7.20763,0.0],[112.60668,-7.20303,0.0],[112.60799,-7.20234,0.0],[112.61034,-7.20799,0.0],[112.61281,-7.20553,0.0],[112.60987,-7.20187,0.0],[112.613,-7.20074,0.0],[112.61511,-7.20229,0.0],[112.6144,-7.20714,0.0],[112.61527,-7.20773,0.0],[112.61697,-7.20695,0.0],[112.61792,-7.20332,0.0],[112.62028,-7.20172,0.0],[112.61986,-7.20865,0.0],[112.6243,-7.20757,0.0],[112.62539,-7.21133,0.0],[112.62769,-7.21189,0.0],[112.62603,-7.2182,0.0],[112.62676,-7.22365,0.0],[112.62926,-7.22313,0.0],[112.63024,-7.22116,0.0],[112.63476,-7.22052,0.0],[112.6327,-7.22316,0.0],[112.63494,-7.2257,0.0]]]}},{"type":"Feature","properties":{"kecamatan":"Karang Pilang","kab_kota":"Kota Surabaya"},"geometry":{"type":"Polygon","coordinates":[[[112.69895,-7.34087,0.0],[112.67747,-7.35076,0.0],[112.66459,-7.35144,0.0],[112.66496,-7.34041,0.0],[112.66314,-7.33954,0.0],[112.65775,-7.33104,0.0],[112.66069,-7.32962,0.0],[112.66602,-7.33041,0.0],[112.66691,-7.33463,0.0],[112.66876,-7.33546,0.0],[112.67343,-7.33412,0.0],[112.67302,-7.3352,0.0],[112.69084,-7.33552,0.0],[112.69427,-7.33675,0.0],[112.69572,-7.33054,0.0],[112.69229,-7.32678,0.0],[112.69248,-7.32429,0.0],[112.68997,-7.32433,0.0],[112.69029,-7.32241,0.0],[112.69769,-7.3239,0.0],[112.69833,-7.31938,0.0],[112.70266,-7.31533,0.0],[112.70256,-7.31406,0.0],[112.71133,-7.31284,0.0],[112.71024,-7.32914,0.0],[112.70428,-7.33651,0.0],[112.69895,-7.34087,0.0]]]}},{"type":"Feature","properties":{"kecamatan":"Wonokromo","kab_kota":"Kota Surabaya"},"geometry":{"type":"Polygon","coordinates":[[[112.75429,-7.30416,0.0],[112.75728,-7.30485,0.0],[112.75688,-7.30602,0.0],[112.7418,-7.30589,0.0],[112.74062,-7.31118,0.0],[112.73898,-7.31212,0.0],[112.72402,-7.30763,0.0],[112.71996,-7.30802,0.0],[112.72098,-7.29585,0.0],[112.72464,-7.29389,0.0],[112.72532,-7.29148,0.0],[112.72875,-7.29219,0.0],[112.73038,-7.28916,0.0],[112.73022,-7.28391,0.0],[112.72766,-7.27934,0.0],[112.72795,-7.27672,0.0],[112.73175,-7.28127,0.0],[112.73591,-7.28964,0.0],[112.74245,-7.29024,0.0],[112.7472,-7.28484,0.0],[112.74405,-7.27726,0.0],[112.74628,-7.27641,0.0],[112.75022,-7.27727,0.0],[112.74726,-7.29108,0.0],[112.75702,-7.29366,0.0],[112.75429,-7.30416,0.0]]]}},{"type":"Feature","properties":{"kecamatan":"Tegalsari","kab_kota":"Kota Surabaya"},"geometry":{"type":"Polygon","coordinates":[[[112.73854,-7.27672,0.0],[112.7413,-7.27737,0.0],[112.74223,-7.27329,0.0],[112.74347,-7.27401,0.0],[112.7447,-7.27266,0.0],[112.74374,-7.27594,0.0],[112.74725,-7.28443,0.0],[112.74297,-7.29016,0.0],[112.73591,-7.28964,0.0],[112.73175,-7.28127,0.0],[112.72644,-7.27486,0.0],[112.73318,-7.25845,0.0],[112.74007,-7.26144,0.0],[112.7411,-7.26398,0.0],[112.74149,-7.26909,0.0],[112.73896,-7.2686,0.0],[112.73837,-7.27089,0.0],[112.74077,-7.27332,0.0],[112.73964,-7.27453,0.0],[112.73841,-7.274,0.0],[112.73854,-7.27672,0.0]]]}},{"type":"Feature","properties":{"kecamatan":"Wonocolo","kab_kota":"Kota Surabaya"},"geometry":{"type":"Polygon","coordinates":[[[112.74386,-7.32274,0.0],[112.74211,-7.33539,0.0],[112.74204,-7.34066,0.0],[112.74288,-7.34095,0.0],[112.74198,-7.3452,0.0],[112.73658,-7.34477,0.0],[112.73662,-7.34257,0.0],[112.73322,-7.34106,0.0],[112.73324,-7.33992,0.0],[112.72944,-7.33959,0.0],[112.73509,-7.31131,0.0],[112.74039,-7.31162,0.0],[112.7418,-7.30589,0.0],[112.75688,-7.30602,0.0],[112.75728,-7.30485,0.0],[112.76078,-7.30588,0.0],[112.75685,-7.31235,0.0],[112.75315,-7.31169,0.0],[112.75424,-7.31526,0.0],[112.75091,-7.31815,0.0],[112.74802,-7.31741,0.0],[112.74677,-7.32309,0.0],[112.74386,-7.32274,0.0]]]}},{"type":"Feature","properties":{"kecamatan":"Rungkut","kab_kota":"Kota Surabaya"},"geometry":{"type":"Polygon","coordinates":[[[112.79543,-7.33335,0.0],[112.77063,-7.33115,0.0],[112.76691,-7.332,0.0],[112.75735,-7.33027,0.0],[112.76546,-7.31442,0.0],[112.76897,-7.31358,0.0],[112.76873,-7.31046,0.0],[112.77164,-7.31141,0.0],[112.77269,-7.30901,0.0],[112.78093,-7.3107,0.0],[112.79185,-7.3075,0.0],[112.80758,-7.30862,0.0],[112.8084,-7.30687,0.0],[112.80603,-7.30244,0.0],[112.80944,-7.29886,0.0],[112.81632,-7.30139,0.0],[112.82209,-7.30685,0.0],[112.83801,-7.31006,0.0],[112.84003,-7.30981,0.0],[112.84346,-7.30556,0.0],[112.84562,-7.30598,0.0],[112.84263,-7.3167,0.0],[112.83922,-7.32009,0.0],[112.83971,-7.32089,0.0],[112.83861,-7.32048,0.0],[112.83904,-7.32146,0.0],[112.83585,-7.32009,0.0],[112.8376,-7.32263,0.0],[112.83564,-7.32328,0.0],[112.83267,-7.32828,0.0],[112.83224,-7.33158,0.0],[112.83335,-7.33235,0.0],[112.8311,-7.33521,0.0],[112.8259,-7.33088,0.0],[112.8224,-7.33041,0.0],[112.79543,-7.33335,0.0]]]}},{"type":"Feature","properties":{"kecamatan":"Gubeng","kab_kota":"Kota Surabaya"},"geometry":{"type":"Polygon","coordinates":[[[112.76232,-7.27722,0.0],[112.76194,-7.30621,0.0],[112.75429,-7.30416,0.0],[112.75702,-7.29366,0.0],[112.74726,-7.29108,0.0],[112.75022,-7.27727,0.0],[112.74628,-7.27641,0.0],[112.74405,-7.27726,0.0],[112.74458,-7.27285,0.0],[112.74975,-7.26791,0.0],[112.75457,-7.26908,0.0],[112.75648,-7.26577,0.0],[112.76273,-7.26587,0.0],[112.76463,-7.26348,0.0],[112.76401,-7.2628,0.0],[112.7764,-7.26409,0.0],[112.77808,-7.26625,0.0],[112.77422,-7.26843,0.0],[112.77221,-7.28054,0.0],[112.76449,-7.27963,0.0],[112.7647,-7.27744,0.0],[112.76232,-7.27722,0.0]]]}},{"type":"Feature","properties":{"kecamatan":"Sukolilo","kab_kota":"Kota Surabaya"},"geometry":{"type":"MultiPolygon","coordinates":[[[[112.80851,-7.30752,0.0],[112.80661,-7.30877,0.0],[112.80313,-7.30752,0.0],[112.79185,-7.3075,0.0],[112.77976,-7.31078,0.0],[112.76194,-7.30621,0.0],[112.76274,-7.29072,0.0],[112.76388,-7.29017,0.0],[112.76546,-7.28491,0.0],[112.76973,-7.2853,0.0],[112.77056,-7.28086,0.0],[112.7808,-7.28207,0.0],[112.78179,-7.2846,0.0],[112.78529,-7.28416,0.0],[112.78607,-7.27993,0.0],[112.78434,-7.28017,0.0],[112.78386,-7.27695,0.0],[112.79941,-7.27434,0.0],[112.80138,-7.28073,0.0],[112.80068,-7.28437,0.0],[112.80371,-7.28515,0.0],[112.81166,-7.28108,0.0],[112.81834,-7.27239,0.0],[112.83807,-7.26754,0.0],[112.84074,-7.27278,0.0],[112.83867,-7.2741,0.0],[112.84112,-7.27454,0.0],[112.84293,-7.27665,0.0],[112.84683,-7.28705,0.0],[112.84566,-7.2927,0.0],[112.84612,-7.29815,0.0],[112.84494,-7.2993,0.0],[112.8463,-7.30036,0.0],[112.84346,-7.30556,0.0],[112.83933,-7.31018,0.0],[112.82253,-7.30698,0.0],[112.8168,-7.3017,0.0],[112.81014,-7.29873,0.0],[112.80603,-7.30244,0.0],[112.80851,-7.30752,0.0]],[[112.77151,-7.28543,0.0],[112.7712,-7.28764,0.0],[112.77068,-7.28954,0.0],[112.77248,-7.2894,0.0],[112.77372,-7.28544,0.0],[112.77151,-7.28543,0.0]]],[[[112.83692,-7.2674,0.0],[112.83693,-7.2674,0.0],[112.83692,-7.2674,0.0],[112.83692,-7.2674,0.0]]]]}},{"type":"Feature","properties":{"kecamatan":"Sawahan","kab_kota":"Kota Surabaya"},"geometry":{"type":"Polygon","coordinates":[[[112.72867,-7.29219,0.0],[112.71344,-7.29036,0.0],[112.71725,-7.27949,0.0],[112.71232,-7.27911,0.0],[112.71187,-7.27772,0.0],[112.7096,-7.27728,0.0],[112.71001,-7.27568,0.0],[112.70856,-7.27575,0.0],[112.70873,-7.27257,0.0],[112.71061,-7.27279,0.0],[112.71166,-7.26887,0.0],[112.71314,-7.2694,0.0],[112.71364,-7.26823,0.0],[112.71385,-7.26684,0.0],[112.7126,-7.26656,0.0],[112.71511,-7.25488,0.0],[112.72525,-7.25709,0.0],[112.7261,-7.25574,0.0],[112.73427,-7.25581,0.0],[112.72644,-7.27486,0.0],[112.73024,-7.28403,0.0],[112.73038,-7.28916,0.0],[112.72867,-7.29219,0.0]]]}},{"type":"Feature","properties":{"kecamatan":"Genteng","kab_kota":"Kota Surabaya"},"geometry":{"type":"Polygon","coordinates":[[[112.75063,-7.26424,0.0],[112.74975,-7.26791,0.0],[112.74347,-7.27401,0.0],[112.74223,-7.27329,0.0],[112.7413,-7.27737,0.0],[112.73784,-7.27657,0.0],[112.73841,-7.274,0.0],[112.73964,-7.27453,0.0],[112.74077,-7.27332,0.0],[112.73837,-7.27089,0.0],[112.73896,-7.2686,0.0],[112.74149,-7.26909,0.0],[112.7411,-7.26398,0.0],[112.74007,-7.26144,0.0],[112.73318,-7.25845,0.0],[112.73427,-7.25579,0.0],[112.74266,-7.25616,0.0],[112.7382,-7.25559,0.0],[112.73727,-7.25207,0.0],[112.74211,-7.24774,0.0],[112.74681,-7.24831,0.0],[112.74733,-7.24355,0.0],[112.75152,-7.24443,0.0],[112.75325,-7.24728,0.0],[112.7531,-7.25141,0.0],[112.7497,-7.25145,0.0],[112.75046,-7.25602,0.0],[112.75284,-7.2561,0.0],[112.75227,-7.26422,0.0],[112.75063,-7.26424,0.0]]]}},{"type":"Feature","properties":{"kecamatan":"Simokerto","kab_kota":"Kota Surabaya"},"geometry":{"type":"Polygon","coordinates":[[[112.76413,-7.23554,0.0],[112.75914,-7.24897,0.0],[112.75326,-7.24915,0.0],[112.75175,-7.24462,0.0],[112.74733,-7.24355,0.0],[112.74587,-7.24173,0.0],[112.74323,-7.23306,0.0],[112.74556,-7.23008,0.0],[112.74687,-7.23209,0.0],[112.75243,-7.23297,0.0],[112.75481,-7.23584,0.0],[112.76324,-7.23499,0.0],[112.76413,-7.23554,0.0]]]}},{"type":"Feature","properties":{"kecamatan":"Pabean Cantian","kab_kota":"Kota Surabaya"},"geometry":{"type":"Polygon","coordinates":[[[112.74289,-7.23382,0.0],[112.74732,-7.24339,0.0],[112.74681,-7.24831,0.0],[112.74213,-7.24775,0.0],[112.74255,-7.24396,0.0],[112.73913,-7.24242,0.0],[112.73777,-7.2387,0.0],[112.73887,-7.2343,0.0],[112.73823,-7.23158,0.0],[112.73483,-7.23065,0.0],[112.73526,-7.23398,0.0],[112.73127,-7.23242,0.0],[112.73077,-7.23444,0.0],[112.72832,-7.23232,0.0],[112.73175,-7.22508,0.0],[112.7325,-7.22058,0.0],[112.73105,-7.22124,0.0],[112.72578,-7.21603,0.0],[112.72234,-7.2087,0.0],[112.72123,-7.20922,0.0],[112.71961,-7.20634,0.0],[112.71751,-7.19912,0.0],[112.72006,-7.1986,0.0],[112.72585,-7.20959,0.0],[112.72687,-7.20948,0.0],[112.72441,-7.20328,0.0],[112.72548,-7.20268,0.0],[112.72865,-7.20911,0.0],[112.73046,-7.20874,0.0],[112.7298,-7.20711,0.0],[112.7327,-7.20663,0.0],[112.73212,-7.20137,0.0],[112.73058,-7.20033,0.0],[112.73198,-7.19972,0.0],[112.73143,-7.19854,0.0],[112.72435,-7.19972,0.0],[112.72362,-7.19803,0.0],[112.73427,-7.1963,0.0],[112.73752,-7.20975,0.0],[112.73815,-7.22389,0.0],[112.74098,-7.2254,0.0],[112.74117,-7.23377,0.0],[112.74289,-7.23382,0.0]]]}},{"type":"Feature","properties":{"kecamatan":"Tambaksari","kab_kota":"Kota Surabaya"},"geometry":{"type":"Polygon","coordinates":[[[112.75648,-7.26577,0.0],[112.75457,-7.26908,0.0],[112.74975,-7.26791,0.0],[112.75051,-7.26395,0.0],[112.75227,-7.26422,0.0],[112.75284,-7.2561,0.0],[112.75046,-7.25602,0.0],[112.7497,-7.25145,0.0],[112.7531,-7.25141,0.0],[112.75326,-7.24915,0.0],[112.75914,-7.24897,0.0],[112.76372,-7.2364,0.0],[112.76942,-7.23724,0.0],[112.7706,-7.23574,0.0],[112.77463,-7.23697,0.0],[112.77756,-7.23521,0.0],[112.77798,-7.23309,0.0],[112.77986,-7.23308,0.0],[112.78041,-7.23574,0.0],[112.784,-7.23516,0.0],[112.78283,-7.24735,0.0],[112.78964,-7.24786,0.0],[112.78874,-7.24978,0.0],[112.78362,-7.24895,0.0],[112.7803,-7.25254,0.0],[112.78232,-7.25329,0.0],[112.78097,-7.25487,0.0],[112.77795,-7.25431,0.0],[112.77396,-7.2626,0.0],[112.77631,-7.26223,0.0],[112.77671,-7.26412,0.0],[112.76401,-7.2628,0.0],[112.76463,-7.26348,0.0],[112.76273,-7.26587,0.0],[112.75648,-7.26577,0.0]]]}},{"type":"Feature","properties":{"kecamatan":"Krembangan","kab_kota":"Kota Surabaya"},"geometry":{"type":"Polygon","coordinates":[[[112.72044,-7.2369,0.0],[112.72088,-7.24716,0.0],[112.71771,-7.2471,0.0],[112.71697,-7.2429,0.0],[112.71387,-7.24268,0.0],[112.71333,-7.23915,0.0],[112.71234,-7.24069,0.0],[112.71014,-7.24088,0.0],[112.70915,-7.23759,0.0],[112.71116,-7.23796,0.0],[112.71102,-7.23584,0.0],[112.70799,-7.23629,0.0],[112.70845,-7.23342,0.0],[112.71031,-7.23206,0.0],[112.70714,-7.23048,0.0],[112.7062,-7.22492,0.0],[112.70928,-7.22506,0.0],[112.70848,-7.22217,0.0],[112.70977,-7.22092,0.0],[112.70988,-7.21819,0.0],[112.71413,-7.21634,0.0],[112.71539,-7.21381,0.0],[112.71498,-7.20987,0.0],[112.71281,-7.20863,0.0],[112.71315,-7.20734,0.0],[112.71525,-7.20826,0.0],[112.71896,-7.20681,0.0],[112.72209,-7.21126,0.0],[112.72123,-7.20922,0.0],[112.72234,-7.2087,0.0],[112.72625,-7.21664,0.0],[112.73105,-7.22124,0.0],[112.7325,-7.22058,0.0],[112.73175,-7.22508,0.0],[112.72832,-7.23232,0.0],[112.73077,-7.23444,0.0],[112.73127,-7.23242,0.0],[112.73526,-7.23398,0.0],[112.73483,-7.23065,0.0],[112.73823,-7.23158,0.0],[112.73785,-7.23908,0.0],[112.7397,-7.24325,0.0],[112.74262,-7.2441,0.0],[112.73824,-7.2451,0.0],[112.72979,-7.24328,0.0],[112.72688,-7.24105,0.0],[112.72645,-7.23789,0.0],[112.72044,-7.2369,0.0]]]}},{"type":"Feature","properties":{"kecamatan":"Semampir","kab_kota":"Kota Surabaya"},"geometry":{"type":"Polygon","coordinates":[[[112.7547,-7.23517,0.0],[112.75243,-7.23297,0.0],[112.74687,-7.23209,0.0],[112.74556,-7.23008,0.0],[112.74284,-7.23413,0.0],[112.74117,-7.23377,0.0],[112.74098,-7.2254,0.0],[112.73815,-7.22389,0.0],[112.73782,-7.20916,0.0],[112.73573,-7.19596,0.0],[112.73778,-7.19626,0.0],[112.73882,-7.20128,0.0],[112.73758,-7.20153,0.0],[112.73781,-7.20298,0.0],[112.739,-7.20362,0.0],[112.73898,-7.19876,0.0],[112.74063,-7.19841,0.0],[112.74089,-7.20278,0.0],[112.74465,-7.202,0.0],[112.74349,-7.19579,0.0],[112.73969,-7.19669,0.0],[112.73944,-7.19502,0.0],[112.74772,-7.19427,0.0],[112.74859,-7.19526,0.0],[112.74608,-7.19574,0.0],[112.7466,-7.19739,0.0],[112.75162,-7.19972,0.0],[112.75664,-7.19818,0.0],[112.75807,-7.20361,0.0],[112.7613,-7.20722,0.0],[112.76247,-7.20707,0.0],[112.75916,-7.2221,0.0],[112.75956,-7.22477,0.0],[112.75802,-7.22501,0.0],[112.759,-7.22777,0.0],[112.75727,-7.23085,0.0],[112.75782,-7.2352,0.0],[112.7547,-7.23517,0.0]]]}},{"type":"Feature","properties":{"kecamatan":"Bubutan","kab_kota":"Kota Surabaya"},"geometry":{"type":"Polygon","coordinates":[[[112.7362,-7.24466,0.0],[112.74262,-7.2441,0.0],[112.74159,-7.24883,0.0],[112.73717,-7.2525,0.0],[112.7382,-7.25559,0.0],[112.74266,-7.25616,0.0],[112.7261,-7.25574,0.0],[112.72525,-7.25709,0.0],[112.71511,-7.25488,0.0],[112.71727,-7.24687,0.0],[112.72088,-7.24716,0.0],[112.72058,-7.23613,0.0],[112.72645,-7.23789,0.0],[112.72668,-7.24065,0.0],[112.72851,-7.24279,0.0],[112.7362,-7.24466,0.0]]]}},{"type":"Feature","properties":{"kecamatan":"Tandes","kab_kota":"Kota Surabaya"},"geometry":{"type":"Polygon","coordinates":[[[112.68592,-7.26652,0.0],[112.68538,-7.27305,0.0],[112.68379,-7.27446,0.0],[112.68519,-7.27476,0.0],[112.68505,-7.27655,0.0],[112.67917,-7.27451,0.0],[112.67769,-7.27201,0.0],[112.67242,-7.27087,0.0],[112.67345,-7.26746,0.0],[112.67638,-7.26726,0.0],[112.67558,-7.26181,0.0],[112.66728,-7.26353,0.0],[112.66638,-7.26664,0.0],[112.66839,-7.26946,0.0],[112.66819,-7.27109,0.0],[112.66532,-7.27202,0.0],[112.66504,-7.27034,0.0],[112.66175,-7.27014,0.0],[112.66255,-7.26486,0.0],[112.6587,-7.26107,0.0],[112.65994,-7.25598,0.0],[112.65471,-7.25545,0.0],[112.6544,-7.25426,0.0],[112.65477,-7.24119,0.0],[112.6578,-7.23872,0.0],[112.65919,-7.2393,0.0],[112.66022,-7.23717,0.0],[112.66509,-7.23951,0.0],[112.66649,-7.24239,0.0],[112.66887,-7.24159,0.0],[112.66932,-7.23979,0.0],[112.67277,-7.24013,0.0],[112.67339,-7.23826,0.0],[112.67531,-7.23842,0.0],[112.67388,-7.24494,0.0],[112.67457,-7.24827,0.0],[112.68218,-7.24976,0.0],[112.68197,-7.25269,0.0],[112.68888,-7.25241,0.0],[112.68915,-7.25416,0.0],[112.69205,-7.25278,0.0],[112.68955,-7.25691,0.0],[112.68746,-7.26605,0.0],[112.68592,-7.26652,0.0]]]}}]}