{"type":"FeatureCollection","features":[{"type":"Feature","properties":{"kecamatan":"Gadingrejo","kab_kota":"Kota Pasuruan"},"geometry":{"type":"Polygon","coordinates":[[[112.89813,-7.63856,0.0],[112.894,-7.64863,0.0],[112.89043,-7.6479,0.0],[112.89026,-7.65866,0.0],[112.88899,-7.6569,0.0],[112.88645,-7.65702,0.0],[112.88611,-7.65826,0.0],[112.88734,-7.65951,0.0],[112.88703,-7.66026,0.0],[112.87834,-7.65526,0.0],[112.87706,-7.65872,0.0],[112.87565,-7.6582,0.0],[112.87218,-7.66255,0.0],[112.87236,-7.6556,0.0],[112.87378,-7.6529,0.0],[112.8714,-7.65091,0.0],[112.87606,-7.63878,0.0],[112.87414,-7.63658,0.0],[112.87563,-7.63552,0.0],[112.87537,-7.63425,0.0],[112.87377,-7.63502,0.0],[112.87244,-7.63416,0.0],[112.87467,-7.62679,0.0],[112.87753,-7.62793,0.0],[112.8789,-7.63043,0.0],[112.88434,-7.63186,0.0],[112.88601,-7.62812,0.0],[112.88458,-7.62743,0.0],[112.8859,-7.62341,0.0],[112.89155,-7.62646,0.0],[112.89411,-7.62454,0.0],[112.90054,-7.62884,0.0],[112.90257,-7.62525,0.0],[112.90332,-7.62687,0.0],[112.9041,-7.626,0.0],[112.90465,-7.62719,0.0],[112.90687,-7.62681,0.0],[112.90525,-7.62942,0.0],[112.90746,-7.63147,0.0],[112.9068,-7.63355,0.0],[112.90292,-7.63251,0.0],[112.89813,-7.63856,0.0]]]}},{"type":"Feature","properties":{"kecamatan":"Purworejo","kab_kota":"Kota Pasuruan"},"geometry":{"type":"Polygon","coordinates":[[[112.90962,-7.66853,0.0],[112.90893,-7.67052,0.0],[112.91032,-7.67121,0.0],[112.90827,-7.67585,0.0],[112.91159,-7.67676,0.0],[112.91087,-7.67853,0.0],[112.91005,-7.67988,0.0],[112.90778,-7.67925,0.0],[112.90106,-7.6863,0.0],[112.89523,-7.68492,0.0],[112.89591,-7.68152,0.0],[112.89368,-7.67551,0.0],[112.89137,-7.67504,0.0],[112.88962,-7.67301,0.0],[112.8859,-7.67287,0.0],[112.88469,-7.67398,0.0],[112.88113,-7.67186,0.0],[112.8847,-7.67059,0.0],[112.88647,-7.66732,0.0],[112.88141,-7.66463,0.0],[112.88277,-7.66076,0.0],[112.88692,-7.66244,0.0],[112.88645,-7.65702,0.0],[112.88899,-7.6569,0.0],[112.89026,-7.65866,0.0],[112.89043,-7.6479,0.0],[112.894,-7.64863,0.0],[112.89623,-7.64394,0.0],[112.90595,-7.64848,0.0],[112.90245,-7.6563,0.0],[112.90585,-7.65787,0.0],[112.90528,-7.66004,0.0],[112.90774,-7.66061,0.0],[112.90541,-7.66613,0.0],[112.90962,-7.66853,0.0]]]}},{"type":"Feature","properties":{"kecamatan":"Bugul Kidul","kab_kota":"Kota Pasuruan"},"geometry":{"type":"Polygon","coordinates":[[[112.92785,-7.6686,0.0],[112.92513,-7.67087,0.0],[112.92322,-7.67538,0.0],[112.9186,-7.67392,0.0],[112.91685,-7.67819,0.0],[112.91526,-7.67706,0.0],[112.91403,-7.6795,0.0],[112.91087,-7.67853,0.0],[112.91124,-7.67647,0.0],[112.90827,-7.67585,0.0],[112.91032,-7.67121,0.0],[112.90893,-7.67052,0.0],[112.90982,-7.66785,0.0],[112.90541,-7.66613,0.0],[112.90676,-7.66244,0.0],[112.91069,-7.65819,0.0],[112.91105,-7.65353,0.0],[112.91014,-7.65298,0.0],[112.9137,-7.64556,0.0],[112.91679,-7.64665,0.0],[112.91974,-7.64958,0.0],[112.92465,-7.64152,0.0],[112.92009,-7.63928,0.0],[112.92274,-7.63735,0.0],[112.92654,-7.63777,0.0],[112.92739,-7.63658,0.0],[112.93087,-7.63918,0.0],[112.93483,-7.63163,0.0],[112.93792,-7.62928,0.0],[112.93714,-7.62572,0.0],[112.94389,-7.6238,0.0],[112.94556,-7.61698,0.0],[112.94721,-7.61719,0.0],[112.95052,-7.62153,0.0],[112.95314,-7.6218,0.0],[112.9519,-7.63328,0.0],[112.94617,-7.63781,0.0],[112.94427,-7.64475,0.0],[112.94246,-7.64658,0.0],[112.94531,-7.64764,0.0],[112.94518,-7.65156,0.0],[112.94311,-7.65284,0.0],[112.94265,-7.65605,0.0],[112.93621,-7.65653,0.0],[112.93677,-7.65812,0.0],[112.93494,-7.6596,0.0],[112.93609,-7.66204,0.0],[112.93136,-7.66871,0.0],[112.92785,-7.6686,0.0]]]}},{"type":"Feature","properties":{"kecamatan":"Panggungrejo","kab_kota":"Kota Pasuruan"},"geometry":{"type":"Polygon","coordinates":[[[112.91105,-7.65353,0.0],[112.91002,-7.65972,0.0],[112.90721,-7.66186,0.0],[112.90774,-7.66061,0.0],[112.90528,-7.66004,0.0],[112.90585,-7.65787,0.0],[112.90245,-7.6563,0.0],[112.90595,-7.64848,0.0],[112.89623,-7.64394,0.0],[112.89794,-7.63876,0.0],[112.90178,-7.63345,0.0],[112.90292,-7.63251,0.0],[112.90577,-7.63402,0.0],[112.9069,-7.63339,0.0],[112.90746,-7.63147,0.0],[112.9053,-7.6293,0.0],[112.90785,-7.62741,0.0],[112.90841,-7.62869,0.0],[112.90935,-7.62723,0.0],[112.9098,-7.62849,0.0],[112.91913,-7.62641,0.0],[112.91905,-7.62753,0.0],[112.92759,-7.63097,0.0],[112.93482,-7.63111,0.0],[112.93087,-7.63918,0.0],[112.92739,-7.63658,0.0],[112.92654,-7.63777,0.0],[112.92274,-7.63735,0.0],[112.92009,-7.63928,0.0],[112.92465,-7.64152,0.0],[112.91974,-7.64958,0.0],[112.91679,-7.64665,0.0],[112.9137,-7.64556,0.0],[112.91014,-7.65298,0.0],[112.91105,-7.65353,0.0]]]}}]}