{"type":"FeatureCollection","features":[{"type":"Feature","properties":{"kecamatan":"Batu","kab_kota":"Kota Batu"},"geometry":{"type":"Polygon","coordinates":[[[112.54174,-7.89051,0.0],[112.54414,-7.88983,0.0],[112.54367,-7.89386,0.0],[112.54179,-7.89604,0.0],[112.53735,-7.89686,0.0],[112.53872,-7.89952,0.0],[112.53234,-7.89972,0.0],[112.52971,-7.90275,0.0],[112.5311,-7.9076,0.0],[112.53017,-7.91251,0.0],[112.52873,-7.91376,0.0],[112.52055,-7.91182,0.0],[112.51915,-7.91332,0.0],[112.51705,-7.91185,0.0],[112.51355,-7.91238,0.0],[112.50881,-7.9162,0.0],[112.49797,-7.91338,0.0],[112.49688,-7.91454,0.0],[112.49259,-7.91113,0.0],[112.49053,-7.91107,0.0],[112.48365,-7.91646,0.0],[112.48357,-7.91985,0.0],[112.48584,-7.92437,0.0],[112.48013,-7.93075,0.0],[112.47793,-7.9356,0.0],[112.47481,-7.93915,0.0],[112.48405,-7.92418,0.0],[112.48199,-7.92021,0.0],[112.48372,-7.91373,0.0],[112.48146,-7.90885,0.0],[112.48291,-7.90569,0.0],[112.47805,-7.89765,0.0],[112.47734,-7.89202,0.0],[112.47892,-7.88624,0.0],[112.48763,-7.87797,0.0],[112.48751,-7.8653,0.0],[112.48872,-7.86127,0.0],[112.48681,-7.85867,0.0],[112.48983,-7.85897,0.0],[112.49185,-7.8551,0.0],[112.49455,-7.85406,0.0],[112.49422,-7.85078,0.0],[112.49684,-7.8572,0.0],[112.50078,-7.85852,0.0],[112.50366,-7.85165,0.0],[112.507,-7.84838,0.0],[112.51127,-7.84692,0.0],[112.51498,-7.8473,0.0],[112.51661,-7.84608,0.0],[112.51956,-7.84919,0.0],[112.51886,-7.84584,0.0],[112.52284,-7.84007,0.0],[112.52891,-7.84163,0.0],[112.52841,-7.84421,0.0],[112.53049,-7.84614,0.0],[112.52871,-7.85262,0.0],[112.53191,-7.85789,0.0],[112.53049,-7.85943,0.0],[112.53089,-7.86153,0.0],[112.53356,-7.86242,0.0],[112.53242,-7.86721,0.0],[112.53542,-7.86613,0.0],[112.5366,-7.8669,0.0],[112.54043,-7.87444,0.0],[112.54998,-7.87149,0.0],[112.5509,-7.8735,0.0],[112.55048,-7.88254,0.0],[112.55249,-7.8864,0.0],[112.55073,-7.88738,0.0],[112.54862,-7.88593,0.0],[112.5442,-7.886,0.0],[112.54214,-7.88742,0.0],[112.54174,-7.89051,0.0]]]}},{"type":"Feature","properties":{"kecamatan":"Bumiaji","kab_kota":"Kota Batu"},"geometry":{"type":"Polygon","coordinates":[[[112.55465,-7.87501,0.0],[112.55169,-7.8758,0.0],[112.54998,-7.87149,0.0],[112.54043,-7.87444,0.0],[112.5366,-7.8669,0.0],[112.53542,-7.86613,0.0],[112.53248,-7.86729,0.0],[112.53356,-7.86242,0.0],[112.53089,-7.86153,0.0],[112.53049,-7.85943,0.0],[112.53191,-7.85789,0.0],[112.52871,-7.85262,0.0],[112.53044,-7.84565,0.0],[112.52841,-7.84421,0.0],[112.52891,-7.84163,0.0],[112.52491,-7.84029,0.0],[112.52284,-7.84007,0.0],[112.52088,-7.84172,0.0],[112.52054,-7.8448,0.0],[112.51886,-7.84584,0.0],[112.51956,-7.84919,0.0],[112.51661,-7.84608,0.0],[112.51498,-7.8473,0.0],[112.50952,-7.84731,0.0],[112.5042,-7.85089,0.0],[112.50078,-7.85852,0.0],[112.49816,-7.85828,0.0],[112.49797,-7.85696,0.0],[112.49614,-7.85633,0.0],[112.49296,-7.84548,0.0],[112.49464,-7.83911,0.0],[112.49673,-7.83642,0.0],[112.4936,-7.82793,0.0],[112.49648,-7.82293,0.0],[112.49893,-7.82125,0.0],[112.49961,-7.81566,0.0],[112.49762,-7.80722,0.0],[112.49776,-7.79629,0.0],[112.49138,-7.78574,0.0],[112.49189,-7.77917,0.0],[112.48946,-7.76554,0.0],[112.49468,-7.76185,0.0],[112.49843,-7.75529,0.0],[112.50637,-7.7541,0.0],[112.51237,-7.75155,0.0],[112.5144,-7.74171,0.0],[112.52485,-7.73964,0.0],[112.52791,-7.73507,0.0],[112.53133,-7.73497,0.0],[112.53285,-7.73652,0.0],[112.5385,-7.73782,0.0],[112.54422,-7.73591,0.0],[112.56174,-7.73787,0.0],[112.56483,-7.73509,0.0],[112.57062,-7.7347,0.0],[112.57484,-7.73258,0.0],[112.57781,-7.73708,0.0],[112.58199,-7.75146,0.0],[112.58756,-7.75355,0.0],[112.58771,-7.76248,0.0],[112.58977,-7.76496,0.0],[112.58339,-7.77091,0.0],[112.58285,-7.77825,0.0],[112.58471,-7.78055,0.0],[112.58037,-7.78819,0.0],[112.57767,-7.79952,0.0],[112.57827,-7.80658,0.0],[112.57164,-7.8173,0.0],[112.57192,-7.82498,0.0],[112.57331,-7.82632,0.0],[112.57163,-7.82826,0.0],[112.56921,-7.83786,0.0],[112.5692,-7.84656,0.0],[112.56789,-7.85033,0.0],[112.56547,-7.85098,0.0],[112.56477,-7.85288,0.0],[112.56586,-7.85827,0.0],[112.56473,-7.86069,0.0],[112.56563,-7.86819,0.0],[112.5647,-7.86924,0.0],[112.56532,-7.87515,0.0],[112.56435,-7.87948,0.0],[112.56542,-7.88156,0.0],[112.56173,-7.88286,0.0],[112.55869,-7.87894,0.0],[112.55889,-7.87619,0.0],[112.55465,-7.87501,0.0]]]}},{"type":"Feature","properties":{"kecamatan":"Junrejo","kab_kota":"Kota Batu"},"geometry":{"type":"Polygon","coordinates":[[[112.54745,-7.92226,0.0],[112.5415,-7.923,0.0],[112.54139,-7.92631,0.0],[112.5266,-7.92542,0.0],[112.52242,-7.92768,0.0],[112.51392,-7.92835,0.0],[112.49895,-7.93198,0.0],[112.48445,-7.93124,0.0],[112.48134,-7.93317,0.0],[112.47755,-7.93824,0.0],[112.47463,-7.93937,0.0],[112.48584,-7.92437,0.0],[112.48357,-7.91985,0.0],[112.48365,-7.91646,0.0],[112.49053,-7.91107,0.0],[112.49259,-7.91113,0.0],[112.49688,-7.91454,0.0],[112.49797,-7.91338,0.0],[112.50881,-7.9162,0.0],[112.51368,-7.91232,0.0],[112.51705,-7.91185,0.0],[112.51915,-7.91332,0.0],[112.52055,-7.91182,0.0],[112.5268,-7.91385,0.0],[112.52994,-7.91288,0.0],[112.53111,-7.90714,0.0],[112.52971,-7.90275,0.0],[112.53234,-7.89972,0.0],[112.53869,-7.89955,0.0],[112.53735,-7.89686,0.0],[112.54179,-7.89604,0.0],[112.54334,-7.89445,0.0],[112.54414,-7.88983,0.0],[112.54121,-7.88976,0.0],[112.54266,-7.88681,0.0],[112.54862,-7.88593,0.0],[112.55024,-7.88728,0.0],[112.55228,-7.88679,0.0],[112.55048,-7.88254,0.0],[112.55137,-7.87551,0.0],[112.55521,-7.87486,0.0],[112.55719,-7.87649,0.0],[112.55889,-7.87619,0.0],[112.55869,-7.87894,0.0],[112.56185,-7.88291,0.0],[112.56649,-7.88101,0.0],[112.57247,-7.88918,0.0],[112.57569,-7.88671,0.0],[112.57994,-7.88684,0.0],[112.58121,-7.88836,0.0],[112.58334,-7.88847,0.0],[112.59562,-7.9031,0.0],[112.59501,-7.90601,0.0],[112.59161,-7.90818,0.0],[112.5894,-7.90669,0.0],[112.58732,-7.90848,0.0],[112.58603,-7.90764,0.0],[112.5843,-7.90947,0.0],[112.58247,-7.90932,0.0],[112.58007,-7.91188,0.0],[112.57961,-7.91364,0.0],[112.58099,-7.91554,0.0],[112.58017,-7.91752,0.0],[112.57606,-7.91713,0.0],[112.57503,-7.91805,0.0],[112.57491,-7.91476,0.0],[112.56775,-7.91279,0.0],[112.56301,-7.91382,0.0],[112.55873,-7.91837,0.0],[112.55543,-7.91813,0.0],[112.5541,-7.92025,0.0],[112.55183,-7.91926,0.0],[112.54745,-7.92226,0.0]]]}}]}