{"type":"FeatureCollection","features":[{"type":"Feature","properties":{"kecamatan":"Kademangan","kab_kota":"Kota Probolinggo"},"geometry":{"type":"Polygon","coordinates":[[[113.19288,-7.77374,0.0],[113.19619,-7.77447,0.0],[113.19098,-7.78893,0.0],[113.18891,-7.78773,0.0],[113.18832,-7.79093,0.0],[113.18511,-7.79016,0.0],[113.18176,-7.81049,0.0],[113.17859,-7.81015,0.0],[113.18307,-7.79067,0.0],[113.18164,-7.79032,0.0],[113.18172,-7.78916,0.0],[113.17702,-7.78848,0.0],[113.17904,-7.7833,0.0],[113.16957,-7.78074,0.0],[113.16991,-7.77946,0.0],[113.16899,-7.78057,0.0],[113.16397,-7.77925,0.0],[113.16557,-7.77369,0.0],[113.16381,-7.77329,0.0],[113.16312,-7.77083,0.0],[113.16618,-7.76836,0.0],[113.16906,-7.76268,0.0],[113.1699,-7.75443,0.0],[113.17231,-7.75489,0.0],[113.17303,-7.75214,0.0],[113.17415,-7.7524,0.0],[113.17425,-7.755,0.0],[113.17538,-7.7516,0.0],[113.17765,-7.75208,0.0],[113.17782,-7.75015,0.0],[113.17468,-7.74993,0.0],[113.17637,-7.74703,0.0],[113.1805,-7.74376,0.0],[113.17955,-7.74818,0.0],[113.18258,-7.74531,0.0],[113.18333,-7.747,0.0],[113.18616,-7.7469,0.0],[113.18891,-7.74188,0.0],[113.19257,-7.74369,0.0],[113.19345,-7.74298,0.0],[113.19145,-7.74054,0.0],[113.19636,-7.74149,0.0],[113.19749,-7.74032,0.0],[113.19937,-7.74493,0.0],[113.19913,-7.75397,0.0],[113.19484,-7.75399,0.0],[113.19378,-7.75512,0.0],[113.19321,-7.76042,0.0],[113.19498,-7.76063,0.0],[113.19467,-7.7628,0.0],[113.19322,-7.76309,0.0],[113.19288,-7.77374,0.0]]]}},{"type":"Feature","properties":{"kecamatan":"Kanigaran","kab_kota":"Kota Probolinggo"},"geometry":{"type":"Polygon","coordinates":[[[113.22787,-7.77145,0.0],[113.22809,-7.77942,0.0],[113.22601,-7.77907,0.0],[113.22614,-7.77768,0.0],[113.22029,-7.77622,0.0],[113.22057,-7.76992,0.0],[113.21917,-7.77033,0.0],[113.21886,-7.76852,0.0],[113.21996,-7.76221,0.0],[113.21804,-7.76147,0.0],[113.21778,-7.77468,0.0],[113.20668,-7.77376,0.0],[113.20673,-7.77174,0.0],[113.19971,-7.76846,0.0],[113.1982,-7.77519,0.0],[113.19288,-7.77374,0.0],[113.19322,-7.76309,0.0],[113.19467,-7.7628,0.0],[113.19498,-7.76063,0.0],[113.19321,-7.76042,0.0],[113.19378,-7.75512,0.0],[113.19484,-7.75399,0.0],[113.21327,-7.75339,0.0],[113.21392,-7.74774,0.0],[113.21551,-7.74789,0.0],[113.21577,-7.74499,0.0],[113.21829,-7.74528,0.0],[113.21699,-7.75384,0.0],[113.21917,-7.75459,0.0],[113.21863,-7.75633,0.0],[113.22271,-7.75628,0.0],[113.22629,-7.75799,0.0],[113.22543,-7.76441,0.0],[113.22719,-7.76387,0.0],[113.22781,-7.75871,0.0],[113.22979,-7.75963,0.0],[113.23068,-7.76186,0.0],[113.22992,-7.7657,0.0],[113.23269,-7.7664,0.0],[113.23041,-7.77301,0.0],[113.22787,-7.77145,0.0]]]}},{"type":"Feature","properties":{"kecamatan":"Kedopok","kab_kota":"Kota Probolinggo"},"geometry":{"type":"Polygon","coordinates":[[[113.21767,-7.77814,0.0],[113.21338,-7.79151,0.0],[113.20741,-7.79319,0.0],[113.20558,-7.80418,0.0],[113.20525,-7.80288,0.0],[113.20235,-7.80191,0.0],[113.20225,-7.79989,0.0],[113.20086,-7.79886,0.0],[113.19816,-7.81211,0.0],[113.18176,-7.81049,0.0],[113.185,-7.79036,0.0],[113.18832,-7.79093,0.0],[113.18891,-7.78773,0.0],[113.19098,-7.78893,0.0],[113.19619,-7.77447,0.0],[113.19825,-7.7751,0.0],[113.19971,-7.76846,0.0],[113.20673,-7.77174,0.0],[113.20668,-7.77376,0.0],[113.21778,-7.77468,0.0],[113.21779,-7.76149,0.0],[113.21884,-7.76152,0.0],[113.21996,-7.76221,0.0],[113.21886,-7.76852,0.0],[113.21917,-7.77033,0.0],[113.22057,-7.76992,0.0],[113.22014,-7.77588,0.0],[113.22614,-7.77768,0.0],[113.22601,-7.77907,0.0],[113.22796,-7.77943,0.0],[113.22822,-7.78262,0.0],[113.22559,-7.78283,0.0],[113.22575,-7.7857,0.0],[113.22387,-7.78537,0.0],[113.22363,-7.78284,0.0],[113.22179,-7.78294,0.0],[113.21929,-7.79339,0.0],[113.22152,-7.79405,0.0],[113.22095,-7.7968,0.0],[113.21856,-7.79644,0.0],[113.21631,-7.80518,0.0],[113.21388,-7.80369,0.0],[113.2192,-7.78494,0.0],[113.21903,-7.78038,0.0],[113.21767,-7.77814,0.0]]]}},{"type":"Feature","properties":{"kecamatan":"Wonoasih","kab_kota":"Kota Probolinggo"},"geometry":{"type":"Polygon","coordinates":[[[113.2263,-7.80139,0.0],[113.22604,-7.80483,0.0],[113.22126,-7.80874,0.0],[113.22183,-7.81059,0.0],[113.21967,-7.81179,0.0],[113.22006,-7.81347,0.0],[113.21808,-7.81351,0.0],[113.21878,-7.81578,0.0],[113.21692,-7.81548,0.0],[113.21792,-7.81638,0.0],[113.21594,-7.81808,0.0],[113.21711,-7.82016,0.0],[113.20792,-7.81727,0.0],[113.20927,-7.8149,0.0],[113.20637,-7.81498,0.0],[113.20659,-7.81266,0.0],[113.20539,-7.81379,0.0],[113.20408,-7.81271,0.0],[113.20528,-7.81163,0.0],[113.20531,-7.80851,0.0],[113.20775,-7.80861,0.0],[113.20822,-7.80722,0.0],[113.20645,-7.80679,0.0],[113.20814,-7.80634,0.0],[113.20829,-7.80445,0.0],[113.20513,-7.80422,0.0],[113.20178,-7.8111,0.0],[113.20027,-7.81255,0.0],[113.19816,-7.81211,0.0],[113.20086,-7.79886,0.0],[113.20225,-7.79989,0.0],[113.20235,-7.80191,0.0],[113.20525,-7.80288,0.0],[113.20558,-7.80418,0.0],[113.20741,-7.79319,0.0],[113.21338,-7.79151,0.0],[113.21767,-7.77814,0.0],[113.21903,-7.78038,0.0],[113.2192,-7.78494,0.0],[113.21388,-7.80369,0.0],[113.21631,-7.80518,0.0],[113.21856,-7.79644,0.0],[113.22095,-7.7968,0.0],[113.22152,-7.79405,0.0],[113.21929,-7.79339,0.0],[113.22179,-7.78294,0.0],[113.22363,-7.78284,0.0],[113.22387,-7.78537,0.0],[113.22575,-7.7857,0.0],[113.22559,-7.78283,0.0],[113.22822,-7.78262,0.0],[113.22787,-7.77127,0.0],[113.23041,-7.77301,0.0],[113.23269,-7.7664,0.0],[113.23502,-7.76728,0.0],[113.23465,-7.77147,0.0],[113.23737,-7.77311,0.0],[113.23589,-7.77822,0.0],[113.23467,-7.77809,0.0],[113.23395,-7.77984,0.0],[113.23734,-7.78164,0.0],[113.2354,-7.78793,0.0],[113.2372,-7.78923,0.0],[113.23852,-7.79365,0.0],[113.24248,-7.79485,0.0],[113.24111,-7.79968,0.0],[113.23903,-7.7976,0.0],[113.23582,-7.79758,0.0],[113.23504,-7.80401,0.0],[113.23679,-7.80623,0.0],[113.23707,-7.80824,0.0],[113.23351,-7.80751,0.0],[113.23312,-7.80396,0.0],[113.2263,-7.80139,0.0]]]}},{"type":"Feature","properties":{"kecamatan":"Mayangan","kab_kota":"Kota Probolinggo"},"geometry":{"type":"Polygon","coordinates":[[[113.2331,-7.75264,0.0],[113.23186,-7.756,0.0],[113.23467,-7.75668,0.0],[113.23419,-7.7589,0.0],[113.23527,-7.75928,0.0],[113.23497,-7.76215,0.0],[113.23599,-7.76263,0.0],[113.23489,-7.76715,0.0],[113.22992,-7.7657,0.0],[113.23068,-7.76186,0.0],[113.22979,-7.75963,0.0],[113.22781,-7.75871,0.0],[113.22719,-7.76387,0.0],[113.22543,-7.76441,0.0],[113.22629,-7.75799,0.0],[113.22271,-7.75628,0.0],[113.21863,-7.75633,0.0],[113.21917,-7.75459,0.0],[113.21699,-7.75384,0.0],[113.21829,-7.74528,0.0],[113.21577,-7.74499,0.0],[113.21551,-7.74789,0.0],[113.21392,-7.74774,0.0],[113.21327,-7.75339,0.0],[113.19913,-7.75397,0.0],[113.19937,-7.74493,0.0],[113.19777,-7.74083,0.0],[113.20433,-7.74044,0.0],[113.21229,-7.73688,0.0],[113.21467,-7.73196,0.0],[113.21232,-7.73186,0.0],[113.21248,-7.7277,0.0],[113.21515,-7.72766,0.0],[113.21535,-7.7224,0.0],[113.2176,-7.72243,0.0],[113.21629,-7.73643,0.0],[113.21685,-7.73648,0.0],[113.21687,-7.7339,0.0],[113.21774,-7.72469,0.0],[113.21816,-7.72251,0.0],[113.21789,-7.72699,0.0],[113.21946,-7.7272,0.0],[113.21974,-7.72462,0.0],[113.22059,-7.72467,0.0],[113.22027,-7.72719,0.0],[113.22351,-7.72865,0.0],[113.22501,-7.72515,0.0],[113.22723,-7.72462,0.0],[113.22758,-7.72456,0.0],[113.22796,-7.72469,0.0],[113.22477,-7.72589,0.0],[113.2265,-7.72863,0.0],[113.22522,-7.72818,0.0],[113.22364,-7.73189,0.0],[113.22564,-7.73274,0.0],[113.22899,-7.72502,0.0],[113.22542,-7.73423,0.0],[113.22307,-7.73367,0.0],[113.22528,-7.73806,0.0],[113.23271,-7.7392,0.0],[113.23284,-7.73828,0.0],[113.23708,-7.74029,0.0],[113.23665,-7.74629,0.0],[113.23812,-7.74736,0.0],[113.2331,-7.75264,0.0]]]}}]}