{"type":"FeatureCollection","features":[{"type":"Feature","properties":{"kecamatan":"Sukorejo","kab_kota":"Kota Blitar"},"geometry":{"type":"Polygon","coordinates":[[[112.15931,-8.11415,0.0],[112.15809,-8.1195,0.0],[112.15601,-8.11987,0.0],[112.1504,-8.11906,0.0],[112.14761,-8.12074,0.0],[112.14378,-8.11989,0.0],[112.14412,-8.11831,0.0],[112.14222,-8.11778,0.0],[112.14335,-8.11357,0.0],[112.14566,-8.11378,0.0],[112.14605,-8.11089,0.0],[112.14737,-8.11098,0.0],[112.14756,-8.10947,0.0],[112.1439,-8.11134,0.0],[112.14504,-8.10802,0.0],[112.14364,-8.10756,0.0],[112.14252,-8.11039,0.0],[112.14087,-8.1112,0.0],[112.13594,-8.10904,0.0],[112.13584,-8.10674,0.0],[112.13702,-8.10691,0.0],[112.13833,-8.10297,0.0],[112.13989,-8.1031,0.0],[112.1401,-8.10096,0.0],[112.1416,-8.09994,0.0],[112.1394,-8.09883,0.0],[112.14023,-8.09617,0.0],[112.13206,-8.09108,0.0],[112.13366,-8.08725,0.0],[112.13334,-8.08431,0.0],[112.14253,-8.07732,0.0],[112.14704,-8.07692,0.0],[112.14754,-8.08011,0.0],[112.15159,-8.08152,0.0],[112.15142,-8.08254,0.0],[112.1576,-8.0832,0.0],[112.15598,-8.08901,0.0],[112.16022,-8.09006,0.0],[112.1583,-8.09678,0.0],[112.16,-8.09621,0.0],[112.16114,-8.09721,0.0],[112.15819,-8.10619,0.0],[112.16235,-8.10725,0.0],[112.16256,-8.10985,0.0],[112.16147,-8.1143,0.0],[112.15931,-8.11415,0.0]]]}},{"type":"Feature","properties":{"kecamatan":"Sananwetan","kab_kota":"Kota Blitar"},"geometry":{"type":"MultiPolygon","coordinates":[[[[112.15971,-8.13663,0.0],[112.15967,-8.13662,0.0],[112.15973,-8.13657,0.0],[112.15971,-8.13663,0.0]]],[[[112.16906,-8.1215,0.0],[112.17025,-8.12568,0.0],[112.16766,-8.13137,0.0],[112.16362,-8.13305,0.0],[112.16356,-8.13421,0.0],[112.16032,-8.13422,0.0],[112.16016,-8.13572,0.0],[112.15645,-8.13487,0.0],[112.15961,-8.12664,0.0],[112.15771,-8.12589,0.0],[112.15655,-8.12805,0.0],[112.14898,-8.12757,0.0],[112.15092,-8.12241,0.0],[112.14761,-8.12074,0.0],[112.1504,-8.11906,0.0],[112.15809,-8.1195,0.0],[112.15855,-8.11574,0.0],[112.15931,-8.11415,0.0],[112.16147,-8.1143,0.0],[112.16227,-8.10766,0.0],[112.16429,-8.10688,0.0],[112.1642,-8.10537,0.0],[112.16515,-8.10451,0.0],[112.16762,-8.10579,0.0],[112.1692,-8.10341,0.0],[112.17152,-8.10398,0.0],[112.17354,-8.09527,0.0],[112.17208,-8.09581,0.0],[112.1754,-8.08488,0.0],[112.18299,-8.07771,0.0],[112.18726,-8.0789,0.0],[112.1882,-8.07506,0.0],[112.19159,-8.07593,0.0],[112.19257,-8.07262,0.0],[112.19445,-8.07246,0.0],[112.19505,-8.07516,0.0],[112.19233,-8.07676,0.0],[112.19308,-8.08068,0.0],[112.19085,-8.08533,0.0],[112.19558,-8.08778,0.0],[112.19557,-8.0907,0.0],[112.20051,-8.09282,0.0],[112.19753,-8.09375,0.0],[112.19378,-8.10064,0.0],[112.193,-8.0997,0.0],[112.19047,-8.10293,0.0],[112.18453,-8.10471,0.0],[112.18294,-8.11035,0.0],[112.18085,-8.11026,0.0],[112.18045,-8.1123,0.0],[112.17759,-8.115,0.0],[112.1761,-8.12037,0.0],[112.17176,-8.11799,0.0],[112.16906,-8.1215,0.0]]]]}},{"type":"Feature","properties":{"kecamatan":"Kepanjenkidul","kab_kota":"Kota Blitar"},"geometry":{"type":"Polygon","coordinates":[[[112.17354,-8.09527,0.0],[112.17146,-8.10408,0.0],[112.1692,-8.10341,0.0],[112.16762,-8.10579,0.0],[112.16515,-8.10451,0.0],[112.1636,-8.10624,0.0],[112.16429,-8.10688,0.0],[112.16243,-8.10753,0.0],[112.15819,-8.10619,0.0],[112.16114,-8.09721,0.0],[112.16,-8.09621,0.0],[112.1583,-8.09678,0.0],[112.16025,-8.09013,0.0],[112.15637,-8.08949,0.0],[112.1565,-8.08698,0.0],[112.16205,-8.08436,0.0],[112.16511,-8.07608,0.0],[112.16641,-8.07614,0.0],[112.16695,-8.07383,0.0],[112.16821,-8.07381,0.0],[112.17244,-8.05784,0.0],[112.18107,-8.0609,0.0],[112.18217,-8.05733,0.0],[112.18628,-8.05608,0.0],[112.18898,-8.05811,0.0],[112.18729,-8.06545,0.0],[112.18891,-8.06592,0.0],[112.19095,-8.06354,0.0],[112.19474,-8.06531,0.0],[112.19838,-8.06525,0.0],[112.19865,-8.06645,0.0],[112.19502,-8.07228,0.0],[112.19257,-8.07262,0.0],[112.19159,-8.07593,0.0],[112.1882,-8.07506,0.0],[112.18726,-8.0789,0.0],[112.18299,-8.07771,0.0],[112.1754,-8.08488,0.0],[112.17208,-8.09581,0.0],[112.17354,-8.09527,0.0]]]}}]}