{"type":"FeatureCollection","features":[{"type":"Feature","properties":{"kecamatan":"Taman","kab_kota":"Kota Madiun"},"geometry":{"type":"MultiPolygon","coordinates":[[[[111.51006,-7.67887,0.0],[111.50874,-7.68051,0.0],[111.5066,-7.67984,0.0],[111.50708,-7.67764,0.0],[111.51006,-7.67887,0.0]]],[[[111.50708,-7.67764,0.0],[111.50328,-7.67553,0.0],[111.50393,-7.67292,0.0],[111.50762,-7.67032,0.0],[111.50609,-7.6698,0.0],[111.50787,-7.66495,0.0],[111.5094,-7.66562,0.0],[111.51179,-7.66157,0.0],[111.51372,-7.66431,0.0],[111.5155,-7.66382,0.0],[111.51513,-7.66681,0.0],[111.51611,-7.66783,0.0],[111.51365,-7.67592,0.0],[111.50789,-7.67518,0.0],[111.50708,-7.67764,0.0]]],[[[111.5339,-7.66025,0.0],[111.53307,-7.66343,0.0],[111.52634,-7.66423,0.0],[111.5205,-7.66203,0.0],[111.51272,-7.66132,0.0],[111.51069,-7.65925,0.0],[111.5098,-7.65489,0.0],[111.51231,-7.65138,0.0],[111.51649,-7.65074,0.0],[111.51853,-7.64823,0.0],[111.51686,-7.63009,0.0],[111.52327,-7.63114,0.0],[111.5234,-7.62935,0.0],[111.52582,-7.62982,0.0],[111.52654,-7.63307,0.0],[111.52799,-7.63321,0.0],[111.52828,-7.63198,0.0],[111.53286,-7.63284,0.0],[111.53427,-7.63009,0.0],[111.53634,-7.62978,0.0],[111.53903,-7.63166,0.0],[111.53781,-7.63597,0.0],[111.53861,-7.63788,0.0],[111.54346,-7.63842,0.0],[111.54462,-7.63484,0.0],[111.55094,-7.63614,0.0],[111.55131,-7.64211,0.0],[111.5498,-7.64507,0.0],[111.5463,-7.64636,0.0],[111.54612,-7.64783,0.0],[111.53971,-7.64638,0.0],[111.53893,-7.64864,0.0],[111.53954,-7.65145,0.0],[111.54294,-7.65269,0.0],[111.54162,-7.65305,0.0],[111.54174,-7.65682,0.0],[111.54424,-7.65907,0.0],[111.54148,-7.65827,0.0],[111.5411,-7.66018,0.0],[111.5339,-7.66025,0.0]]]]}},{"type":"Feature","properties":{"kecamatan":"Kartoharjo","kab_kota":"Kota Madiun"},"geometry":{"type":"Polygon","coordinates":[[[111.55306,-7.61686,0.0],[111.54848,-7.62729,0.0],[111.55134,-7.62806,0.0],[111.55176,-7.62571,0.0],[111.55241,-7.62622,0.0],[111.55195,-7.62883,0.0],[111.55353,-7.63431,0.0],[111.55083,-7.63487,0.0],[111.55094,-7.63614,0.0],[111.54462,-7.63484,0.0],[111.54346,-7.63842,0.0],[111.53813,-7.63765,0.0],[111.53903,-7.63166,0.0],[111.53634,-7.62978,0.0],[111.53427,-7.63009,0.0],[111.53286,-7.63284,0.0],[111.52828,-7.63198,0.0],[111.52799,-7.63321,0.0],[111.52654,-7.63307,0.0],[111.52582,-7.62982,0.0],[111.5234,-7.62935,0.0],[111.52327,-7.63114,0.0],[111.51942,-7.6304,0.0],[111.52028,-7.6237,0.0],[111.52436,-7.62359,0.0],[111.52585,-7.62558,0.0],[111.52666,-7.62474,0.0],[111.52707,-7.61261,0.0],[111.53431,-7.609,0.0],[111.53657,-7.59907,0.0],[111.53889,-7.60118,0.0],[111.54023,-7.59956,0.0],[111.54247,-7.60008,0.0],[111.54406,-7.59747,0.0],[111.54783,-7.59814,0.0],[111.5496,-7.59487,0.0],[111.55112,-7.59484,0.0],[111.55727,-7.597,0.0],[111.55803,-7.59632,0.0],[111.55746,-7.60412,0.0],[111.55901,-7.60507,0.0],[111.55792,-7.60761,0.0],[111.55642,-7.60703,0.0],[111.55444,-7.6119,0.0],[111.55547,-7.61247,0.0],[111.55521,-7.61566,0.0],[111.55306,-7.61686,0.0]]]}},{"type":"Feature","properties":{"kecamatan":"Manguharjo","kab_kota":"Kota Madiun"},"geometry":{"type":"MultiPolygon","coordinates":[[[[111.49975,-7.64604,0.0],[111.50493,-7.64617,0.0],[111.50529,-7.64716,0.0],[111.50384,-7.64997,0.0],[111.50205,-7.64958,0.0],[111.50215,-7.64807,0.0],[111.49873,-7.64747,0.0],[111.49975,-7.64604,0.0]]],[[[111.51686,-7.63009,0.0],[111.51853,-7.64823,0.0],[111.51649,-7.65074,0.0],[111.51231,-7.65138,0.0],[111.51118,-7.64722,0.0],[111.51238,-7.64456,0.0],[111.51178,-7.63652,0.0],[111.51061,-7.63411,0.0],[111.5105,-7.63554,0.0],[111.5085,-7.63599,0.0],[111.50761,-7.64103,0.0],[111.50454,-7.64074,0.0],[111.50324,-7.63931,0.0],[111.50241,-7.64144,0.0],[111.49917,-7.64073,0.0],[111.49845,-7.64543,0.0],[111.49686,-7.6451,0.0],[111.49835,-7.63913,0.0],[111.49569,-7.63771,0.0],[111.49657,-7.63386,0.0],[111.49805,-7.63424,0.0],[111.50043,-7.62636,0.0],[111.49568,-7.6247,0.0],[111.49649,-7.62308,0.0],[111.5005,-7.6234,0.0],[111.50229,-7.6204,0.0],[111.50065,-7.61843,0.0],[111.50114,-7.61284,0.0],[111.50009,-7.60853,0.0],[111.50333,-7.60769,0.0],[111.50376,-7.60628,0.0],[111.50735,-7.60823,0.0],[111.51198,-7.60821,0.0],[111.51393,-7.60635,0.0],[111.51372,-7.60326,0.0],[111.51761,-7.60305,0.0],[111.51819,-7.59987,0.0],[111.5204,-7.59715,0.0],[111.52657,-7.59905,0.0],[111.52788,-7.59823,0.0],[111.53405,-7.59953,0.0],[111.53426,-7.60091,0.0],[111.5324,-7.60103,0.0],[111.53215,-7.60188,0.0],[111.5324,-7.60262,0.0],[111.53628,-7.60036,0.0],[111.53431,-7.609,0.0],[111.52707,-7.61261,0.0],[111.52666,-7.62474,0.0],[111.52585,-7.62558,0.0],[111.52436,-7.62359,0.0],[111.52028,-7.6237,0.0],[111.51942,-7.6304,0.0],[111.51686,-7.63009,0.0]]]]}}]}