{"type":"FeatureCollection","features":[{"type":"Feature","properties":{"kecamatan":"Mojoroto","kab_kota":"Kota Kediri"},"geometry":{"type":"Polygon","coordinates":[[[111.99299,-7.83832,0.0],[111.98716,-7.83963,0.0],[111.98354,-7.83729,0.0],[111.98464,-7.83309,0.0],[111.98281,-7.83248,0.0],[111.98393,-7.82625,0.0],[111.97997,-7.82781,0.0],[111.97793,-7.82701,0.0],[111.97799,-7.8284,0.0],[111.97658,-7.82866,0.0],[111.9745,-7.82516,0.0],[111.97291,-7.82508,0.0],[111.97304,-7.82307,0.0],[111.97176,-7.82436,0.0],[111.96747,-7.82483,0.0],[111.96714,-7.82327,0.0],[111.96474,-7.82421,0.0],[111.95809,-7.82286,0.0],[111.95783,-7.81888,0.0],[111.95491,-7.81485,0.0],[111.95484,-7.80744,0.0],[111.9569,-7.80572,0.0],[111.95949,-7.80588,0.0],[111.9628,-7.80293,0.0],[111.96661,-7.79595,0.0],[111.97397,-7.79546,0.0],[111.97415,-7.79253,0.0],[111.97794,-7.79468,0.0],[111.97952,-7.79337,0.0],[111.9813,-7.79378,0.0],[111.98039,-7.79262,0.0],[111.9832,-7.78213,0.0],[111.99266,-7.78406,0.0],[111.99292,-7.78036,0.0],[111.99169,-7.77995,0.0],[111.99238,-7.77694,0.0],[111.99426,-7.7778,0.0],[111.99535,-7.77595,0.0],[111.99707,-7.77596,0.0],[111.99865,-7.77144,0.0],[112.00549,-7.77319,0.0],[112.00778,-7.77314,0.0],[112.00869,-7.77129,0.0],[112.01021,-7.77216,0.0],[112.00793,-7.78164,0.0],[112.00325,-7.78352,0.0],[112.00176,-7.7867,0.0],[112.00533,-7.79494,0.0],[112.00762,-7.80655,0.0],[112.0073,-7.81527,0.0],[112.00947,-7.82201,0.0],[112.00908,-7.82799,0.0],[112.00709,-7.83301,0.0],[112.008,-7.84035,0.0],[111.99767,-7.83743,0.0],[111.997,-7.83924,0.0],[111.99299,-7.83832,0.0]]]}},{"type":"Feature","properties":{"kecamatan":"Kota","kab_kota":"Kota Kediri"},"geometry":{"type":"Polygon","coordinates":[[[112.02483,-7.8592,0.0],[112.01271,-7.85463,0.0],[112.01192,-7.85677,0.0],[112.01034,-7.85688,0.0],[111.99942,-7.85256,0.0],[111.99785,-7.85088,0.0],[112.00658,-7.84337,0.0],[112.00805,-7.84037,0.0],[112.00709,-7.83301,0.0],[112.00908,-7.82799,0.0],[112.00949,-7.82217,0.0],[112.0073,-7.81527,0.0],[112.00762,-7.80655,0.0],[112.00521,-7.79443,0.0],[112.0031,-7.78987,0.0],[112.00385,-7.78948,0.0],[112.01049,-7.79025,0.0],[112.01064,-7.78938,0.0],[112.01591,-7.79082,0.0],[112.01603,-7.79567,0.0],[112.0174,-7.79853,0.0],[112.0194,-7.79895,0.0],[112.01916,-7.80003,0.0],[112.02475,-7.80088,0.0],[112.02632,-7.79914,0.0],[112.03044,-7.79959,0.0],[112.03186,-7.80127,0.0],[112.02929,-7.80959,0.0],[112.03089,-7.80861,0.0],[112.03769,-7.81056,0.0],[112.03237,-7.82065,0.0],[112.02852,-7.81984,0.0],[112.02522,-7.82383,0.0],[112.02248,-7.82314,0.0],[112.02271,-7.82078,0.0],[112.019,-7.82015,0.0],[112.01659,-7.83137,0.0],[112.01851,-7.83467,0.0],[112.02552,-7.83639,0.0],[112.02177,-7.83732,0.0],[112.02107,-7.83952,0.0],[112.02277,-7.84125,0.0],[112.0305,-7.84325,0.0],[112.03015,-7.84589,0.0],[112.03422,-7.84746,0.0],[112.03318,-7.85037,0.0],[112.03054,-7.85268,0.0],[112.02965,-7.85203,0.0],[112.02936,-7.85601,0.0],[112.02631,-7.8549,0.0],[112.02483,-7.8592,0.0]]]}},{"type":"Feature","properties":{"kecamatan":"Pesantren","kab_kota":"Kota Kediri"},"geometry":{"type":"Polygon","coordinates":[[[112.02936,-7.85601,0.0],[112.02965,-7.85203,0.0],[112.03223,-7.85162,0.0],[112.03422,-7.84746,0.0],[112.03015,-7.84589,0.0],[112.0305,-7.84325,0.0],[112.02189,-7.84083,0.0],[112.02177,-7.83732,0.0],[112.02552,-7.83639,0.0],[112.01721,-7.83389,0.0],[112.01662,-7.83112,0.0],[112.019,-7.82015,0.0],[112.02271,-7.82078,0.0],[112.02248,-7.82314,0.0],[112.02522,-7.82383,0.0],[112.02852,-7.81984,0.0],[112.03237,-7.82065,0.0],[112.03318,-7.8188,0.0],[112.03875,-7.82074,0.0],[112.03928,-7.81928,0.0],[112.0427,-7.82043,0.0],[112.04199,-7.82259,0.0],[112.04338,-7.82336,0.0],[112.04302,-7.82675,0.0],[112.05001,-7.83024,0.0],[112.05175,-7.82947,0.0],[112.0558,-7.83152,0.0],[112.05423,-7.83355,0.0],[112.05587,-7.83437,0.0],[112.05779,-7.83155,0.0],[112.06697,-7.83589,0.0],[112.06821,-7.8324,0.0],[112.06931,-7.83272,0.0],[112.07126,-7.82953,0.0],[112.07427,-7.83209,0.0],[112.07695,-7.83219,0.0],[112.07572,-7.83742,0.0],[112.07844,-7.8405,0.0],[112.07853,-7.84234,0.0],[112.08241,-7.84309,0.0],[112.07993,-7.84684,0.0],[112.07886,-7.84649,0.0],[112.07755,-7.84961,0.0],[112.07282,-7.84746,0.0],[112.07231,-7.84526,0.0],[112.06927,-7.84396,0.0],[112.06734,-7.85033,0.0],[112.0689,-7.85156,0.0],[112.06741,-7.85446,0.0],[112.06607,-7.85363,0.0],[112.0658,-7.85447,0.0],[112.06647,-7.85788,0.0],[112.07121,-7.8617,0.0],[112.07034,-7.86482,0.0],[112.07188,-7.87228,0.0],[112.07487,-7.87401,0.0],[112.07428,-7.8758,0.0],[112.07207,-7.87508,0.0],[112.07164,-7.87624,0.0],[112.06945,-7.87501,0.0],[112.06674,-7.8681,0.0],[112.05781,-7.86432,0.0],[112.05667,-7.86523,0.0],[112.05309,-7.86376,0.0],[112.05251,-7.86563,0.0],[112.05131,-7.86515,0.0],[112.04828,-7.87281,0.0],[112.04547,-7.87269,0.0],[112.04239,-7.87005,0.0],[112.03874,-7.87053,0.0],[112.03705,-7.86814,0.0],[112.03063,-7.86741,0.0],[112.02377,-7.86225,0.0],[112.02631,-7.8549,0.0],[112.02936,-7.85601,0.0]]]}}]}